<?xml version="1.0" encoding="UTF-8"?>
<gpx version="1.1" creator="Apple Health Export" xmlns="http://www.topografix.com/GPX/1/1" xmlns:xsi="http://www.w3.org/2001/XMLSchema-instance" xsi:schemaLocation="http://www.topografix.com/GPX/1/1 http://www.topografix.com/GPX/1/1/gpx.xsd">
  <metadata>
    <time>2026-01-11T07:57:39Z</time>
  </metadata>
  <trk>
    <name>Route 2025-02-25 7:15pm</name>
    <trkseg>
      <trkpt lon="-117.331329" lat="33.979429"><ele>318.486148</ele><time>2025-02-26T03:10:04Z</time><extensions><speed>0.054708</speed><course>208.965546</course><hAcc>6.111692</hAcc><vAcc>2.668390</vAcc></extensions></trkpt>
      <trkpt lon="-117.331336" lat="33.979421"><ele>318.506607</ele><time>2025-02-26T03:10:05Z</time><extensions><speed>0.052641</speed><course>208.301975</course><hAcc>5.346600</hAcc><vAcc>2.347997</vAcc></extensions></trkpt>
      <trkpt lon="-117.331341" lat="33.979415"><ele>318.522130</ele><time>2025-02-26T03:10:06Z</time><extensions><speed>0.051457</speed><course>206.965784</course><hAcc>4.822970</hAcc><vAcc>2.066476</vAcc></extensions></trkpt>
      <trkpt lon="-117.331343" lat="33.979412"><ele>318.537203</ele><time>2025-02-26T03:10:07Z</time><extensions><speed>0.059407</speed><course>206.220560</course><hAcc>4.410962</hAcc><vAcc>1.819534</vAcc></extensions></trkpt>
      <trkpt lon="-117.331345" lat="33.979410"><ele>318.551722</ele><time>2025-02-26T03:10:08Z</time><extensions><speed>0.079799</speed><course>205.971969</course><hAcc>4.077644</hAcc><vAcc>1.604551</vAcc></extensions></trkpt>
      <trkpt lon="-117.331347" lat="33.979409"><ele>318.565885</ele><time>2025-02-26T03:10:09Z</time><extensions><speed>0.086069</speed><course>205.503153</course><hAcc>3.780696</hAcc><vAcc>1.420466</vAcc></extensions></trkpt>
      <trkpt lon="-117.331347" lat="33.979408"><ele>318.578896</ele><time>2025-02-26T03:10:10Z</time><extensions><speed>0.090662</speed><course>206.336107</course><hAcc>3.514447</hAcc><vAcc>1.267389</vAcc></extensions></trkpt>
      <trkpt lon="-117.331348" lat="33.979408"><ele>318.599033</ele><time>2025-02-26T03:10:12Z</time><extensions><speed>0.075950</speed><course>208.813455</course><hAcc>3.236964</hAcc><vAcc>1.066965</vAcc></extensions></trkpt>
      <trkpt lon="-117.331347" lat="33.979408"><ele>318.609270</ele><time>2025-02-26T03:10:13Z</time><extensions><speed>0.053105</speed><course>211.408428</course><hAcc>3.043510</hAcc><vAcc>0.978024</vAcc></extensions></trkpt>
      <trkpt lon="-117.331347" lat="33.979409"><ele>318.617445</ele><time>2025-02-26T03:10:14Z</time><extensions><speed>0.044086</speed><course>213.820226</course><hAcc>2.871601</hAcc><vAcc>0.910706</vAcc></extensions></trkpt>
      <trkpt lon="-117.331346" lat="33.979409"><ele>318.623985</ele><time>2025-02-26T03:10:15Z</time><extensions><speed>0.027949</speed><course>215.798875</course><hAcc>2.721247</hAcc><vAcc>0.861510</vAcc></extensions></trkpt>
      <trkpt lon="-117.331346" lat="33.979410"><ele>318.628688</ele><time>2025-02-26T03:10:16Z</time><extensions><speed>0.016195</speed><course>218.503302</course><hAcc>2.590649</hAcc><vAcc>0.826838</vAcc></extensions></trkpt>
      <trkpt lon="-117.331345" lat="33.979410"><ele>318.631246</ele><time>2025-02-26T03:10:17Z</time><extensions><speed>0.005861</speed><course>226.999166</course><hAcc>2.478464</hAcc><vAcc>0.803274</vAcc></extensions></trkpt>
      <trkpt lon="-117.331345" lat="33.979411"><ele>318.632163</ele><time>2025-02-26T03:10:18Z</time><extensions><speed>0.002594</speed><course>13.709507</course><hAcc>2.380977</hAcc><vAcc>0.787813</vAcc></extensions></trkpt>
      <trkpt lon="-117.331343" lat="33.979411"><ele>318.631374</ele><time>2025-02-26T03:10:19Z</time><extensions><speed>0.011856</speed><course>36.181316</course><hAcc>2.290361</hAcc><vAcc>0.777996</vAcc></extensions></trkpt>
      <trkpt lon="-117.331342" lat="33.979411"><ele>318.629529</ele><time>2025-02-26T03:10:20Z</time><extensions><speed>0.021882</speed><course>43.649022</course><hAcc>2.208476</hAcc><vAcc>0.771934</vAcc></extensions></trkpt>
      <trkpt lon="-117.331341" lat="33.979412"><ele>318.625360</ele><time>2025-02-26T03:10:21Z</time><extensions><speed>0.029818</speed><course>46.604098</course><hAcc>2.137650</hAcc><vAcc>0.768251</vAcc></extensions></trkpt>
      <trkpt lon="-117.331340" lat="33.979412"><ele>318.619967</ele><time>2025-02-26T03:10:22Z</time><extensions><speed>0.035775</speed><course>49.322176</course><hAcc>2.077397</hAcc><vAcc>0.765997</vAcc></extensions></trkpt>
      <trkpt lon="-117.331339" lat="33.979413"><ele>318.613547</ele><time>2025-02-26T03:10:23Z</time><extensions><speed>0.037656</speed><course>51.885758</course><hAcc>2.027097</hAcc><vAcc>0.764552</vAcc></extensions></trkpt>
      <trkpt lon="-117.331338" lat="33.979413"><ele>318.606302</ele><time>2025-02-26T03:10:24Z</time><extensions><speed>0.044658</speed><course>54.579860</course><hAcc>1.980984</hAcc><vAcc>0.763532</vAcc></extensions></trkpt>
      <trkpt lon="-117.331338" lat="33.979414"><ele>318.598425</ele><time>2025-02-26T03:10:25Z</time><extensions><speed>0.043352</speed><course>57.814232</course><hAcc>1.944889</hAcc><vAcc>0.762717</vAcc></extensions></trkpt>
      <trkpt lon="-117.331337" lat="33.979414"><ele>318.590106</ele><time>2025-02-26T03:10:26Z</time><extensions><speed>0.061200</speed><course>61.165147</course><hAcc>1.902400</hAcc><vAcc>0.761992</vAcc></extensions></trkpt>
      <trkpt lon="-117.331336" lat="33.979414"><ele>318.581539</ele><time>2025-02-26T03:10:27Z</time><extensions><speed>0.070436</speed><course>64.124956</course><hAcc>1.867277</hAcc><vAcc>0.761308</vAcc></extensions></trkpt>
      <trkpt lon="-117.331335" lat="33.979415"><ele>318.572913</ele><time>2025-02-26T03:10:28Z</time><extensions><speed>0.060335</speed><course>66.461318</course><hAcc>1.845170</hAcc><vAcc>0.760654</vAcc></extensions></trkpt>
      <trkpt lon="-117.331327" lat="33.979417"><ele>318.574398</ele><time>2025-02-26T03:10:29Z</time><extensions><speed>0.114314</speed><course>68.938541</course><hAcc>1.806180</hAcc><vAcc>0.760034</vAcc></extensions></trkpt>
      <trkpt lon="-117.331321" lat="33.979420"><ele>318.571988</ele><time>2025-02-26T03:10:30Z</time><extensions><speed>0.187127</speed><course>66.138297</course><hAcc>1.771675</hAcc><vAcc>0.759460</vAcc></extensions></trkpt>
      <trkpt lon="-117.331316" lat="33.979423"><ele>318.577008</ele><time>2025-02-26T03:10:31Z</time><extensions><speed>0.284830</speed><course>62.247883</course><hAcc>1.736689</hAcc><vAcc>0.758942</vAcc></extensions></trkpt>
      <trkpt lon="-117.331311" lat="33.979426"><ele>318.584900</ele><time>2025-02-26T03:10:32Z</time><extensions><speed>0.316149</speed><course>59.865309</course><hAcc>1.712332</hAcc><vAcc>0.758488</vAcc></extensions></trkpt>
      <trkpt lon="-117.331305" lat="33.979430"><ele>318.593739</ele><time>2025-02-26T03:10:33Z</time><extensions><speed>0.359979</speed><course>58.717886</course><hAcc>1.686987</hAcc><vAcc>0.758100</vAcc></extensions></trkpt>
      <trkpt lon="-117.331300" lat="33.979433"><ele>318.605254</ele><time>2025-02-26T03:10:34Z</time><extensions><speed>0.328631</speed><course>58.409433</course><hAcc>1.668506</hAcc><vAcc>0.757778</vAcc></extensions></trkpt>
      <trkpt lon="-117.331296" lat="33.979435"><ele>318.617686</ele><time>2025-02-26T03:10:35Z</time><extensions><speed>0.273905</speed><course>58.708490</course><hAcc>1.652419</hAcc><vAcc>0.757516</vAcc></extensions></trkpt>
      <trkpt lon="-117.331292" lat="33.979436"><ele>318.632395</ele><time>2025-02-26T03:10:36Z</time><extensions><speed>0.217746</speed><course>59.409671</course><hAcc>1.636759</hAcc><vAcc>0.757310</vAcc></extensions></trkpt>
      <trkpt lon="-117.331288" lat="33.979437"><ele>318.647195</ele><time>2025-02-26T03:10:37Z</time><extensions><speed>0.231556</speed><course>60.036891</course><hAcc>1.618961</hAcc><vAcc>0.757150</vAcc></extensions></trkpt>
      <trkpt lon="-117.331284" lat="33.979438"><ele>318.664259</ele><time>2025-02-26T03:10:38Z</time><extensions><speed>0.312409</speed><course>60.578364</course><hAcc>1.599331</hAcc><vAcc>0.757030</vAcc></extensions></trkpt>
      <trkpt lon="-117.331279" lat="33.979439"><ele>318.685296</ele><time>2025-02-26T03:10:39Z</time><extensions><speed>0.483442</speed><course>60.185760</course><hAcc>1.578323</hAcc><vAcc>0.756942</vAcc></extensions></trkpt>
      <trkpt lon="-117.331274" lat="33.979441"><ele>318.713100</ele><time>2025-02-26T03:10:40Z</time><extensions><speed>0.289924</speed><course>60.542248</course><hAcc>1.587054</hAcc><vAcc>0.756878</vAcc></extensions></trkpt>
      <trkpt lon="-117.331269" lat="33.979442"><ele>318.745914</ele><time>2025-02-26T03:10:41Z</time><extensions><speed>0.693783</speed><course>63.475360</course><hAcc>1.552557</hAcc><vAcc>0.756834</vAcc></extensions></trkpt>
      <trkpt lon="-117.331263" lat="33.979444"><ele>318.776108</ele><time>2025-02-26T03:10:42Z</time><extensions><speed>0.365864</speed><course>69.337898</course><hAcc>1.591716</hAcc><vAcc>0.756803</vAcc></extensions></trkpt>
      <trkpt lon="-117.331258" lat="33.979446"><ele>318.804391</ele><time>2025-02-26T03:10:43Z</time><extensions><speed>0.526388</speed><course>76.776337</course><hAcc>1.577388</hAcc><vAcc>0.757007</vAcc></extensions></trkpt>
      <trkpt lon="-117.331253" lat="33.979447"><ele>318.839484</ele><time>2025-02-26T03:10:44Z</time><extensions><speed>0.367082</speed><course>83.071837</course><hAcc>1.593953</hAcc><vAcc>0.757507</vAcc></extensions></trkpt>
      <trkpt lon="-117.331249" lat="33.979448"><ele>318.880302</ele><time>2025-02-26T03:10:45Z</time><extensions><speed>0.459060</speed><course>87.861131</course><hAcc>1.584691</hAcc><vAcc>0.758298</vAcc></extensions></trkpt>
      <trkpt lon="-117.331245" lat="33.979448"><ele>318.927563</ele><time>2025-02-26T03:10:46Z</time><extensions><speed>0.114825</speed><course>90.451269</course><hAcc>1.641189</hAcc><vAcc>0.759272</vAcc></extensions></trkpt>
      <trkpt lon="-117.331244" lat="33.979449"><ele>318.973939</ele><time>2025-02-26T03:10:47Z</time><extensions><speed>0.088813</speed><course>92.061475</course><hAcc>1.639938</hAcc><vAcc>0.760366</vAcc></extensions></trkpt>
      <trkpt lon="-117.331242" lat="33.979449"><ele>319.022198</ele><time>2025-02-26T03:10:48Z</time><extensions><speed>0.214358</speed><course>89.733798</course><hAcc>1.613627</hAcc><vAcc>0.761692</vAcc></extensions></trkpt>
      <trkpt lon="-117.331239" lat="33.979449"><ele>319.073486</ele><time>2025-02-26T03:10:49Z</time><extensions><speed>0.168807</speed><course>82.695258</course><hAcc>1.633263</hAcc><vAcc>0.763078</vAcc></extensions></trkpt>
      <trkpt lon="-117.331237" lat="33.979449"><ele>319.125547</ele><time>2025-02-26T03:10:50Z</time><extensions><speed>0.233317</speed><course>67.281461</course><hAcc>1.637875</hAcc><vAcc>0.765021</vAcc></extensions></trkpt>
      <trkpt lon="-117.331234" lat="33.979451"><ele>319.177858</ele><time>2025-02-26T03:10:51Z</time><extensions><speed>0.303817</speed><course>48.214440</course><hAcc>1.669144</hAcc><vAcc>0.767614</vAcc></extensions></trkpt>
      <trkpt lon="-117.331231" lat="33.979454"><ele>319.229795</ele><time>2025-02-26T03:10:52Z</time><extensions><speed>0.694283</speed><course>36.588658</course><hAcc>1.707871</hAcc><vAcc>0.770748</vAcc></extensions></trkpt>
      <trkpt lon="-117.331228" lat="33.979457"><ele>319.280773</ele><time>2025-02-26T03:10:53Z</time><extensions><speed>0.137753</speed><course>40.137347</course><hAcc>1.771079</hAcc><vAcc>0.774387</vAcc></extensions></trkpt>
      <trkpt lon="-117.331226" lat="33.979458"><ele>319.325702</ele><time>2025-02-26T03:10:54Z</time><extensions><speed>0.233495</speed><course>50.154274</course><hAcc>1.729992</hAcc><vAcc>0.778426</vAcc></extensions></trkpt>
      <trkpt lon="-117.331224" lat="33.979459"><ele>319.366941</ele><time>2025-02-26T03:10:55Z</time><extensions><speed>0.252193</speed><course>61.388096</course><hAcc>1.724306</hAcc><vAcc>0.782119</vAcc></extensions></trkpt>
      <trkpt lon="-117.331221" lat="33.979459"><ele>319.403889</ele><time>2025-02-26T03:10:56Z</time><extensions><speed>0.207128</speed><course>76.920353</course><hAcc>1.743458</hAcc><vAcc>0.785205</vAcc></extensions></trkpt>
      <trkpt lon="-117.331219" lat="33.979458"><ele>319.437247</ele><time>2025-02-26T03:10:57Z</time><extensions><speed>0.223406</speed><course>94.826277</course><hAcc>1.720245</hAcc><vAcc>0.788880</vAcc></extensions></trkpt>
      <trkpt lon="-117.331217" lat="33.979457"><ele>319.466375</ele><time>2025-02-26T03:10:58Z</time><extensions><speed>0.193455</speed><course>110.807755</course><hAcc>1.698862</hAcc><vAcc>0.793054</vAcc></extensions></trkpt>
      <trkpt lon="-117.331215" lat="33.979456"><ele>319.491003</ele><time>2025-02-26T03:10:59Z</time><extensions><speed>0.138277</speed><course>124.349770</course><hAcc>1.686483</hAcc><vAcc>0.797653</vAcc></extensions></trkpt>
      <trkpt lon="-117.331213" lat="33.979454"><ele>319.522523</ele><time>2025-02-26T03:11:00Z</time><extensions><speed>0.042232</speed><course>137.241660</course><hAcc>1.690044</hAcc><vAcc>0.801708</vAcc></extensions></trkpt>
      <trkpt lon="-117.331212" lat="33.979453"><ele>319.555461</ele><time>2025-02-26T03:11:01Z</time><extensions><speed>0.040842</speed><course>146.897981</course><hAcc>1.660332</hAcc><vAcc>0.804373</vAcc></extensions></trkpt>
      <trkpt lon="-117.331210" lat="33.979452"><ele>319.585380</ele><time>2025-02-26T03:11:02Z</time><extensions><speed>0.048346</speed><course>151.660167</course><hAcc>1.632676</hAcc><vAcc>0.807004</vAcc></extensions></trkpt>
      <trkpt lon="-117.331209" lat="33.979450"><ele>319.613455</ele><time>2025-02-26T03:11:03Z</time><extensions><speed>0.058085</speed><course>154.558238</course><hAcc>1.610918</hAcc><vAcc>0.809266</vAcc></extensions></trkpt>
      <trkpt lon="-117.331208" lat="33.979449"><ele>319.640186</ele><time>2025-02-26T03:11:04Z</time><extensions><speed>0.080199</speed><course>154.641810</course><hAcc>1.589681</hAcc><vAcc>0.811562</vAcc></extensions></trkpt>
      <trkpt lon="-117.331205" lat="33.979447"><ele>319.673856</ele><time>2025-02-26T03:11:05Z</time><extensions><speed>0.302337</speed><course>150.738582</course><hAcc>1.541948</hAcc><vAcc>0.813908</vAcc></extensions></trkpt>
      <trkpt lon="-117.331203" lat="33.979444"><ele>319.710758</ele><time>2025-02-26T03:11:06Z</time><extensions><speed>0.089503</speed><course>146.378759</course><hAcc>1.588370</hAcc><vAcc>0.815340</vAcc></extensions></trkpt>
      <trkpt lon="-117.331201" lat="33.979443"><ele>319.753007</ele><time>2025-02-26T03:11:07Z</time><extensions><speed>0.075477</speed><course>141.300353</course><hAcc>1.588085</hAcc><vAcc>0.816379</vAcc></extensions></trkpt>
      <trkpt lon="-117.331200" lat="33.979442"><ele>319.796073</ele><time>2025-02-26T03:11:08Z</time><extensions><speed>0.046603</speed><course>137.195263</course><hAcc>1.588403</hAcc><vAcc>0.818388</vAcc></extensions></trkpt>
      <trkpt lon="-117.331198" lat="33.979441"><ele>319.840975</ele><time>2025-02-26T03:11:09Z</time><extensions><speed>0.117227</speed><course>133.521371</course><hAcc>1.574235</hAcc><vAcc>0.821196</vAcc></extensions></trkpt>
      <trkpt lon="-117.331195" lat="33.979439"><ele>319.887456</ele><time>2025-02-26T03:11:10Z</time><extensions><speed>0.494939</speed><course>131.538913</course><hAcc>1.534774</hAcc><vAcc>0.825129</vAcc></extensions></trkpt>
      <trkpt lon="-117.331190" lat="33.979435"><ele>319.939839</ele><time>2025-02-26T03:11:11Z</time><extensions><speed>0.551853</speed><course>130.184652</course><hAcc>1.574814</hAcc><vAcc>0.829859</vAcc></extensions></trkpt>
      <trkpt lon="-117.331186" lat="33.979433"><ele>319.996431</ele><time>2025-02-26T03:11:12Z</time><extensions><speed>0.130648</speed><course>128.577818</course><hAcc>1.660938</hAcc><vAcc>0.834962</vAcc></extensions></trkpt>
      <trkpt lon="-117.331184" lat="33.979432"><ele>320.051045</ele><time>2025-02-26T03:11:13Z</time><extensions><speed>0.096964</speed><course>126.371172</course><hAcc>1.662443</hAcc><vAcc>0.841013</vAcc></extensions></trkpt>
      <trkpt lon="-117.331182" lat="33.979431"><ele>320.103747</ele><time>2025-02-26T03:11:14Z</time><extensions><speed>0.109309</speed><course>124.209918</course><hAcc>1.655337</hAcc><vAcc>0.847400</vAcc></extensions></trkpt>
      <trkpt lon="-117.331180" lat="33.979430"><ele>320.159917</ele><time>2025-02-26T03:11:15Z</time><extensions><speed>0.296005</speed><course>122.373146</course><hAcc>1.642078</hAcc><vAcc>0.853747</vAcc></extensions></trkpt>
      <trkpt lon="-117.331178" lat="33.979429"><ele>320.213120</ele><time>2025-02-26T03:11:16Z</time><extensions><speed>0.102225</speed><course>120.460142</course><hAcc>1.690038</hAcc><vAcc>0.860596</vAcc></extensions></trkpt>
      <trkpt lon="-117.331177" lat="33.979429"><ele>320.266484</ele><time>2025-02-26T03:11:17Z</time><extensions><speed>0.190396</speed><course>118.074891</course><hAcc>1.694594</hAcc><vAcc>0.867354</vAcc></extensions></trkpt>
      <trkpt lon="-117.331176" lat="33.979429"><ele>320.319642</ele><time>2025-02-26T03:11:18Z</time><extensions><speed>0.038920</speed><course>115.578455</course><hAcc>1.746326</hAcc><vAcc>0.873717</vAcc></extensions></trkpt>
      <trkpt lon="-117.331176" lat="33.979429"><ele>320.378762</ele><time>2025-02-26T03:11:19Z</time><extensions><speed>0.041884</speed><course>111.489720</course><hAcc>1.752082</hAcc><vAcc>0.879123</vAcc></extensions></trkpt>
      <trkpt lon="-117.331176" lat="33.979429"><ele>320.439800</ele><time>2025-02-26T03:11:20Z</time><extensions><speed>0.036260</speed><course>105.709609</course><hAcc>1.764605</hAcc><vAcc>0.884119</vAcc></extensions></trkpt>
      <trkpt lon="-117.331176" lat="33.979429"><ele>320.505018</ele><time>2025-02-26T03:11:21Z</time><extensions><speed>0.067109</speed><course>95.722900</course><hAcc>1.770487</hAcc><vAcc>0.888133</vAcc></extensions></trkpt>
      <trkpt lon="-117.331175" lat="33.979429"><ele>320.565872</ele><time>2025-02-26T03:11:22Z</time><extensions><speed>0.081620</speed><course>76.008323</course><hAcc>1.805744</hAcc><vAcc>0.891100</vAcc></extensions></trkpt>
      <trkpt lon="-117.331175" lat="33.979429"><ele>320.622431</ele><time>2025-02-26T03:11:23Z</time><extensions><speed>0.059096</speed><course>14.780967</course><hAcc>1.918115</hAcc><vAcc>0.893017</vAcc></extensions></trkpt>
      <trkpt lon="-117.331175" lat="33.979430"><ele>320.673587</ele><time>2025-02-26T03:11:24Z</time><extensions><speed>0.119807</speed><course>323.762233</course><hAcc>2.038110</hAcc><vAcc>0.893997</vAcc></extensions></trkpt>
      <trkpt lon="-117.331177" lat="33.979431"><ele>320.724605</ele><time>2025-02-26T03:11:25Z</time><extensions><speed>0.201040</speed><course>310.435035</course><hAcc>2.133057</hAcc><vAcc>0.894617</vAcc></extensions></trkpt>
      <trkpt lon="-117.331178" lat="33.979432"><ele>320.778684</ele><time>2025-02-26T03:11:26Z</time><extensions><speed>0.244630</speed><course>304.856138</course><hAcc>2.213688</hAcc><vAcc>0.894990</vAcc></extensions></trkpt>
      <trkpt lon="-117.331180" lat="33.979434"><ele>320.832117</ele><time>2025-02-26T03:11:27Z</time><extensions><speed>0.238366</speed><course>300.032105</course><hAcc>2.277818</hAcc><vAcc>0.895385</vAcc></extensions></trkpt>
      <trkpt lon="-117.331182" lat="33.979435"><ele>320.865859</ele><time>2025-02-26T03:11:28Z</time><extensions><speed>0.223301</speed><course>294.071885</course><hAcc>2.311038</hAcc><vAcc>0.895405</vAcc></extensions></trkpt>
      <trkpt lon="-117.331184" lat="33.979436"><ele>320.875480</ele><time>2025-02-26T03:11:29Z</time><extensions><speed>0.164566</speed><course>281.705244</course><hAcc>2.335232</hAcc><vAcc>0.895531</vAcc></extensions></trkpt>
      <trkpt lon="-117.331185" lat="33.979435"><ele>320.870822</ele><time>2025-02-26T03:11:30Z</time><extensions><speed>0.085869</speed><course>208.665256</course><hAcc>2.351417</hAcc><vAcc>0.896474</vAcc></extensions></trkpt>
      <trkpt lon="-117.331184" lat="33.979434"><ele>320.845066</ele><time>2025-02-26T03:11:31Z</time><extensions><speed>0.361468</speed><course>149.585217</course><hAcc>2.325355</hAcc><vAcc>0.898142</vAcc></extensions></trkpt>
      <trkpt lon="-117.331181" lat="33.979431"><ele>320.809571</ele><time>2025-02-26T03:11:32Z</time><extensions><speed>0.618660</speed><course>135.741720</course><hAcc>2.297028</hAcc><vAcc>0.899972</vAcc></extensions></trkpt>
      <trkpt lon="-117.331175" lat="33.979426"><ele>320.775344</ele><time>2025-02-26T03:11:33Z</time><extensions><speed>0.801440</speed><course>129.755310</course><hAcc>2.274196</hAcc><vAcc>0.901772</vAcc></extensions></trkpt>
      <trkpt lon="-117.331168" lat="33.979422"><ele>320.746795</ele><time>2025-02-26T03:11:34Z</time><extensions><speed>0.912357</speed><course>125.891753</course><hAcc>2.253079</hAcc><vAcc>0.903550</vAcc></extensions></trkpt>
      <trkpt lon="-117.331160" lat="33.979417"><ele>320.713998</ele><time>2025-02-26T03:11:35Z</time><extensions><speed>0.990289</speed><course>125.828346</course><hAcc>2.236472</hAcc><vAcc>0.905307</vAcc></extensions></trkpt>
      <trkpt lon="-117.331151" lat="33.979411"><ele>320.671689</ele><time>2025-02-26T03:11:36Z</time><extensions><speed>1.049873</speed><course>126.175755</course><hAcc>2.229428</hAcc><vAcc>0.906535</vAcc></extensions></trkpt>
      <trkpt lon="-117.331142" lat="33.979406"><ele>320.636024</ele><time>2025-02-26T03:11:37Z</time><extensions><speed>1.086972</speed><course>126.520352</course><hAcc>2.208785</hAcc><vAcc>0.907527</vAcc></extensions></trkpt>
      <trkpt lon="-117.331132" lat="33.979399"><ele>320.610666</ele><time>2025-02-26T03:11:38Z</time><extensions><speed>1.156015</speed><course>131.912559</course><hAcc>2.180199</hAcc><vAcc>0.908197</vAcc></extensions></trkpt>
      <trkpt lon="-117.331123" lat="33.979392"><ele>320.583862</ele><time>2025-02-26T03:11:39Z</time><extensions><speed>1.169098</speed><course>131.950490</course><hAcc>2.154056</hAcc><vAcc>0.908112</vAcc></extensions></trkpt>
      <trkpt lon="-117.331114" lat="33.979385"><ele>320.565300</ele><time>2025-02-26T03:11:40Z</time><extensions><speed>1.158498</speed><course>132.537055</course><hAcc>2.131445</hAcc><vAcc>0.907060</vAcc></extensions></trkpt>
      <trkpt lon="-117.331104" lat="33.979378"><ele>320.557451</ele><time>2025-02-26T03:11:41Z</time><extensions><speed>1.219101</speed><course>133.984446</course><hAcc>2.110869</hAcc><vAcc>0.904814</vAcc></extensions></trkpt>
      <trkpt lon="-117.331095" lat="33.979370"><ele>320.543210</ele><time>2025-02-26T03:11:42Z</time><extensions><speed>1.280012</speed><course>136.495013</course><hAcc>2.090877</hAcc><vAcc>0.905705</vAcc></extensions></trkpt>
      <trkpt lon="-117.331085" lat="33.979361"><ele>320.529086</ele><time>2025-02-26T03:11:43Z</time><extensions><speed>1.331198</speed><course>137.460413</course><hAcc>2.070093</hAcc><vAcc>0.906477</vAcc></extensions></trkpt>
      <trkpt lon="-117.331075" lat="33.979352"><ele>320.521235</ele><time>2025-02-26T03:11:44Z</time><extensions><speed>1.410434</speed><course>139.780576</course><hAcc>2.047108</hAcc><vAcc>0.908543</vAcc></extensions></trkpt>
      <trkpt lon="-117.331065" lat="33.979342"><ele>320.506875</ele><time>2025-02-26T03:11:45Z</time><extensions><speed>1.485235</speed><course>139.485656</course><hAcc>2.021778</hAcc><vAcc>0.910733</vAcc></extensions></trkpt>
      <trkpt lon="-117.331055" lat="33.979333"><ele>320.500598</ele><time>2025-02-26T03:11:46Z</time><extensions><speed>1.362776</speed><course>135.202716</course><hAcc>1.994365</hAcc><vAcc>0.913267</vAcc></extensions></trkpt>
      <trkpt lon="-117.331044" lat="33.979325"><ele>320.513237</ele><time>2025-02-26T03:11:47Z</time><extensions><speed>1.335510</speed><course>129.841243</course><hAcc>1.963352</hAcc><vAcc>0.916828</vAcc></extensions></trkpt>
      <trkpt lon="-117.331033" lat="33.979318"><ele>320.538861</ele><time>2025-02-26T03:11:48Z</time><extensions><speed>1.280202</speed><course>127.318373</course><hAcc>1.926267</hAcc><vAcc>0.922500</vAcc></extensions></trkpt>
      <trkpt lon="-117.331022" lat="33.979311"><ele>320.578020</ele><time>2025-02-26T03:11:49Z</time><extensions><speed>1.258554</speed><course>123.437053</course><hAcc>1.881702</hAcc><vAcc>0.928316</vAcc></extensions></trkpt>
      <trkpt lon="-117.331011" lat="33.979306"><ele>320.616773</ele><time>2025-02-26T03:11:50Z</time><extensions><speed>1.254515</speed><course>120.117322</course><hAcc>1.832893</hAcc><vAcc>0.934643</vAcc></extensions></trkpt>
      <trkpt lon="-117.330999" lat="33.979300"><ele>320.657827</ele><time>2025-02-26T03:11:51Z</time><extensions><speed>1.267531</speed><course>123.098645</course><hAcc>1.793014</hAcc><vAcc>0.941562</vAcc></extensions></trkpt>
      <trkpt lon="-117.330988" lat="33.979294"><ele>320.725893</ele><time>2025-02-26T03:11:52Z</time><extensions><speed>1.241533</speed><course>125.545498</course><hAcc>1.773101</hAcc><vAcc>0.947839</vAcc></extensions></trkpt>
      <trkpt lon="-117.330977" lat="33.979288"><ele>320.804314</ele><time>2025-02-26T03:11:53Z</time><extensions><speed>1.234347</speed><course>126.835397</course><hAcc>1.733398</hAcc><vAcc>0.953792</vAcc></extensions></trkpt>
      <trkpt lon="-117.330967" lat="33.979282"><ele>320.872708</ele><time>2025-02-26T03:11:54Z</time><extensions><speed>1.199828</speed><course>124.797876</course><hAcc>1.703331</hAcc><vAcc>0.958625</vAcc></extensions></trkpt>
      <trkpt lon="-117.330956" lat="33.979276"><ele>320.945337</ele><time>2025-02-26T03:11:55Z</time><extensions><speed>1.211107</speed><course>118.245352</course><hAcc>1.660859</hAcc><vAcc>0.963710</vAcc></extensions></trkpt>
      <trkpt lon="-117.330944" lat="33.979272"><ele>321.013159</ele><time>2025-02-26T03:11:56Z</time><extensions><speed>1.229113</speed><course>108.291740</course><hAcc>1.625905</hAcc><vAcc>0.965107</vAcc></extensions></trkpt>
      <trkpt lon="-117.330931" lat="33.979270"><ele>321.079405</ele><time>2025-02-26T03:11:57Z</time><extensions><speed>1.266687</speed><course>96.403478</course><hAcc>1.610089</hAcc><vAcc>0.966280</vAcc></extensions></trkpt>
      <trkpt lon="-117.330917" lat="33.979270"><ele>321.139323</ele><time>2025-02-26T03:11:58Z</time><extensions><speed>1.239523</speed><course>86.296376</course><hAcc>1.627383</hAcc><vAcc>0.964954</vAcc></extensions></trkpt>
      <trkpt lon="-117.330904" lat="33.979272"><ele>321.215839</ele><time>2025-02-26T03:11:59Z</time><extensions><speed>1.208421</speed><course>72.806546</course><hAcc>1.587527</hAcc><vAcc>0.964053</vAcc></extensions></trkpt>
      <trkpt lon="-117.330892" lat="33.979276"><ele>321.286476</ele><time>2025-02-26T03:12:00Z</time><extensions><speed>1.237569</speed><course>67.886820</course><hAcc>1.574481</hAcc><vAcc>0.961952</vAcc></extensions></trkpt>
      <trkpt lon="-117.330880" lat="33.979280"><ele>321.352989</ele><time>2025-02-26T03:12:01Z</time><extensions><speed>1.225426</speed><course>64.793772</course><hAcc>1.564216</hAcc><vAcc>0.959201</vAcc></extensions></trkpt>
      <trkpt lon="-117.330868" lat="33.979285"><ele>321.428322</ele><time>2025-02-26T03:12:02Z</time><extensions><speed>1.199140</speed><course>62.729902</course><hAcc>1.549416</hAcc><vAcc>0.956419</vAcc></extensions></trkpt>
      <trkpt lon="-117.330856" lat="33.979291"><ele>321.519411</ele><time>2025-02-26T03:12:03Z</time><extensions><speed>1.267715</speed><course>62.918030</course><hAcc>1.540000</hAcc><vAcc>0.953763</vAcc></extensions></trkpt>
      <trkpt lon="-117.330843" lat="33.979296"><ele>321.616706</ele><time>2025-02-26T03:12:04Z</time><extensions><speed>1.408293</speed><course>64.877528</course><hAcc>1.537015</hAcc><vAcc>0.952108</vAcc></extensions></trkpt>
      <trkpt lon="-117.330829" lat="33.979302"><ele>321.708121</ele><time>2025-02-26T03:12:05Z</time><extensions><speed>1.410926</speed><course>65.538306</course><hAcc>1.534112</hAcc><vAcc>0.951739</vAcc></extensions></trkpt>
      <trkpt lon="-117.330815" lat="33.979307"><ele>321.781267</ele><time>2025-02-26T03:12:06Z</time><extensions><speed>1.429802</speed><course>69.186766</course><hAcc>1.519153</hAcc><vAcc>0.951348</vAcc></extensions></trkpt>
      <trkpt lon="-117.330801" lat="33.979311"><ele>321.852104</ele><time>2025-02-26T03:12:07Z</time><extensions><speed>1.357763</speed><course>72.218920</course><hAcc>1.518856</hAcc><vAcc>0.951026</vAcc></extensions></trkpt>
      <trkpt lon="-117.330787" lat="33.979315"><ele>321.921224</ele><time>2025-02-26T03:12:08Z</time><extensions><speed>1.370193</speed><course>71.599381</course><hAcc>1.506271</hAcc><vAcc>0.951025</vAcc></extensions></trkpt>
      <trkpt lon="-117.330773" lat="33.979319"><ele>321.980973</ele><time>2025-02-26T03:12:09Z</time><extensions><speed>1.288712</speed><course>71.987839</course><hAcc>1.519850</hAcc><vAcc>0.951474</vAcc></extensions></trkpt>
      <trkpt lon="-117.330760" lat="33.979323"><ele>322.029459</ele><time>2025-02-26T03:12:10Z</time><extensions><speed>1.215641</speed><course>69.758657</course><hAcc>1.506052</hAcc><vAcc>0.952519</vAcc></extensions></trkpt>
      <trkpt lon="-117.330748" lat="33.979327"><ele>322.068690</ele><time>2025-02-26T03:12:11Z</time><extensions><speed>1.223059</speed><course>72.251809</course><hAcc>1.507882</hAcc><vAcc>0.953895</vAcc></extensions></trkpt>
      <trkpt lon="-117.330735" lat="33.979330"><ele>322.101852</ele><time>2025-02-26T03:12:12Z</time><extensions><speed>1.269586</speed><course>76.536333</course><hAcc>1.527315</hAcc><vAcc>0.955674</vAcc></extensions></trkpt>
      <trkpt lon="-117.330721" lat="33.979333"><ele>322.132748</ele><time>2025-02-26T03:12:13Z</time><extensions><speed>1.348715</speed><course>75.876387</course><hAcc>1.538206</hAcc><vAcc>0.958014</vAcc></extensions></trkpt>
      <trkpt lon="-117.330707" lat="33.979336"><ele>322.174986</ele><time>2025-02-26T03:12:14Z</time><extensions><speed>1.368215</speed><course>75.548690</course><hAcc>1.556786</hAcc><vAcc>0.959698</vAcc></extensions></trkpt>
      <trkpt lon="-117.330692" lat="33.979339"><ele>322.208764</ele><time>2025-02-26T03:12:15Z</time><extensions><speed>1.385789</speed><course>74.018866</course><hAcc>1.569977</hAcc><vAcc>0.961023</vAcc></extensions></trkpt>
      <trkpt lon="-117.330677" lat="33.979343"><ele>322.227336</ele><time>2025-02-26T03:12:16Z</time><extensions><speed>1.448626</speed><course>71.688924</course><hAcc>1.585064</hAcc><vAcc>0.962148</vAcc></extensions></trkpt>
      <trkpt lon="-117.330662" lat="33.979348"><ele>322.244363</ele><time>2025-02-26T03:12:17Z</time><extensions><speed>1.470968</speed><course>70.353390</course><hAcc>1.597613</hAcc><vAcc>0.962686</vAcc></extensions></trkpt>
      <trkpt lon="-117.330647" lat="33.979352"><ele>322.267993</ele><time>2025-02-26T03:12:18Z</time><extensions><speed>1.464564</speed><course>72.630047</course><hAcc>1.605219</hAcc><vAcc>0.963045</vAcc></extensions></trkpt>
      <trkpt lon="-117.330632" lat="33.979356"><ele>322.283088</ele><time>2025-02-26T03:12:19Z</time><extensions><speed>1.420394</speed><course>78.646928</course><hAcc>1.610932</hAcc><vAcc>0.962943</vAcc></extensions></trkpt>
      <trkpt lon="-117.330617" lat="33.979358"><ele>322.293114</ele><time>2025-02-26T03:12:20Z</time><extensions><speed>1.438541</speed><course>80.771401</course><hAcc>1.615247</hAcc><vAcc>0.962669</vAcc></extensions></trkpt>
      <trkpt lon="-117.330601" lat="33.979360"><ele>322.292656</ele><time>2025-02-26T03:12:21Z</time><extensions><speed>1.430973</speed><course>80.814698</course><hAcc>1.625927</hAcc><vAcc>0.962598</vAcc></extensions></trkpt>
      <trkpt lon="-117.330586" lat="33.979363"><ele>322.289042</ele><time>2025-02-26T03:12:22Z</time><extensions><speed>1.444903</speed><course>78.836671</course><hAcc>1.648575</hAcc><vAcc>0.962231</vAcc></extensions></trkpt>
      <trkpt lon="-117.330571" lat="33.979365"><ele>322.295324</ele><time>2025-02-26T03:12:23Z</time><extensions><speed>1.360396</speed><course>77.649352</course><hAcc>1.649080</hAcc><vAcc>0.961889</vAcc></extensions></trkpt>
      <trkpt lon="-117.330557" lat="33.979368"><ele>322.311170</ele><time>2025-02-26T03:12:24Z</time><extensions><speed>1.338662</speed><course>76.877461</course><hAcc>1.636183</hAcc><vAcc>0.961864</vAcc></extensions></trkpt>
      <trkpt lon="-117.330543" lat="33.979371"><ele>322.330683</ele><time>2025-02-26T03:12:25Z</time><extensions><speed>1.313424</speed><course>77.676849</course><hAcc>1.647021</hAcc><vAcc>0.962090</vAcc></extensions></trkpt>
      <trkpt lon="-117.330529" lat="33.979374"><ele>322.346391</ele><time>2025-02-26T03:12:26Z</time><extensions><speed>1.312368</speed><course>76.871526</course><hAcc>1.663552</hAcc><vAcc>0.962749</vAcc></extensions></trkpt>
      <trkpt lon="-117.330515" lat="33.979376"><ele>322.365766</ele><time>2025-02-26T03:12:27Z</time><extensions><speed>1.262275</speed><course>76.342288</course><hAcc>1.671312</hAcc><vAcc>0.964077</vAcc></extensions></trkpt>
      <trkpt lon="-117.330502" lat="33.979379"><ele>322.376829</ele><time>2025-02-26T03:12:28Z</time><extensions><speed>1.282638</speed><course>78.276080</course><hAcc>1.675567</hAcc><vAcc>0.966200</vAcc></extensions></trkpt>
      <trkpt lon="-117.330488" lat="33.979381"><ele>322.379316</ele><time>2025-02-26T03:12:29Z</time><extensions><speed>1.308921</speed><course>80.351766</course><hAcc>1.683232</hAcc><vAcc>0.968047</vAcc></extensions></trkpt>
      <trkpt lon="-117.330474" lat="33.979383"><ele>322.383223</ele><time>2025-02-26T03:12:30Z</time><extensions><speed>1.325122</speed><course>81.570637</course><hAcc>1.689443</hAcc><vAcc>0.970908</vAcc></extensions></trkpt>
      <trkpt lon="-117.330459" lat="33.979385"><ele>322.396334</ele><time>2025-02-26T03:12:31Z</time><extensions><speed>1.319398</speed><course>81.543629</course><hAcc>1.696056</hAcc><vAcc>0.974801</vAcc></extensions></trkpt>
      <trkpt lon="-117.330445" lat="33.979386"><ele>322.405264</ele><time>2025-02-26T03:12:32Z</time><extensions><speed>1.277403</speed><course>83.152029</course><hAcc>1.696414</hAcc><vAcc>0.978917</vAcc></extensions></trkpt>
      <trkpt lon="-117.330431" lat="33.979387"><ele>322.416025</ele><time>2025-02-26T03:12:33Z</time><extensions><speed>1.320997</speed><course>82.970968</course><hAcc>1.700360</hAcc><vAcc>0.984033</vAcc></extensions></trkpt>
      <trkpt lon="-117.330417" lat="33.979389"><ele>322.413667</ele><time>2025-02-26T03:12:34Z</time><extensions><speed>1.336852</speed><course>82.977913</course><hAcc>1.707001</hAcc><vAcc>0.989167</vAcc></extensions></trkpt>
      <trkpt lon="-117.330403" lat="33.979390"><ele>322.411686</ele><time>2025-02-26T03:12:35Z</time><extensions><speed>1.293717</speed><course>84.516586</course><hAcc>1.714225</hAcc><vAcc>0.995033</vAcc></extensions></trkpt>
      <trkpt lon="-117.330389" lat="33.979391"><ele>322.416574</ele><time>2025-02-26T03:12:36Z</time><extensions><speed>1.240598</speed><course>85.633728</course><hAcc>1.719823</hAcc><vAcc>1.001029</vAcc></extensions></trkpt>
      <trkpt lon="-117.330376" lat="33.979391"><ele>322.411935</ele><time>2025-02-26T03:12:37Z</time><extensions><speed>1.230690</speed><course>86.513337</course><hAcc>1.724075</hAcc><vAcc>1.007225</vAcc></extensions></trkpt>
      <trkpt lon="-117.330362" lat="33.979392"><ele>322.414040</ele><time>2025-02-26T03:12:38Z</time><extensions><speed>1.251031</speed><course>87.437468</course><hAcc>1.727579</hAcc><vAcc>1.013290</vAcc></extensions></trkpt>
      <trkpt lon="-117.330349" lat="33.979392"><ele>322.425718</ele><time>2025-02-26T03:12:39Z</time><extensions><speed>1.246172</speed><course>87.786457</course><hAcc>1.726777</hAcc><vAcc>1.019103</vAcc></extensions></trkpt>
      <trkpt lon="-117.330335" lat="33.979392"><ele>322.448786</ele><time>2025-02-26T03:12:40Z</time><extensions><speed>1.271388</speed><course>88.522976</course><hAcc>1.728063</hAcc><vAcc>1.024503</vAcc></extensions></trkpt>
      <trkpt lon="-117.330321" lat="33.979392"><ele>322.472704</ele><time>2025-02-26T03:12:41Z</time><extensions><speed>1.257339</speed><course>90.775668</course><hAcc>1.730219</hAcc><vAcc>1.030014</vAcc></extensions></trkpt>
      <trkpt lon="-117.330308" lat="33.979392"><ele>322.488778</ele><time>2025-02-26T03:12:42Z</time><extensions><speed>1.261045</speed><course>93.223341</course><hAcc>1.733130</hAcc><vAcc>1.035648</vAcc></extensions></trkpt>
      <trkpt lon="-117.330294" lat="33.979391"><ele>322.502050</ele><time>2025-02-26T03:12:43Z</time><extensions><speed>1.295201</speed><course>95.352688</course><hAcc>1.738926</hAcc><vAcc>1.042162</vAcc></extensions></trkpt>
      <trkpt lon="-117.330280" lat="33.979390"><ele>322.504961</ele><time>2025-02-26T03:12:44Z</time><extensions><speed>1.351688</speed><course>93.512868</course><hAcc>1.747733</hAcc><vAcc>1.049882</vAcc></extensions></trkpt>
      <trkpt lon="-117.330265" lat="33.979389"><ele>322.511978</ele><time>2025-02-26T03:12:45Z</time><extensions><speed>1.329486</speed><course>93.003786</course><hAcc>1.757141</hAcc><vAcc>1.055981</vAcc></extensions></trkpt>
      <trkpt lon="-117.330251" lat="33.979388"><ele>322.535156</ele><time>2025-02-26T03:12:46Z</time><extensions><speed>1.312097</speed><course>94.391723</course><hAcc>1.764210</hAcc><vAcc>1.061546</vAcc></extensions></trkpt>
      <trkpt lon="-117.330237" lat="33.979387"><ele>322.567289</ele><time>2025-02-26T03:12:47Z</time><extensions><speed>1.307017</speed><course>95.868762</course><hAcc>1.773626</hAcc><vAcc>1.067026</vAcc></extensions></trkpt>
      <trkpt lon="-117.330222" lat="33.979386"><ele>322.601890</ele><time>2025-02-26T03:12:48Z</time><extensions><speed>1.362130</speed><course>96.491405</course><hAcc>1.780109</hAcc><vAcc>1.072820</vAcc></extensions></trkpt>
      <trkpt lon="-117.330207" lat="33.979384"><ele>322.638991</ele><time>2025-02-26T03:12:49Z</time><extensions><speed>1.394117</speed><course>97.154200</course><hAcc>1.781540</hAcc><vAcc>1.078305</vAcc></extensions></trkpt>
      <trkpt lon="-117.330192" lat="33.979382"><ele>322.679558</ele><time>2025-02-26T03:12:50Z</time><extensions><speed>1.400099</speed><course>97.413545</course><hAcc>1.784019</hAcc><vAcc>1.083525</vAcc></extensions></trkpt>
      <trkpt lon="-117.330178" lat="33.979381"><ele>322.718400</ele><time>2025-02-26T03:12:51Z</time><extensions><speed>1.346526</speed><course>96.255191</course><hAcc>1.791164</hAcc><vAcc>1.088369</vAcc></extensions></trkpt>
      <trkpt lon="-117.330163" lat="33.979379"><ele>322.742188</ele><time>2025-02-26T03:12:52Z</time><extensions><speed>1.343506</speed><course>95.688650</course><hAcc>1.794248</hAcc><vAcc>1.093206</vAcc></extensions></trkpt>
      <trkpt lon="-117.330149" lat="33.979377"><ele>322.768178</ele><time>2025-02-26T03:12:53Z</time><extensions><speed>1.340407</speed><course>96.069312</course><hAcc>1.796126</hAcc><vAcc>1.097718</vAcc></extensions></trkpt>
      <trkpt lon="-117.330134" lat="33.979376"><ele>322.798305</ele><time>2025-02-26T03:12:54Z</time><extensions><speed>1.327063</speed><course>96.307961</course><hAcc>1.797159</hAcc><vAcc>1.101368</vAcc></extensions></trkpt>
      <trkpt lon="-117.330120" lat="33.979374"><ele>322.833987</ele><time>2025-02-26T03:12:55Z</time><extensions><speed>1.302131</speed><course>95.625114</course><hAcc>1.791996</hAcc><vAcc>1.105668</vAcc></extensions></trkpt>
      <trkpt lon="-117.330106" lat="33.979373"><ele>322.865840</ele><time>2025-02-26T03:12:56Z</time><extensions><speed>1.311985</speed><course>95.730511</course><hAcc>1.787432</hAcc><vAcc>1.109558</vAcc></extensions></trkpt>
      <trkpt lon="-117.330092" lat="33.979372"><ele>322.897063</ele><time>2025-02-26T03:12:57Z</time><extensions><speed>1.289902</speed><course>97.010595</course><hAcc>1.788630</hAcc><vAcc>1.113935</vAcc></extensions></trkpt>
      <trkpt lon="-117.330079" lat="33.979370"><ele>322.927827</ele><time>2025-02-26T03:12:58Z</time><extensions><speed>1.286742</speed><course>98.641270</course><hAcc>1.790655</hAcc><vAcc>1.115346</vAcc></extensions></trkpt>
      <trkpt lon="-117.330065" lat="33.979368"><ele>322.957892</ele><time>2025-02-26T03:12:59Z</time><extensions><speed>1.271620</speed><course>100.537545</course><hAcc>1.792547</hAcc><vAcc>1.116373</vAcc></extensions></trkpt>
      <trkpt lon="-117.330051" lat="33.979365"><ele>322.994606</ele><time>2025-02-26T03:13:00Z</time><extensions><speed>1.260870</speed><course>100.491127</course><hAcc>1.793977</hAcc><vAcc>1.116950</vAcc></extensions></trkpt>
      <trkpt lon="-117.330038" lat="33.979363"><ele>323.032619</ele><time>2025-02-26T03:13:01Z</time><extensions><speed>1.243269</speed><course>100.049010</course><hAcc>1.794492</hAcc><vAcc>1.115607</vAcc></extensions></trkpt>
      <trkpt lon="-117.330025" lat="33.979361"><ele>323.065601</ele><time>2025-02-26T03:13:02Z</time><extensions><speed>1.238210</speed><course>99.823383</course><hAcc>1.794368</hAcc><vAcc>1.113940</vAcc></extensions></trkpt>
      <trkpt lon="-117.330012" lat="33.979359"><ele>323.104146</ele><time>2025-02-26T03:13:03Z</time><extensions><speed>1.217195</speed><course>98.868396</course><hAcc>1.792111</hAcc><vAcc>1.111849</vAcc></extensions></trkpt>
      <trkpt lon="-117.329999" lat="33.979357"><ele>323.145655</ele><time>2025-02-26T03:13:04Z</time><extensions><speed>1.206997</speed><course>97.678652</course><hAcc>1.788110</hAcc><vAcc>1.109040</vAcc></extensions></trkpt>
      <trkpt lon="-117.329986" lat="33.979356"><ele>323.176167</ele><time>2025-02-26T03:13:05Z</time><extensions><speed>1.227670</speed><course>96.385757</course><hAcc>1.787889</hAcc><vAcc>1.105964</vAcc></extensions></trkpt>
      <trkpt lon="-117.329972" lat="33.979354"><ele>323.208429</ele><time>2025-02-26T03:13:06Z</time><extensions><speed>1.275660</speed><course>96.293970</course><hAcc>1.786125</hAcc><vAcc>1.103250</vAcc></extensions></trkpt>
      <trkpt lon="-117.329959" lat="33.979353"><ele>323.205969</ele><time>2025-02-26T03:13:07Z</time><extensions><speed>1.226497</speed><course>98.073365</course><hAcc>1.776042</hAcc><vAcc>1.100335</vAcc></extensions></trkpt>
      <trkpt lon="-117.329946" lat="33.979351"><ele>323.214550</ele><time>2025-02-26T03:13:08Z</time><extensions><speed>1.175582</speed><course>96.938586</course><hAcc>1.761001</hAcc><vAcc>1.098767</vAcc></extensions></trkpt>
      <trkpt lon="-117.329933" lat="33.979349"><ele>323.236319</ele><time>2025-02-26T03:13:09Z</time><extensions><speed>1.182367</speed><course>97.624197</course><hAcc>1.753347</hAcc><vAcc>1.096062</vAcc></extensions></trkpt>
      <trkpt lon="-117.329921" lat="33.979348"><ele>323.235007</ele><time>2025-02-26T03:13:10Z</time><extensions><speed>1.208553</speed><course>99.246371</course><hAcc>1.749768</hAcc><vAcc>1.093490</vAcc></extensions></trkpt>
      <trkpt lon="-117.329908" lat="33.979346"><ele>323.231909</ele><time>2025-02-26T03:13:11Z</time><extensions><speed>1.208279</speed><course>100.435041</course><hAcc>1.743724</hAcc><vAcc>1.091186</vAcc></extensions></trkpt>
      <trkpt lon="-117.329895" lat="33.979344"><ele>323.217299</ele><time>2025-02-26T03:13:12Z</time><extensions><speed>1.190692</speed><course>102.721594</course><hAcc>1.738606</hAcc><vAcc>1.089574</vAcc></extensions></trkpt>
      <trkpt lon="-117.329882" lat="33.979341"><ele>323.189133</ele><time>2025-02-26T03:13:13Z</time><extensions><speed>1.217237</speed><course>103.550831</course><hAcc>1.734869</hAcc><vAcc>1.088969</vAcc></extensions></trkpt>
      <trkpt lon="-117.329869" lat="33.979338"><ele>323.160015</ele><time>2025-02-26T03:13:14Z</time><extensions><speed>1.252849</speed><course>102.157025</course><hAcc>1.731362</hAcc><vAcc>1.089755</vAcc></extensions></trkpt>
      <trkpt lon="-117.329856" lat="33.979336"><ele>323.139296</ele><time>2025-02-26T03:13:15Z</time><extensions><speed>1.306847</speed><course>102.097690</course><hAcc>1.729151</hAcc><vAcc>1.090305</vAcc></extensions></trkpt>
      <trkpt lon="-117.329842" lat="33.979333"><ele>323.124603</ele><time>2025-02-26T03:13:16Z</time><extensions><speed>1.348940</speed><course>102.437302</course><hAcc>1.726546</hAcc><vAcc>1.094400</vAcc></extensions></trkpt>
      <trkpt lon="-117.329827" lat="33.979330"><ele>323.115369</ele><time>2025-02-26T03:13:17Z</time><extensions><speed>1.362511</speed><course>107.516149</course><hAcc>1.736484</hAcc><vAcc>1.098042</vAcc></extensions></trkpt>
      <trkpt lon="-117.329814" lat="33.979327"><ele>323.107609</ele><time>2025-02-26T03:13:18Z</time><extensions><speed>1.291514</speed><course>105.677233</course><hAcc>1.771280</hAcc><vAcc>1.102635</vAcc></extensions></trkpt>
      <trkpt lon="-117.329800" lat="33.979324"><ele>323.106998</ele><time>2025-02-26T03:13:19Z</time><extensions><speed>1.333791</speed><course>101.860580</course><hAcc>1.749184</hAcc><vAcc>1.104121</vAcc></extensions></trkpt>
      <trkpt lon="-117.329786" lat="33.979322"><ele>323.097282</ele><time>2025-02-26T03:13:20Z</time><extensions><speed>1.366063</speed><course>98.414057</course><hAcc>1.741956</hAcc><vAcc>1.106742</vAcc></extensions></trkpt>
      <trkpt lon="-117.329771" lat="33.979320"><ele>323.098042</ele><time>2025-02-26T03:13:21Z</time><extensions><speed>1.387263</speed><course>96.823675</course><hAcc>1.748604</hAcc><vAcc>1.107147</vAcc></extensions></trkpt>
      <trkpt lon="-117.329756" lat="33.979319"><ele>323.100035</ele><time>2025-02-26T03:13:22Z</time><extensions><speed>1.366851</speed><course>97.167991</course><hAcc>1.751339</hAcc><vAcc>1.109160</vAcc></extensions></trkpt>
      <trkpt lon="-117.329741" lat="33.979317"><ele>323.091382</ele><time>2025-02-26T03:13:23Z</time><extensions><speed>1.346140</speed><course>96.752701</course><hAcc>1.749844</hAcc><vAcc>1.113127</vAcc></extensions></trkpt>
      <trkpt lon="-117.329727" lat="33.979316"><ele>323.089803</ele><time>2025-02-26T03:13:24Z</time><extensions><speed>1.330017</speed><course>94.822925</course><hAcc>1.747647</hAcc><vAcc>1.115545</vAcc></extensions></trkpt>
      <trkpt lon="-117.329713" lat="33.979315"><ele>323.093434</ele><time>2025-02-26T03:13:25Z</time><extensions><speed>1.352603</speed><course>91.063062</course><hAcc>1.742741</hAcc><vAcc>1.118834</vAcc></extensions></trkpt>
      <trkpt lon="-117.329698" lat="33.979315"><ele>323.104547</ele><time>2025-02-26T03:13:26Z</time><extensions><speed>1.297697</speed><course>91.152828</course><hAcc>1.731569</hAcc><vAcc>1.119641</vAcc></extensions></trkpt>
      <trkpt lon="-117.329684" lat="33.979315"><ele>323.126233</ele><time>2025-02-26T03:13:27Z</time><extensions><speed>1.303855</speed><course>92.509455</course><hAcc>1.706115</hAcc><vAcc>1.118704</vAcc></extensions></trkpt>
      <trkpt lon="-117.329670" lat="33.979314"><ele>323.162800</ele><time>2025-02-26T03:13:28Z</time><extensions><speed>1.280044</speed><course>94.102867</course><hAcc>1.693751</hAcc><vAcc>1.118294</vAcc></extensions></trkpt>
      <trkpt lon="-117.329656" lat="33.979314"><ele>323.180237</ele><time>2025-02-26T03:13:29Z</time><extensions><speed>1.361230</speed><course>91.550230</course><hAcc>1.694770</hAcc><vAcc>1.116735</vAcc></extensions></trkpt>
      <trkpt lon="-117.329642" lat="33.979314"><ele>323.198985</ele><time>2025-02-26T03:13:30Z</time><extensions><speed>1.286593</speed><course>88.392369</course><hAcc>1.706175</hAcc><vAcc>1.114395</vAcc></extensions></trkpt>
      <trkpt lon="-117.329627" lat="33.979314"><ele>323.239876</ele><time>2025-02-26T03:13:31Z</time><extensions><speed>1.331009</speed><course>91.240622</course><hAcc>1.674633</hAcc><vAcc>1.112864</vAcc></extensions></trkpt>
      <trkpt lon="-117.329613" lat="33.979314"><ele>323.282976</ele><time>2025-02-26T03:13:32Z</time><extensions><speed>1.386646</speed><course>93.248256</course><hAcc>1.672820</hAcc><vAcc>1.111317</vAcc></extensions></trkpt>
      <trkpt lon="-117.329598" lat="33.979313"><ele>323.328471</ele><time>2025-02-26T03:13:33Z</time><extensions><speed>1.316691</speed><course>95.718275</course><hAcc>1.692283</hAcc><vAcc>1.108838</vAcc></extensions></trkpt>
      <trkpt lon="-117.329584" lat="33.979312"><ele>323.382165</ele><time>2025-02-26T03:13:34Z</time><extensions><speed>1.361004</speed><course>97.343098</course><hAcc>1.703002</hAcc><vAcc>1.106293</vAcc></extensions></trkpt>
      <trkpt lon="-117.329569" lat="33.979310"><ele>323.439421</ele><time>2025-02-26T03:13:35Z</time><extensions><speed>1.317324</speed><course>96.640810</course><hAcc>1.721080</hAcc><vAcc>1.103917</vAcc></extensions></trkpt>
      <trkpt lon="-117.329555" lat="33.979309"><ele>323.500595</ele><time>2025-02-26T03:13:36Z</time><extensions><speed>1.310688</speed><course>93.181602</course><hAcc>1.724828</hAcc><vAcc>1.101458</vAcc></extensions></trkpt>
      <trkpt lon="-117.329541" lat="33.979309"><ele>323.544873</ele><time>2025-02-26T03:13:37Z</time><extensions><speed>1.293489</speed><course>88.751876</course><hAcc>1.741962</hAcc><vAcc>1.098803</vAcc></extensions></trkpt>
      <trkpt lon="-117.329527" lat="33.979310"><ele>323.592140</ele><time>2025-02-26T03:13:38Z</time><extensions><speed>1.241617</speed><course>85.804050</course><hAcc>1.760425</hAcc><vAcc>1.096273</vAcc></extensions></trkpt>
      <trkpt lon="-117.329514" lat="33.979311"><ele>323.640642</ele><time>2025-02-26T03:13:39Z</time><extensions><speed>1.206589</speed><course>82.073826</course><hAcc>1.760008</hAcc><vAcc>1.093296</vAcc></extensions></trkpt>
      <trkpt lon="-117.329501" lat="33.979312"><ele>323.696281</ele><time>2025-02-26T03:13:40Z</time><extensions><speed>1.236169</speed><course>83.011060</course><hAcc>1.774932</hAcc><vAcc>1.090312</vAcc></extensions></trkpt>
      <trkpt lon="-117.329487" lat="33.979314"><ele>323.753142</ele><time>2025-02-26T03:13:41Z</time><extensions><speed>1.301924</speed><course>84.160026</course><hAcc>1.795096</hAcc><vAcc>1.086676</vAcc></extensions></trkpt>
      <trkpt lon="-117.329473" lat="33.979315"><ele>323.808213</ele><time>2025-02-26T03:13:42Z</time><extensions><speed>1.290917</speed><course>87.166917</course><hAcc>1.801125</hAcc><vAcc>1.082633</vAcc></extensions></trkpt>
      <trkpt lon="-117.329459" lat="33.979315"><ele>323.863301</ele><time>2025-02-26T03:13:43Z</time><extensions><speed>1.300120</speed><course>88.894934</course><hAcc>1.798591</hAcc><vAcc>1.078438</vAcc></extensions></trkpt>
      <trkpt lon="-117.329445" lat="33.979315"><ele>323.915256</ele><time>2025-02-26T03:13:44Z</time><extensions><speed>1.302561</speed><course>90.847373</course><hAcc>1.794462</hAcc><vAcc>1.077143</vAcc></extensions></trkpt>
      <trkpt lon="-117.329431" lat="33.979315"><ele>323.969276</ele><time>2025-02-26T03:13:45Z</time><extensions><speed>1.294728</speed><course>91.653900</course><hAcc>1.790905</hAcc><vAcc>1.074515</vAcc></extensions></trkpt>
      <trkpt lon="-117.329417" lat="33.979314"><ele>324.017509</ele><time>2025-02-26T03:13:46Z</time><extensions><speed>1.305617</speed><course>91.131883</course><hAcc>1.786250</hAcc><vAcc>1.071193</vAcc></extensions></trkpt>
      <trkpt lon="-117.329402" lat="33.979314"><ele>324.061327</ele><time>2025-02-26T03:13:47Z</time><extensions><speed>1.307130</speed><course>88.779760</course><hAcc>1.780272</hAcc><vAcc>1.067823</vAcc></extensions></trkpt>
      <trkpt lon="-117.329388" lat="33.979314"><ele>324.103530</ele><time>2025-02-26T03:13:48Z</time><extensions><speed>1.363364</speed><course>89.918933</course><hAcc>1.772961</hAcc><vAcc>1.064442</vAcc></extensions></trkpt>
      <trkpt lon="-117.329373" lat="33.979314"><ele>324.145943</ele><time>2025-02-26T03:13:49Z</time><extensions><speed>1.369954</speed><course>92.347185</course><hAcc>1.761501</hAcc><vAcc>1.060854</vAcc></extensions></trkpt>
      <trkpt lon="-117.329358" lat="33.979313"><ele>324.187574</ele><time>2025-02-26T03:13:50Z</time><extensions><speed>1.351476</speed><course>94.540255</course><hAcc>1.747430</hAcc><vAcc>1.057247</vAcc></extensions></trkpt>
      <trkpt lon="-117.329344" lat="33.979312"><ele>324.220944</ele><time>2025-02-26T03:13:51Z</time><extensions><speed>1.322181</speed><course>94.249245</course><hAcc>1.733536</hAcc><vAcc>1.054853</vAcc></extensions></trkpt>
      <trkpt lon="-117.329329" lat="33.979311"><ele>324.248209</ele><time>2025-02-26T03:13:52Z</time><extensions><speed>1.305526</speed><course>93.454927</course><hAcc>1.722285</hAcc><vAcc>1.051697</vAcc></extensions></trkpt>
      <trkpt lon="-117.329315" lat="33.979311"><ele>324.267419</ele><time>2025-02-26T03:13:53Z</time><extensions><speed>1.314422</speed><course>93.328921</course><hAcc>1.721328</hAcc><vAcc>1.048437</vAcc></extensions></trkpt>
      <trkpt lon="-117.329301" lat="33.979310"><ele>324.279428</ele><time>2025-02-26T03:13:54Z</time><extensions><speed>1.297287</speed><course>94.209233</course><hAcc>1.732290</hAcc><vAcc>1.045571</vAcc></extensions></trkpt>
      <trkpt lon="-117.329287" lat="33.979309"><ele>324.287908</ele><time>2025-02-26T03:13:55Z</time><extensions><speed>1.291313</speed><course>95.260725</course><hAcc>1.716819</hAcc><vAcc>1.044828</vAcc></extensions></trkpt>
      <trkpt lon="-117.329273" lat="33.979308"><ele>324.295914</ele><time>2025-02-26T03:13:56Z</time><extensions><speed>1.276306</speed><course>97.041766</course><hAcc>1.709999</hAcc><vAcc>1.044163</vAcc></extensions></trkpt>
      <trkpt lon="-117.329259" lat="33.979306"><ele>324.306342</ele><time>2025-02-26T03:13:57Z</time><extensions><speed>1.285196</speed><course>98.305296</course><hAcc>1.708949</hAcc><vAcc>1.044106</vAcc></extensions></trkpt>
      <trkpt lon="-117.329245" lat="33.979304"><ele>324.314173</ele><time>2025-02-26T03:13:58Z</time><extensions><speed>1.286947</speed><course>98.582333</course><hAcc>1.707924</hAcc><vAcc>1.044776</vAcc></extensions></trkpt>
      <trkpt lon="-117.329231" lat="33.979303"><ele>324.327995</ele><time>2025-02-26T03:13:59Z</time><extensions><speed>1.309341</speed><course>97.346826</course><hAcc>1.705902</hAcc><vAcc>1.045513</vAcc></extensions></trkpt>
      <trkpt lon="-117.329217" lat="33.979301"><ele>324.348370</ele><time>2025-02-26T03:14:00Z</time><extensions><speed>1.349456</speed><course>95.582645</course><hAcc>1.703976</hAcc><vAcc>1.048659</vAcc></extensions></trkpt>
      <trkpt lon="-117.329202" lat="33.979300"><ele>324.379108</ele><time>2025-02-26T03:14:01Z</time><extensions><speed>1.332900</speed><course>94.730522</course><hAcc>1.701822</hAcc><vAcc>1.050122</vAcc></extensions></trkpt>
      <trkpt lon="-117.329188" lat="33.979299"><ele>324.411309</ele><time>2025-02-26T03:14:02Z</time><extensions><speed>1.272242</speed><course>92.764871</course><hAcc>1.690360</hAcc><vAcc>1.051482</vAcc></extensions></trkpt>
      <trkpt lon="-117.329175" lat="33.979298"><ele>324.436733</ele><time>2025-02-26T03:14:03Z</time><extensions><speed>1.215721</speed><course>90.962646</course><hAcc>1.679964</hAcc><vAcc>1.053352</vAcc></extensions></trkpt>
      <trkpt lon="-117.329161" lat="33.979298"><ele>324.435815</ele><time>2025-02-26T03:14:04Z</time><extensions><speed>1.261891</speed><course>90.872091</course><hAcc>1.676643</hAcc><vAcc>1.056439</vAcc></extensions></trkpt>
      <trkpt lon="-117.329147" lat="33.979297"><ele>324.434277</ele><time>2025-02-26T03:14:05Z</time><extensions><speed>1.319421</speed><course>92.606321</course><hAcc>1.682532</hAcc><vAcc>1.058057</vAcc></extensions></trkpt>
      <trkpt lon="-117.329133" lat="33.979296"><ele>324.422090</ele><time>2025-02-26T03:14:06Z</time><extensions><speed>1.268935</speed><course>98.898077</course><hAcc>1.667785</hAcc><vAcc>1.059560</vAcc></extensions></trkpt>
      <trkpt lon="-117.329120" lat="33.979293"><ele>324.414557</ele><time>2025-02-26T03:14:07Z</time><extensions><speed>1.186964</speed><course>108.818105</course><hAcc>1.666855</hAcc><vAcc>1.061788</vAcc></extensions></trkpt>
      <trkpt lon="-117.329107" lat="33.979288"><ele>324.402780</ele><time>2025-02-26T03:14:08Z</time><extensions><speed>1.295467</speed><course>115.568539</course><hAcc>1.674529</hAcc><vAcc>1.062668</vAcc></extensions></trkpt>
      <trkpt lon="-117.329094" lat="33.979282"><ele>324.397677</ele><time>2025-02-26T03:14:09Z</time><extensions><speed>1.434635</speed><course>123.216554</course><hAcc>1.688540</hAcc><vAcc>1.063887</vAcc></extensions></trkpt>
      <trkpt lon="-117.329083" lat="33.979274"><ele>324.383742</ele><time>2025-02-26T03:14:10Z</time><extensions><speed>1.370711</speed><course>139.656431</course><hAcc>1.698861</hAcc><vAcc>1.064658</vAcc></extensions></trkpt>
      <trkpt lon="-117.329075" lat="33.979263"><ele>324.372039</ele><time>2025-02-26T03:14:11Z</time><extensions><speed>1.435097</speed><course>155.231404</course><hAcc>1.689175</hAcc><vAcc>1.065030</vAcc></extensions></trkpt>
      <trkpt lon="-117.329069" lat="33.979250"><ele>324.344101</ele><time>2025-02-26T03:14:12Z</time><extensions><speed>1.534430</speed><course>163.917694</course><hAcc>1.697480</hAcc><vAcc>1.064951</vAcc></extensions></trkpt>
      <trkpt lon="-117.329064" lat="33.979236"><ele>324.296532</ele><time>2025-02-26T03:14:13Z</time><extensions><speed>1.603981</speed><course>165.939455</course><hAcc>1.714224</hAcc><vAcc>1.063547</vAcc></extensions></trkpt>
      <trkpt lon="-117.329060" lat="33.979222"><ele>324.239445</ele><time>2025-02-26T03:14:14Z</time><extensions><speed>1.579886</speed><course>163.635036</course><hAcc>1.729504</hAcc><vAcc>1.061510</vAcc></extensions></trkpt>
      <trkpt lon="-117.329054" lat="33.979209"><ele>324.162516</ele><time>2025-02-26T03:14:15Z</time><extensions><speed>1.545856</speed><course>161.290357</course><hAcc>1.744725</hAcc><vAcc>1.057400</vAcc></extensions></trkpt>
      <trkpt lon="-117.329048" lat="33.979195"><ele>324.079665</ele><time>2025-02-26T03:14:16Z</time><extensions><speed>1.544922</speed><course>158.956528</course><hAcc>1.755959</hAcc><vAcc>1.052989</vAcc></extensions></trkpt>
      <trkpt lon="-117.329042" lat="33.979182"><ele>323.997159</ele><time>2025-02-26T03:14:17Z</time><extensions><speed>1.505758</speed><course>157.001981</course><hAcc>1.763550</hAcc><vAcc>1.047706</vAcc></extensions></trkpt>
      <trkpt lon="-117.329035" lat="33.979170"><ele>323.927877</ele><time>2025-02-26T03:14:18Z</time><extensions><speed>1.466065</speed><course>153.976093</course><hAcc>1.763898</hAcc><vAcc>1.041917</vAcc></extensions></trkpt>
      <trkpt lon="-117.329028" lat="33.979158"><ele>323.862724</ele><time>2025-02-26T03:14:19Z</time><extensions><speed>1.405329</speed><course>149.854500</course><hAcc>1.762070</hAcc><vAcc>1.036183</vAcc></extensions></trkpt>
      <trkpt lon="-117.329020" lat="33.979147"><ele>323.812288</ele><time>2025-02-26T03:14:20Z</time><extensions><speed>1.430247</speed><course>148.036212</course><hAcc>1.754982</hAcc><vAcc>1.029195</vAcc></extensions></trkpt>
      <trkpt lon="-117.329011" lat="33.979136"><ele>323.766214</ele><time>2025-02-26T03:14:21Z</time><extensions><speed>1.444777</speed><course>147.351030</course><hAcc>1.748271</hAcc><vAcc>1.021793</vAcc></extensions></trkpt>
      <trkpt lon="-117.329002" lat="33.979125"><ele>323.712733</ele><time>2025-02-26T03:14:22Z</time><extensions><speed>1.489019</speed><course>145.175032</course><hAcc>1.742485</hAcc><vAcc>1.013679</vAcc></extensions></trkpt>
      <trkpt lon="-117.328993" lat="33.979114"><ele>323.659872</ele><time>2025-02-26T03:14:23Z</time><extensions><speed>1.478426</speed><course>146.142612</course><hAcc>1.730125</hAcc><vAcc>1.005200</vAcc></extensions></trkpt>
      <trkpt lon="-117.328984" lat="33.979103"><ele>323.612260</ele><time>2025-02-26T03:14:24Z</time><extensions><speed>1.454148</speed><course>147.652025</course><hAcc>1.727334</hAcc><vAcc>0.997217</vAcc></extensions></trkpt>
      <trkpt lon="-117.328975" lat="33.979092"><ele>323.570288</ele><time>2025-02-26T03:14:25Z</time><extensions><speed>1.390734</speed><course>148.116935</course><hAcc>1.702270</hAcc><vAcc>0.989534</vAcc></extensions></trkpt>
      <trkpt lon="-117.328967" lat="33.979081"><ele>323.538412</ele><time>2025-02-26T03:14:26Z</time><extensions><speed>1.388870</speed><course>149.421737</course><hAcc>1.690001</hAcc><vAcc>0.982008</vAcc></extensions></trkpt>
      <trkpt lon="-117.328960" lat="33.979070"><ele>323.508605</ele><time>2025-02-26T03:14:27Z</time><extensions><speed>1.378361</speed><course>151.089382</course><hAcc>1.686163</hAcc><vAcc>0.975535</vAcc></extensions></trkpt>
      <trkpt lon="-117.328952" lat="33.979059"><ele>323.468467</ele><time>2025-02-26T03:14:28Z</time><extensions><speed>1.381936</speed><course>149.947766</course><hAcc>1.684459</hAcc><vAcc>0.968984</vAcc></extensions></trkpt>
      <trkpt lon="-117.328944" lat="33.979049"><ele>323.438756</ele><time>2025-02-26T03:14:29Z</time><extensions><speed>1.371408</speed><course>145.922094</course><hAcc>1.679892</hAcc><vAcc>0.963328</vAcc></extensions></trkpt>
      <trkpt lon="-117.328936" lat="33.979039"><ele>323.373243</ele><time>2025-02-26T03:14:30Z</time><extensions><speed>1.305407</speed><course>140.459291</course><hAcc>1.669825</hAcc><vAcc>0.958035</vAcc></extensions></trkpt>
      <trkpt lon="-117.328926" lat="33.979030"><ele>323.328478</ele><time>2025-02-26T03:14:31Z</time><extensions><speed>1.293946</speed><course>134.970146</course><hAcc>1.667355</hAcc><vAcc>0.955323</vAcc></extensions></trkpt>
      <trkpt lon="-117.328916" lat="33.979022"><ele>323.296810</ele><time>2025-02-26T03:14:32Z</time><extensions><speed>1.337915</speed><course>130.331287</course><hAcc>1.667572</hAcc><vAcc>0.954198</vAcc></extensions></trkpt>
      <trkpt lon="-117.328904" lat="33.979015"><ele>323.269787</ele><time>2025-02-26T03:14:32Z</time><extensions><speed>1.338968</speed><course>126.828221</course><hAcc>1.663669</hAcc><vAcc>0.953168</vAcc></extensions></trkpt>
      <trkpt lon="-117.328893" lat="33.979008"><ele>323.245168</ele><time>2025-02-26T03:14:33Z</time><extensions><speed>1.315122</speed><course>124.824586</course><hAcc>1.660424</hAcc><vAcc>0.952996</vAcc></extensions></trkpt>
      <trkpt lon="-117.328881" lat="33.979001"><ele>323.226992</ele><time>2025-02-26T03:14:34Z</time><extensions><speed>1.277215</speed><course>125.363552</course><hAcc>1.658876</hAcc><vAcc>0.953406</vAcc></extensions></trkpt>
      <trkpt lon="-117.328870" lat="33.978994"><ele>323.216596</ele><time>2025-02-26T03:14:35Z</time><extensions><speed>1.248093</speed><course>126.923541</course><hAcc>1.659279</hAcc><vAcc>0.953915</vAcc></extensions></trkpt>
      <trkpt lon="-117.328859" lat="33.978987"><ele>323.215064</ele><time>2025-02-26T03:14:36Z</time><extensions><speed>1.253490</speed><course>128.913834</course><hAcc>1.650548</hAcc><vAcc>0.954892</vAcc></extensions></trkpt>
      <trkpt lon="-117.328850" lat="33.978979"><ele>323.202546</ele><time>2025-02-26T03:14:38Z</time><extensions><speed>1.129917</speed><course>136.397573</course><hAcc>1.609641</hAcc><vAcc>0.955988</vAcc></extensions></trkpt>
      <trkpt lon="-117.328842" lat="33.978971"><ele>323.207376</ele><time>2025-02-26T03:14:39Z</time><extensions><speed>1.161936</speed><course>144.041291</course><hAcc>1.583875</hAcc><vAcc>0.956957</vAcc></extensions></trkpt>
      <trkpt lon="-117.328835" lat="33.978961"><ele>323.224539</ele><time>2025-02-26T03:14:40Z</time><extensions><speed>1.255356</speed><course>155.571364</course><hAcc>1.590425</hAcc><vAcc>0.958015</vAcc></extensions></trkpt>
      <trkpt lon="-117.328830" lat="33.978950"><ele>323.243835</ele><time>2025-02-26T03:14:41Z</time><extensions><speed>1.318480</speed><course>163.064498</course><hAcc>1.630709</hAcc><vAcc>0.959667</vAcc></extensions></trkpt>
      <trkpt lon="-117.328827" lat="33.978938"><ele>323.267754</ele><time>2025-02-26T03:14:42Z</time><extensions><speed>1.376027</speed><course>174.721283</course><hAcc>1.608494</hAcc><vAcc>0.960645</vAcc></extensions></trkpt>
      <trkpt lon="-117.328826" lat="33.978926"><ele>323.305396</ele><time>2025-02-26T03:14:43Z</time><extensions><speed>1.335481</speed><course>179.291269</course><hAcc>1.575030</hAcc><vAcc>0.961660</vAcc></extensions></trkpt>
      <trkpt lon="-117.328826" lat="33.978914"><ele>323.356618</ele><time>2025-02-26T03:14:44Z</time><extensions><speed>1.350032</speed><course>179.088568</course><hAcc>1.562172</hAcc><vAcc>0.963083</vAcc></extensions></trkpt>
      <trkpt lon="-117.328826" lat="33.978901"><ele>323.421454</ele><time>2025-02-26T03:14:45Z</time><extensions><speed>1.443340</speed><course>178.673450</course><hAcc>1.566598</hAcc><vAcc>0.965167</vAcc></extensions></trkpt>
      <trkpt lon="-117.328825" lat="33.978888"><ele>323.471302</ele><time>2025-02-26T03:14:46Z</time><extensions><speed>1.448199</speed><course>177.286653</course><hAcc>1.571622</hAcc><vAcc>0.968346</vAcc></extensions></trkpt>
      <trkpt lon="-117.328824" lat="33.978875"><ele>323.535059</ele><time>2025-02-26T03:14:47Z</time><extensions><speed>1.442275</speed><course>174.390753</course><hAcc>1.569014</hAcc><vAcc>0.972224</vAcc></extensions></trkpt>
      <trkpt lon="-117.328822" lat="33.978862"><ele>323.612514</ele><time>2025-02-26T03:14:48Z</time><extensions><speed>1.441502</speed><course>169.131231</course><hAcc>1.559145</hAcc><vAcc>0.975940</vAcc></extensions></trkpt>
      <trkpt lon="-117.328819" lat="33.978849"><ele>323.715767</ele><time>2025-02-26T03:14:49Z</time><extensions><speed>1.406787</speed><course>169.474340</course><hAcc>1.561303</hAcc><vAcc>0.979953</vAcc></extensions></trkpt>
      <trkpt lon="-117.328816" lat="33.978837"><ele>323.833054</ele><time>2025-02-26T03:14:50Z</time><extensions><speed>1.383382</speed><course>171.149271</course><hAcc>1.563882</hAcc><vAcc>0.985363</vAcc></extensions></trkpt>
      <trkpt lon="-117.328814" lat="33.978825"><ele>323.943673</ele><time>2025-02-26T03:14:51Z</time><extensions><speed>1.382390</speed><course>172.997853</course><hAcc>1.568816</hAcc><vAcc>0.992085</vAcc></extensions></trkpt>
      <trkpt lon="-117.328813" lat="33.978812"><ele>324.045072</ele><time>2025-02-26T03:14:52Z</time><extensions><speed>1.365203</speed><course>174.436270</course><hAcc>1.563588</hAcc><vAcc>0.998021</vAcc></extensions></trkpt>
      <trkpt lon="-117.328812" lat="33.978800"><ele>324.161847</ele><time>2025-02-26T03:14:53Z</time><extensions><speed>1.303726</speed><course>176.763752</course><hAcc>1.569330</hAcc><vAcc>1.002877</vAcc></extensions></trkpt>
      <trkpt lon="-117.328811" lat="33.978789"><ele>324.262513</ele><time>2025-02-26T03:14:54Z</time><extensions><speed>1.256953</speed><course>178.123713</course><hAcc>1.585240</hAcc><vAcc>1.024762</vAcc></extensions></trkpt>
      <trkpt lon="-117.328810" lat="33.978778"><ele>324.364585</ele><time>2025-02-26T03:14:55Z</time><extensions><speed>1.206128</speed><course>176.566533</course><hAcc>1.604937</hAcc><vAcc>1.053370</vAcc></extensions></trkpt>
      <trkpt lon="-117.328810" lat="33.978768"><ele>324.467430</ele><time>2025-02-26T03:14:56Z</time><extensions><speed>1.039998</speed><course>175.228229</course><hAcc>1.626794</hAcc><vAcc>1.090507</vAcc></extensions></trkpt>
      <trkpt lon="-117.328809" lat="33.978759"><ele>324.570510</ele><time>2025-02-26T03:14:57Z</time><extensions><speed>0.875247</speed><course>182.311707</course><hAcc>1.636168</hAcc><vAcc>1.138274</vAcc></extensions></trkpt>
      <trkpt lon="-117.328810" lat="33.978751"><ele>324.673263</ele><time>2025-02-26T03:14:58Z</time><extensions><speed>0.912110</speed><course>186.918005</course><hAcc>1.656826</hAcc><vAcc>1.198997</vAcc></extensions></trkpt>
      <trkpt lon="-117.328811" lat="33.978742"><ele>324.775091</ele><time>2025-02-26T03:14:59Z</time><extensions><speed>1.072397</speed><course>188.008380</course><hAcc>1.713279</hAcc><vAcc>1.275081</vAcc></extensions></trkpt>
      <trkpt lon="-117.328813" lat="33.978732"><ele>324.875519</ele><time>2025-02-26T03:15:00Z</time><extensions><speed>1.238714</speed><course>188.699572</course><hAcc>1.793062</hAcc><vAcc>1.368802</vAcc></extensions></trkpt>
      <trkpt lon="-117.328815" lat="33.978721"><ele>324.974373</ele><time>2025-02-26T03:15:01Z</time><extensions><speed>1.271489</speed><course>187.662539</course><hAcc>1.896017</hAcc><vAcc>1.482140</vAcc></extensions></trkpt>
      <trkpt lon="-117.328817" lat="33.978709"><ele>325.071856</ele><time>2025-02-26T03:15:02Z</time><extensions><speed>1.281039</speed><course>188.499426</course><hAcc>2.020389</hAcc><vAcc>1.616692</vAcc></extensions></trkpt>
      <trkpt lon="-117.328819" lat="33.978698"><ele>325.168419</ele><time>2025-02-26T03:15:03Z</time><extensions><speed>1.262068</speed><course>186.501642</course><hAcc>2.267459</hAcc><vAcc>1.773616</vAcc></extensions></trkpt>
    </trkseg>
  </trk>
</gpx>