<?xml version="1.0" encoding="UTF-8"?>
<gpx version="1.1" creator="Apple Health Export" xmlns="http://www.topografix.com/GPX/1/1" xmlns:xsi="http://www.w3.org/2001/XMLSchema-instance" xsi:schemaLocation="http://www.topografix.com/GPX/1/1 http://www.topografix.com/GPX/1/1/gpx.xsd">
  <metadata>
    <time>2026-01-11T07:58:07Z</time>
  </metadata>
  <trk>
    <name>Route 2025-03-07 10:48am</name>
    <trkseg>
      <trkpt lon="-117.332090" lat="33.979384"><ele>316.727975</ele><time>2025-03-07T18:41:10Z</time><extensions><speed>1.228568</speed><course>318.232511</course><hAcc>1.908856</hAcc><vAcc>1.438631</vAcc></extensions></trkpt>
      <trkpt lon="-117.332099" lat="33.979391"><ele>316.714683</ele><time>2025-03-07T18:41:11Z</time><extensions><speed>1.148772</speed><course>303.680437</course><hAcc>1.776577</hAcc><vAcc>1.252903</vAcc></extensions></trkpt>
      <trkpt lon="-117.332110" lat="33.979395"><ele>316.702161</ele><time>2025-03-07T18:41:12Z</time><extensions><speed>1.053075</speed><course>285.966594</course><hAcc>1.674655</hAcc><vAcc>1.108417</vAcc></extensions></trkpt>
      <trkpt lon="-117.332121" lat="33.979395"><ele>316.690262</ele><time>2025-03-07T18:41:13Z</time><extensions><speed>1.132455</speed><course>266.752184</course><hAcc>1.622991</hAcc><vAcc>0.999257</vAcc></extensions></trkpt>
      <trkpt lon="-117.332133" lat="33.979395"><ele>316.678651</ele><time>2025-03-07T18:41:14Z</time><extensions><speed>1.118404</speed><course>269.669400</course><hAcc>1.581595</hAcc><vAcc>0.919664</vAcc></extensions></trkpt>
      <trkpt lon="-117.332145" lat="33.979395"><ele>316.669278</ele><time>2025-03-07T18:41:15Z</time><extensions><speed>1.133512</speed><course>276.079201</course><hAcc>1.545317</hAcc><vAcc>0.863920</vAcc></extensions></trkpt>
      <trkpt lon="-117.332157" lat="33.979397"><ele>316.665388</ele><time>2025-03-07T18:41:16Z</time><extensions><speed>1.126636</speed><course>287.960239</course><hAcc>1.521715</hAcc><vAcc>0.826519</vAcc></extensions></trkpt>
      <trkpt lon="-117.332169" lat="33.979400"><ele>316.663294</ele><time>2025-03-07T18:41:17Z</time><extensions><speed>1.126598</speed><course>292.672224</course><hAcc>1.500853</hAcc><vAcc>0.802502</vAcc></extensions></trkpt>
      <trkpt lon="-117.332180" lat="33.979404"><ele>316.663696</ele><time>2025-03-07T18:41:18Z</time><extensions><speed>1.120204</speed><course>299.093336</course><hAcc>1.479045</hAcc><vAcc>0.787724</vAcc></extensions></trkpt>
      <trkpt lon="-117.332190" lat="33.979409"><ele>316.666993</ele><time>2025-03-07T18:41:19Z</time><extensions><speed>1.120333</speed><course>311.079704</course><hAcc>1.458626</hAcc><vAcc>0.778976</vAcc></extensions></trkpt>
      <trkpt lon="-117.332200" lat="33.979415"><ele>316.676433</ele><time>2025-03-07T18:41:20Z</time><extensions><speed>1.114700</speed><course>308.274547</course><hAcc>1.431489</hAcc><vAcc>0.773933</vAcc></extensions></trkpt>
      <trkpt lon="-117.332210" lat="33.979420"><ele>316.686326</ele><time>2025-03-07T18:41:21Z</time><extensions><speed>1.118311</speed><course>301.369458</course><hAcc>1.430624</hAcc><vAcc>0.771013</vAcc></extensions></trkpt>
      <trkpt lon="-117.332221" lat="33.979425"><ele>316.696406</ele><time>2025-03-07T18:41:22Z</time><extensions><speed>1.130819</speed><course>294.719670</course><hAcc>1.439180</hAcc><vAcc>0.769206</vAcc></extensions></trkpt>
      <trkpt lon="-117.332232" lat="33.979429"><ele>316.706303</ele><time>2025-03-07T18:41:23Z</time><extensions><speed>1.124543</speed><course>290.907554</course><hAcc>1.427389</hAcc><vAcc>0.767910</vAcc></extensions></trkpt>
      <trkpt lon="-117.332244" lat="33.979431"><ele>316.715619</ele><time>2025-03-07T18:41:24Z</time><extensions><speed>1.132548</speed><course>284.555479</course><hAcc>1.432256</hAcc><vAcc>0.766801</vAcc></extensions></trkpt>
      <trkpt lon="-117.332256" lat="33.979433"><ele>316.723867</ele><time>2025-03-07T18:41:25Z</time><extensions><speed>1.142946</speed><course>274.024030</course><hAcc>1.462377</hAcc><vAcc>0.765729</vAcc></extensions></trkpt>
      <trkpt lon="-117.332268" lat="33.979433"><ele>316.730320</ele><time>2025-03-07T18:41:26Z</time><extensions><speed>1.167259</speed><course>275.676201</course><hAcc>1.468451</hAcc><vAcc>0.764645</vAcc></extensions></trkpt>
      <trkpt lon="-117.332281" lat="33.979434"><ele>316.739595</ele><time>2025-03-07T18:41:27Z</time><extensions><speed>1.169544</speed><course>276.988967</course><hAcc>1.472114</hAcc><vAcc>0.763558</vAcc></extensions></trkpt>
      <trkpt lon="-117.332294" lat="33.979435"><ele>316.746569</ele><time>2025-03-07T18:41:28Z</time><extensions><speed>1.184184</speed><course>274.080391</course><hAcc>1.474097</hAcc><vAcc>0.762497</vAcc></extensions></trkpt>
      <trkpt lon="-117.332307" lat="33.979435"><ele>316.750754</ele><time>2025-03-07T18:41:29Z</time><extensions><speed>1.191057</speed><course>273.589083</course><hAcc>1.477371</hAcc><vAcc>0.761497</vAcc></extensions></trkpt>
      <trkpt lon="-117.332320" lat="33.979435"><ele>316.751988</ele><time>2025-03-07T18:41:30Z</time><extensions><speed>1.236031</speed><course>272.029015</course><hAcc>1.480385</hAcc><vAcc>0.760586</vAcc></extensions></trkpt>
      <trkpt lon="-117.332333" lat="33.979437"><ele>316.749946</ele><time>2025-03-07T18:41:31Z</time><extensions><speed>1.213380</speed><course>288.886715</course><hAcc>1.484685</hAcc><vAcc>0.759783</vAcc></extensions></trkpt>
      <trkpt lon="-117.332345" lat="33.979442"><ele>316.744804</ele><time>2025-03-07T18:41:32Z</time><extensions><speed>1.204780</speed><course>305.622099</course><hAcc>1.490929</hAcc><vAcc>0.759096</vAcc></extensions></trkpt>
      <trkpt lon="-117.332355" lat="33.979448"><ele>316.736729</ele><time>2025-03-07T18:41:33Z</time><extensions><speed>1.173781</speed><course>315.536592</course><hAcc>1.497731</hAcc><vAcc>0.758526</vAcc></extensions></trkpt>
      <trkpt lon="-117.332368" lat="33.979454"><ele>316.708176</ele><time>2025-03-07T18:41:34Z</time><extensions><speed>1.171720</speed><course>318.810580</course><hAcc>1.480445</hAcc><vAcc>0.758338</vAcc></extensions></trkpt>
      <trkpt lon="-117.332378" lat="33.979461"><ele>316.673579</ele><time>2025-03-07T18:41:35Z</time><extensions><speed>1.155937</speed><course>324.807125</course><hAcc>1.477849</hAcc><vAcc>0.758742</vAcc></extensions></trkpt>
      <trkpt lon="-117.332387" lat="33.979468"><ele>316.628271</ele><time>2025-03-07T18:41:36Z</time><extensions><speed>1.128372</speed><course>329.448367</course><hAcc>1.487205</hAcc><vAcc>0.758973</vAcc></extensions></trkpt>
      <trkpt lon="-117.332396" lat="33.979476"><ele>316.572860</ele><time>2025-03-07T18:41:37Z</time><extensions><speed>1.131551</speed><course>320.951233</course><hAcc>1.492144</hAcc><vAcc>0.759316</vAcc></extensions></trkpt>
      <trkpt lon="-117.332404" lat="33.979484"><ele>316.507520</ele><time>2025-03-07T18:41:38Z</time><extensions><speed>1.150471</speed><course>315.314714</course><hAcc>1.500094</hAcc><vAcc>0.760331</vAcc></extensions></trkpt>
      <trkpt lon="-117.332413" lat="33.979491"><ele>316.439679</ele><time>2025-03-07T18:41:39Z</time><extensions><speed>1.151221</speed><course>315.769527</course><hAcc>1.522709</hAcc><vAcc>0.761418</vAcc></extensions></trkpt>
      <trkpt lon="-117.332423" lat="33.979498"><ele>316.379737</ele><time>2025-03-07T18:41:40Z</time><extensions><speed>1.197390</speed><course>313.200054</course><hAcc>1.535885</hAcc><vAcc>0.762465</vAcc></extensions></trkpt>
      <trkpt lon="-117.332432" lat="33.979506"><ele>316.320176</ele><time>2025-03-07T18:41:41Z</time><extensions><speed>1.195307</speed><course>318.150323</course><hAcc>1.567118</hAcc><vAcc>0.763873</vAcc></extensions></trkpt>
      <trkpt lon="-117.332441" lat="33.979513"><ele>316.257567</ele><time>2025-03-07T18:41:42Z</time><extensions><speed>1.226229</speed><course>310.355694</course><hAcc>1.582103</hAcc><vAcc>0.767836</vAcc></extensions></trkpt>
      <trkpt lon="-117.332452" lat="33.979520"><ele>316.192305</ele><time>2025-03-07T18:41:43Z</time><extensions><speed>1.252628</speed><course>303.276829</course><hAcc>1.591462</hAcc><vAcc>0.773236</vAcc></extensions></trkpt>
      <trkpt lon="-117.332466" lat="33.979524"><ele>316.128897</ele><time>2025-03-07T18:41:44Z</time><extensions><speed>1.622042</speed><course>278.898814</course><hAcc>1.539015</hAcc><vAcc>0.780580</vAcc></extensions></trkpt>
      <trkpt lon="-117.332484" lat="33.979526"><ele>316.073342</ele><time>2025-03-07T18:41:45Z</time><extensions><speed>1.756679</speed><course>275.112156</course><hAcc>1.555180</hAcc><vAcc>0.789813</vAcc></extensions></trkpt>
      <trkpt lon="-117.332502" lat="33.979528"><ele>316.020748</ele><time>2025-03-07T18:41:46Z</time><extensions><speed>1.599549</speed><course>277.656884</course><hAcc>1.612821</hAcc><vAcc>0.801031</vAcc></extensions></trkpt>
      <trkpt lon="-117.332519" lat="33.979529"><ele>315.981364</ele><time>2025-03-07T18:41:47Z</time><extensions><speed>1.417233</speed><course>279.700923</course><hAcc>1.637361</hAcc><vAcc>0.814449</vAcc></extensions></trkpt>
      <trkpt lon="-117.332533" lat="33.979531"><ele>315.959352</ele><time>2025-03-07T18:41:48Z</time><extensions><speed>1.263689</speed><course>278.052394</course><hAcc>1.624220</hAcc><vAcc>0.831558</vAcc></extensions></trkpt>
      <trkpt lon="-117.332546" lat="33.979532"><ele>315.955309</ele><time>2025-03-07T18:41:49Z</time><extensions><speed>1.142651</speed><course>277.903681</course><hAcc>1.614210</hAcc><vAcc>0.850452</vAcc></extensions></trkpt>
      <trkpt lon="-117.332557" lat="33.979534"><ele>315.945761</ele><time>2025-03-07T18:41:50Z</time><extensions><speed>1.051136</speed><course>279.855816</course><hAcc>1.621552</hAcc><vAcc>0.871710</vAcc></extensions></trkpt>
      <trkpt lon="-117.332568" lat="33.979535"><ele>315.945977</ele><time>2025-03-07T18:41:51Z</time><extensions><speed>1.027238</speed><course>277.666994</course><hAcc>1.630646</hAcc><vAcc>0.895398</vAcc></extensions></trkpt>
      <trkpt lon="-117.332579" lat="33.979536"><ele>315.936038</ele><time>2025-03-07T18:41:52Z</time><extensions><speed>1.033434</speed><course>281.637946</course><hAcc>1.652854</hAcc><vAcc>0.920480</vAcc></extensions></trkpt>
      <trkpt lon="-117.332590" lat="33.979538"><ele>315.936623</ele><time>2025-03-07T18:41:53Z</time><extensions><speed>1.029316</speed><course>280.826604</course><hAcc>1.657314</hAcc><vAcc>0.946201</vAcc></extensions></trkpt>
      <trkpt lon="-117.332601" lat="33.979539"><ele>315.936327</ele><time>2025-03-07T18:41:54Z</time><extensions><speed>1.031023</speed><course>278.713591</course><hAcc>1.658577</hAcc><vAcc>0.969385</vAcc></extensions></trkpt>
      <trkpt lon="-117.332612" lat="33.979539"><ele>315.931756</ele><time>2025-03-07T18:41:55Z</time><extensions><speed>1.059510</speed><course>271.114691</course><hAcc>1.666990</hAcc><vAcc>0.989404</vAcc></extensions></trkpt>
      <trkpt lon="-117.332625" lat="33.979538"><ele>315.956207</ele><time>2025-03-07T18:41:56Z</time><extensions><speed>1.216471</speed><course>259.885043</course><hAcc>1.687955</hAcc><vAcc>1.009285</vAcc></extensions></trkpt>
      <trkpt lon="-117.332638" lat="33.979535"><ele>315.971511</ele><time>2025-03-07T18:41:57Z</time><extensions><speed>1.355699</speed><course>255.735218</course><hAcc>1.716385</hAcc><vAcc>1.029175</vAcc></extensions></trkpt>
      <trkpt lon="-117.332652" lat="33.979532"><ele>315.970667</ele><time>2025-03-07T18:41:58Z</time><extensions><speed>1.201140</speed><course>257.312353</course><hAcc>1.753316</hAcc><vAcc>1.046323</vAcc></extensions></trkpt>
      <trkpt lon="-117.332664" lat="33.979529"><ele>315.985834</ele><time>2025-03-07T18:41:59Z</time><extensions><speed>1.064399</speed><course>252.898100</course><hAcc>1.756242</hAcc><vAcc>1.063184</vAcc></extensions></trkpt>
      <trkpt lon="-117.332674" lat="33.979526"><ele>315.999345</ele><time>2025-03-07T18:42:00Z</time><extensions><speed>0.952798</speed><course>248.655106</course><hAcc>1.775712</hAcc><vAcc>1.080403</vAcc></extensions></trkpt>
      <trkpt lon="-117.332683" lat="33.979523"><ele>316.038186</ele><time>2025-03-07T18:42:01Z</time><extensions><speed>0.896952</speed><course>245.006569</course><hAcc>1.778013</hAcc><vAcc>1.095891</vAcc></extensions></trkpt>
      <trkpt lon="-117.332693" lat="33.979520"><ele>316.082695</ele><time>2025-03-07T18:42:02Z</time><extensions><speed>0.896538</speed><course>249.263438</course><hAcc>1.796076</hAcc><vAcc>1.110533</vAcc></extensions></trkpt>
      <trkpt lon="-117.332703" lat="33.979518"><ele>316.135334</ele><time>2025-03-07T18:42:03Z</time><extensions><speed>1.017882</speed><course>258.586195</course><hAcc>1.823414</hAcc><vAcc>1.125124</vAcc></extensions></trkpt>
      <trkpt lon="-117.332714" lat="33.979517"><ele>316.196231</ele><time>2025-03-07T18:42:04Z</time><extensions><speed>1.068886</speed><course>262.138141</course><hAcc>1.830662</hAcc><vAcc>1.137471</vAcc></extensions></trkpt>
      <trkpt lon="-117.332725" lat="33.979517"><ele>316.278326</ele><time>2025-03-07T18:42:05Z</time><extensions><speed>1.022219</speed><course>263.801773</course><hAcc>1.830812</hAcc><vAcc>1.149898</vAcc></extensions></trkpt>
      <trkpt lon="-117.332736" lat="33.979517"><ele>316.360486</ele><time>2025-03-07T18:42:06Z</time><extensions><speed>1.024582</speed><course>269.346986</course><hAcc>1.833746</hAcc><vAcc>1.161643</vAcc></extensions></trkpt>
      <trkpt lon="-117.332747" lat="33.979518"><ele>316.430527</ele><time>2025-03-07T18:42:07Z</time><extensions><speed>1.045357</speed><course>276.608810</course><hAcc>1.855025</hAcc><vAcc>1.173740</vAcc></extensions></trkpt>
      <trkpt lon="-117.332759" lat="33.979520"><ele>316.486547</ele><time>2025-03-07T18:42:08Z</time><extensions><speed>1.090564</speed><course>283.617903</course><hAcc>1.845533</hAcc><vAcc>1.186438</vAcc></extensions></trkpt>
      <trkpt lon="-117.332770" lat="33.979523"><ele>316.537928</ele><time>2025-03-07T18:42:09Z</time><extensions><speed>1.164179</speed><course>289.216419</course><hAcc>1.846732</hAcc><vAcc>1.197380</vAcc></extensions></trkpt>
      <trkpt lon="-117.332782" lat="33.979528"><ele>316.587384</ele><time>2025-03-07T18:42:10Z</time><extensions><speed>1.314258</speed><course>298.555554</course><hAcc>1.842662</hAcc><vAcc>1.208377</vAcc></extensions></trkpt>
      <trkpt lon="-117.332795" lat="33.979536"><ele>316.645602</ele><time>2025-03-07T18:42:11Z</time><extensions><speed>1.488202</speed><course>305.575014</course><hAcc>1.848942</hAcc><vAcc>1.214919</vAcc></extensions></trkpt>
      <trkpt lon="-117.332808" lat="33.979545"><ele>316.693897</ele><time>2025-03-07T18:42:12Z</time><extensions><speed>1.605260</speed><course>312.423538</course><hAcc>1.859056</hAcc><vAcc>1.222185</vAcc></extensions></trkpt>
      <trkpt lon="-117.332820" lat="33.979556"><ele>316.746341</ele><time>2025-03-07T18:42:13Z</time><extensions><speed>1.580710</speed><course>322.069090</course><hAcc>1.864657</hAcc><vAcc>1.227846</vAcc></extensions></trkpt>
      <trkpt lon="-117.332829" lat="33.979568"><ele>316.783198</ele><time>2025-03-07T18:42:14Z</time><extensions><speed>1.594797</speed><course>331.641648</course><hAcc>1.846333</hAcc><vAcc>1.233831</vAcc></extensions></trkpt>
      <trkpt lon="-117.332836" lat="33.979581"><ele>316.823448</ele><time>2025-03-07T18:42:15Z</time><extensions><speed>1.398466</speed><course>340.452133</course><hAcc>1.837000</hAcc><vAcc>1.239562</vAcc></extensions></trkpt>
      <trkpt lon="-117.332840" lat="33.979594"><ele>316.861954</ele><time>2025-03-07T18:42:16Z</time><extensions><speed>1.398683</speed><course>351.305232</course><hAcc>1.830481</hAcc><vAcc>1.244599</vAcc></extensions></trkpt>
      <trkpt lon="-117.332842" lat="33.979607"><ele>316.914524</ele><time>2025-03-07T18:42:17Z</time><extensions><speed>1.553176</speed><course>356.649246</course><hAcc>1.824824</hAcc><vAcc>1.248936</vAcc></extensions></trkpt>
      <trkpt lon="-117.332843" lat="33.979622"><ele>316.959865</ele><time>2025-03-07T18:42:18Z</time><extensions><speed>1.629809</speed><course>358.298914</course><hAcc>1.828717</hAcc><vAcc>1.252744</vAcc></extensions></trkpt>
      <trkpt lon="-117.332844" lat="33.979637"><ele>316.997164</ele><time>2025-03-07T18:42:19Z</time><extensions><speed>1.676086</speed><course>357.413453</course><hAcc>1.836508</hAcc><vAcc>1.257434</vAcc></extensions></trkpt>
      <trkpt lon="-117.332846" lat="33.979652"><ele>317.030913</ele><time>2025-03-07T18:42:20Z</time><extensions><speed>1.552964</speed><course>355.610490</course><hAcc>1.842156</hAcc><vAcc>1.262909</vAcc></extensions></trkpt>
      <trkpt lon="-117.332848" lat="33.979667"><ele>317.055366</ele><time>2025-03-07T18:42:21Z</time><extensions><speed>1.590968</speed><course>353.580870</course><hAcc>1.822770</hAcc><vAcc>1.265669</vAcc></extensions></trkpt>
      <trkpt lon="-117.332850" lat="33.979681"><ele>317.105610</ele><time>2025-03-07T18:42:22Z</time><extensions><speed>1.554242</speed><course>350.906863</course><hAcc>1.821661</hAcc><vAcc>1.266172</vAcc></extensions></trkpt>
      <trkpt lon="-117.332853" lat="33.979695"><ele>317.145341</ele><time>2025-03-07T18:42:23Z</time><extensions><speed>1.501392</speed><course>349.420721</course><hAcc>1.826504</hAcc><vAcc>1.265242</vAcc></extensions></trkpt>
      <trkpt lon="-117.332857" lat="33.979708"><ele>317.199971</ele><time>2025-03-07T18:42:24Z</time><extensions><speed>1.520956</speed><course>347.455298</course><hAcc>1.821798</hAcc><vAcc>1.264701</vAcc></extensions></trkpt>
      <trkpt lon="-117.332860" lat="33.979722"><ele>317.243534</ele><time>2025-03-07T18:42:25Z</time><extensions><speed>1.546947</speed><course>346.948663</course><hAcc>1.822518</hAcc><vAcc>1.259561</vAcc></extensions></trkpt>
      <trkpt lon="-117.332864" lat="33.979736"><ele>317.335100</ele><time>2025-03-07T18:42:26Z</time><extensions><speed>1.534910</speed><course>346.068750</course><hAcc>1.818386</hAcc><vAcc>1.255828</vAcc></extensions></trkpt>
      <trkpt lon="-117.332868" lat="33.979750"><ele>317.453594</ele><time>2025-03-07T18:42:27Z</time><extensions><speed>1.511637</speed><course>347.500235</course><hAcc>1.816396</hAcc><vAcc>1.250618</vAcc></extensions></trkpt>
      <trkpt lon="-117.332871" lat="33.979765"><ele>317.507438</ele><time>2025-03-07T18:42:28Z</time><extensions><speed>1.593410</speed><course>348.456853</course><hAcc>1.801624</hAcc><vAcc>1.243437</vAcc></extensions></trkpt>
      <trkpt lon="-117.332874" lat="33.979779"><ele>317.573398</ele><time>2025-03-07T18:42:29Z</time><extensions><speed>1.621754</speed><course>349.022577</course><hAcc>1.784348</hAcc><vAcc>1.233116</vAcc></extensions></trkpt>
      <trkpt lon="-117.332877" lat="33.979793"><ele>317.644092</ele><time>2025-03-07T18:42:30Z</time><extensions><speed>1.536649</speed><course>349.943095</course><hAcc>1.771146</hAcc><vAcc>1.220809</vAcc></extensions></trkpt>
      <trkpt lon="-117.332880" lat="33.979807"><ele>317.696129</ele><time>2025-03-07T18:42:31Z</time><extensions><speed>1.473108</speed><course>352.778698</course><hAcc>1.765162</hAcc><vAcc>1.209290</vAcc></extensions></trkpt>
      <trkpt lon="-117.332881" lat="33.979820"><ele>317.693661</ele><time>2025-03-07T18:42:32Z</time><extensions><speed>1.416512</speed><course>357.268417</course><hAcc>1.769885</hAcc><vAcc>1.196855</vAcc></extensions></trkpt>
      <trkpt lon="-117.332881" lat="33.979833"><ele>317.688562</ele><time>2025-03-07T18:42:33Z</time><extensions><speed>1.354507</speed><course>5.284999</course><hAcc>1.784631</hAcc><vAcc>1.182947</vAcc></extensions></trkpt>
      <trkpt lon="-117.332878" lat="33.979845"><ele>317.659752</ele><time>2025-03-07T18:42:34Z</time><extensions><speed>1.435325</speed><course>14.233321</course><hAcc>1.783748</hAcc><vAcc>1.167634</vAcc></extensions></trkpt>
      <trkpt lon="-117.332873" lat="33.979858"><ele>317.621290</ele><time>2025-03-07T18:42:35Z</time><extensions><speed>1.555398</speed><course>19.583406</course><hAcc>1.768665</hAcc><vAcc>1.152279</vAcc></extensions></trkpt>
      <trkpt lon="-117.332867" lat="33.979871"><ele>317.591175</ele><time>2025-03-07T18:42:36Z</time><extensions><speed>1.454986</speed><course>21.917734</course><hAcc>1.771359</hAcc><vAcc>1.137345</vAcc></extensions></trkpt>
      <trkpt lon="-117.332861" lat="33.979883"><ele>317.554701</ele><time>2025-03-07T18:42:37Z</time><extensions><speed>1.387378</speed><course>21.490822</course><hAcc>1.803451</hAcc><vAcc>1.122812</vAcc></extensions></trkpt>
      <trkpt lon="-117.332855" lat="33.979895"><ele>317.520621</ele><time>2025-03-07T18:42:38Z</time><extensions><speed>1.353662</speed><course>25.340898</course><hAcc>1.862086</hAcc><vAcc>1.109418</vAcc></extensions></trkpt>
      <trkpt lon="-117.332848" lat="33.979905"><ele>317.499270</ele><time>2025-03-07T18:42:39Z</time><extensions><speed>1.226766</speed><course>31.345870</course><hAcc>1.889976</hAcc><vAcc>1.096367</vAcc></extensions></trkpt>
      <trkpt lon="-117.332841" lat="33.979914"><ele>317.452672</ele><time>2025-03-07T18:42:40Z</time><extensions><speed>1.169362</speed><course>31.613987</course><hAcc>1.889980</hAcc><vAcc>1.083811</vAcc></extensions></trkpt>
      <trkpt lon="-117.332835" lat="33.979924"><ele>317.419702</ele><time>2025-03-07T18:42:41Z</time><extensions><speed>1.158068</speed><course>30.800290</course><hAcc>1.899945</hAcc><vAcc>1.072162</vAcc></extensions></trkpt>
      <trkpt lon="-117.332828" lat="33.979933"><ele>317.402102</ele><time>2025-03-07T18:42:42Z</time><extensions><speed>1.201592</speed><course>29.006380</course><hAcc>1.908457</hAcc><vAcc>1.064054</vAcc></extensions></trkpt>
      <trkpt lon="-117.332822" lat="33.979943"><ele>317.400041</ele><time>2025-03-07T18:42:43Z</time><extensions><speed>1.206717</speed><course>27.132727</course><hAcc>1.908688</hAcc><vAcc>1.057901</vAcc></extensions></trkpt>
      <trkpt lon="-117.332816" lat="33.979953"><ele>317.402870</ele><time>2025-03-07T18:42:44Z</time><extensions><speed>1.167950</speed><course>26.134271</course><hAcc>1.889741</hAcc><vAcc>1.053712</vAcc></extensions></trkpt>
      <trkpt lon="-117.332810" lat="33.979962"><ele>317.389316</ele><time>2025-03-07T18:42:45Z</time><extensions><speed>1.183303</speed><course>25.563797</course><hAcc>1.863194</hAcc><vAcc>1.050527</vAcc></extensions></trkpt>
      <trkpt lon="-117.332805" lat="33.979972"><ele>317.363609</ele><time>2025-03-07T18:42:46Z</time><extensions><speed>1.199331</speed><course>23.873751</course><hAcc>1.853204</hAcc><vAcc>1.047397</vAcc></extensions></trkpt>
      <trkpt lon="-117.332799" lat="33.979982"><ele>317.339357</ele><time>2025-03-07T18:42:47Z</time><extensions><speed>1.274058</speed><course>25.172449</course><hAcc>1.832268</hAcc><vAcc>1.045859</vAcc></extensions></trkpt>
      <trkpt lon="-117.332793" lat="33.979993"><ele>317.293540</ele><time>2025-03-07T18:42:48Z</time><extensions><speed>1.302222</speed><course>27.342843</course><hAcc>1.833376</hAcc><vAcc>1.041762</vAcc></extensions></trkpt>
      <trkpt lon="-117.332785" lat="33.980003"><ele>317.251946</ele><time>2025-03-07T18:42:49Z</time><extensions><speed>1.394716</speed><course>34.438690</course><hAcc>1.812836</hAcc><vAcc>1.039028</vAcc></extensions></trkpt>
      <trkpt lon="-117.332776" lat="33.980013"><ele>317.193638</ele><time>2025-03-07T18:42:50Z</time><extensions><speed>1.376839</speed><course>40.375893</course><hAcc>1.809005</hAcc><vAcc>1.033637</vAcc></extensions></trkpt>
      <trkpt lon="-117.332766" lat="33.980022"><ele>317.129250</ele><time>2025-03-07T18:42:51Z</time><extensions><speed>1.243604</speed><course>47.081331</course><hAcc>1.816462</hAcc><vAcc>1.026167</vAcc></extensions></trkpt>
      <trkpt lon="-117.332756" lat="33.980028"><ele>317.079724</ele><time>2025-03-07T18:42:52Z</time><extensions><speed>1.120222</speed><course>56.066436</course><hAcc>1.829720</hAcc><vAcc>1.020799</vAcc></extensions></trkpt>
      <trkpt lon="-117.332747" lat="33.980033"><ele>316.994481</ele><time>2025-03-07T18:42:53Z</time><extensions><speed>1.020883</speed><course>60.209796</course><hAcc>1.807895</hAcc><vAcc>1.015040</vAcc></extensions></trkpt>
      <trkpt lon="-117.332738" lat="33.980037"><ele>316.918018</ele><time>2025-03-07T18:42:54Z</time><extensions><speed>0.924734</speed><course>64.535306</course><hAcc>1.783428</hAcc><vAcc>1.009667</vAcc></extensions></trkpt>
      <trkpt lon="-117.332729" lat="33.980040"><ele>316.853090</ele><time>2025-03-07T18:42:55Z</time><extensions><speed>0.899117</speed><course>70.618253</course><hAcc>1.782061</hAcc><vAcc>1.002862</vAcc></extensions></trkpt>
      <trkpt lon="-117.332720" lat="33.980042"><ele>316.791555</ele><time>2025-03-07T18:42:56Z</time><extensions><speed>0.988601</speed><course>76.128336</course><hAcc>1.803953</hAcc><vAcc>0.996479</vAcc></extensions></trkpt>
      <trkpt lon="-117.332709" lat="33.980044"><ele>316.731309</ele><time>2025-03-07T18:42:57Z</time><extensions><speed>1.117260</speed><course>79.230516</course><hAcc>1.834892</hAcc><vAcc>0.991202</vAcc></extensions></trkpt>
      <trkpt lon="-117.332699" lat="33.980045"><ele>316.674762</ele><time>2025-03-07T18:42:58Z</time><extensions><speed>0.979452</speed><course>87.299342</course><hAcc>1.825436</hAcc><vAcc>0.986687</vAcc></extensions></trkpt>
      <trkpt lon="-117.332689" lat="33.980045"><ele>316.610149</ele><time>2025-03-07T18:42:59Z</time><extensions><speed>0.897883</speed><course>94.154486</course><hAcc>1.844790</hAcc><vAcc>0.983829</vAcc></extensions></trkpt>
      <trkpt lon="-117.332680" lat="33.980044"><ele>316.555266</ele><time>2025-03-07T18:43:00Z</time><extensions><speed>0.872391</speed><course>101.929666</course><hAcc>1.842596</hAcc><vAcc>0.981667</vAcc></extensions></trkpt>
      <trkpt lon="-117.332670" lat="33.980042"><ele>316.502596</ele><time>2025-03-07T18:43:01Z</time><extensions><speed>1.073004</speed><course>102.842423</course><hAcc>1.905970</hAcc><vAcc>0.980980</vAcc></extensions></trkpt>
      <trkpt lon="-117.332659" lat="33.980039"><ele>316.445802</ele><time>2025-03-07T18:43:02Z</time><extensions><speed>1.066846</speed><course>110.216651</course><hAcc>1.978954</hAcc><vAcc>0.982001</vAcc></extensions></trkpt>
      <trkpt lon="-117.332651" lat="33.980035"><ele>316.409379</ele><time>2025-03-07T18:43:03Z</time><extensions><speed>0.672226</speed><course>122.052906</course><hAcc>1.982994</hAcc><vAcc>0.983601</vAcc></extensions></trkpt>
      <trkpt lon="-117.332647" lat="33.980032"><ele>316.374203</ele><time>2025-03-07T18:43:04Z</time><extensions><speed>0.380756</speed><course>133.976219</course><hAcc>2.000814</hAcc><vAcc>0.986747</vAcc></extensions></trkpt>
      <trkpt lon="-117.332645" lat="33.980031"><ele>316.332025</ele><time>2025-03-07T18:43:05Z</time><extensions><speed>0.196249</speed><course>136.428791</course><hAcc>2.050877</hAcc><vAcc>0.991384</vAcc></extensions></trkpt>
      <trkpt lon="-117.332644" lat="33.980030"><ele>316.282822</ele><time>2025-03-07T18:43:06Z</time><extensions><speed>0.278914</speed><course>91.220948</course><hAcc>2.112535</hAcc><vAcc>0.996728</vAcc></extensions></trkpt>
      <trkpt lon="-117.332640" lat="33.980031"><ele>316.228290</ele><time>2025-03-07T18:43:07Z</time><extensions><speed>0.551876</speed><course>69.433695</course><hAcc>2.182654</hAcc><vAcc>1.001806</vAcc></extensions></trkpt>
      <trkpt lon="-117.332635" lat="33.980032"><ele>316.179987</ele><time>2025-03-07T18:43:08Z</time><extensions><speed>0.592385</speed><course>65.986210</course><hAcc>2.214836</hAcc><vAcc>1.006134</vAcc></extensions></trkpt>
      <trkpt lon="-117.332630" lat="33.980034"><ele>316.137935</ele><time>2025-03-07T18:43:09Z</time><extensions><speed>0.491488</speed><course>66.797098</course><hAcc>2.223055</hAcc><vAcc>1.009785</vAcc></extensions></trkpt>
      <trkpt lon="-117.332627" lat="33.980035"><ele>316.101918</ele><time>2025-03-07T18:43:10Z</time><extensions><speed>0.374418</speed><course>79.234778</course><hAcc>2.220690</hAcc><vAcc>1.015371</vAcc></extensions></trkpt>
      <trkpt lon="-117.332623" lat="33.980035"><ele>316.060693</ele><time>2025-03-07T18:43:11Z</time><extensions><speed>0.420004</speed><course>98.720708</course><hAcc>2.245956</hAcc><vAcc>1.020146</vAcc></extensions></trkpt>
      <trkpt lon="-117.332619" lat="33.980034"><ele>316.030664</ele><time>2025-03-07T18:43:12Z</time><extensions><speed>0.603878</speed><course>108.452810</course><hAcc>2.288691</hAcc><vAcc>1.024170</vAcc></extensions></trkpt>
      <trkpt lon="-117.332612" lat="33.980033"><ele>316.006505</ele><time>2025-03-07T18:43:13Z</time><extensions><speed>0.772446</speed><course>109.620429</course><hAcc>2.317382</hAcc><vAcc>1.027962</vAcc></extensions></trkpt>
      <trkpt lon="-117.332605" lat="33.980031"><ele>315.980918</ele><time>2025-03-07T18:43:14Z</time><extensions><speed>0.732109</speed><course>102.616160</course><hAcc>2.342955</hAcc><vAcc>1.032481</vAcc></extensions></trkpt>
      <trkpt lon="-117.332599" lat="33.980031"><ele>315.939253</ele><time>2025-03-07T18:43:15Z</time><extensions><speed>0.548722</speed><course>96.778523</course><hAcc>2.358967</hAcc><vAcc>1.037116</vAcc></extensions></trkpt>
      <trkpt lon="-117.332595" lat="33.980031"><ele>315.915173</ele><time>2025-03-07T18:43:16Z</time><extensions><speed>0.355788</speed><course>99.186574</course><hAcc>2.359036</hAcc><vAcc>1.040649</vAcc></extensions></trkpt>
      <trkpt lon="-117.332592" lat="33.980031"><ele>315.893443</ele><time>2025-03-07T18:43:17Z</time><extensions><speed>0.295061</speed><course>98.915852</course><hAcc>2.374777</hAcc><vAcc>1.044428</vAcc></extensions></trkpt>
      <trkpt lon="-117.332589" lat="33.980031"><ele>315.875450</ele><time>2025-03-07T18:43:18Z</time><extensions><speed>0.381512</speed><course>94.293691</course><hAcc>2.416774</hAcc><vAcc>1.047245</vAcc></extensions></trkpt>
      <trkpt lon="-117.332584" lat="33.980032"><ele>315.871917</ele><time>2025-03-07T18:43:19Z</time><extensions><speed>0.568969</speed><course>91.049287</course><hAcc>2.475123</hAcc><vAcc>1.049821</vAcc></extensions></trkpt>
      <trkpt lon="-117.332578" lat="33.980033"><ele>315.867496</ele><time>2025-03-07T18:43:20Z</time><extensions><speed>0.716825</speed><course>80.901666</course><hAcc>2.502230</hAcc><vAcc>1.052461</vAcc></extensions></trkpt>
      <trkpt lon="-117.332571" lat="33.980036"><ele>315.876040</ele><time>2025-03-07T18:43:21Z</time><extensions><speed>0.827486</speed><course>70.966719</course><hAcc>2.509176</hAcc><vAcc>1.054452</vAcc></extensions></trkpt>
      <trkpt lon="-117.332563" lat="33.980039"><ele>315.875715</ele><time>2025-03-07T18:43:22Z</time><extensions><speed>0.896104</speed><course>65.868145</course><hAcc>2.524434</hAcc><vAcc>1.056432</vAcc></extensions></trkpt>
      <trkpt lon="-117.332555" lat="33.980043"><ele>315.869614</ele><time>2025-03-07T18:43:23Z</time><extensions><speed>0.904471</speed><course>63.063163</course><hAcc>2.550608</hAcc><vAcc>1.056826</vAcc></extensions></trkpt>
      <trkpt lon="-117.332547" lat="33.980048"><ele>315.838502</ele><time>2025-03-07T18:43:24Z</time><extensions><speed>0.796069</speed><course>57.695956</course><hAcc>2.575649</hAcc><vAcc>1.055428</vAcc></extensions></trkpt>
      <trkpt lon="-117.332543" lat="33.980052"><ele>315.871934</ele><time>2025-03-07T18:43:25Z</time><extensions><speed>0.536523</speed><course>38.793808</course><hAcc>2.589936</hAcc><vAcc>1.054233</vAcc></extensions></trkpt>
      <trkpt lon="-117.332541" lat="33.980056"><ele>315.901979</ele><time>2025-03-07T18:43:26Z</time><extensions><speed>0.438907</speed><course>359.989151</course><hAcc>2.605962</hAcc><vAcc>1.052573</vAcc></extensions></trkpt>
      <trkpt lon="-117.332543" lat="33.980061"><ele>315.918951</ele><time>2025-03-07T18:43:27Z</time><extensions><speed>0.447406</speed><course>347.150297</course><hAcc>2.624689</hAcc><vAcc>1.051294</vAcc></extensions></trkpt>
      <trkpt lon="-117.332544" lat="33.980065"><ele>315.934104</ele><time>2025-03-07T18:43:28Z</time><extensions><speed>0.418823</speed><course>353.489578</course><hAcc>2.636105</hAcc><vAcc>1.049935</vAcc></extensions></trkpt>
      <trkpt lon="-117.332544" lat="33.980070"><ele>315.945073</ele><time>2025-03-07T18:43:29Z</time><extensions><speed>0.293332</speed><course>5.584831</course><hAcc>2.661203</hAcc><vAcc>1.048744</vAcc></extensions></trkpt>
      <trkpt lon="-117.332544" lat="33.980072"><ele>315.956090</ele><time>2025-03-07T18:43:30Z</time><extensions><speed>0.127508</speed><course>29.439068</course><hAcc>2.684817</hAcc><vAcc>1.047464</vAcc></extensions></trkpt>
      <trkpt lon="-117.332544" lat="33.980074"><ele>315.970659</ele><time>2025-03-07T18:43:31Z</time><extensions><speed>0.115903</speed><course>110.707980</course><hAcc>2.688161</hAcc><vAcc>1.045426</vAcc></extensions></trkpt>
      <trkpt lon="-117.332542" lat="33.980073"><ele>315.979465</ele><time>2025-03-07T18:43:32Z</time><extensions><speed>0.458503</speed><course>141.422303</course><hAcc>2.707139</hAcc><vAcc>1.043336</vAcc></extensions></trkpt>
      <trkpt lon="-117.332539" lat="33.980069"><ele>315.990658</ele><time>2025-03-07T18:43:33Z</time><extensions><speed>0.625946</speed><course>150.373525</course><hAcc>2.713279</hAcc><vAcc>1.040837</vAcc></extensions></trkpt>
      <trkpt lon="-117.332536" lat="33.980064"><ele>316.015115</ele><time>2025-03-07T18:43:34Z</time><extensions><speed>0.654519</speed><course>154.348335</course><hAcc>2.712070</hAcc><vAcc>1.038248</vAcc></extensions></trkpt>
      <trkpt lon="-117.332533" lat="33.980059"><ele>316.026019</ele><time>2025-03-07T18:43:35Z</time><extensions><speed>0.671051</speed><course>147.660282</course><hAcc>2.724993</hAcc><vAcc>1.035152</vAcc></extensions></trkpt>
      <trkpt lon="-117.332529" lat="33.980054"><ele>316.036239</ele><time>2025-03-07T18:43:36Z</time><extensions><speed>0.699426</speed><course>141.494288</course><hAcc>2.754003</hAcc><vAcc>1.030609</vAcc></extensions></trkpt>
      <trkpt lon="-117.332523" lat="33.980049"><ele>316.044701</ele><time>2025-03-07T18:43:37Z</time><extensions><speed>0.738005</speed><course>136.184856</course><hAcc>2.789144</hAcc><vAcc>1.026379</vAcc></extensions></trkpt>
      <trkpt lon="-117.332518" lat="33.980045"><ele>316.046728</ele><time>2025-03-07T18:43:38Z</time><extensions><speed>0.609100</speed><course>125.397611</course><hAcc>2.817561</hAcc><vAcc>1.020426</vAcc></extensions></trkpt>
      <trkpt lon="-117.332513" lat="33.980043"><ele>316.052149</ele><time>2025-03-07T18:43:39Z</time><extensions><speed>0.411073</speed><course>111.231888</course><hAcc>2.839384</hAcc><vAcc>1.014122</vAcc></extensions></trkpt>
      <trkpt lon="-117.332510" lat="33.980042"><ele>316.055442</ele><time>2025-03-07T18:43:40Z</time><extensions><speed>0.248040</speed><course>92.576292</course><hAcc>2.869513</hAcc><vAcc>1.008285</vAcc></extensions></trkpt>
      <trkpt lon="-117.332509" lat="33.980042"><ele>316.066953</ele><time>2025-03-07T18:43:41Z</time><extensions><speed>0.160833</speed><course>87.683120</course><hAcc>2.902916</hAcc><vAcc>1.003507</vAcc></extensions></trkpt>
      <trkpt lon="-117.332507" lat="33.980042"><ele>316.065679</ele><time>2025-03-07T18:43:42Z</time><extensions><speed>0.210931</speed><course>114.804585</course><hAcc>2.943462</hAcc><vAcc>0.998395</vAcc></extensions></trkpt>
      <trkpt lon="-117.332505" lat="33.980040"><ele>316.080026</ele><time>2025-03-07T18:43:43Z</time><extensions><speed>0.387451</speed><course>132.847269</course><hAcc>2.988750</hAcc><vAcc>0.992877</vAcc></extensions></trkpt>
      <trkpt lon="-117.332503" lat="33.980037"><ele>316.097009</ele><time>2025-03-07T18:43:44Z</time><extensions><speed>0.528286</speed><course>137.969811</course><hAcc>3.031766</hAcc><vAcc>0.986968</vAcc></extensions></trkpt>
      <trkpt lon="-117.332500" lat="33.980034"><ele>316.104853</ele><time>2025-03-07T18:43:45Z</time><extensions><speed>0.554615</speed><course>133.973607</course><hAcc>3.062170</hAcc><vAcc>0.980583</vAcc></extensions></trkpt>
      <trkpt lon="-117.332497" lat="33.980032"><ele>316.116721</ele><time>2025-03-07T18:43:46Z</time><extensions><speed>0.292002</speed><course>124.502708</course><hAcc>3.061543</hAcc><vAcc>0.975003</vAcc></extensions></trkpt>
      <trkpt lon="-117.332497" lat="33.980032"><ele>316.128493</ele><time>2025-03-07T18:43:47Z</time><extensions><speed>0.144196</speed><course>8.749038</course><hAcc>3.060477</hAcc><vAcc>0.971493</vAcc></extensions></trkpt>
      <trkpt lon="-117.332499" lat="33.980035"><ele>316.140665</ele><time>2025-03-07T18:43:48Z</time><extensions><speed>0.401824</speed><course>338.880101</course><hAcc>3.056747</hAcc><vAcc>0.969581</vAcc></extensions></trkpt>
      <trkpt lon="-117.332502" lat="33.980039"><ele>316.153359</ele><time>2025-03-07T18:43:49Z</time><extensions><speed>0.478799</speed><course>325.550049</course><hAcc>3.067293</hAcc><vAcc>0.969126</vAcc></extensions></trkpt>
      <trkpt lon="-117.332506" lat="33.980042"><ele>316.166411</ele><time>2025-03-07T18:43:50Z</time><extensions><speed>0.544617</speed><course>321.636101</course><hAcc>3.082601</hAcc><vAcc>0.971231</vAcc></extensions></trkpt>
      <trkpt lon="-117.332511" lat="33.980046"><ele>316.184225</ele><time>2025-03-07T18:43:51Z</time><extensions><speed>0.543295</speed><course>308.129786</course><hAcc>3.083549</hAcc><vAcc>0.975352</vAcc></extensions></trkpt>
      <trkpt lon="-117.332517" lat="33.980048"><ele>316.196929</ele><time>2025-03-07T18:43:52Z</time><extensions><speed>0.590703</speed><course>300.538042</course><hAcc>3.066723</hAcc><vAcc>0.980831</vAcc></extensions></trkpt>
      <trkpt lon="-117.332524" lat="33.980050"><ele>316.219994</ele><time>2025-03-07T18:43:53Z</time><extensions><speed>0.626624</speed><course>296.440938</course><hAcc>3.048945</hAcc><vAcc>0.987778</vAcc></extensions></trkpt>
      <trkpt lon="-117.332531" lat="33.980052"><ele>316.233533</ele><time>2025-03-07T18:43:54Z</time><extensions><speed>0.592445</speed><course>292.618219</course><hAcc>3.052133</hAcc><vAcc>0.993554</vAcc></extensions></trkpt>
      <trkpt lon="-117.332537" lat="33.980053"><ele>316.284432</ele><time>2025-03-07T18:43:55Z</time><extensions><speed>0.486818</speed><course>287.471864</course><hAcc>3.091511</hAcc><vAcc>0.999799</vAcc></extensions></trkpt>
      <trkpt lon="-117.332542" lat="33.980053"><ele>316.329794</ele><time>2025-03-07T18:43:56Z</time><extensions><speed>0.285250</speed><course>277.720923</course><hAcc>3.146388</hAcc><vAcc>1.005322</vAcc></extensions></trkpt>
      <trkpt lon="-117.332545" lat="33.980053"><ele>316.362551</ele><time>2025-03-07T18:43:57Z</time><extensions><speed>0.276363</speed><course>266.740051</course><hAcc>3.142500</hAcc><vAcc>1.009205</vAcc></extensions></trkpt>
      <trkpt lon="-117.332549" lat="33.980053"><ele>316.392313</ele><time>2025-03-07T18:43:58Z</time><extensions><speed>0.353367</speed><course>258.503794</course><hAcc>3.114989</hAcc><vAcc>1.015321</vAcc></extensions></trkpt>
      <trkpt lon="-117.332553" lat="33.980052"><ele>316.412331</ele><time>2025-03-07T18:43:59Z</time><extensions><speed>0.392909</speed><course>253.447166</course><hAcc>3.118914</hAcc><vAcc>1.019508</vAcc></extensions></trkpt>
      <trkpt lon="-117.332558" lat="33.980050"><ele>316.426637</ele><time>2025-03-07T18:44:00Z</time><extensions><speed>0.409590</speed><course>249.898621</course><hAcc>3.152412</hAcc><vAcc>1.021081</vAcc></extensions></trkpt>
      <trkpt lon="-117.332563" lat="33.980049"><ele>316.440130</ele><time>2025-03-07T18:44:01Z</time><extensions><speed>0.427756</speed><course>249.114673</course><hAcc>3.195110</hAcc><vAcc>1.022133</vAcc></extensions></trkpt>
      <trkpt lon="-117.332568" lat="33.980047"><ele>316.447855</ele><time>2025-03-07T18:44:02Z</time><extensions><speed>0.430924</speed><course>248.638616</course><hAcc>3.239444</hAcc><vAcc>1.022958</vAcc></extensions></trkpt>
      <trkpt lon="-117.332573" lat="33.980045"><ele>316.453047</ele><time>2025-03-07T18:44:03Z</time><extensions><speed>0.431054</speed><course>251.671748</course><hAcc>3.280484</hAcc><vAcc>1.019735</vAcc></extensions></trkpt>
      <trkpt lon="-117.332577" lat="33.980044"><ele>316.463624</ele><time>2025-03-07T18:44:04Z</time><extensions><speed>0.429132</speed><course>256.094544</course><hAcc>3.313111</hAcc><vAcc>1.016048</vAcc></extensions></trkpt>
      <trkpt lon="-117.332582" lat="33.980043"><ele>316.470548</ele><time>2025-03-07T18:44:05Z</time><extensions><speed>0.451524</speed><course>264.758896</course><hAcc>3.336613</hAcc><vAcc>1.010374</vAcc></extensions></trkpt>
      <trkpt lon="-117.332588" lat="33.980042"><ele>316.472248</ele><time>2025-03-07T18:44:06Z</time><extensions><speed>0.448223</speed><course>266.874391</course><hAcc>3.355212</hAcc><vAcc>1.004776</vAcc></extensions></trkpt>
      <trkpt lon="-117.332592" lat="33.980042"><ele>316.471173</ele><time>2025-03-07T18:44:07Z</time><extensions><speed>0.424052</speed><course>268.231037</course><hAcc>3.379975</hAcc><vAcc>0.998972</vAcc></extensions></trkpt>
      <trkpt lon="-117.332598" lat="33.980041"><ele>316.463809</ele><time>2025-03-07T18:44:08Z</time><extensions><speed>0.364559</speed><course>264.563332</course><hAcc>3.415100</hAcc><vAcc>0.993758</vAcc></extensions></trkpt>
      <trkpt lon="-117.332601" lat="33.980041"><ele>316.458164</ele><time>2025-03-07T18:44:09Z</time><extensions><speed>0.274275</speed><course>255.535732</course><hAcc>3.457632</hAcc><vAcc>0.989364</vAcc></extensions></trkpt>
      <trkpt lon="-117.332604" lat="33.980040"><ele>316.450608</ele><time>2025-03-07T18:44:10Z</time><extensions><speed>0.184717</speed><course>244.955163</course><hAcc>3.482803</hAcc><vAcc>0.983701</vAcc></extensions></trkpt>
      <trkpt lon="-117.332606" lat="33.980039"><ele>316.441932</ele><time>2025-03-07T18:44:11Z</time><extensions><speed>0.190301</speed><course>238.968447</course><hAcc>3.452736</hAcc><vAcc>0.980521</vAcc></extensions></trkpt>
      <trkpt lon="-117.332607" lat="33.980038"><ele>316.434853</ele><time>2025-03-07T18:44:12Z</time><extensions><speed>0.191983</speed><course>235.609551</course><hAcc>3.404375</hAcc><vAcc>0.978089</vAcc></extensions></trkpt>
      <trkpt lon="-117.332608" lat="33.980036"><ele>316.434926</ele><time>2025-03-07T18:44:13Z</time><extensions><speed>0.170931</speed><course>237.392934</course><hAcc>3.371421</hAcc><vAcc>0.976096</vAcc></extensions></trkpt>
      <trkpt lon="-117.332608" lat="33.980036"><ele>316.432537</ele><time>2025-03-07T18:44:14Z</time><extensions><speed>0.141163</speed><course>249.269902</course><hAcc>3.365462</hAcc><vAcc>0.975587</vAcc></extensions></trkpt>
      <trkpt lon="-117.332609" lat="33.980035"><ele>316.426565</ele><time>2025-03-07T18:44:15Z</time><extensions><speed>0.102233</speed><course>255.532545</course><hAcc>3.396635</hAcc><vAcc>0.977082</vAcc></extensions></trkpt>
      <trkpt lon="-117.332609" lat="33.980034"><ele>316.425587</ele><time>2025-03-07T18:44:16Z</time><extensions><speed>0.056775</speed><course>224.128493</course><hAcc>3.449746</hAcc><vAcc>0.980043</vAcc></extensions></trkpt>
      <trkpt lon="-117.332609" lat="33.980033"><ele>316.414718</ele><time>2025-03-07T18:44:17Z</time><extensions><speed>0.051551</speed><course>187.769569</course><hAcc>3.473847</hAcc><vAcc>0.983479</vAcc></extensions></trkpt>
      <trkpt lon="-117.332609" lat="33.980031"><ele>316.403574</ele><time>2025-03-07T18:44:18Z</time><extensions><speed>0.067234</speed><course>168.298968</course><hAcc>3.470055</hAcc><vAcc>0.985926</vAcc></extensions></trkpt>
      <trkpt lon="-117.332610" lat="33.980029"><ele>316.389400</ele><time>2025-03-07T18:44:19Z</time><extensions><speed>0.110178</speed><course>157.325230</course><hAcc>3.458963</hAcc><vAcc>0.987324</vAcc></extensions></trkpt>
      <trkpt lon="-117.332610" lat="33.980027"><ele>316.385298</ele><time>2025-03-07T18:44:20Z</time><extensions><speed>0.151840</speed><course>158.118677</course><hAcc>3.459213</hAcc><vAcc>0.986075</vAcc></extensions></trkpt>
      <trkpt lon="-117.332611" lat="33.980024"><ele>316.389666</ele><time>2025-03-07T18:44:21Z</time><extensions><speed>0.175642</speed><course>163.731777</course><hAcc>3.470335</hAcc><vAcc>0.983958</vAcc></extensions></trkpt>
      <trkpt lon="-117.332612" lat="33.980022"><ele>316.385715</ele><time>2025-03-07T18:44:22Z</time><extensions><speed>0.193435</speed><course>175.134199</course><hAcc>3.478192</hAcc><vAcc>0.980457</vAcc></extensions></trkpt>
      <trkpt lon="-117.332613" lat="33.980020"><ele>316.381993</ele><time>2025-03-07T18:44:23Z</time><extensions><speed>0.219657</speed><course>190.550525</course><hAcc>3.489974</hAcc><vAcc>0.974441</vAcc></extensions></trkpt>
      <trkpt lon="-117.332615" lat="33.980017"><ele>316.378410</ele><time>2025-03-07T18:44:24Z</time><extensions><speed>0.266136</speed><course>205.404971</course><hAcc>3.507088</hAcc><vAcc>0.966842</vAcc></extensions></trkpt>
      <trkpt lon="-117.332618" lat="33.980014"><ele>316.373900</ele><time>2025-03-07T18:44:25Z</time><extensions><speed>0.337481</speed><course>214.191367</course><hAcc>3.525909</hAcc><vAcc>0.957649</vAcc></extensions></trkpt>
      <trkpt lon="-117.332623" lat="33.980011"><ele>316.363911</ele><time>2025-03-07T18:44:26Z</time><extensions><speed>0.417981</speed><course>223.509144</course><hAcc>3.536105</hAcc><vAcc>0.947491</vAcc></extensions></trkpt>
      <trkpt lon="-117.332628" lat="33.980007"><ele>316.375257</ele><time>2025-03-07T18:44:27Z</time><extensions><speed>0.491516</speed><course>230.066210</course><hAcc>3.524943</hAcc><vAcc>0.937212</vAcc></extensions></trkpt>
      <trkpt lon="-117.332635" lat="33.980003"><ele>316.373433</ele><time>2025-03-07T18:44:28Z</time><extensions><speed>0.597938</speed><course>238.279898</course><hAcc>3.484442</hAcc><vAcc>0.926079</vAcc></extensions></trkpt>
      <trkpt lon="-117.332642" lat="33.980000"><ele>316.371023</ele><time>2025-03-07T18:44:29Z</time><extensions><speed>0.650526</speed><course>243.101682</course><hAcc>3.437825</hAcc><vAcc>0.915162</vAcc></extensions></trkpt>
      <trkpt lon="-117.332649" lat="33.979997"><ele>316.367825</ele><time>2025-03-07T18:44:30Z</time><extensions><speed>0.662519</speed><course>247.670171</course><hAcc>3.400301</hAcc><vAcc>0.904556</vAcc></extensions></trkpt>
      <trkpt lon="-117.332655" lat="33.979995"><ele>316.361307</ele><time>2025-03-07T18:44:31Z</time><extensions><speed>0.570954</speed><course>250.172999</course><hAcc>3.402720</hAcc><vAcc>0.894627</vAcc></extensions></trkpt>
      <trkpt lon="-117.332660" lat="33.979994"><ele>316.357172</ele><time>2025-03-07T18:44:32Z</time><extensions><speed>0.337963</speed><course>246.165098</course><hAcc>3.431444</hAcc><vAcc>0.885963</vAcc></extensions></trkpt>
      <trkpt lon="-117.332662" lat="33.979994"><ele>316.353716</ele><time>2025-03-07T18:44:33Z</time><extensions><speed>0.252938</speed><course>243.924545</course><hAcc>3.422200</hAcc><vAcc>0.880212</vAcc></extensions></trkpt>
      <trkpt lon="-117.332665" lat="33.979993"><ele>316.350134</ele><time>2025-03-07T18:44:34Z</time><extensions><speed>0.225530</speed><course>242.916467</course><hAcc>3.375267</hAcc><vAcc>0.876989</vAcc></extensions></trkpt>
      <trkpt lon="-117.332667" lat="33.979993"><ele>316.346420</ele><time>2025-03-07T18:44:35Z</time><extensions><speed>0.237168</speed><course>241.326669</course><hAcc>3.299130</hAcc><vAcc>0.876747</vAcc></extensions></trkpt>
      <trkpt lon="-117.332668" lat="33.979993"><ele>316.342551</ele><time>2025-03-07T18:44:36Z</time><extensions><speed>0.141586</speed><course>222.798186</course><hAcc>3.254638</hAcc><vAcc>0.878430</vAcc></extensions></trkpt>
      <trkpt lon="-117.332668" lat="33.979992"><ele>316.338413</ele><time>2025-03-07T18:44:37Z</time><extensions><speed>0.240893</speed><course>127.360622</course><hAcc>3.269530</hAcc><vAcc>0.885057</vAcc></extensions></trkpt>
      <trkpt lon="-117.332665" lat="33.979991"><ele>316.333988</ele><time>2025-03-07T18:44:38Z</time><extensions><speed>0.326263</speed><course>102.115832</course><hAcc>3.280162</hAcc><vAcc>0.893136</vAcc></extensions></trkpt>
      <trkpt lon="-117.332662" lat="33.979991"><ele>316.329401</ele><time>2025-03-07T18:44:39Z</time><extensions><speed>0.294730</speed><course>83.940472</course><hAcc>3.275894</hAcc><vAcc>0.901675</vAcc></extensions></trkpt>
      <trkpt lon="-117.332657" lat="33.979994"><ele>316.324242</ele><time>2025-03-07T18:44:40Z</time><extensions><speed>0.361081</speed><course>69.393361</course><hAcc>3.271345</hAcc><vAcc>0.909659</vAcc></extensions></trkpt>
      <trkpt lon="-117.332653" lat="33.979997"><ele>316.316755</ele><time>2025-03-07T18:44:41Z</time><extensions><speed>0.401006</speed><course>62.721152</course><hAcc>3.305153</hAcc><vAcc>0.914537</vAcc></extensions></trkpt>
      <trkpt lon="-117.332650" lat="33.980000"><ele>316.312466</ele><time>2025-03-07T18:44:42Z</time><extensions><speed>0.207280</speed><course>39.839251</course><hAcc>3.356367</hAcc><vAcc>0.919882</vAcc></extensions></trkpt>
      <trkpt lon="-117.332649" lat="33.980002"><ele>316.307610</ele><time>2025-03-07T18:44:43Z</time><extensions><speed>0.212724</speed><course>21.248118</course><hAcc>3.353521</hAcc><vAcc>0.925677</vAcc></extensions></trkpt>
      <trkpt lon="-117.332648" lat="33.980005"><ele>316.303059</ele><time>2025-03-07T18:44:44Z</time><extensions><speed>0.294364</speed><course>14.955975</course><hAcc>3.323570</hAcc><vAcc>0.931150</vAcc></extensions></trkpt>
      <trkpt lon="-117.332648" lat="33.980010"><ele>316.303656</ele><time>2025-03-07T18:44:45Z</time><extensions><speed>0.360440</speed><course>11.814296</course><hAcc>3.320594</hAcc><vAcc>0.935754</vAcc></extensions></trkpt>
      <trkpt lon="-117.332647" lat="33.980014"><ele>316.303063</ele><time>2025-03-07T18:44:46Z</time><extensions><speed>0.410404</speed><course>10.164822</course><hAcc>3.345170</hAcc><vAcc>0.939517</vAcc></extensions></trkpt>
      <trkpt lon="-117.332647" lat="33.980020"><ele>316.292867</ele><time>2025-03-07T18:44:47Z</time><extensions><speed>0.460915</speed><course>9.875843</course><hAcc>3.377984</hAcc><vAcc>0.939750</vAcc></extensions></trkpt>
      <trkpt lon="-117.332646" lat="33.980025"><ele>316.269037</ele><time>2025-03-07T18:44:48Z</time><extensions><speed>0.515264</speed><course>11.002061</course><hAcc>3.402704</hAcc><vAcc>0.936146</vAcc></extensions></trkpt>
      <trkpt lon="-117.332645" lat="33.980031"><ele>316.250665</ele><time>2025-03-07T18:44:49Z</time><extensions><speed>0.576851</speed><course>13.721728</course><hAcc>3.410100</hAcc><vAcc>0.930135</vAcc></extensions></trkpt>
      <trkpt lon="-117.332643" lat="33.980037"><ele>316.236671</ele><time>2025-03-07T18:44:50Z</time><extensions><speed>0.662881</speed><course>19.143628</course><hAcc>3.399413</hAcc><vAcc>0.923100</vAcc></extensions></trkpt>
      <trkpt lon="-117.332639" lat="33.980043"><ele>316.222355</ele><time>2025-03-07T18:44:51Z</time><extensions><speed>0.707269</speed><course>20.661608</course><hAcc>3.385285</hAcc><vAcc>0.914551</vAcc></extensions></trkpt>
      <trkpt lon="-117.332636" lat="33.980049"><ele>316.209022</ele><time>2025-03-07T18:44:52Z</time><extensions><speed>0.662568</speed><course>18.434714</course><hAcc>3.390734</hAcc><vAcc>0.904939</vAcc></extensions></trkpt>
      <trkpt lon="-117.332633" lat="33.980055"><ele>316.199192</ele><time>2025-03-07T18:44:53Z</time><extensions><speed>0.587144</speed><course>14.894777</course><hAcc>3.402995</hAcc><vAcc>0.894306</vAcc></extensions></trkpt>
      <trkpt lon="-117.332631" lat="33.980060"><ele>316.200999</ele><time>2025-03-07T18:44:54Z</time><extensions><speed>0.533204</speed><course>15.745787</course><hAcc>3.406332</hAcc><vAcc>0.883122</vAcc></extensions></trkpt>
      <trkpt lon="-117.332630" lat="33.980065"><ele>316.199197</ele><time>2025-03-07T18:44:55Z</time><extensions><speed>0.494200</speed><course>23.476529</course><hAcc>3.392130</hAcc><vAcc>0.871457</vAcc></extensions></trkpt>
      <trkpt lon="-117.332628" lat="33.980068"><ele>316.199388</ele><time>2025-03-07T18:44:56Z</time><extensions><speed>0.538879</speed><course>39.812170</course><hAcc>3.355454</hAcc><vAcc>0.859475</vAcc></extensions></trkpt>
      <trkpt lon="-117.332624" lat="33.980072"><ele>316.201245</ele><time>2025-03-07T18:44:57Z</time><extensions><speed>0.681161</speed><course>58.332985</course><hAcc>3.312901</hAcc><vAcc>0.847116</vAcc></extensions></trkpt>
      <trkpt lon="-117.332618" lat="33.980074"><ele>316.206512</ele><time>2025-03-07T18:44:58Z</time><extensions><speed>0.794166</speed><course>73.553603</course><hAcc>3.277114</hAcc><vAcc>0.835108</vAcc></extensions></trkpt>
      <trkpt lon="-117.332609" lat="33.980075"><ele>316.214943</ele><time>2025-03-07T18:44:59Z</time><extensions><speed>0.876386</speed><course>85.491729</course><hAcc>3.248728</hAcc><vAcc>0.823722</vAcc></extensions></trkpt>
      <trkpt lon="-117.332599" lat="33.980076"><ele>316.226318</ele><time>2025-03-07T18:45:00Z</time><extensions><speed>0.931758</speed><course>89.692454</course><hAcc>3.230769</hAcc><vAcc>0.814283</vAcc></extensions></trkpt>
      <trkpt lon="-117.332589" lat="33.980076"><ele>316.238807</ele><time>2025-03-07T18:45:01Z</time><extensions><speed>0.931042</speed><course>92.855004</course><hAcc>3.218211</hAcc><vAcc>0.806798</vAcc></extensions></trkpt>
      <trkpt lon="-117.332581" lat="33.980076"><ele>316.249222</ele><time>2025-03-07T18:45:02Z</time><extensions><speed>0.717806</speed><course>89.206900</course><hAcc>3.196904</hAcc><vAcc>0.801476</vAcc></extensions></trkpt>
      <trkpt lon="-117.332575" lat="33.980076"><ele>316.258645</ele><time>2025-03-07T18:45:03Z</time><extensions><speed>0.452799</speed><course>87.556148</course><hAcc>3.178618</hAcc><vAcc>0.797983</vAcc></extensions></trkpt>
      <trkpt lon="-117.332571" lat="33.980077"><ele>316.269805</ele><time>2025-03-07T18:45:04Z</time><extensions><speed>0.179971</speed><course>87.064333</course><hAcc>3.161250</hAcc><vAcc>0.796093</vAcc></extensions></trkpt>
      <trkpt lon="-117.332571" lat="33.980077"><ele>316.278278</ele><time>2025-03-07T18:45:05Z</time><extensions><speed>0.015793</speed><course>74.817805</course><hAcc>3.146618</hAcc><vAcc>0.796139</vAcc></extensions></trkpt>
      <trkpt lon="-117.332572" lat="33.980077"><ele>316.288224</ele><time>2025-03-07T18:45:06Z</time><extensions><speed>0.042954</speed><course>287.632562</course><hAcc>3.134162</hAcc><vAcc>0.796504</vAcc></extensions></trkpt>
      <trkpt lon="-117.332573" lat="33.980077"><ele>316.297836</ele><time>2025-03-07T18:45:07Z</time><extensions><speed>0.044890</speed><course>310.760339</course><hAcc>3.119810</hAcc><vAcc>0.796637</vAcc></extensions></trkpt>
      <trkpt lon="-117.332574" lat="33.980077"><ele>316.306433</ele><time>2025-03-07T18:45:08Z</time><extensions><speed>0.054057</speed><course>12.910330</course><hAcc>3.105566</hAcc><vAcc>0.796988</vAcc></extensions></trkpt>
      <trkpt lon="-117.332574" lat="33.980078"><ele>316.311883</ele><time>2025-03-07T18:45:09Z</time><extensions><speed>0.082824</speed><course>353.874701</course><hAcc>3.102414</hAcc><vAcc>0.797403</vAcc></extensions></trkpt>
      <trkpt lon="-117.332576" lat="33.980080"><ele>316.312661</ele><time>2025-03-07T18:45:10Z</time><extensions><speed>0.111058</speed><course>13.350937</course><hAcc>3.101685</hAcc><vAcc>0.797687</vAcc></extensions></trkpt>
      <trkpt lon="-117.332577" lat="33.980081"><ele>316.315839</ele><time>2025-03-07T18:45:11Z</time><extensions><speed>0.130992</speed><course>344.819417</course><hAcc>3.111260</hAcc><vAcc>0.797594</vAcc></extensions></trkpt>
      <trkpt lon="-117.332578" lat="33.980083"><ele>316.318224</ele><time>2025-03-07T18:45:12Z</time><extensions><speed>0.151320</speed><course>314.200904</course><hAcc>3.133287</hAcc><vAcc>0.796884</vAcc></extensions></trkpt>
      <trkpt lon="-117.332581" lat="33.980084"><ele>316.314034</ele><time>2025-03-07T18:45:13Z</time><extensions><speed>0.155636</speed><course>298.294067</course><hAcc>3.153238</hAcc><vAcc>0.795394</vAcc></extensions></trkpt>
      <trkpt lon="-117.332585" lat="33.980086"><ele>316.308191</ele><time>2025-03-07T18:45:14Z</time><extensions><speed>0.159319</speed><course>294.259372</course><hAcc>3.124435</hAcc><vAcc>0.793058</vAcc></extensions></trkpt>
      <trkpt lon="-117.332587" lat="33.980087"><ele>316.296238</ele><time>2025-03-07T18:45:15Z</time><extensions><speed>0.053964</speed><course>321.442360</course><hAcc>3.096708</hAcc><vAcc>0.789910</vAcc></extensions></trkpt>
      <trkpt lon="-117.332589" lat="33.980088"><ele>316.282694</ele><time>2025-03-07T18:45:16Z</time><extensions><speed>0.059333</speed><course>297.509105</course><hAcc>3.085203</hAcc><vAcc>0.786096</vAcc></extensions></trkpt>
      <trkpt lon="-117.332591" lat="33.980089"><ele>316.266824</ele><time>2025-03-07T18:45:17Z</time><extensions><speed>0.178681</speed><course>293.313034</course><hAcc>3.072368</hAcc><vAcc>0.781900</vAcc></extensions></trkpt>
      <trkpt lon="-117.332594" lat="33.980090"><ele>316.244772</ele><time>2025-03-07T18:45:18Z</time><extensions><speed>0.310096</speed><course>296.877533</course><hAcc>3.065362</hAcc><vAcc>0.777653</vAcc></extensions></trkpt>
      <trkpt lon="-117.332599" lat="33.980091"><ele>316.227174</ele><time>2025-03-07T18:45:19Z</time><extensions><speed>0.457604</speed><course>297.163215</course><hAcc>3.061241</hAcc><vAcc>0.773629</vAcc></extensions></trkpt>
      <trkpt lon="-117.332604" lat="33.980093"><ele>316.208796</ele><time>2025-03-07T18:45:20Z</time><extensions><speed>0.596143</speed><course>296.756674</course><hAcc>3.051961</hAcc><vAcc>0.770006</vAcc></extensions></trkpt>
      <trkpt lon="-117.332610" lat="33.980095"><ele>316.187586</ele><time>2025-03-07T18:45:21Z</time><extensions><speed>0.638892</speed><course>294.692476</course><hAcc>3.050519</hAcc><vAcc>0.766881</vAcc></extensions></trkpt>
      <trkpt lon="-117.332616" lat="33.980097"><ele>316.166686</ele><time>2025-03-07T18:45:22Z</time><extensions><speed>0.663052</speed><course>292.201655</course><hAcc>3.041533</hAcc><vAcc>0.764285</vAcc></extensions></trkpt>
      <trkpt lon="-117.332623" lat="33.980098"><ele>316.148537</ele><time>2025-03-07T18:45:23Z</time><extensions><speed>0.585878</speed><course>285.618718</course><hAcc>3.014359</hAcc><vAcc>0.762201</vAcc></extensions></trkpt>
      <trkpt lon="-117.332628" lat="33.980098"><ele>316.132679</ele><time>2025-03-07T18:45:24Z</time><extensions><speed>0.408956</speed><course>271.038342</course><hAcc>2.989322</hAcc><vAcc>0.760581</vAcc></extensions></trkpt>
      <trkpt lon="-117.332631" lat="33.980096"><ele>316.121100</ele><time>2025-03-07T18:45:25Z</time><extensions><speed>0.247580</speed><course>230.012889</course><hAcc>2.976161</hAcc><vAcc>0.759360</vAcc></extensions></trkpt>
      <trkpt lon="-117.332633" lat="33.980093"><ele>316.111448</ele><time>2025-03-07T18:45:26Z</time><extensions><speed>0.333353</speed><course>185.565096</course><hAcc>2.965630</hAcc><vAcc>0.758470</vAcc></extensions></trkpt>
      <trkpt lon="-117.332633" lat="33.980088"><ele>316.103476</ele><time>2025-03-07T18:45:27Z</time><extensions><speed>0.568787</speed><course>173.283586</course><hAcc>2.956242</hAcc><vAcc>0.757842</vAcc></extensions></trkpt>
      <trkpt lon="-117.332633" lat="33.980082"><ele>316.103551</ele><time>2025-03-07T18:45:28Z</time><extensions><speed>0.765027</speed><course>169.097369</course><hAcc>2.955602</hAcc><vAcc>0.757414</vAcc></extensions></trkpt>
      <trkpt lon="-117.332633" lat="33.980074"><ele>316.108083</ele><time>2025-03-07T18:45:29Z</time><extensions><speed>0.880711</speed><course>167.690318</course><hAcc>2.958639</hAcc><vAcc>0.757135</vAcc></extensions></trkpt>
      <trkpt lon="-117.332630" lat="33.980065"><ele>316.118596</ele><time>2025-03-07T18:45:30Z</time><extensions><speed>0.970079</speed><course>161.918151</course><hAcc>2.958926</hAcc><vAcc>0.756961</vAcc></extensions></trkpt>
      <trkpt lon="-117.332627" lat="33.980056"><ele>316.138511</ele><time>2025-03-07T18:45:31Z</time><extensions><speed>1.065290</speed><course>160.672299</course><hAcc>2.955127</hAcc><vAcc>0.756860</vAcc></extensions></trkpt>
      <trkpt lon="-117.332622" lat="33.980047"><ele>316.155210</ele><time>2025-03-07T18:45:32Z</time><extensions><speed>1.155255</speed><course>160.369785</course><hAcc>2.943193</hAcc><vAcc>0.756805</vAcc></extensions></trkpt>
      <trkpt lon="-117.332618" lat="33.980036"><ele>316.176525</ele><time>2025-03-07T18:45:33Z</time><extensions><speed>1.246093</speed><course>161.182742</course><hAcc>2.933612</hAcc><vAcc>0.756779</vAcc></extensions></trkpt>
      <trkpt lon="-117.332613" lat="33.980026"><ele>316.202940</ele><time>2025-03-07T18:45:34Z</time><extensions><speed>1.252147</speed><course>161.632852</course><hAcc>2.926780</hAcc><vAcc>0.756945</vAcc></extensions></trkpt>
      <trkpt lon="-117.332609" lat="33.980015"><ele>316.232150</ele><time>2025-03-07T18:45:35Z</time><extensions><speed>1.194511</speed><course>163.116329</course><hAcc>2.928065</hAcc><vAcc>0.757575</vAcc></extensions></trkpt>
      <trkpt lon="-117.332606" lat="33.980006"><ele>316.266369</ele><time>2025-03-07T18:45:36Z</time><extensions><speed>1.057903</speed><course>166.671428</course><hAcc>2.941278</hAcc><vAcc>0.758248</vAcc></extensions></trkpt>
      <trkpt lon="-117.332604" lat="33.979998"><ele>316.289567</ele><time>2025-03-07T18:45:37Z</time><extensions><speed>0.868152</speed><course>172.826052</course><hAcc>2.964312</hAcc><vAcc>0.759408</vAcc></extensions></trkpt>
      <trkpt lon="-117.332604" lat="33.979991"><ele>316.316891</ele><time>2025-03-07T18:45:38Z</time><extensions><speed>0.644391</speed><course>176.901461</course><hAcc>2.999262</hAcc><vAcc>0.761487</vAcc></extensions></trkpt>
      <trkpt lon="-117.332604" lat="33.979988"><ele>316.345420</ele><time>2025-03-07T18:45:39Z</time><extensions><speed>0.309713</speed><course>163.244297</course><hAcc>3.034341</hAcc><vAcc>0.764386</vAcc></extensions></trkpt>
      <trkpt lon="-117.332603" lat="33.979985"><ele>316.375108</ele><time>2025-03-07T18:45:40Z</time><extensions><speed>0.463706</speed><course>140.243335</course><hAcc>3.020049</hAcc><vAcc>0.768182</vAcc></extensions></trkpt>
      <trkpt lon="-117.332600" lat="33.979982"><ele>316.400939</ele><time>2025-03-07T18:45:41Z</time><extensions><speed>0.545899</speed><course>129.023119</course><hAcc>3.008262</hAcc><vAcc>0.772226</vAcc></extensions></trkpt>
      <trkpt lon="-117.332596" lat="33.979979"><ele>316.424220</ele><time>2025-03-07T18:45:42Z</time><extensions><speed>0.602184</speed><course>122.676228</course><hAcc>3.022922</hAcc><vAcc>0.775961</vAcc></extensions></trkpt>
      <trkpt lon="-117.332591" lat="33.979976"><ele>316.443719</ele><time>2025-03-07T18:45:43Z</time><extensions><speed>0.652213</speed><course>118.665970</course><hAcc>3.059104</hAcc><vAcc>0.779685</vAcc></extensions></trkpt>
      <trkpt lon="-117.332585" lat="33.979974"><ele>316.458568</ele><time>2025-03-07T18:45:44Z</time><extensions><speed>0.705472</speed><course>116.765723</course><hAcc>3.111121</hAcc><vAcc>0.783436</vAcc></extensions></trkpt>
      <trkpt lon="-117.332578" lat="33.979972"><ele>316.438162</ele><time>2025-03-07T18:45:45Z</time><extensions><speed>0.725650</speed><course>116.503968</course><hAcc>3.169184</hAcc><vAcc>0.786954</vAcc></extensions></trkpt>
      <trkpt lon="-117.332572" lat="33.979969"><ele>316.440647</ele><time>2025-03-07T18:45:46Z</time><extensions><speed>0.590268</speed><course>115.405722</course><hAcc>3.204919</hAcc><vAcc>0.789939</vAcc></extensions></trkpt>
      <trkpt lon="-117.332565" lat="33.979968"><ele>316.444897</ele><time>2025-03-07T18:45:47Z</time><extensions><speed>0.476515</speed><course>114.772479</course><hAcc>3.245077</hAcc><vAcc>0.792597</vAcc></extensions></trkpt>
      <trkpt lon="-117.332560" lat="33.979967"><ele>316.452654</ele><time>2025-03-07T18:45:48Z</time><extensions><speed>0.477443</speed><course>114.892179</course><hAcc>3.295817</hAcc><vAcc>0.794849</vAcc></extensions></trkpt>
      <trkpt lon="-117.332556" lat="33.979966"><ele>316.458237</ele><time>2025-03-07T18:45:49Z</time><extensions><speed>0.432822</speed><course>116.781300</course><hAcc>3.344858</hAcc><vAcc>0.796720</vAcc></extensions></trkpt>
      <trkpt lon="-117.332553" lat="33.979964"><ele>316.467187</ele><time>2025-03-07T18:45:50Z</time><extensions><speed>0.311143</speed><course>128.572587</course><hAcc>3.385908</hAcc><vAcc>0.798411</vAcc></extensions></trkpt>
      <trkpt lon="-117.332552" lat="33.979962"><ele>316.475410</ele><time>2025-03-07T18:45:51Z</time><extensions><speed>0.205471</speed><course>128.253053</course><hAcc>3.401867</hAcc><vAcc>0.800225</vAcc></extensions></trkpt>
      <trkpt lon="-117.332550" lat="33.979960"><ele>316.485066</ele><time>2025-03-07T18:45:52Z</time><extensions><speed>0.355949</speed><course>129.550826</course><hAcc>3.392820</hAcc><vAcc>0.802741</vAcc></extensions></trkpt>
      <trkpt lon="-117.332548" lat="33.979958"><ele>316.502749</ele><time>2025-03-07T18:45:53Z</time><extensions><speed>0.409987</speed><course>127.555166</course><hAcc>3.390614</hAcc><vAcc>0.806401</vAcc></extensions></trkpt>
      <trkpt lon="-117.332545" lat="33.979955"><ele>316.529133</ele><time>2025-03-07T18:45:54Z</time><extensions><speed>0.384700</speed><course>119.703348</course><hAcc>3.397255</hAcc><vAcc>0.811361</vAcc></extensions></trkpt>
      <trkpt lon="-117.332543" lat="33.979953"><ele>316.547670</ele><time>2025-03-07T18:45:55Z</time><extensions><speed>0.342270</speed><course>122.001759</course><hAcc>3.383345</hAcc><vAcc>0.818191</vAcc></extensions></trkpt>
      <trkpt lon="-117.332541" lat="33.979951"><ele>316.563715</ele><time>2025-03-07T18:45:56Z</time><extensions><speed>0.341830</speed><course>128.112664</course><hAcc>3.366982</hAcc><vAcc>0.826786</vAcc></extensions></trkpt>
      <trkpt lon="-117.332539" lat="33.979948"><ele>316.577883</ele><time>2025-03-07T18:45:57Z</time><extensions><speed>0.472067</speed><course>135.252700</course><hAcc>3.363795</hAcc><vAcc>0.836531</vAcc></extensions></trkpt>
      <trkpt lon="-117.332538" lat="33.979945"><ele>316.584050</ele><time>2025-03-07T18:45:58Z</time><extensions><speed>0.552746</speed><course>138.951063</course><hAcc>3.375327</hAcc><vAcc>0.847969</vAcc></extensions></trkpt>
      <trkpt lon="-117.332536" lat="33.979941"><ele>316.588563</ele><time>2025-03-07T18:45:59Z</time><extensions><speed>0.657167</speed><course>148.650386</course><hAcc>3.385827</hAcc><vAcc>0.860373</vAcc></extensions></trkpt>
      <trkpt lon="-117.332534" lat="33.979936"><ele>316.590007</ele><time>2025-03-07T18:46:00Z</time><extensions><speed>0.710107</speed><course>155.273539</course><hAcc>3.399737</hAcc><vAcc>0.872511</vAcc></extensions></trkpt>
      <trkpt lon="-117.332533" lat="33.979931"><ele>316.596913</ele><time>2025-03-07T18:46:01Z</time><extensions><speed>0.733396</speed><course>155.887946</course><hAcc>3.412610</hAcc><vAcc>0.884521</vAcc></extensions></trkpt>
      <trkpt lon="-117.332532" lat="33.979927"><ele>316.603047</ele><time>2025-03-07T18:46:02Z</time><extensions><speed>0.542897</speed><course>158.341447</course><hAcc>3.400690</hAcc><vAcc>0.897106</vAcc></extensions></trkpt>
      <trkpt lon="-117.332530" lat="33.979924"><ele>316.599156</ele><time>2025-03-07T18:46:03Z</time><extensions><speed>0.572820</speed><course>143.018813</course><hAcc>3.397180</hAcc><vAcc>0.908890</vAcc></extensions></trkpt>
      <trkpt lon="-117.332527" lat="33.979922"><ele>316.581934</ele><time>2025-03-07T18:46:04Z</time><extensions><speed>0.711289</speed><course>128.940747</course><hAcc>3.414830</hAcc><vAcc>0.920704</vAcc></extensions></trkpt>
      <trkpt lon="-117.332523" lat="33.979920"><ele>316.557899</ele><time>2025-03-07T18:46:05Z</time><extensions><speed>0.589681</speed><course>129.087345</course><hAcc>3.415092</hAcc><vAcc>0.930881</vAcc></extensions></trkpt>
      <trkpt lon="-117.332520" lat="33.979920"><ele>316.539900</ele><time>2025-03-07T18:46:06Z</time><extensions><speed>0.247592</speed><course>131.160511</course><hAcc>3.391497</hAcc><vAcc>0.939939</vAcc></extensions></trkpt>
      <trkpt lon="-117.332521" lat="33.979921"><ele>316.531883</ele><time>2025-03-07T18:46:07Z</time><extensions><speed>0.069908</speed><course>356.869407</course><hAcc>3.375456</hAcc><vAcc>0.946780</vAcc></extensions></trkpt>
      <trkpt lon="-117.332521" lat="33.979924"><ele>316.531699</ele><time>2025-03-07T18:46:08Z</time><extensions><speed>0.308133</speed><course>334.279001</course><hAcc>3.375043</hAcc><vAcc>0.953603</vAcc></extensions></trkpt>
      <trkpt lon="-117.332523" lat="33.979928"><ele>316.522025</ele><time>2025-03-07T18:46:09Z</time><extensions><speed>0.491757</speed><course>331.504777</course><hAcc>3.387509</hAcc><vAcc>0.961498</vAcc></extensions></trkpt>
      <trkpt lon="-117.332526" lat="33.979933"><ele>316.515395</ele><time>2025-03-07T18:46:10Z</time><extensions><speed>0.588665</speed><course>332.583739</course><hAcc>3.404742</hAcc><vAcc>0.968209</vAcc></extensions></trkpt>
      <trkpt lon="-117.332529" lat="33.979940"><ele>316.499248</ele><time>2025-03-07T18:46:11Z</time><extensions><speed>0.642537</speed><course>336.185390</course><hAcc>3.418882</hAcc><vAcc>0.974555</vAcc></extensions></trkpt>
      <trkpt lon="-117.332532" lat="33.979946"><ele>316.476930</ele><time>2025-03-07T18:46:12Z</time><extensions><speed>0.684549</speed><course>340.126882</course><hAcc>3.427110</hAcc><vAcc>0.980509</vAcc></extensions></trkpt>
      <trkpt lon="-117.332536" lat="33.979954"><ele>316.438867</ele><time>2025-03-07T18:46:13Z</time><extensions><speed>0.691954</speed><course>342.684772</course><hAcc>3.436344</hAcc><vAcc>0.984820</vAcc></extensions></trkpt>
      <trkpt lon="-117.332539" lat="33.979961"><ele>316.402469</ele><time>2025-03-07T18:46:14Z</time><extensions><speed>0.679964</speed><course>344.374137</course><hAcc>3.442927</hAcc><vAcc>0.986390</vAcc></extensions></trkpt>
      <trkpt lon="-117.332542" lat="33.979968"><ele>316.359486</ele><time>2025-03-07T18:46:15Z</time><extensions><speed>0.675383</speed><course>345.215272</course><hAcc>3.444022</hAcc><vAcc>0.982265</vAcc></extensions></trkpt>
      <trkpt lon="-117.332546" lat="33.979975"><ele>316.331264</ele><time>2025-03-07T18:46:16Z</time><extensions><speed>0.621332</speed><course>344.663418</course><hAcc>3.458676</hAcc><vAcc>0.979104</vAcc></extensions></trkpt>
      <trkpt lon="-117.332549" lat="33.979981"><ele>316.296928</ele><time>2025-03-07T18:46:17Z</time><extensions><speed>0.570751</speed><course>343.669774</course><hAcc>3.480376</hAcc><vAcc>0.973313</vAcc></extensions></trkpt>
      <trkpt lon="-117.332552" lat="33.979987"><ele>316.258738</ele><time>2025-03-07T18:46:18Z</time><extensions><speed>0.470612</speed><course>341.727925</course><hAcc>3.508826</hAcc><vAcc>0.968129</vAcc></extensions></trkpt>
      <trkpt lon="-117.332555" lat="33.979992"><ele>316.222559</ele><time>2025-03-07T18:46:19Z</time><extensions><speed>0.526341</speed><course>340.521362</course><hAcc>3.502889</hAcc><vAcc>0.959704</vAcc></extensions></trkpt>
      <trkpt lon="-117.332558" lat="33.979997"><ele>316.187766</ele><time>2025-03-07T18:46:20Z</time><extensions><speed>0.574453</speed><course>335.750330</course><hAcc>3.506171</hAcc><vAcc>0.949129</vAcc></extensions></trkpt>
      <trkpt lon="-117.332561" lat="33.980003"><ele>316.162422</ele><time>2025-03-07T18:46:21Z</time><extensions><speed>0.614248</speed><course>330.962146</course><hAcc>3.527384</hAcc><vAcc>0.937269</vAcc></extensions></trkpt>
      <trkpt lon="-117.332565" lat="33.980009"><ele>316.144011</ele><time>2025-03-07T18:46:22Z</time><extensions><speed>0.654831</speed><course>322.529306</course><hAcc>3.561003</hAcc><vAcc>0.924043</vAcc></extensions></trkpt>
      <trkpt lon="-117.332571" lat="33.980013"><ele>316.131215</ele><time>2025-03-07T18:46:23Z</time><extensions><speed>0.704076</speed><course>311.085396</course><hAcc>3.596790</hAcc><vAcc>0.909551</vAcc></extensions></trkpt>
      <trkpt lon="-117.332579" lat="33.980018"><ele>316.120492</ele><time>2025-03-07T18:46:24Z</time><extensions><speed>0.793463</speed><course>301.360484</course><hAcc>3.641238</hAcc><vAcc>0.894079</vAcc></extensions></trkpt>
      <trkpt lon="-117.332588" lat="33.980022"><ele>316.114083</ele><time>2025-03-07T18:46:25Z</time><extensions><speed>0.887326</speed><course>291.565983</course><hAcc>3.697658</hAcc><vAcc>0.878065</vAcc></extensions></trkpt>
      <trkpt lon="-117.332598" lat="33.980026"><ele>316.110182</ele><time>2025-03-07T18:46:26Z</time><extensions><speed>0.945363</speed><course>289.198295</course><hAcc>3.746703</hAcc><vAcc>0.861999</vAcc></extensions></trkpt>
      <trkpt lon="-117.332607" lat="33.980031"><ele>316.109201</ele><time>2025-03-07T18:46:27Z</time><extensions><speed>0.912388</speed><course>292.012267</course><hAcc>3.775612</hAcc><vAcc>0.846312</vAcc></extensions></trkpt>
      <trkpt lon="-117.332616" lat="33.980036"><ele>316.117186</ele><time>2025-03-07T18:46:28Z</time><extensions><speed>0.813161</speed><course>300.936963</course><hAcc>3.785339</hAcc><vAcc>0.831373</vAcc></extensions></trkpt>
      <trkpt lon="-117.332622" lat="33.980042"><ele>316.125308</ele><time>2025-03-07T18:46:29Z</time><extensions><speed>0.790141</speed><course>309.530320</course><hAcc>3.777645</hAcc><vAcc>0.817512</vAcc></extensions></trkpt>
      <trkpt lon="-117.332628" lat="33.980049"><ele>316.135976</ele><time>2025-03-07T18:46:30Z</time><extensions><speed>0.818519</speed><course>316.426192</course><hAcc>3.759487</hAcc><vAcc>0.805047</vAcc></extensions></trkpt>
      <trkpt lon="-117.332633" lat="33.980056"><ele>316.140462</ele><time>2025-03-07T18:46:31Z</time><extensions><speed>0.837066</speed><course>321.129099</course><hAcc>3.744626</hAcc><vAcc>0.794219</vAcc></extensions></trkpt>
      <trkpt lon="-117.332638" lat="33.980063"><ele>316.146675</ele><time>2025-03-07T18:46:32Z</time><extensions><speed>0.839273</speed><course>322.472508</course><hAcc>3.732545</hAcc><vAcc>0.785410</vAcc></extensions></trkpt>
      <trkpt lon="-117.332643" lat="33.980068"><ele>316.148748</ele><time>2025-03-07T18:46:33Z</time><extensions><speed>0.831264</speed><course>321.172797</course><hAcc>3.722210</hAcc><vAcc>0.778723</vAcc></extensions></trkpt>
      <trkpt lon="-117.332648" lat="33.980073"><ele>316.156019</ele><time>2025-03-07T18:46:34Z</time><extensions><speed>0.782949</speed><course>327.857027</course><hAcc>3.713754</hAcc><vAcc>0.774080</vAcc></extensions></trkpt>
      <trkpt lon="-117.332653" lat="33.980079"><ele>316.164236</ele><time>2025-03-07T18:46:35Z</time><extensions><speed>0.766075</speed><course>331.392920</course><hAcc>3.707514</hAcc><vAcc>0.771649</vAcc></extensions></trkpt>
      <trkpt lon="-117.332657" lat="33.980084"><ele>316.166171</ele><time>2025-03-07T18:46:36Z</time><extensions><speed>0.749558</speed><course>332.068144</course><hAcc>3.710373</hAcc><vAcc>0.771619</vAcc></extensions></trkpt>
      <trkpt lon="-117.332660" lat="33.980089"><ele>316.164461</ele><time>2025-03-07T18:46:37Z</time><extensions><speed>0.733079</speed><course>335.800608</course><hAcc>3.720907</hAcc><vAcc>0.773993</vAcc></extensions></trkpt>
      <trkpt lon="-117.332662" lat="33.980095"><ele>316.157297</ele><time>2025-03-07T18:46:38Z</time><extensions><speed>0.624226</speed><course>344.763433</course><hAcc>3.726971</hAcc><vAcc>0.779329</vAcc></extensions></trkpt>
      <trkpt lon="-117.332662" lat="33.980099"><ele>316.148888</ele><time>2025-03-07T18:46:39Z</time><extensions><speed>0.466392</speed><course>355.104611</course><hAcc>3.719834</hAcc><vAcc>0.787527</vAcc></extensions></trkpt>
      <trkpt lon="-117.332661" lat="33.980102"><ele>316.138251</ele><time>2025-03-07T18:46:40Z</time><extensions><speed>0.268077</speed><course>8.706494</course><hAcc>3.738444</hAcc><vAcc>0.798962</vAcc></extensions></trkpt>
      <trkpt lon="-117.332660" lat="33.980103"><ele>316.125917</ele><time>2025-03-07T18:46:41Z</time><extensions><speed>0.115390</speed><course>44.446153</course><hAcc>3.773750</hAcc><vAcc>0.813339</vAcc></extensions></trkpt>
      <trkpt lon="-117.332657" lat="33.980101"><ele>316.117910</ele><time>2025-03-07T18:46:42Z</time><extensions><speed>0.122495</speed><course>122.185789</course><hAcc>3.811625</hAcc><vAcc>0.829920</vAcc></extensions></trkpt>
      <trkpt lon="-117.332655" lat="33.980098"><ele>316.112275</ele><time>2025-03-07T18:46:43Z</time><extensions><speed>0.201762</speed><course>142.055911</course><hAcc>3.852815</hAcc><vAcc>0.850620</vAcc></extensions></trkpt>
      <trkpt lon="-117.332652" lat="33.980094"><ele>316.110531</ele><time>2025-03-07T18:46:44Z</time><extensions><speed>0.264241</speed><course>146.492588</course><hAcc>3.890845</hAcc><vAcc>0.872516</vAcc></extensions></trkpt>
      <trkpt lon="-117.332649" lat="33.980089"><ele>316.110511</ele><time>2025-03-07T18:46:45Z</time><extensions><speed>0.331962</speed><course>146.984529</course><hAcc>3.924016</hAcc><vAcc>0.894283</vAcc></extensions></trkpt>
      <trkpt lon="-117.332645" lat="33.980083"><ele>316.118941</ele><time>2025-03-07T18:46:46Z</time><extensions><speed>0.414978</speed><course>146.521562</course><hAcc>3.953100</hAcc><vAcc>0.914796</vAcc></extensions></trkpt>
      <trkpt lon="-117.332641" lat="33.980075"><ele>316.125411</ele><time>2025-03-07T18:46:47Z</time><extensions><speed>0.522475</speed><course>147.912328</course><hAcc>3.985426</hAcc><vAcc>0.935215</vAcc></extensions></trkpt>
      <trkpt lon="-117.332636" lat="33.980066"><ele>316.138650</ele><time>2025-03-07T18:46:48Z</time><extensions><speed>0.637522</speed><course>149.940088</course><hAcc>4.016027</hAcc><vAcc>0.952774</vAcc></extensions></trkpt>
      <trkpt lon="-117.332631" lat="33.980057"><ele>316.141982</ele><time>2025-03-07T18:46:49Z</time><extensions><speed>0.733578</speed><course>151.489904</course><hAcc>4.037115</hAcc><vAcc>0.967592</vAcc></extensions></trkpt>
      <trkpt lon="-117.332625" lat="33.980048"><ele>316.157583</ele><time>2025-03-07T18:46:50Z</time><extensions><speed>0.812866</speed><course>152.822608</course><hAcc>4.044051</hAcc><vAcc>0.979246</vAcc></extensions></trkpt>
      <trkpt lon="-117.332619" lat="33.980038"><ele>316.170465</ele><time>2025-03-07T18:46:51Z</time><extensions><speed>0.880220</speed><course>153.807444</course><hAcc>4.031333</hAcc><vAcc>0.988212</vAcc></extensions></trkpt>
      <trkpt lon="-117.332614" lat="33.980029"><ele>316.174353</ele><time>2025-03-07T18:46:52Z</time><extensions><speed>0.931130</speed><course>154.112947</course><hAcc>4.004283</hAcc><vAcc>0.992387</vAcc></extensions></trkpt>
      <trkpt lon="-117.332608" lat="33.980019"><ele>316.184492</ele><time>2025-03-07T18:46:53Z</time><extensions><speed>0.960771</speed><course>153.272457</course><hAcc>3.972209</hAcc><vAcc>0.988038</vAcc></extensions></trkpt>
      <trkpt lon="-117.332604" lat="33.980010"><ele>316.197230</ele><time>2025-03-07T18:46:54Z</time><extensions><speed>0.935863</speed><course>154.575546</course><hAcc>3.948507</hAcc><vAcc>0.983453</vAcc></extensions></trkpt>
      <trkpt lon="-117.332599" lat="33.980001"><ele>316.208985</ele><time>2025-03-07T18:46:55Z</time><extensions><speed>0.904083</speed><course>154.559460</course><hAcc>3.914838</hAcc><vAcc>0.977105</vAcc></extensions></trkpt>
      <trkpt lon="-117.332594" lat="33.979994"><ele>316.218939</ele><time>2025-03-07T18:46:56Z</time><extensions><speed>0.871823</speed><course>152.650640</course><hAcc>3.867864</hAcc><vAcc>0.966587</vAcc></extensions></trkpt>
      <trkpt lon="-117.332590" lat="33.979986"><ele>316.227141</ele><time>2025-03-07T18:46:57Z</time><extensions><speed>0.803921</speed><course>153.598558</course><hAcc>3.822003</hAcc><vAcc>0.953804</vAcc></extensions></trkpt>
      <trkpt lon="-117.332588" lat="33.979979"><ele>316.231412</ele><time>2025-03-07T18:46:58Z</time><extensions><speed>0.732478</speed><course>154.593678</course><hAcc>3.772302</hAcc><vAcc>0.938948</vAcc></extensions></trkpt>
      <trkpt lon="-117.332586" lat="33.979972"><ele>316.244535</ele><time>2025-03-07T18:46:59Z</time><extensions><speed>0.611204</speed><course>157.791252</course><hAcc>3.721815</hAcc><vAcc>0.922364</vAcc></extensions></trkpt>
      <trkpt lon="-117.332585" lat="33.979966"><ele>316.250348</ele><time>2025-03-07T18:47:00Z</time><extensions><speed>0.545611</speed><course>160.609933</course><hAcc>3.655047</hAcc><vAcc>0.904514</vAcc></extensions></trkpt>
      <trkpt lon="-117.332585" lat="33.979961"><ele>316.257537</ele><time>2025-03-07T18:47:01Z</time><extensions><speed>0.458989</speed><course>167.694924</course><hAcc>3.590371</hAcc><vAcc>0.885953</vAcc></extensions></trkpt>
      <trkpt lon="-117.332585" lat="33.979956"><ele>316.267563</ele><time>2025-03-07T18:47:02Z</time><extensions><speed>0.433348</speed><course>176.254011</course><hAcc>3.514324</hAcc><vAcc>0.867311</vAcc></extensions></trkpt>
      <trkpt lon="-117.332585" lat="33.979952"><ele>316.277996</ele><time>2025-03-07T18:47:03Z</time><extensions><speed>0.406247</speed><course>185.288700</course><hAcc>3.448505</hAcc><vAcc>0.849274</vAcc></extensions></trkpt>
      <trkpt lon="-117.332585" lat="33.979949"><ele>316.287129</ele><time>2025-03-07T18:47:04Z</time><extensions><speed>0.353355</speed><course>192.043918</course><hAcc>3.413345</hAcc><vAcc>0.832468</vAcc></extensions></trkpt>
      <trkpt lon="-117.332586" lat="33.979947"><ele>316.292896</ele><time>2025-03-07T18:47:05Z</time><extensions><speed>0.292487</speed><course>202.477593</course><hAcc>3.387962</hAcc><vAcc>0.817309</vAcc></extensions></trkpt>
      <trkpt lon="-117.332588" lat="33.979945"><ele>316.297927</ele><time>2025-03-07T18:47:06Z</time><extensions><speed>0.295498</speed><course>212.812813</course><hAcc>3.349123</hAcc><vAcc>0.804039</vAcc></extensions></trkpt>
      <trkpt lon="-117.332590" lat="33.979943"><ele>316.307917</ele><time>2025-03-07T18:47:07Z</time><extensions><speed>0.298543</speed><course>222.204947</course><hAcc>3.302840</hAcc><vAcc>0.792786</vAcc></extensions></trkpt>
      <trkpt lon="-117.332594" lat="33.979942"><ele>316.313258</ele><time>2025-03-07T18:47:08Z</time><extensions><speed>0.276076</speed><course>231.711624</course><hAcc>3.272674</hAcc><vAcc>0.783548</vAcc></extensions></trkpt>
      <trkpt lon="-117.332598" lat="33.979941"><ele>316.322186</ele><time>2025-03-07T18:47:09Z</time><extensions><speed>0.223391</speed><course>245.006932</course><hAcc>3.241022</hAcc><vAcc>0.776191</vAcc></extensions></trkpt>
      <trkpt lon="-117.332601" lat="33.979940"><ele>316.328453</ele><time>2025-03-07T18:47:10Z</time><extensions><speed>0.253789</speed><course>261.720940</course><hAcc>3.157287</hAcc><vAcc>0.770504</vAcc></extensions></trkpt>
      <trkpt lon="-117.332605" lat="33.979940"><ele>316.341701</ele><time>2025-03-07T18:47:11Z</time><extensions><speed>0.257804</speed><course>280.143762</course><hAcc>3.085890</hAcc><vAcc>0.766235</vAcc></extensions></trkpt>
      <trkpt lon="-117.332609" lat="33.979941"><ele>316.352758</ele><time>2025-03-07T18:47:12Z</time><extensions><speed>0.293329</speed><course>296.476954</course><hAcc>3.032989</hAcc><vAcc>0.763122</vAcc></extensions></trkpt>
      <trkpt lon="-117.332613" lat="33.979943"><ele>316.367175</ele><time>2025-03-07T18:47:13Z</time><extensions><speed>0.365201</speed><course>305.659525</course><hAcc>2.980411</hAcc><vAcc>0.760920</vAcc></extensions></trkpt>
      <trkpt lon="-117.332617" lat="33.979945"><ele>316.380646</ele><time>2025-03-07T18:47:14Z</time><extensions><speed>0.400561</speed><course>303.610603</course><hAcc>2.954992</hAcc><vAcc>0.759411</vAcc></extensions></trkpt>
      <trkpt lon="-117.332621" lat="33.979947"><ele>316.380205</ele><time>2025-03-07T18:47:15Z</time><extensions><speed>0.357918</speed><course>295.826826</course><hAcc>2.975701</hAcc><vAcc>0.758412</vAcc></extensions></trkpt>
      <trkpt lon="-117.332624" lat="33.979948"><ele>316.377453</ele><time>2025-03-07T18:47:16Z</time><extensions><speed>0.290037</speed><course>289.383141</course><hAcc>2.988973</hAcc><vAcc>0.757775</vAcc></extensions></trkpt>
      <trkpt lon="-117.332628" lat="33.979949"><ele>316.375780</ele><time>2025-03-07T18:47:17Z</time><extensions><speed>0.410083</speed><course>286.515742</course><hAcc>2.933762</hAcc><vAcc>0.757386</vAcc></extensions></trkpt>
      <trkpt lon="-117.332632" lat="33.979949"><ele>316.375939</ele><time>2025-03-07T18:47:18Z</time><extensions><speed>0.417726</speed><course>282.962603</course><hAcc>2.892650</hAcc><vAcc>0.757161</vAcc></extensions></trkpt>
      <trkpt lon="-117.332637" lat="33.979950"><ele>316.375098</ele><time>2025-03-07T18:47:19Z</time><extensions><speed>0.371383</speed><course>282.795459</course><hAcc>2.868003</hAcc><vAcc>0.757037</vAcc></extensions></trkpt>
      <trkpt lon="-117.332640" lat="33.979950"><ele>316.376294</ele><time>2025-03-07T18:47:20Z</time><extensions><speed>0.331372</speed><course>286.848199</course><hAcc>2.824784</hAcc><vAcc>0.756973</vAcc></extensions></trkpt>
      <trkpt lon="-117.332643" lat="33.979949"><ele>316.378001</ele><time>2025-03-07T18:47:21Z</time><extensions><speed>0.226157</speed><course>295.144102</course><hAcc>2.777494</hAcc><vAcc>0.756941</vAcc></extensions></trkpt>
      <trkpt lon="-117.332644" lat="33.979950"><ele>316.376523</ele><time>2025-03-07T18:47:22Z</time><extensions><speed>0.096953</speed><course>336.804379</course><hAcc>2.729514</hAcc><vAcc>0.756924</vAcc></extensions></trkpt>
      <trkpt lon="-117.332643" lat="33.979950"><ele>316.373866</ele><time>2025-03-07T18:47:23Z</time><extensions><speed>0.191152</speed><course>78.650595</course><hAcc>2.688204</hAcc><vAcc>0.756912</vAcc></extensions></trkpt>
      <trkpt lon="-117.332639" lat="33.979950"><ele>316.370551</ele><time>2025-03-07T18:47:24Z</time><extensions><speed>0.459085</speed><course>95.756843</course><hAcc>2.654093</hAcc><vAcc>0.756901</vAcc></extensions></trkpt>
      <trkpt lon="-117.332632" lat="33.979949"><ele>316.367167</ele><time>2025-03-07T18:47:25Z</time><extensions><speed>0.822298</speed><course>99.272409</course><hAcc>2.630617</hAcc><vAcc>0.756888</vAcc></extensions></trkpt>
      <trkpt lon="-117.332622" lat="33.979947"><ele>316.364392</ele><time>2025-03-07T18:47:26Z</time><extensions><speed>1.137621</speed><course>103.025319</course><hAcc>2.613130</hAcc><vAcc>0.756873</vAcc></extensions></trkpt>
      <trkpt lon="-117.332611" lat="33.979944"><ele>316.355987</ele><time>2025-03-07T18:47:27Z</time><extensions><speed>1.219588</speed><course>106.748855</course><hAcc>2.578069</hAcc><vAcc>0.756856</vAcc></extensions></trkpt>
      <trkpt lon="-117.332601" lat="33.979941"><ele>316.351687</ele><time>2025-03-07T18:47:28Z</time><extensions><speed>1.108506</speed><course>118.854173</course><hAcc>2.538840</hAcc><vAcc>0.756839</vAcc></extensions></trkpt>
      <trkpt lon="-117.332592" lat="33.979936"><ele>316.343320</ele><time>2025-03-07T18:47:29Z</time><extensions><speed>1.078293</speed><course>125.035865</course><hAcc>2.518556</hAcc><vAcc>0.756823</vAcc></extensions></trkpt>
      <trkpt lon="-117.332582" lat="33.979931"><ele>316.340440</ele><time>2025-03-07T18:47:30Z</time><extensions><speed>1.130099</speed><course>122.070894</course><hAcc>2.528267</hAcc><vAcc>0.756808</vAcc></extensions></trkpt>
      <trkpt lon="-117.332573" lat="33.979927"><ele>316.338775</ele><time>2025-03-07T18:47:31Z</time><extensions><speed>0.998929</speed><course>114.835585</course><hAcc>2.558315</hAcc><vAcc>0.756794</vAcc></extensions></trkpt>
      <trkpt lon="-117.332565" lat="33.979924"><ele>316.330648</ele><time>2025-03-07T18:47:32Z</time><extensions><speed>0.759255</speed><course>107.324788</course><hAcc>2.579058</hAcc><vAcc>0.756783</vAcc></extensions></trkpt>
      <trkpt lon="-117.332561" lat="33.979922"><ele>316.321992</ele><time>2025-03-07T18:47:33Z</time><extensions><speed>0.182133</speed><course>119.714081</course><hAcc>2.592691</hAcc><vAcc>0.756773</vAcc></extensions></trkpt>
      <trkpt lon="-117.332561" lat="33.979921"><ele>316.317355</ele><time>2025-03-07T18:47:34Z</time><extensions><speed>0.099788</speed><course>257.893179</course><hAcc>2.591925</hAcc><vAcc>0.756765</vAcc></extensions></trkpt>
      <trkpt lon="-117.332564" lat="33.979921"><ele>316.311076</ele><time>2025-03-07T18:47:35Z</time><extensions><speed>0.249699</speed><course>271.799162</course><hAcc>2.570376</hAcc><vAcc>0.756759</vAcc></extensions></trkpt>
      <trkpt lon="-117.332567" lat="33.979920"><ele>316.311376</ele><time>2025-03-07T18:47:36Z</time><extensions><speed>0.277693</speed><course>266.546549</course><hAcc>2.561319</hAcc><vAcc>0.756754</vAcc></extensions></trkpt>
      <trkpt lon="-117.332570" lat="33.979919"><ele>316.315445</ele><time>2025-03-07T18:47:37Z</time><extensions><speed>0.244496</speed><course>232.952059</course><hAcc>2.552530</hAcc><vAcc>0.756750</vAcc></extensions></trkpt>
      <trkpt lon="-117.332572" lat="33.979917"><ele>316.319122</ele><time>2025-03-07T18:47:38Z</time><extensions><speed>0.334018</speed><course>209.827201</course><hAcc>2.573029</hAcc><vAcc>0.756748</vAcc></extensions></trkpt>
      <trkpt lon="-117.332574" lat="33.979915"><ele>316.316770</ele><time>2025-03-07T18:47:39Z</time><extensions><speed>0.294947</speed><course>202.777502</course><hAcc>2.628502</hAcc><vAcc>0.756746</vAcc></extensions></trkpt>
      <trkpt lon="-117.332575" lat="33.979913"><ele>316.320860</ele><time>2025-03-07T18:47:40Z</time><extensions><speed>0.253266</speed><course>218.565438</course><hAcc>2.686067</hAcc><vAcc>0.756745</vAcc></extensions></trkpt>
      <trkpt lon="-117.332577" lat="33.979912"><ele>316.326681</ele><time>2025-03-07T18:47:41Z</time><extensions><speed>0.342991</speed><course>203.788948</course><hAcc>2.695801</hAcc><vAcc>0.756744</vAcc></extensions></trkpt>
      <trkpt lon="-117.332579" lat="33.979910"><ele>316.336799</ele><time>2025-03-07T18:47:42Z</time><extensions><speed>0.405054</speed><course>208.002344</course><hAcc>2.716495</hAcc><vAcc>0.756743</vAcc></extensions></trkpt>
      <trkpt lon="-117.332581" lat="33.979908"><ele>316.346240</ele><time>2025-03-07T18:47:43Z</time><extensions><speed>0.318592</speed><course>221.569909</course><hAcc>2.742614</hAcc><vAcc>0.756743</vAcc></extensions></trkpt>
      <trkpt lon="-117.332583" lat="33.979907"><ele>316.358344</ele><time>2025-03-07T18:47:44Z</time><extensions><speed>0.227757</speed><course>220.368471</course><hAcc>2.753430</hAcc><vAcc>0.756743</vAcc></extensions></trkpt>
      <trkpt lon="-117.332584" lat="33.979906"><ele>316.366457</ele><time>2025-03-07T18:47:45Z</time><extensions><speed>0.035311</speed><course>231.362766</course><hAcc>2.775236</hAcc><vAcc>0.756743</vAcc></extensions></trkpt>
      <trkpt lon="-117.332583" lat="33.979907"><ele>316.376869</ele><time>2025-03-07T18:47:46Z</time><extensions><speed>0.222605</speed><course>39.491855</course><hAcc>2.826064</hAcc><vAcc>0.756743</vAcc></extensions></trkpt>
      <trkpt lon="-117.332580" lat="33.979909"><ele>316.387204</ele><time>2025-03-07T18:47:47Z</time><extensions><speed>0.489815</speed><course>43.066200</course><hAcc>2.900319</hAcc><vAcc>0.756743</vAcc></extensions></trkpt>
      <trkpt lon="-117.332575" lat="33.979910"><ele>316.398842</ele><time>2025-03-07T18:47:48Z</time><extensions><speed>0.718262</speed><course>47.865178</course><hAcc>2.967949</hAcc><vAcc>0.756743</vAcc></extensions></trkpt>
      <trkpt lon="-117.332569" lat="33.979912"><ele>316.404741</ele><time>2025-03-07T18:47:49Z</time><extensions><speed>0.901659</speed><course>47.338924</course><hAcc>2.992833</hAcc><vAcc>0.756743</vAcc></extensions></trkpt>
      <trkpt lon="-117.332561" lat="33.979917"><ele>316.409859</ele><time>2025-03-07T18:47:50Z</time><extensions><speed>1.019426</speed><course>47.406423</course><hAcc>2.973966</hAcc><vAcc>0.756743</vAcc></extensions></trkpt>
      <trkpt lon="-117.332553" lat="33.979922"><ele>316.415312</ele><time>2025-03-07T18:47:51Z</time><extensions><speed>0.991027</speed><course>51.306495</course><hAcc>2.935683</hAcc><vAcc>0.756743</vAcc></extensions></trkpt>
      <trkpt lon="-117.332546" lat="33.979925"><ele>316.415921</ele><time>2025-03-07T18:47:52Z</time><extensions><speed>0.835473</speed><course>63.935050</course><hAcc>2.893505</hAcc><vAcc>0.756743</vAcc></extensions></trkpt>
      <trkpt lon="-117.332540" lat="33.979927"><ele>316.421590</ele><time>2025-03-07T18:47:53Z</time><extensions><speed>0.729370</speed><course>87.997013</course><hAcc>2.853634</hAcc><vAcc>0.756743</vAcc></extensions></trkpt>
      <trkpt lon="-117.332533" lat="33.979925"><ele>316.424195</ele><time>2025-03-07T18:47:54Z</time><extensions><speed>0.857284</speed><course>115.475794</course><hAcc>2.807391</hAcc><vAcc>0.756743</vAcc></extensions></trkpt>
      <trkpt lon="-117.332526" lat="33.979921"><ele>316.426665</ele><time>2025-03-07T18:47:55Z</time><extensions><speed>1.138371</speed><course>132.356958</course><hAcc>2.761894</hAcc><vAcc>0.756742</vAcc></extensions></trkpt>
      <trkpt lon="-117.332516" lat="33.979912"><ele>316.427658</ele><time>2025-03-07T18:47:56Z</time><extensions><speed>1.471302</speed><course>141.445006</course><hAcc>2.746165</hAcc><vAcc>0.761842</vAcc></extensions></trkpt>
      <trkpt lon="-117.332506" lat="33.979901"><ele>316.428139</ele><time>2025-03-07T18:47:57Z</time><extensions><speed>1.681821</speed><course>146.271349</course><hAcc>2.751006</hAcc><vAcc>0.770612</vAcc></extensions></trkpt>
      <trkpt lon="-117.332497" lat="33.979887"><ele>316.428262</ele><time>2025-03-07T18:47:58Z</time><extensions><speed>1.880908</speed><course>153.235303</course><hAcc>2.740093</hAcc><vAcc>0.785223</vAcc></extensions></trkpt>
      <trkpt lon="-117.332488" lat="33.979872"><ele>316.428220</ele><time>2025-03-07T18:47:59Z</time><extensions><speed>1.743651</speed><course>155.387573</course><hAcc>2.723688</hAcc><vAcc>0.808551</vAcc></extensions></trkpt>
      <trkpt lon="-117.332481" lat="33.979859"><ele>316.428227</ele><time>2025-03-07T18:48:00Z</time><extensions><speed>1.512627</speed><course>154.814384</course><hAcc>2.726414</hAcc><vAcc>0.844090</vAcc></extensions></trkpt>
      <trkpt lon="-117.332474" lat="33.979848"><ele>316.428431</ele><time>2025-03-07T18:48:01Z</time><extensions><speed>1.268806</speed><course>152.943539</course><hAcc>2.752233</hAcc><vAcc>0.895687</vAcc></extensions></trkpt>
      <trkpt lon="-117.332469" lat="33.979839"><ele>316.428886</ele><time>2025-03-07T18:48:02Z</time><extensions><speed>0.867282</speed><course>159.952434</course><hAcc>2.806715</hAcc><vAcc>0.967094</vAcc></extensions></trkpt>
      <trkpt lon="-117.332468" lat="33.979833"><ele>316.429559</ele><time>2025-03-07T18:48:03Z</time><extensions><speed>0.429101</speed><course>177.845889</course><hAcc>2.922665</hAcc><vAcc>1.061478</vAcc></extensions></trkpt>
      <trkpt lon="-117.332468" lat="33.979831"><ele>316.430350</ele><time>2025-03-07T18:48:04Z</time><extensions><speed>0.230642</speed><course>218.069985</course><hAcc>3.167323</hAcc><vAcc>1.181049</vAcc></extensions></trkpt>
      <trkpt lon="-117.332470" lat="33.979829"><ele>316.431178</ele><time>2025-03-07T18:48:05Z</time><extensions><speed>0.183762</speed><course>235.093570</course><hAcc>3.658710</hAcc><vAcc>1.326895</vAcc></extensions></trkpt>
    </trkseg>
  </trk>
</gpx>