<?xml version="1.0" encoding="UTF-8"?>
<gpx version="1.1" creator="Apple Health Export" xmlns="http://www.topografix.com/GPX/1/1" xmlns:xsi="http://www.w3.org/2001/XMLSchema-instance" xsi:schemaLocation="http://www.topografix.com/GPX/1/1 http://www.topografix.com/GPX/1/1/gpx.xsd">
  <metadata>
    <time>2026-01-11T07:57:39Z</time>
  </metadata>
  <trk>
    <name>Route 2025-03-03 7:29pm</name>
    <trkseg>
      <trkpt lon="-117.332751" lat="33.979863"><ele>315.855770</ele><time>2025-03-04T03:27:43Z</time><extensions><speed>0.072957</speed><course>223.541845</course><hAcc>4.379492</hAcc><vAcc>2.855684</vAcc></extensions></trkpt>
      <trkpt lon="-117.332753" lat="33.979861"><ele>315.914202</ele><time>2025-03-04T03:27:44Z</time><extensions><speed>0.098808</speed><course>222.499151</course><hAcc>3.784329</hAcc><vAcc>2.522636</vAcc></extensions></trkpt>
      <trkpt lon="-117.332755" lat="33.979858"><ele>315.961746</ele><time>2025-03-04T03:27:45Z</time><extensions><speed>0.118645</speed><course>219.818467</course><hAcc>3.352078</hAcc><vAcc>2.228329</vAcc></extensions></trkpt>
      <trkpt lon="-117.332756" lat="33.979855"><ele>316.008387</ele><time>2025-03-04T03:27:46Z</time><extensions><speed>0.163225</speed><course>214.477432</course><hAcc>3.005595</hAcc><vAcc>1.968060</vAcc></extensions></trkpt>
      <trkpt lon="-117.332758" lat="33.979852"><ele>316.050822</ele><time>2025-03-04T03:27:47Z</time><extensions><speed>0.237999</speed><course>206.515009</course><hAcc>2.713792</hAcc><vAcc>1.738733</vAcc></extensions></trkpt>
      <trkpt lon="-117.332760" lat="33.979848"><ele>316.091827</ele><time>2025-03-04T03:27:48Z</time><extensions><speed>0.545201</speed><course>200.893231</course><hAcc>2.436754</hAcc><vAcc>1.538407</vAcc></extensions></trkpt>
      <trkpt lon="-117.332762" lat="33.979840"><ele>316.129234</ele><time>2025-03-04T03:27:49Z</time><extensions><speed>0.983117</speed><course>198.341139</course><hAcc>2.266031</hAcc><vAcc>1.366216</vAcc></extensions></trkpt>
      <trkpt lon="-117.332765" lat="33.979831"><ele>316.165709</ele><time>2025-03-04T03:27:50Z</time><extensions><speed>1.094211</speed><course>192.805083</course><hAcc>2.119815</hAcc><vAcc>1.221979</vAcc></extensions></trkpt>
      <trkpt lon="-117.332770" lat="33.979818"><ele>316.205847</ele><time>2025-03-04T03:27:51Z</time><extensions><speed>1.053275</speed><course>197.084471</course><hAcc>1.982803</hAcc><vAcc>1.066056</vAcc></extensions></trkpt>
      <trkpt lon="-117.332772" lat="33.979809"><ele>316.229385</ele><time>2025-03-04T03:27:52Z</time><extensions><speed>1.034018</speed><course>188.383960</course><hAcc>1.885254</hAcc><vAcc>0.977350</vAcc></extensions></trkpt>
      <trkpt lon="-117.332774" lat="33.979800"><ele>316.248553</ele><time>2025-03-04T03:27:53Z</time><extensions><speed>0.933603</speed><course>185.645496</course><hAcc>1.793523</hAcc><vAcc>0.909854</vAcc></extensions></trkpt>
      <trkpt lon="-117.332775" lat="33.979791"><ele>316.247948</ele><time>2025-03-04T03:27:54Z</time><extensions><speed>0.925520</speed><course>185.606705</course><hAcc>1.696806</hAcc><vAcc>0.860338</vAcc></extensions></trkpt>
      <trkpt lon="-117.332776" lat="33.979782"><ele>316.235946</ele><time>2025-03-04T03:27:55Z</time><extensions><speed>0.933306</speed><course>185.657364</course><hAcc>1.609899</hAcc><vAcc>0.825373</vAcc></extensions></trkpt>
      <trkpt lon="-117.332777" lat="33.979772"><ele>316.218898</ele><time>2025-03-04T03:27:56Z</time><extensions><speed>1.001934</speed><course>182.937717</course><hAcc>1.538503</hAcc><vAcc>0.801625</vAcc></extensions></trkpt>
      <trkpt lon="-117.332778" lat="33.979763"><ele>316.198626</ele><time>2025-03-04T03:27:57Z</time><extensions><speed>1.034758</speed><course>184.942291</course><hAcc>1.486077</hAcc><vAcc>0.786114</vAcc></extensions></trkpt>
      <trkpt lon="-117.332778" lat="33.979754"><ele>316.168044</ele><time>2025-03-04T03:27:58Z</time><extensions><speed>1.005130</speed><course>178.129920</course><hAcc>1.436188</hAcc><vAcc>0.776362</vAcc></extensions></trkpt>
      <trkpt lon="-117.332777" lat="33.979744"><ele>316.135207</ele><time>2025-03-04T03:27:59Z</time><extensions><speed>1.036478</speed><course>178.354095</course><hAcc>1.399168</hAcc><vAcc>0.770448</vAcc></extensions></trkpt>
      <trkpt lon="-117.332777" lat="33.979735"><ele>316.102229</ele><time>2025-03-04T03:28:00Z</time><extensions><speed>1.049184</speed><course>178.748947</course><hAcc>1.370512</hAcc><vAcc>0.766962</vAcc></extensions></trkpt>
      <trkpt lon="-117.332776" lat="33.979726"><ele>316.069814</ele><time>2025-03-04T03:28:01Z</time><extensions><speed>1.042260</speed><course>174.410912</course><hAcc>1.342888</hAcc><vAcc>0.764928</vAcc></extensions></trkpt>
      <trkpt lon="-117.332774" lat="33.979717"><ele>316.040442</ele><time>2025-03-04T03:28:02Z</time><extensions><speed>0.942223</speed><course>169.554202</course><hAcc>1.327277</hAcc><vAcc>0.763703</vAcc></extensions></trkpt>
      <trkpt lon="-117.332773" lat="33.979709"><ele>316.014644</ele><time>2025-03-04T03:28:03Z</time><extensions><speed>0.968122</speed><course>175.341368</course><hAcc>1.318373</hAcc><vAcc>0.762886</vAcc></extensions></trkpt>
      <trkpt lon="-117.332772" lat="33.979699"><ele>316.010292</ele><time>2025-03-04T03:28:04Z</time><extensions><speed>1.417023</speed><course>185.492418</course><hAcc>1.313918</hAcc><vAcc>0.763282</vAcc></extensions></trkpt>
      <trkpt lon="-117.332772" lat="33.979687"><ele>316.019331</ele><time>2025-03-04T03:28:05Z</time><extensions><speed>1.439331</speed><course>181.636557</course><hAcc>1.311749</hAcc><vAcc>0.763172</vAcc></extensions></trkpt>
      <trkpt lon="-117.332772" lat="33.979674"><ele>316.032496</ele><time>2025-03-04T03:28:06Z</time><extensions><speed>1.383304</speed><course>180.480656</course><hAcc>1.303317</hAcc><vAcc>0.765164</vAcc></extensions></trkpt>
      <trkpt lon="-117.332771" lat="33.979663"><ele>316.058742</ele><time>2025-03-04T03:28:07Z</time><extensions><speed>1.270483</speed><course>181.597858</course><hAcc>1.325061</hAcc><vAcc>0.767749</vAcc></extensions></trkpt>
      <trkpt lon="-117.332771" lat="33.979652"><ele>316.090713</ele><time>2025-03-04T03:28:08Z</time><extensions><speed>1.132050</speed><course>177.953401</course><hAcc>1.354259</hAcc><vAcc>0.771317</vAcc></extensions></trkpt>
      <trkpt lon="-117.332770" lat="33.979642"><ele>316.124582</ele><time>2025-03-04T03:28:09Z</time><extensions><speed>1.097017</speed><course>174.389848</course><hAcc>1.388825</hAcc><vAcc>0.775618</vAcc></extensions></trkpt>
      <trkpt lon="-117.332768" lat="33.979633"><ele>316.170405</ele><time>2025-03-04T03:28:10Z</time><extensions><speed>1.033851</speed><course>167.061387</course><hAcc>1.428508</hAcc><vAcc>0.780781</vAcc></extensions></trkpt>
      <trkpt lon="-117.332764" lat="33.979624"><ele>316.211498</ele><time>2025-03-04T03:28:11Z</time><extensions><speed>1.024327</speed><course>159.388852</course><hAcc>1.469510</hAcc><vAcc>0.787183</vAcc></extensions></trkpt>
      <trkpt lon="-117.332759" lat="33.979616"><ele>316.255957</ele><time>2025-03-04T03:28:12Z</time><extensions><speed>1.013387</speed><course>146.476346</course><hAcc>1.504345</hAcc><vAcc>0.794319</vAcc></extensions></trkpt>
      <trkpt lon="-117.332752" lat="33.979609"><ele>316.308351</ele><time>2025-03-04T03:28:13Z</time><extensions><speed>1.051329</speed><course>132.611151</course><hAcc>1.521591</hAcc><vAcc>0.801481</vAcc></extensions></trkpt>
      <trkpt lon="-117.332740" lat="33.979605"><ele>316.351479</ele><time>2025-03-04T03:28:14Z</time><extensions><speed>1.305776</speed><course>99.754894</course><hAcc>1.497158</hAcc><vAcc>0.808534</vAcc></extensions></trkpt>
      <trkpt lon="-117.332726" lat="33.979604"><ele>316.394741</ele><time>2025-03-04T03:28:15Z</time><extensions><speed>1.396218</speed><course>93.235923</course><hAcc>1.526220</hAcc><vAcc>0.815159</vAcc></extensions></trkpt>
      <trkpt lon="-117.332711" lat="33.979602"><ele>316.425308</ele><time>2025-03-04T03:28:16Z</time><extensions><speed>1.251653</speed><course>98.549021</course><hAcc>1.577314</hAcc><vAcc>0.821500</vAcc></extensions></trkpt>
      <trkpt lon="-117.332698" lat="33.979601"><ele>316.447303</ele><time>2025-03-04T03:28:17Z</time><extensions><speed>1.223531</speed><course>96.869017</course><hAcc>1.578955</hAcc><vAcc>0.827335</vAcc></extensions></trkpt>
      <trkpt lon="-117.332685" lat="33.979600"><ele>316.480084</ele><time>2025-03-04T03:28:18Z</time><extensions><speed>1.225521</speed><course>92.398881</course><hAcc>1.560190</hAcc><vAcc>0.832315</vAcc></extensions></trkpt>
      <trkpt lon="-117.332671" lat="33.979600"><ele>316.524059</ele><time>2025-03-04T03:28:19Z</time><extensions><speed>1.295615</speed><course>88.762781</course><hAcc>1.519228</hAcc><vAcc>0.836140</vAcc></extensions></trkpt>
      <trkpt lon="-117.332657" lat="33.979600"><ele>316.577575</ele><time>2025-03-04T03:28:20Z</time><extensions><speed>1.273620</speed><course>88.317309</course><hAcc>1.493417</hAcc><vAcc>0.838601</vAcc></extensions></trkpt>
      <trkpt lon="-117.332644" lat="33.979601"><ele>316.642869</ele><time>2025-03-04T03:28:21Z</time><extensions><speed>1.198362</speed><course>89.998597</course><hAcc>1.485777</hAcc><vAcc>0.840108</vAcc></extensions></trkpt>
      <trkpt lon="-117.332630" lat="33.979600"><ele>316.696164</ele><time>2025-03-04T03:28:22Z</time><extensions><speed>1.273039</speed><course>92.839665</course><hAcc>1.468280</hAcc><vAcc>0.840606</vAcc></extensions></trkpt>
      <trkpt lon="-117.332616" lat="33.979599"><ele>316.744968</ele><time>2025-03-04T03:28:23Z</time><extensions><speed>1.335358</speed><course>95.375444</course><hAcc>1.441136</hAcc><vAcc>0.840520</vAcc></extensions></trkpt>
      <trkpt lon="-117.332602" lat="33.979598"><ele>316.790955</ele><time>2025-03-04T03:28:24Z</time><extensions><speed>1.234240</speed><course>96.982550</course><hAcc>1.418883</hAcc><vAcc>0.840328</vAcc></extensions></trkpt>
      <trkpt lon="-117.332590" lat="33.979597"><ele>316.837219</ele><time>2025-03-04T03:28:25Z</time><extensions><speed>1.143154</speed><course>95.059456</course><hAcc>1.400386</hAcc><vAcc>0.840188</vAcc></extensions></trkpt>
      <trkpt lon="-117.332577" lat="33.979596"><ele>316.888131</ele><time>2025-03-04T03:28:26Z</time><extensions><speed>1.188986</speed><course>93.636494</course><hAcc>1.409652</hAcc><vAcc>0.840058</vAcc></extensions></trkpt>
      <trkpt lon="-117.332564" lat="33.979596"><ele>316.934533</ele><time>2025-03-04T03:28:27Z</time><extensions><speed>1.269329</speed><course>92.300461</course><hAcc>1.419484</hAcc><vAcc>0.839595</vAcc></extensions></trkpt>
      <trkpt lon="-117.332550" lat="33.979595"><ele>316.983349</ele><time>2025-03-04T03:28:28Z</time><extensions><speed>1.337594</speed><course>91.441020</course><hAcc>1.428742</hAcc><vAcc>0.840067</vAcc></extensions></trkpt>
      <trkpt lon="-117.332535" lat="33.979595"><ele>317.032500</ele><time>2025-03-04T03:28:29Z</time><extensions><speed>1.321119</speed><course>91.914636</course><hAcc>1.426053</hAcc><vAcc>0.840794</vAcc></extensions></trkpt>
      <trkpt lon="-117.332521" lat="33.979595"><ele>317.084018</ele><time>2025-03-04T03:28:30Z</time><extensions><speed>1.337785</speed><course>92.609812</course><hAcc>1.424679</hAcc><vAcc>0.840791</vAcc></extensions></trkpt>
      <trkpt lon="-117.332506" lat="33.979594"><ele>317.135151</ele><time>2025-03-04T03:28:31Z</time><extensions><speed>1.407647</speed><course>96.139796</course><hAcc>1.437545</hAcc><vAcc>0.840901</vAcc></extensions></trkpt>
      <trkpt lon="-117.332491" lat="33.979592"><ele>317.191595</ele><time>2025-03-04T03:28:32Z</time><extensions><speed>1.315775</speed><course>101.918997</course><hAcc>1.443987</hAcc><vAcc>0.840925</vAcc></extensions></trkpt>
      <trkpt lon="-117.332478" lat="33.979589"><ele>317.257109</ele><time>2025-03-04T03:28:33Z</time><extensions><speed>1.163291</speed><course>107.501866</course><hAcc>1.440082</hAcc><vAcc>0.840514</vAcc></extensions></trkpt>
      <trkpt lon="-117.332467" lat="33.979586"><ele>317.306304</ele><time>2025-03-04T03:28:34Z</time><extensions><speed>1.004457</speed><course>102.080789</course><hAcc>1.418762</hAcc><vAcc>0.840868</vAcc></extensions></trkpt>
      <trkpt lon="-117.332457" lat="33.979585"><ele>317.347541</ele><time>2025-03-04T03:28:35Z</time><extensions><speed>0.969483</speed><course>95.592010</course><hAcc>1.414620</hAcc><vAcc>0.841307</vAcc></extensions></trkpt>
      <trkpt lon="-117.332446" lat="33.979584"><ele>317.377881</ele><time>2025-03-04T03:28:36Z</time><extensions><speed>0.996688</speed><course>92.945061</course><hAcc>1.422267</hAcc><vAcc>0.842533</vAcc></extensions></trkpt>
      <trkpt lon="-117.332435" lat="33.979583"><ele>317.405244</ele><time>2025-03-04T03:28:37Z</time><extensions><speed>1.018719</speed><course>93.728545</course><hAcc>1.395289</hAcc><vAcc>0.843212</vAcc></extensions></trkpt>
      <trkpt lon="-117.332424" lat="33.979582"><ele>317.433362</ele><time>2025-03-04T03:28:38Z</time><extensions><speed>1.057785</speed><course>101.281895</course><hAcc>1.390143</hAcc><vAcc>0.843707</vAcc></extensions></trkpt>
      <trkpt lon="-117.332412" lat="33.979579"><ele>317.455508</ele><time>2025-03-04T03:28:39Z</time><extensions><speed>1.141561</speed><course>108.634693</course><hAcc>1.396928</hAcc><vAcc>0.844221</vAcc></extensions></trkpt>
      <trkpt lon="-117.332401" lat="33.979575"><ele>317.481920</ele><time>2025-03-04T03:28:40Z</time><extensions><speed>1.267440</speed><course>120.561834</course><hAcc>1.374618</hAcc><vAcc>0.845009</vAcc></extensions></trkpt>
      <trkpt lon="-117.332389" lat="33.979568"><ele>317.503529</ele><time>2025-03-04T03:28:41Z</time><extensions><speed>1.422534</speed><course>130.031687</course><hAcc>1.366583</hAcc><vAcc>0.844773</vAcc></extensions></trkpt>
      <trkpt lon="-117.332378" lat="33.979559"><ele>317.520514</ele><time>2025-03-04T03:28:43Z</time><extensions><speed>1.458410</speed><course>137.842806</course><hAcc>1.359784</hAcc><vAcc>0.844804</vAcc></extensions></trkpt>
      <trkpt lon="-117.332368" lat="33.979548"><ele>317.518120</ele><time>2025-03-04T03:28:44Z</time><extensions><speed>1.446295</speed><course>144.531512</course><hAcc>1.350664</hAcc><vAcc>0.845302</vAcc></extensions></trkpt>
      <trkpt lon="-117.332360" lat="33.979538"><ele>317.504503</ele><time>2025-03-04T03:28:45Z</time><extensions><speed>1.338487</speed><course>149.192603</course><hAcc>1.350929</hAcc><vAcc>0.845860</vAcc></extensions></trkpt>
      <trkpt lon="-117.332352" lat="33.979528"><ele>317.494397</ele><time>2025-03-04T03:28:46Z</time><extensions><speed>1.250308</speed><course>150.217910</course><hAcc>1.342321</hAcc><vAcc>0.846701</vAcc></extensions></trkpt>
      <trkpt lon="-117.332346" lat="33.979518"><ele>317.490849</ele><time>2025-03-04T03:28:47Z</time><extensions><speed>1.213744</speed><course>149.810468</course><hAcc>1.334147</hAcc><vAcc>0.847497</vAcc></extensions></trkpt>
      <trkpt lon="-117.332339" lat="33.979508"><ele>317.476300</ele><time>2025-03-04T03:28:48Z</time><extensions><speed>1.373364</speed><course>148.895469</course><hAcc>1.301876</hAcc><vAcc>0.847356</vAcc></extensions></trkpt>
      <trkpt lon="-117.332330" lat="33.979496"><ele>317.448135</ele><time>2025-03-04T03:28:49Z</time><extensions><speed>1.585217</speed><course>145.618825</course><hAcc>1.279900</hAcc><vAcc>0.847593</vAcc></extensions></trkpt>
      <trkpt lon="-117.332320" lat="33.979485"><ele>317.435894</ele><time>2025-03-04T03:28:50Z</time><extensions><speed>1.594967</speed><course>142.835751</course><hAcc>1.269862</hAcc><vAcc>0.847115</vAcc></extensions></trkpt>
      <trkpt lon="-117.332310" lat="33.979474"><ele>317.436199</ele><time>2025-03-04T03:28:51Z</time><extensions><speed>1.424215</speed><course>140.755006</course><hAcc>1.269620</hAcc><vAcc>0.846388</vAcc></extensions></trkpt>
      <trkpt lon="-117.332300" lat="33.979464"><ele>317.438346</ele><time>2025-03-04T03:28:52Z</time><extensions><speed>1.377980</speed><course>144.952069</course><hAcc>1.232172</hAcc><vAcc>0.845137</vAcc></extensions></trkpt>
      <trkpt lon="-117.332293" lat="33.979454"><ele>317.444553</ele><time>2025-03-04T03:28:53Z</time><extensions><speed>1.263298</speed><course>148.454427</course><hAcc>1.250690</hAcc><vAcc>0.843729</vAcc></extensions></trkpt>
      <trkpt lon="-117.332287" lat="33.979443"><ele>317.452690</ele><time>2025-03-04T03:28:54Z</time><extensions><speed>1.361563</speed><course>161.695941</course><hAcc>1.212014</hAcc><vAcc>0.841792</vAcc></extensions></trkpt>
      <trkpt lon="-117.332283" lat="33.979431"><ele>317.463132</ele><time>2025-03-04T03:28:55Z</time><extensions><speed>1.459956</speed><course>171.501319</course><hAcc>1.208747</hAcc><vAcc>0.839799</vAcc></extensions></trkpt>
      <trkpt lon="-117.332281" lat="33.979418"><ele>317.477942</ele><time>2025-03-04T03:28:56Z</time><extensions><speed>1.345215</speed><course>173.615444</course><hAcc>1.235286</hAcc><vAcc>0.837327</vAcc></extensions></trkpt>
      <trkpt lon="-117.332279" lat="33.979406"><ele>317.494462</ele><time>2025-03-04T03:28:57Z</time><extensions><speed>1.413475</speed><course>172.026915</course><hAcc>1.223470</hAcc><vAcc>0.834707</vAcc></extensions></trkpt>
      <trkpt lon="-117.332277" lat="33.979394"><ele>317.512631</ele><time>2025-03-04T03:28:58Z</time><extensions><speed>1.376679</speed><course>169.771537</course><hAcc>1.224157</hAcc><vAcc>0.831454</vAcc></extensions></trkpt>
      <trkpt lon="-117.332274" lat="33.979382"><ele>317.520051</ele><time>2025-03-04T03:28:59Z</time><extensions><speed>1.265202</speed><course>164.255319</course><hAcc>1.257529</hAcc><vAcc>0.827462</vAcc></extensions></trkpt>
      <trkpt lon="-117.332269" lat="33.979372"><ele>317.522427</ele><time>2025-03-04T03:29:00Z</time><extensions><speed>1.272658</speed><course>157.547072</course><hAcc>1.261424</hAcc><vAcc>0.823630</vAcc></extensions></trkpt>
      <trkpt lon="-117.332263" lat="33.979361"><ele>317.544310</ele><time>2025-03-04T03:29:01Z</time><extensions><speed>1.258733</speed><course>151.755871</course><hAcc>1.273428</hAcc><vAcc>0.819673</vAcc></extensions></trkpt>
      <trkpt lon="-117.332256" lat="33.979352"><ele>317.577892</ele><time>2025-03-04T03:29:02Z</time><extensions><speed>1.258992</speed><course>146.900455</course><hAcc>1.284590</hAcc><vAcc>0.815749</vAcc></extensions></trkpt>
      <trkpt lon="-117.332249" lat="33.979343"><ele>317.627947</ele><time>2025-03-04T03:29:03Z</time><extensions><speed>1.189429</speed><course>145.086410</course><hAcc>1.285258</hAcc><vAcc>0.811801</vAcc></extensions></trkpt>
      <trkpt lon="-117.332242" lat="33.979334"><ele>317.668267</ele><time>2025-03-04T03:29:04Z</time><extensions><speed>1.100167</speed><course>147.269615</course><hAcc>1.279770</hAcc><vAcc>0.808079</vAcc></extensions></trkpt>
      <trkpt lon="-117.332236" lat="33.979326"><ele>317.717863</ele><time>2025-03-04T03:29:05Z</time><extensions><speed>1.090888</speed><course>148.940073</course><hAcc>1.280295</hAcc><vAcc>0.804485</vAcc></extensions></trkpt>
      <trkpt lon="-117.332230" lat="33.979318"><ele>317.774736</ele><time>2025-03-04T03:29:06Z</time><extensions><speed>1.042332</speed><course>147.936209</course><hAcc>1.272004</hAcc><vAcc>0.801069</vAcc></extensions></trkpt>
      <trkpt lon="-117.332224" lat="33.979310"><ele>317.819059</ele><time>2025-03-04T03:29:07Z</time><extensions><speed>0.984224</speed><course>142.760425</course><hAcc>1.267986</hAcc><vAcc>0.797439</vAcc></extensions></trkpt>
      <trkpt lon="-117.332216" lat="33.979304"><ele>317.859052</ele><time>2025-03-04T03:29:08Z</time><extensions><speed>1.068807</speed><course>132.641828</course><hAcc>1.255310</hAcc><vAcc>0.793964</vAcc></extensions></trkpt>
      <trkpt lon="-117.332207" lat="33.979298"><ele>317.901483</ele><time>2025-03-04T03:29:09Z</time><extensions><speed>1.100640</speed><course>118.250744</course><hAcc>1.241442</hAcc><vAcc>0.790699</vAcc></extensions></trkpt>
      <trkpt lon="-117.332195" lat="33.979294"><ele>317.931583</ele><time>2025-03-04T03:29:10Z</time><extensions><speed>1.189364</speed><course>110.089426</course><hAcc>1.271306</hAcc><vAcc>0.788198</vAcc></extensions></trkpt>
      <trkpt lon="-117.332183" lat="33.979292"><ele>317.958029</ele><time>2025-03-04T03:29:11Z</time><extensions><speed>1.191761</speed><course>94.295967</course><hAcc>1.241771</hAcc><vAcc>0.786713</vAcc></extensions></trkpt>
      <trkpt lon="-117.332170" lat="33.979291"><ele>317.974074</ele><time>2025-03-04T03:29:12Z</time><extensions><speed>1.178814</speed><course>90.274310</course><hAcc>1.226891</hAcc><vAcc>0.786541</vAcc></extensions></trkpt>
      <trkpt lon="-117.332158" lat="33.979291"><ele>317.999610</ele><time>2025-03-04T03:29:13Z</time><extensions><speed>1.066858</speed><course>95.151229</course><hAcc>1.234716</hAcc><vAcc>0.793299</vAcc></extensions></trkpt>
      <trkpt lon="-117.332147" lat="33.979289"><ele>318.019864</ele><time>2025-03-04T03:29:14Z</time><extensions><speed>1.043661</speed><course>109.256141</course><hAcc>1.268175</hAcc><vAcc>0.805281</vAcc></extensions></trkpt>
      <trkpt lon="-117.332136" lat="33.979285"><ele>318.034100</ele><time>2025-03-04T03:29:15Z</time><extensions><speed>1.205194</speed><course>117.377392</course><hAcc>1.280740</hAcc><vAcc>0.824567</vAcc></extensions></trkpt>
      <trkpt lon="-117.332124" lat="33.979279"><ele>318.042083</ele><time>2025-03-04T03:29:16Z</time><extensions><speed>1.230707</speed><course>120.405815</course><hAcc>1.294541</hAcc><vAcc>0.853815</vAcc></extensions></trkpt>
      <trkpt lon="-117.332113" lat="33.979274"><ele>318.044145</ele><time>2025-03-04T03:29:17Z</time><extensions><speed>1.192236</speed><course>116.760126</course><hAcc>1.295558</hAcc><vAcc>0.896208</vAcc></extensions></trkpt>
      <trkpt lon="-117.332101" lat="33.979270"><ele>318.041192</ele><time>2025-03-04T03:29:18Z</time><extensions><speed>1.090634</speed><course>107.518037</course><hAcc>1.324009</hAcc><vAcc>0.955195</vAcc></extensions></trkpt>
      <trkpt lon="-117.332090" lat="33.979268"><ele>318.034387</ele><time>2025-03-04T03:29:19Z</time><extensions><speed>1.057841</speed><course>101.245462</course><hAcc>1.392257</hAcc><vAcc>1.034066</vAcc></extensions></trkpt>
      <trkpt lon="-117.332079" lat="33.979266"><ele>318.024945</ele><time>2025-03-04T03:29:20Z</time><extensions><speed>1.099885</speed><course>97.546417</course><hAcc>1.498400</hAcc><vAcc>1.135517</vAcc></extensions></trkpt>
      <trkpt lon="-117.332066" lat="33.979265"><ele>318.014034</ele><time>2025-03-04T03:29:21Z</time><extensions><speed>1.178028</speed><course>93.850002</course><hAcc>1.668815</hAcc><vAcc>1.261361</vAcc></extensions></trkpt>
      <trkpt lon="-117.332053" lat="33.979265"><ele>318.002559</ele><time>2025-03-04T03:29:22Z</time><extensions><speed>1.232909</speed><course>92.977429</course><hAcc>1.927714</hAcc><vAcc>1.412453</vAcc></extensions></trkpt>
    </trkseg>
  </trk>
</gpx>