<?xml version="1.0" encoding="UTF-8"?>
<gpx version="1.1" creator="Apple Health Export" xmlns="http://www.topografix.com/GPX/1/1" xmlns:xsi="http://www.w3.org/2001/XMLSchema-instance" xsi:schemaLocation="http://www.topografix.com/GPX/1/1 http://www.topografix.com/GPX/1/1/gpx.xsd">
  <metadata>
    <time>2026-01-11T07:58:08Z</time>
  </metadata>
  <trk>
    <name>Route 2025-03-21 10:28am</name>
    <trkseg>
      <trkpt lon="-117.332648" lat="33.980190"><ele>315.502865</ele><time>2025-03-21T17:24:38Z</time><extensions><speed>0.163239</speed><course>146.445900</course><hAcc>5.827185</hAcc><vAcc>3.093256</vAcc></extensions></trkpt>
      <trkpt lon="-117.332647" lat="33.980189"><ele>315.515626</ele><time>2025-03-21T17:24:39Z</time><extensions><speed>0.178680</speed><course>147.447019</course><hAcc>5.228824</hAcc><vAcc>2.873417</vAcc></extensions></trkpt>
      <trkpt lon="-117.332646" lat="33.980188"><ele>315.528628</ele><time>2025-03-21T17:24:40Z</time><extensions><speed>0.200372</speed><course>150.511563</course><hAcc>4.856892</hAcc><vAcc>2.665959</vAcc></extensions></trkpt>
      <trkpt lon="-117.332645" lat="33.980186"><ele>315.541805</ele><time>2025-03-21T17:24:41Z</time><extensions><speed>0.244347</speed><course>154.975883</course><hAcc>4.584791</hAcc><vAcc>2.469673</vAcc></extensions></trkpt>
      <trkpt lon="-117.332644" lat="33.980183"><ele>315.555195</ele><time>2025-03-21T17:24:42Z</time><extensions><speed>0.361841</speed><course>159.227982</course><hAcc>4.328800</hAcc><vAcc>2.283593</vAcc></extensions></trkpt>
      <trkpt lon="-117.332642" lat="33.980180"><ele>315.569114</ele><time>2025-03-21T17:24:43Z</time><extensions><speed>0.424122</speed><course>162.977040</course><hAcc>4.124110</hAcc><vAcc>2.106943</vAcc></extensions></trkpt>
      <trkpt lon="-117.332641" lat="33.980176"><ele>315.583633</ele><time>2025-03-21T17:24:44Z</time><extensions><speed>0.550150</speed><course>165.926398</course><hAcc>3.947536</hAcc><vAcc>1.939153</vAcc></extensions></trkpt>
      <trkpt lon="-117.332639" lat="33.980170"><ele>315.598714</ele><time>2025-03-21T17:24:45Z</time><extensions><speed>0.776061</speed><course>167.638866</course><hAcc>3.763090</hAcc><vAcc>1.779929</vAcc></extensions></trkpt>
      <trkpt lon="-117.332637" lat="33.980163"><ele>315.614585</ele><time>2025-03-21T17:24:46Z</time><extensions><speed>0.857181</speed><course>168.516953</course><hAcc>3.633672</hAcc><vAcc>1.629377</vAcc></extensions></trkpt>
      <trkpt lon="-117.332636" lat="33.980156"><ele>315.631326</ele><time>2025-03-21T17:24:47Z</time><extensions><speed>0.753885</speed><course>168.684473</course><hAcc>3.581257</hAcc><vAcc>1.488140</vAcc></extensions></trkpt>
      <trkpt lon="-117.332634" lat="33.980149"><ele>315.649030</ele><time>2025-03-21T17:24:48Z</time><extensions><speed>0.797576</speed><course>168.289730</course><hAcc>3.537994</hAcc><vAcc>1.357513</vAcc></extensions></trkpt>
      <trkpt lon="-117.332632" lat="33.980142"><ele>315.667855</ele><time>2025-03-21T17:24:49Z</time><extensions><speed>0.673779</speed><course>168.024939</course><hAcc>3.511256</hAcc><vAcc>1.239565</vAcc></extensions></trkpt>
      <trkpt lon="-117.332631" lat="33.980136"><ele>315.687884</ele><time>2025-03-21T17:24:50Z</time><extensions><speed>0.648589</speed><course>167.979905</course><hAcc>3.471120</hAcc><vAcc>1.136861</vAcc></extensions></trkpt>
      <trkpt lon="-117.332629" lat="33.980129"><ele>315.722201</ele><time>2025-03-21T17:24:52Z</time><extensions><speed>0.407314</speed><course>167.354637</course><hAcc>3.431115</hAcc><vAcc>1.003739</vAcc></extensions></trkpt>
      <trkpt lon="-117.332628" lat="33.980126"><ele>315.745704</ele><time>2025-03-21T17:24:53Z</time><extensions><speed>0.305026</speed><course>164.574205</course><hAcc>3.388995</hAcc><vAcc>0.933811</vAcc></extensions></trkpt>
      <trkpt lon="-117.332627" lat="33.980125"><ele>315.769551</ele><time>2025-03-21T17:24:54Z</time><extensions><speed>0.091675</speed><course>121.193148</course><hAcc>3.337243</hAcc><vAcc>0.878466</vAcc></extensions></trkpt>
      <trkpt lon="-117.332626" lat="33.980125"><ele>315.793351</ele><time>2025-03-21T17:24:55Z</time><extensions><speed>0.167150</speed><course>29.759689</course><hAcc>3.273168</hAcc><vAcc>0.836259</vAcc></extensions></trkpt>
      <trkpt lon="-117.332626" lat="33.980127"><ele>315.816680</ele><time>2025-03-21T17:24:56Z</time><extensions><speed>0.205643</speed><course>26.107287</course><hAcc>3.197329</hAcc><vAcc>0.805294</vAcc></extensions></trkpt>
      <trkpt lon="-117.332625" lat="33.980128"><ele>315.839053</ele><time>2025-03-21T17:24:57Z</time><extensions><speed>0.223760</speed><course>21.187666</course><hAcc>3.132191</hAcc><vAcc>0.783491</vAcc></extensions></trkpt>
      <trkpt lon="-117.332624" lat="33.980130"><ele>315.860238</ele><time>2025-03-21T17:24:58Z</time><extensions><speed>0.242940</speed><course>14.341032</course><hAcc>3.087501</hAcc><vAcc>0.768850</vAcc></extensions></trkpt>
      <trkpt lon="-117.332623" lat="33.980132"><ele>315.880037</ele><time>2025-03-21T17:24:59Z</time><extensions><speed>0.140571</speed><course>16.904708</course><hAcc>3.053377</hAcc><vAcc>0.759637</vAcc></extensions></trkpt>
      <trkpt lon="-117.332623" lat="33.980133"><ele>315.898397</ele><time>2025-03-21T17:25:00Z</time><extensions><speed>0.119386</speed><course>15.353333</course><hAcc>3.014238</hAcc><vAcc>0.754510</vAcc></extensions></trkpt>
      <trkpt lon="-117.332623" lat="33.980134"><ele>315.915333</ele><time>2025-03-21T17:25:01Z</time><extensions><speed>0.097554</speed><course>14.404953</course><hAcc>2.979258</hAcc><vAcc>0.752556</vAcc></extensions></trkpt>
      <trkpt lon="-117.332622" lat="33.980135"><ele>315.930768</ele><time>2025-03-21T17:25:02Z</time><extensions><speed>0.092024</speed><course>10.978438</course><hAcc>2.954283</hAcc><vAcc>0.753284</vAcc></extensions></trkpt>
      <trkpt lon="-117.332622" lat="33.980135"><ele>315.944762</ele><time>2025-03-21T17:25:03Z</time><extensions><speed>0.025888</speed><course>36.938263</course><hAcc>2.927314</hAcc><vAcc>0.756591</vAcc></extensions></trkpt>
      <trkpt lon="-117.332622" lat="33.980136"><ele>315.957316</ele><time>2025-03-21T17:25:04Z</time><extensions><speed>0.086624</speed><course>6.284308</course><hAcc>2.921799</hAcc><vAcc>0.762706</vAcc></extensions></trkpt>
      <trkpt lon="-117.332622" lat="33.980136"><ele>315.968415</ele><time>2025-03-21T17:25:05Z</time><extensions><speed>0.055376</speed><course>5.005308</course><hAcc>2.913421</hAcc><vAcc>0.772128</vAcc></extensions></trkpt>
      <trkpt lon="-117.332622" lat="33.980137"><ele>315.978183</ele><time>2025-03-21T17:25:06Z</time><extensions><speed>0.071734</speed><course>358.331946</course><hAcc>2.920688</hAcc><vAcc>0.785544</vAcc></extensions></trkpt>
      <trkpt lon="-117.332622" lat="33.980138"><ele>315.986846</ele><time>2025-03-21T17:25:07Z</time><extensions><speed>0.145781</speed><course>356.372863</course><hAcc>2.948456</hAcc><vAcc>0.803726</vAcc></extensions></trkpt>
      <trkpt lon="-117.332622" lat="33.980139"><ele>315.994464</ele><time>2025-03-21T17:25:08Z</time><extensions><speed>0.129087</speed><course>352.163589</course><hAcc>2.972170</hAcc><vAcc>0.827403</vAcc></extensions></trkpt>
      <trkpt lon="-117.332622" lat="33.980140"><ele>316.001057</ele><time>2025-03-21T17:25:09Z</time><extensions><speed>0.033668</speed><course>223.053332</course><hAcc>3.002610</hAcc><vAcc>0.857121</vAcc></extensions></trkpt>
      <trkpt lon="-117.332623" lat="33.980140"><ele>316.006832</ele><time>2025-03-21T17:25:10Z</time><extensions><speed>0.169006</speed><course>350.805362</course><hAcc>3.036843</hAcc><vAcc>0.893094</vAcc></extensions></trkpt>
      <trkpt lon="-117.332623" lat="33.980142"><ele>316.011912</ele><time>2025-03-21T17:25:11Z</time><extensions><speed>0.268095</speed><course>351.627602</course><hAcc>3.073889</hAcc><vAcc>0.935070</vAcc></extensions></trkpt>
      <trkpt lon="-117.332624" lat="33.980144"><ele>316.016439</ele><time>2025-03-21T17:25:12Z</time><extensions><speed>0.201116</speed><course>345.713498</course><hAcc>3.130579</hAcc><vAcc>0.982235</vAcc></extensions></trkpt>
      <trkpt lon="-117.332624" lat="33.980145"><ele>316.020667</ele><time>2025-03-21T17:25:13Z</time><extensions><speed>0.092333</speed><course>241.111649</course><hAcc>3.201767</hAcc><vAcc>1.033156</vAcc></extensions></trkpt>
      <trkpt lon="-117.332625" lat="33.980144"><ele>316.024723</ele><time>2025-03-21T17:25:14Z</time><extensions><speed>0.233552</speed><course>204.964828</course><hAcc>3.330067</hAcc><vAcc>1.086024</vAcc></extensions></trkpt>
      <trkpt lon="-117.332626" lat="33.980141"><ele>316.028761</ele><time>2025-03-21T17:25:15Z</time><extensions><speed>0.413039</speed><course>195.625532</course><hAcc>3.500544</hAcc><vAcc>1.139160</vAcc></extensions></trkpt>
      <trkpt lon="-117.332628" lat="33.980137"><ele>316.032739</ele><time>2025-03-21T17:25:16Z</time><extensions><speed>0.458469</speed><course>194.316634</course><hAcc>3.685234</hAcc><vAcc>1.191238</vAcc></extensions></trkpt>
      <trkpt lon="-117.332629" lat="33.980134"><ele>316.036307</ele><time>2025-03-21T17:25:17Z</time><extensions><speed>0.408580</speed><course>195.127761</course><hAcc>3.837011</hAcc><vAcc>1.241256</vAcc></extensions></trkpt>
      <trkpt lon="-117.332630" lat="33.980130"><ele>316.039693</ele><time>2025-03-21T17:25:18Z</time><extensions><speed>0.401570</speed><course>194.974456</course><hAcc>3.960719</hAcc><vAcc>1.288513</vAcc></extensions></trkpt>
      <trkpt lon="-117.332631" lat="33.980127"><ele>316.042802</ele><time>2025-03-21T17:25:19Z</time><extensions><speed>0.350782</speed><course>195.231867</course><hAcc>4.073371</hAcc><vAcc>1.332571</vAcc></extensions></trkpt>
      <trkpt lon="-117.332632" lat="33.980124"><ele>316.045569</ele><time>2025-03-21T17:25:20Z</time><extensions><speed>0.287469</speed><course>195.771200</course><hAcc>4.169395</hAcc><vAcc>1.373182</vAcc></extensions></trkpt>
      <trkpt lon="-117.332633" lat="33.980122"><ele>316.048179</ele><time>2025-03-21T17:25:21Z</time><extensions><speed>0.231012</speed><course>196.473007</course><hAcc>4.241216</hAcc><vAcc>1.410237</vAcc></extensions></trkpt>
      <trkpt lon="-117.332633" lat="33.980120"><ele>316.050629</ele><time>2025-03-21T17:25:22Z</time><extensions><speed>0.193402</speed><course>197.352995</course><hAcc>4.284749</hAcc><vAcc>1.443715</vAcc></extensions></trkpt>
      <trkpt lon="-117.332634" lat="33.980118"><ele>316.052741</ele><time>2025-03-21T17:25:23Z</time><extensions><speed>0.163206</speed><course>199.193585</course><hAcc>4.301912</hAcc><vAcc>1.473677</vAcc></extensions></trkpt>
      <trkpt lon="-117.332635" lat="33.980117"><ele>316.055119</ele><time>2025-03-21T17:25:24Z</time><extensions><speed>0.125590</speed><course>203.977877</course><hAcc>4.296619</hAcc><vAcc>1.500249</vAcc></extensions></trkpt>
      <trkpt lon="-117.332635" lat="33.980116"><ele>316.057548</ele><time>2025-03-21T17:25:25Z</time><extensions><speed>0.152609</speed><course>201.519366</course><hAcc>4.274286</hAcc><vAcc>1.523620</vAcc></extensions></trkpt>
      <trkpt lon="-117.332636" lat="33.980115"><ele>316.059837</ele><time>2025-03-21T17:25:26Z</time><extensions><speed>0.159353</speed><course>200.892946</course><hAcc>4.250311</hAcc><vAcc>1.544010</vAcc></extensions></trkpt>
      <trkpt lon="-117.332636" lat="33.980114"><ele>316.062354</ele><time>2025-03-21T17:25:27Z</time><extensions><speed>0.143876</speed><course>201.285056</course><hAcc>4.233101</hAcc><vAcc>1.561657</vAcc></extensions></trkpt>
      <trkpt lon="-117.332637" lat="33.980112"><ele>316.064950</ele><time>2025-03-21T17:25:28Z</time><extensions><speed>0.139777</speed><course>196.988396</course><hAcc>4.227161</hAcc><vAcc>1.576806</vAcc></extensions></trkpt>
      <trkpt lon="-117.332637" lat="33.980112"><ele>316.067523</ele><time>2025-03-21T17:25:29Z</time><extensions><speed>0.049988</speed><course>258.084381</course><hAcc>4.218631</hAcc><vAcc>1.589698</vAcc></extensions></trkpt>
      <trkpt lon="-117.332638" lat="33.980112"><ele>316.070206</ele><time>2025-03-21T17:25:30Z</time><extensions><speed>0.074291</speed><course>304.071334</course><hAcc>4.191000</hAcc><vAcc>1.600559</vAcc></extensions></trkpt>
      <trkpt lon="-117.332639" lat="33.980112"><ele>316.073196</ele><time>2025-03-21T17:25:31Z</time><extensions><speed>0.086953</speed><course>303.496129</course><hAcc>4.156542</hAcc><vAcc>1.609626</vAcc></extensions></trkpt>
      <trkpt lon="-117.332639" lat="33.980112"><ele>316.075712</ele><time>2025-03-21T17:25:32Z</time><extensions><speed>0.077072</speed><course>272.878358</course><hAcc>4.127229</hAcc><vAcc>1.617137</vAcc></extensions></trkpt>
      <trkpt lon="-117.332640" lat="33.980112"><ele>316.078488</ele><time>2025-03-21T17:25:33Z</time><extensions><speed>0.102965</speed><course>223.597635</course><hAcc>4.108181</hAcc><vAcc>1.623315</vAcc></extensions></trkpt>
      <trkpt lon="-117.332641" lat="33.980111"><ele>316.081047</ele><time>2025-03-21T17:25:34Z</time><extensions><speed>0.236879</speed><course>191.601567</course><hAcc>4.098123</hAcc><vAcc>1.628365</vAcc></extensions></trkpt>
      <trkpt lon="-117.332641" lat="33.980109"><ele>316.083237</ele><time>2025-03-21T17:25:35Z</time><extensions><speed>0.261058</speed><course>184.939761</course><hAcc>4.100291</hAcc><vAcc>1.632470</vAcc></extensions></trkpt>
      <trkpt lon="-117.332642" lat="33.980106"><ele>316.086165</ele><time>2025-03-21T17:25:36Z</time><extensions><speed>0.229849</speed><course>182.521602</course><hAcc>4.102461</hAcc><vAcc>1.635790</vAcc></extensions></trkpt>
      <trkpt lon="-117.332642" lat="33.980105"><ele>316.088619</ele><time>2025-03-21T17:25:37Z</time><extensions><speed>0.143788</speed><course>202.332831</course><hAcc>4.087609</hAcc><vAcc>1.638469</vAcc></extensions></trkpt>
      <trkpt lon="-117.332643" lat="33.980104"><ele>316.090652</ele><time>2025-03-21T17:25:38Z</time><extensions><speed>0.141695</speed><course>214.279623</course><hAcc>4.069489</hAcc><vAcc>1.640637</vAcc></extensions></trkpt>
      <trkpt lon="-117.332644" lat="33.980103"><ele>316.092715</ele><time>2025-03-21T17:25:39Z</time><extensions><speed>0.137048</speed><course>234.456221</course><hAcc>4.064296</hAcc><vAcc>1.642432</vAcc></extensions></trkpt>
      <trkpt lon="-117.332645" lat="33.980102"><ele>316.094191</ele><time>2025-03-21T17:25:40Z</time><extensions><speed>0.158787</speed><course>226.313410</course><hAcc>4.062550</hAcc><vAcc>1.644016</vAcc></extensions></trkpt>
      <trkpt lon="-117.332646" lat="33.980101"><ele>316.095836</ele><time>2025-03-21T17:25:41Z</time><extensions><speed>0.183056</speed><course>214.631853</course><hAcc>4.061434</hAcc><vAcc>1.645543</vAcc></extensions></trkpt>
      <trkpt lon="-117.332647" lat="33.980099"><ele>316.097280</ele><time>2025-03-21T17:25:42Z</time><extensions><speed>0.222957</speed><course>197.061746</course><hAcc>4.063187</hAcc><vAcc>1.647158</vAcc></extensions></trkpt>
      <trkpt lon="-117.332647" lat="33.980097"><ele>316.098579</ele><time>2025-03-21T17:25:43Z</time><extensions><speed>0.239044</speed><course>181.791232</course><hAcc>4.073593</hAcc><vAcc>1.648976</vAcc></extensions></trkpt>
      <trkpt lon="-117.332648" lat="33.980095"><ele>316.099759</ele><time>2025-03-21T17:25:44Z</time><extensions><speed>0.173821</speed><course>192.902841</course><hAcc>4.090610</hAcc><vAcc>1.651080</vAcc></extensions></trkpt>
      <trkpt lon="-117.332648" lat="33.980094"><ele>316.100175</ele><time>2025-03-21T17:25:45Z</time><extensions><speed>0.139023</speed><course>204.134230</course><hAcc>4.105791</hAcc><vAcc>1.653535</vAcc></extensions></trkpt>
      <trkpt lon="-117.332649" lat="33.980093"><ele>316.099910</ele><time>2025-03-21T17:25:46Z</time><extensions><speed>0.121505</speed><course>204.938903</course><hAcc>4.113786</hAcc><vAcc>1.656382</vAcc></extensions></trkpt>
      <trkpt lon="-117.332649" lat="33.980092"><ele>316.099160</ele><time>2025-03-21T17:25:47Z</time><extensions><speed>0.123748</speed><course>186.022148</course><hAcc>4.114782</hAcc><vAcc>1.659644</vAcc></extensions></trkpt>
      <trkpt lon="-117.332649" lat="33.980090"><ele>316.097914</ele><time>2025-03-21T17:25:48Z</time><extensions><speed>0.139008</speed><course>169.735363</course><hAcc>4.117967</hAcc><vAcc>1.663324</vAcc></extensions></trkpt>
      <trkpt lon="-117.332649" lat="33.980089"><ele>316.095925</ele><time>2025-03-21T17:25:49Z</time><extensions><speed>0.107226</speed><course>179.033727</course><hAcc>4.125224</hAcc><vAcc>1.667413</vAcc></extensions></trkpt>
      <trkpt lon="-117.332649" lat="33.980089"><ele>316.093568</ele><time>2025-03-21T17:25:50Z</time><extensions><speed>0.068299</speed><course>215.667586</course><hAcc>4.119915</hAcc><vAcc>1.671909</vAcc></extensions></trkpt>
      <trkpt lon="-117.332650" lat="33.980088"><ele>316.090807</ele><time>2025-03-21T17:25:51Z</time><extensions><speed>0.061268</speed><course>247.522449</course><hAcc>4.112846</hAcc><vAcc>1.676799</vAcc></extensions></trkpt>
      <trkpt lon="-117.332650" lat="33.980088"><ele>316.087404</ele><time>2025-03-21T17:25:52Z</time><extensions><speed>0.060217</speed><course>266.246762</course><hAcc>4.107935</hAcc><vAcc>1.682048</vAcc></extensions></trkpt>
      <trkpt lon="-117.332651" lat="33.980088"><ele>316.083667</ele><time>2025-03-21T17:25:53Z</time><extensions><speed>0.069466</speed><course>286.690954</course><hAcc>4.103906</hAcc><vAcc>1.687591</vAcc></extensions></trkpt>
      <trkpt lon="-117.332652" lat="33.980088"><ele>316.080376</ele><time>2025-03-21T17:25:54Z</time><extensions><speed>0.068222</speed><course>297.208996</course><hAcc>4.099330</hAcc><vAcc>1.693344</vAcc></extensions></trkpt>
      <trkpt lon="-117.332652" lat="33.980088"><ele>316.076810</ele><time>2025-03-21T17:25:55Z</time><extensions><speed>0.033750</speed><course>296.585540</course><hAcc>4.093975</hAcc><vAcc>1.699206</vAcc></extensions></trkpt>
      <trkpt lon="-117.332653" lat="33.980089"><ele>316.073369</ele><time>2025-03-21T17:25:56Z</time><extensions><speed>0.037130</speed><course>316.259764</course><hAcc>4.088529</hAcc><vAcc>1.705058</vAcc></extensions></trkpt>
      <trkpt lon="-117.332653" lat="33.980089"><ele>316.070249</ele><time>2025-03-21T17:25:57Z</time><extensions><speed>0.026745</speed><course>115.737218</course><hAcc>4.076253</hAcc><vAcc>1.710772</vAcc></extensions></trkpt>
      <trkpt lon="-117.332652" lat="33.980089"><ele>316.067813</ele><time>2025-03-21T17:25:58Z</time><extensions><speed>0.027585</speed><course>97.750469</course><hAcc>4.073466</hAcc><vAcc>1.716228</vAcc></extensions></trkpt>
      <trkpt lon="-117.332652" lat="33.980089"><ele>316.065284</ele><time>2025-03-21T17:25:59Z</time><extensions><speed>0.067500</speed><course>334.300013</course><hAcc>4.090814</hAcc><vAcc>1.721314</vAcc></extensions></trkpt>
      <trkpt lon="-117.332653" lat="33.980090"><ele>316.063003</ele><time>2025-03-21T17:26:00Z</time><extensions><speed>0.106950</speed><course>326.673097</course><hAcc>4.118279</hAcc><vAcc>1.725904</vAcc></extensions></trkpt>
      <trkpt lon="-117.332654" lat="33.980090"><ele>316.060709</ele><time>2025-03-21T17:26:01Z</time><extensions><speed>0.108444</speed><course>324.609211</course><hAcc>4.136701</hAcc><vAcc>1.729866</vAcc></extensions></trkpt>
      <trkpt lon="-117.332654" lat="33.980091"><ele>316.058384</ele><time>2025-03-21T17:26:02Z</time><extensions><speed>0.083225</speed><course>323.727971</course><hAcc>4.136394</hAcc><vAcc>1.733049</vAcc></extensions></trkpt>
      <trkpt lon="-117.332655" lat="33.980091"><ele>316.056712</ele><time>2025-03-21T17:26:03Z</time><extensions><speed>0.024390</speed><course>325.017768</course><hAcc>4.117725</hAcc><vAcc>1.735290</vAcc></extensions></trkpt>
      <trkpt lon="-117.332655" lat="33.980091"><ele>316.055129</ele><time>2025-03-21T17:26:04Z</time><extensions><speed>0.028108</speed><course>305.276566</course><hAcc>4.120520</hAcc><vAcc>1.736434</vAcc></extensions></trkpt>
      <trkpt lon="-117.332655" lat="33.980092"><ele>316.053679</ele><time>2025-03-21T17:26:05Z</time><extensions><speed>0.061632</speed><course>303.841545</course><hAcc>4.147114</hAcc><vAcc>1.736340</vAcc></extensions></trkpt>
      <trkpt lon="-117.332656" lat="33.980092"><ele>316.052849</ele><time>2025-03-21T17:26:06Z</time><extensions><speed>0.059243</speed><course>293.353934</course><hAcc>4.153857</hAcc><vAcc>1.734907</vAcc></extensions></trkpt>
      <trkpt lon="-117.332656" lat="33.980092"><ele>316.052221</ele><time>2025-03-21T17:26:07Z</time><extensions><speed>0.047550</speed><course>257.779541</course><hAcc>4.121417</hAcc><vAcc>1.732035</vAcc></extensions></trkpt>
      <trkpt lon="-117.332657" lat="33.980092"><ele>316.051871</ele><time>2025-03-21T17:26:08Z</time><extensions><speed>0.052174</speed><course>215.390475</course><hAcc>4.087861</hAcc><vAcc>1.727672</vAcc></extensions></trkpt>
      <trkpt lon="-117.332657" lat="33.980091"><ele>316.051397</ele><time>2025-03-21T17:26:09Z</time><extensions><speed>0.075461</speed><course>180.120618</course><hAcc>4.065040</hAcc><vAcc>1.721807</vAcc></extensions></trkpt>
      <trkpt lon="-117.332657" lat="33.980090"><ele>316.050163</ele><time>2025-03-21T17:26:10Z</time><extensions><speed>0.117781</speed><course>154.950873</course><hAcc>4.052098</hAcc><vAcc>1.714482</vAcc></extensions></trkpt>
      <trkpt lon="-117.332656" lat="33.980090"><ele>316.048183</ele><time>2025-03-21T17:26:11Z</time><extensions><speed>0.078481</speed><course>132.650173</course><hAcc>4.049205</hAcc><vAcc>1.705781</vAcc></extensions></trkpt>
      <trkpt lon="-117.332656" lat="33.980089"><ele>316.045684</ele><time>2025-03-21T17:26:12Z</time><extensions><speed>0.029373</speed><course>159.118375</course><hAcc>4.046145</hAcc><vAcc>1.695832</vAcc></extensions></trkpt>
      <trkpt lon="-117.332656" lat="33.980089"><ele>316.042316</ele><time>2025-03-21T17:26:13Z</time><extensions><speed>0.040457</speed><course>244.072572</course><hAcc>4.041467</hAcc><vAcc>1.684812</vAcc></extensions></trkpt>
      <trkpt lon="-117.332656" lat="33.980089"><ele>316.038345</ele><time>2025-03-21T17:26:14Z</time><extensions><speed>0.058116</speed><course>251.627556</course><hAcc>4.036911</hAcc><vAcc>1.672941</vAcc></extensions></trkpt>
      <trkpt lon="-117.332657" lat="33.980089"><ele>316.033366</ele><time>2025-03-21T17:26:15Z</time><extensions><speed>0.058824</speed><course>243.827402</course><hAcc>4.031091</hAcc><vAcc>1.660459</vAcc></extensions></trkpt>
      <trkpt lon="-117.332657" lat="33.980088"><ele>316.027840</ele><time>2025-03-21T17:26:16Z</time><extensions><speed>0.077130</speed><course>241.972211</course><hAcc>4.025460</hAcc><vAcc>1.647631</vAcc></extensions></trkpt>
      <trkpt lon="-117.332658" lat="33.980088"><ele>316.021647</ele><time>2025-03-21T17:26:17Z</time><extensions><speed>0.102734</speed><course>241.306402</course><hAcc>4.020951</hAcc><vAcc>1.634716</vAcc></extensions></trkpt>
      <trkpt lon="-117.332659" lat="33.980087"><ele>316.014683</ele><time>2025-03-21T17:26:18Z</time><extensions><speed>0.140292</speed><course>242.751541</course><hAcc>4.017313</hAcc><vAcc>1.621996</vAcc></extensions></trkpt>
      <trkpt lon="-117.332661" lat="33.980087"><ele>316.006883</ele><time>2025-03-21T17:26:19Z</time><extensions><speed>0.167981</speed><course>241.395283</course><hAcc>4.016424</hAcc><vAcc>1.609772</vAcc></extensions></trkpt>
      <trkpt lon="-117.332662" lat="33.980086"><ele>315.998116</ele><time>2025-03-21T17:26:20Z</time><extensions><speed>0.183964</speed><course>237.688670</course><hAcc>4.016255</hAcc><vAcc>1.598366</vAcc></extensions></trkpt>
      <trkpt lon="-117.332664" lat="33.980085"><ele>315.988541</ele><time>2025-03-21T17:26:21Z</time><extensions><speed>0.182476</speed><course>229.320563</course><hAcc>4.014925</hAcc><vAcc>1.588108</vAcc></extensions></trkpt>
      <trkpt lon="-117.332665" lat="33.980084"><ele>315.978017</ele><time>2025-03-21T17:26:22Z</time><extensions><speed>0.181415</speed><course>219.461472</course><hAcc>4.011328</hAcc><vAcc>1.579320</vAcc></extensions></trkpt>
      <trkpt lon="-117.332666" lat="33.980082"><ele>315.966507</ele><time>2025-03-21T17:26:23Z</time><extensions><speed>0.183671</speed><course>206.456776</course><hAcc>4.002309</hAcc><vAcc>1.572305</vAcc></extensions></trkpt>
      <trkpt lon="-117.332667" lat="33.980081"><ele>315.954018</ele><time>2025-03-21T17:26:24Z</time><extensions><speed>0.194827</speed><course>183.556808</course><hAcc>3.987099</hAcc><vAcc>1.567342</vAcc></extensions></trkpt>
      <trkpt lon="-117.332667" lat="33.980079"><ele>315.940574</ele><time>2025-03-21T17:26:25Z</time><extensions><speed>0.232100</speed><course>162.788561</course><hAcc>3.969533</hAcc><vAcc>1.564689</vAcc></extensions></trkpt>
      <trkpt lon="-117.332666" lat="33.980077"><ele>315.926346</ele><time>2025-03-21T17:26:26Z</time><extensions><speed>0.264387</speed><course>151.664782</course><hAcc>3.953891</hAcc><vAcc>1.564562</vAcc></extensions></trkpt>
      <trkpt lon="-117.332665" lat="33.980075"><ele>315.911477</ele><time>2025-03-21T17:26:27Z</time><extensions><speed>0.254089</speed><course>170.092661</course><hAcc>3.940590</hAcc><vAcc>1.567122</vAcc></extensions></trkpt>
      <trkpt lon="-117.332665" lat="33.980072"><ele>315.895915</ele><time>2025-03-21T17:26:28Z</time><extensions><speed>0.311800</speed><course>190.244508</course><hAcc>3.919160</hAcc><vAcc>1.572460</vAcc></extensions></trkpt>
      <trkpt lon="-117.332666" lat="33.980069"><ele>315.879854</ele><time>2025-03-21T17:26:29Z</time><extensions><speed>0.378968</speed><course>197.194773</course><hAcc>3.888643</hAcc><vAcc>1.580576</vAcc></extensions></trkpt>
      <trkpt lon="-117.332667" lat="33.980066"><ele>315.863615</ele><time>2025-03-21T17:26:30Z</time><extensions><speed>0.413862</speed><course>201.142011</course><hAcc>3.857052</hAcc><vAcc>1.591365</vAcc></extensions></trkpt>
      <trkpt lon="-117.332669" lat="33.980062"><ele>315.847631</ele><time>2025-03-21T17:26:31Z</time><extensions><speed>0.417328</speed><course>200.760328</course><hAcc>3.812538</hAcc><vAcc>1.604593</vAcc></extensions></trkpt>
      <trkpt lon="-117.332670" lat="33.980059"><ele>315.831811</ele><time>2025-03-21T17:26:32Z</time><extensions><speed>0.390072</speed><course>198.382232</course><hAcc>3.752423</hAcc><vAcc>1.619913</vAcc></extensions></trkpt>
      <trkpt lon="-117.332672" lat="33.980056"><ele>315.816151</ele><time>2025-03-21T17:26:33Z</time><extensions><speed>0.375455</speed><course>203.201957</course><hAcc>3.691558</hAcc><vAcc>1.636907</vAcc></extensions></trkpt>
      <trkpt lon="-117.332673" lat="33.980053"><ele>315.801073</ele><time>2025-03-21T17:26:34Z</time><extensions><speed>0.338427</speed><course>216.358112</course><hAcc>3.650157</hAcc><vAcc>1.655141</vAcc></extensions></trkpt>
      <trkpt lon="-117.332676" lat="33.980051"><ele>315.786487</ele><time>2025-03-21T17:26:35Z</time><extensions><speed>0.324774</speed><course>216.575039</course><hAcc>3.632307</hAcc><vAcc>1.674204</vAcc></extensions></trkpt>
      <trkpt lon="-117.332677" lat="33.980049"><ele>315.772327</ele><time>2025-03-21T17:26:36Z</time><extensions><speed>0.206294</speed><course>212.718239</course><hAcc>3.647958</hAcc><vAcc>1.693723</vAcc></extensions></trkpt>
      <trkpt lon="-117.332678" lat="33.980047"><ele>315.759137</ele><time>2025-03-21T17:26:37Z</time><extensions><speed>0.172692</speed><course>211.096665</course><hAcc>3.642388</hAcc><vAcc>1.713375</vAcc></extensions></trkpt>
      <trkpt lon="-117.332679" lat="33.980046"><ele>315.747030</ele><time>2025-03-21T17:26:38Z</time><extensions><speed>0.163751</speed><course>214.005169</course><hAcc>3.623512</hAcc><vAcc>1.732880</vAcc></extensions></trkpt>
      <trkpt lon="-117.332681" lat="33.980045"><ele>315.735652</ele><time>2025-03-21T17:26:39Z</time><extensions><speed>0.223553</speed><course>225.006764</course><hAcc>3.579704</hAcc><vAcc>1.752002</vAcc></extensions></trkpt>
      <trkpt lon="-117.332684" lat="33.980043"><ele>315.725308</ele><time>2025-03-21T17:26:40Z</time><extensions><speed>0.509744</speed><course>238.714237</course><hAcc>3.480235</hAcc><vAcc>1.770540</vAcc></extensions></trkpt>
      <trkpt lon="-117.332690" lat="33.980040"><ele>315.715989</ele><time>2025-03-21T17:26:41Z</time><extensions><speed>0.822931</speed><course>250.263246</course><hAcc>3.403065</hAcc><vAcc>1.788305</vAcc></extensions></trkpt>
      <trkpt lon="-117.332701" lat="33.980038"><ele>315.708002</ele><time>2025-03-21T17:26:42Z</time><extensions><speed>1.286735</speed><course>259.034167</course><hAcc>3.386574</hAcc><vAcc>1.805134</vAcc></extensions></trkpt>
      <trkpt lon="-117.332717" lat="33.980036"><ele>315.701894</ele><time>2025-03-21T17:26:43Z</time><extensions><speed>1.654663</speed><course>265.223529</course><hAcc>3.376535</hAcc><vAcc>1.820889</vAcc></extensions></trkpt>
      <trkpt lon="-117.332736" lat="33.980036"><ele>315.697083</ele><time>2025-03-21T17:26:44Z</time><extensions><speed>1.769132</speed><course>271.227177</course><hAcc>3.348066</hAcc><vAcc>1.835456</vAcc></extensions></trkpt>
      <trkpt lon="-117.332755" lat="33.980037"><ele>315.694198</ele><time>2025-03-21T17:26:45Z</time><extensions><speed>1.827802</speed><course>274.673671</course><hAcc>3.308615</hAcc><vAcc>1.848742</vAcc></extensions></trkpt>
      <trkpt lon="-117.332774" lat="33.980038"><ele>315.692983</ele><time>2025-03-21T17:26:46Z</time><extensions><speed>1.756602</speed><course>279.177698</course><hAcc>3.276884</hAcc><vAcc>1.860677</vAcc></extensions></trkpt>
      <trkpt lon="-117.332791" lat="33.980041"><ele>315.693608</ele><time>2025-03-21T17:26:47Z</time><extensions><speed>1.411500</speed><course>279.012335</course><hAcc>3.256922</hAcc><vAcc>1.871200</vAcc></extensions></trkpt>
      <trkpt lon="-117.332803" lat="33.980041"><ele>315.696102</ele><time>2025-03-21T17:26:48Z</time><extensions><speed>0.819488</speed><course>252.888826</course><hAcc>3.240079</hAcc><vAcc>1.880259</vAcc></extensions></trkpt>
      <trkpt lon="-117.332808" lat="33.980036"><ele>315.700921</ele><time>2025-03-21T17:26:49Z</time><extensions><speed>0.716845</speed><course>185.027092</course><hAcc>3.237355</hAcc><vAcc>1.887815</vAcc></extensions></trkpt>
      <trkpt lon="-117.332806" lat="33.980028"><ele>315.708415</ele><time>2025-03-21T17:26:50Z</time><extensions><speed>1.224151</speed><course>165.503500</course><hAcc>3.214845</hAcc><vAcc>1.893845</vAcc></extensions></trkpt>
      <trkpt lon="-117.332802" lat="33.980015"><ele>315.718315</ele><time>2025-03-21T17:26:51Z</time><extensions><speed>1.693595</speed><course>161.387818</course><hAcc>3.192463</hAcc><vAcc>1.898339</vAcc></extensions></trkpt>
      <trkpt lon="-117.332795" lat="33.979998"><ele>315.730520</ele><time>2025-03-21T17:26:52Z</time><extensions><speed>2.266686</speed><course>164.322847</course><hAcc>3.166301</hAcc><vAcc>1.901303</vAcc></extensions></trkpt>
      <trkpt lon="-117.332790" lat="33.979977"><ele>315.744495</ele><time>2025-03-21T17:26:53Z</time><extensions><speed>2.642431</speed><course>171.338505</course><hAcc>3.147948</hAcc><vAcc>1.902753</vAcc></extensions></trkpt>
      <trkpt lon="-117.332787" lat="33.979952"><ele>315.760084</ele><time>2025-03-21T17:26:54Z</time><extensions><speed>2.801029</speed><course>176.453434</course><hAcc>3.133180</hAcc><vAcc>1.902725</vAcc></extensions></trkpt>
      <trkpt lon="-117.332786" lat="33.979927"><ele>315.777566</ele><time>2025-03-21T17:26:55Z</time><extensions><speed>2.848759</speed><course>179.984749</course><hAcc>3.118996</hAcc><vAcc>1.901277</vAcc></extensions></trkpt>
      <trkpt lon="-117.332787" lat="33.979900"><ele>315.796681</ele><time>2025-03-21T17:26:56Z</time><extensions><speed>2.973852</speed><course>182.874915</course><hAcc>3.105260</hAcc><vAcc>1.898478</vAcc></extensions></trkpt>
      <trkpt lon="-117.332790" lat="33.979874"><ele>315.817265</ele><time>2025-03-21T17:26:57Z</time><extensions><speed>2.962453</speed><course>189.131726</course><hAcc>3.087073</hAcc><vAcc>1.894410</vAcc></extensions></trkpt>
      <trkpt lon="-117.332796" lat="33.979847"><ele>315.838848</ele><time>2025-03-21T17:26:58Z</time><extensions><speed>3.114993</speed><course>190.579821</course><hAcc>3.066172</hAcc><vAcc>1.889169</vAcc></extensions></trkpt>
      <trkpt lon="-117.332800" lat="33.979819"><ele>315.861293</ele><time>2025-03-21T17:26:59Z</time><extensions><speed>3.133862</speed><course>183.706924</course><hAcc>3.044230</hAcc><vAcc>1.882868</vAcc></extensions></trkpt>
      <trkpt lon="-117.332800" lat="33.979791"><ele>315.884251</ele><time>2025-03-21T17:27:00Z</time><extensions><speed>3.097467</speed><course>175.107464</course><hAcc>3.022693</hAcc><vAcc>1.875621</vAcc></extensions></trkpt>
      <trkpt lon="-117.332795" lat="33.979763"><ele>315.907665</ele><time>2025-03-21T17:27:01Z</time><extensions><speed>3.100140</speed><course>168.388087</course><hAcc>3.001284</hAcc><vAcc>1.867545</vAcc></extensions></trkpt>
      <trkpt lon="-117.332787" lat="33.979735"><ele>315.931192</ele><time>2025-03-21T17:27:02Z</time><extensions><speed>3.301009</speed><course>165.813428</course><hAcc>2.979334</hAcc><vAcc>1.858749</vAcc></extensions></trkpt>
      <trkpt lon="-117.332778" lat="33.979706"><ele>315.954838</ele><time>2025-03-21T17:27:03Z</time><extensions><speed>3.490715</speed><course>166.328094</course><hAcc>2.956285</hAcc><vAcc>1.849335</vAcc></extensions></trkpt>
      <trkpt lon="-117.332770" lat="33.979674"><ele>315.978341</ele><time>2025-03-21T17:27:04Z</time><extensions><speed>3.652745</speed><course>167.609530</course><hAcc>2.931193</hAcc><vAcc>1.839408</vAcc></extensions></trkpt>
      <trkpt lon="-117.332761" lat="33.979642"><ele>316.001270</ele><time>2025-03-21T17:27:05Z</time><extensions><speed>3.711988</speed><course>167.127386</course><hAcc>2.904168</hAcc><vAcc>1.829060</vAcc></extensions></trkpt>
      <trkpt lon="-117.332750" lat="33.979612"><ele>316.023890</ele><time>2025-03-21T17:27:06Z</time><extensions><speed>3.241389</speed><course>160.303384</course><hAcc>2.878074</hAcc><vAcc>1.818379</vAcc></extensions></trkpt>
      <trkpt lon="-117.332736" lat="33.979588"><ele>316.045665</ele><time>2025-03-21T17:27:07Z</time><extensions><speed>2.669244</speed><course>145.053230</course><hAcc>2.853878</hAcc><vAcc>1.807428</vAcc></extensions></trkpt>
      <trkpt lon="-117.332717" lat="33.979572"><ele>316.067250</ele><time>2025-03-21T17:27:08Z</time><extensions><speed>2.438831</speed><course>125.607490</course><hAcc>2.832120</hAcc><vAcc>1.796264</vAcc></extensions></trkpt>
      <trkpt lon="-117.332693" lat="33.979561"><ele>316.088962</ele><time>2025-03-21T17:27:09Z</time><extensions><speed>2.704056</speed><course>109.546616</course><hAcc>2.813460</hAcc><vAcc>1.784951</vAcc></extensions></trkpt>
      <trkpt lon="-117.332663" lat="33.979556"><ele>316.109542</ele><time>2025-03-21T17:27:10Z</time><extensions><speed>2.992413</speed><course>96.462349</course><hAcc>2.797572</hAcc><vAcc>1.773531</vAcc></extensions></trkpt>
      <trkpt lon="-117.332629" lat="33.979555"><ele>316.129930</ele><time>2025-03-21T17:27:11Z</time><extensions><speed>3.358556</speed><course>89.015675</course><hAcc>2.782353</hAcc><vAcc>1.762054</vAcc></extensions></trkpt>
      <trkpt lon="-117.332591" lat="33.979556"><ele>316.149707</ele><time>2025-03-21T17:27:12Z</time><extensions><speed>3.681767</speed><course>86.502978</course><hAcc>2.766485</hAcc><vAcc>1.750570</vAcc></extensions></trkpt>
      <trkpt lon="-117.332550" lat="33.979557"><ele>316.169329</ele><time>2025-03-21T17:27:13Z</time><extensions><speed>3.772201</speed><course>87.886843</course><hAcc>2.749094</hAcc><vAcc>1.739120</vAcc></extensions></trkpt>
      <trkpt lon="-117.332510" lat="33.979557"><ele>316.188880</ele><time>2025-03-21T17:27:14Z</time><extensions><speed>3.692647</speed><course>92.321962</course><hAcc>2.730030</hAcc><vAcc>1.727744</vAcc></extensions></trkpt>
      <trkpt lon="-117.332471" lat="33.979555"><ele>316.208827</ele><time>2025-03-21T17:27:15Z</time><extensions><speed>3.510984</speed><course>97.921624</course><hAcc>2.710151</hAcc><vAcc>1.716482</vAcc></extensions></trkpt>
      <trkpt lon="-117.332436" lat="33.979549"><ele>316.228901</ele><time>2025-03-21T17:27:16Z</time><extensions><speed>3.194827</speed><course>104.052490</course><hAcc>2.690333</hAcc><vAcc>1.705367</vAcc></extensions></trkpt>
      <trkpt lon="-117.332404" lat="33.979540"><ele>316.249562</ele><time>2025-03-21T17:27:17Z</time><extensions><speed>3.055510</speed><course>113.286053</course><hAcc>2.671313</hAcc><vAcc>1.694421</vAcc></extensions></trkpt>
      <trkpt lon="-117.332376" lat="33.979527"><ele>316.271343</ele><time>2025-03-21T17:27:18Z</time><extensions><speed>2.835960</speed><course>123.266548</course><hAcc>2.653870</hAcc><vAcc>1.683661</vAcc></extensions></trkpt>
      <trkpt lon="-117.332352" lat="33.979512"><ele>316.294305</ele><time>2025-03-21T17:27:19Z</time><extensions><speed>2.738456</speed><course>135.436063</course><hAcc>2.637388</hAcc><vAcc>1.673145</vAcc></extensions></trkpt>
      <trkpt lon="-117.332334" lat="33.979493"><ele>316.318542</ele><time>2025-03-21T17:27:20Z</time><extensions><speed>2.621391</speed><course>145.803280</course><hAcc>2.621373</hAcc><vAcc>1.662821</vAcc></extensions></trkpt>
      <trkpt lon="-117.332320" lat="33.979474"><ele>316.344259</ele><time>2025-03-21T17:27:21Z</time><extensions><speed>2.388984</speed><course>150.509269</course><hAcc>2.606345</hAcc><vAcc>1.652689</vAcc></extensions></trkpt>
      <trkpt lon="-117.332307" lat="33.979455"><ele>316.371663</ele><time>2025-03-21T17:27:22Z</time><extensions><speed>2.311917</speed><course>151.196704</course><hAcc>2.593212</hAcc><vAcc>1.642761</vAcc></extensions></trkpt>
      <trkpt lon="-117.332296" lat="33.979438"><ele>316.400926</ele><time>2025-03-21T17:27:23Z</time><extensions><speed>2.081870</speed><course>150.681988</course><hAcc>2.584127</hAcc><vAcc>1.633054</vAcc></extensions></trkpt>
      <trkpt lon="-117.332287" lat="33.979422"><ele>316.432178</ele><time>2025-03-21T17:27:24Z</time><extensions><speed>1.789147</speed><course>158.723411</course><hAcc>2.585411</hAcc><vAcc>1.623596</vAcc></extensions></trkpt>
      <trkpt lon="-117.332282" lat="33.979408"><ele>316.465504</ele><time>2025-03-21T17:27:25Z</time><extensions><speed>1.470588</speed><course>173.353771</course><hAcc>2.593831</hAcc><vAcc>1.614415</vAcc></extensions></trkpt>
      <trkpt lon="-117.332281" lat="33.979397"><ele>316.500952</ele><time>2025-03-21T17:27:26Z</time><extensions><speed>1.058159</speed><course>181.194560</course><hAcc>2.579578</hAcc><vAcc>1.605538</vAcc></extensions></trkpt>
      <trkpt lon="-117.332281" lat="33.979389"><ele>316.538545</ele><time>2025-03-21T17:27:27Z</time><extensions><speed>0.748339</speed><course>172.886537</course><hAcc>2.543082</hAcc><vAcc>1.596985</vAcc></extensions></trkpt>
      <trkpt lon="-117.332279" lat="33.979382"><ele>316.578305</ele><time>2025-03-21T17:27:28Z</time><extensions><speed>0.913625</speed><course>164.888131</course><hAcc>2.531985</hAcc><vAcc>1.588779</vAcc></extensions></trkpt>
      <trkpt lon="-117.332276" lat="33.979371"><ele>316.620244</ele><time>2025-03-21T17:27:29Z</time><extensions><speed>1.543206</speed><course>163.255761</course><hAcc>2.550562</hAcc><vAcc>1.580934</vAcc></extensions></trkpt>
      <trkpt lon="-117.332268" lat="33.979355"><ele>316.664350</ele><time>2025-03-21T17:27:30Z</time><extensions><speed>2.296081</speed><course>155.542363</course><hAcc>2.554635</hAcc><vAcc>1.573456</vAcc></extensions></trkpt>
      <trkpt lon="-117.332254" lat="33.979335"><ele>316.710592</ele><time>2025-03-21T17:27:31Z</time><extensions><speed>2.879054</speed><course>145.139391</course><hAcc>2.548514</hAcc><vAcc>1.566334</vAcc></extensions></trkpt>
      <trkpt lon="-117.332232" lat="33.979314"><ele>316.758929</ele><time>2025-03-21T17:27:32Z</time><extensions><speed>3.368289</speed><course>132.749357</course><hAcc>2.541101</hAcc><vAcc>1.559554</vAcc></extensions></trkpt>
      <trkpt lon="-117.332200" lat="33.979295"><ele>316.809314</ele><time>2025-03-21T17:27:33Z</time><extensions><speed>3.859056</speed><course>120.403392</course><hAcc>2.535182</hAcc><vAcc>1.553103</vAcc></extensions></trkpt>
      <trkpt lon="-117.332161" lat="33.979280"><ele>316.861677</ele><time>2025-03-21T17:27:34Z</time><extensions><speed>4.216314</speed><course>109.294920</course><hAcc>2.531151</hAcc><vAcc>1.546971</vAcc></extensions></trkpt>
      <trkpt lon="-117.332116" lat="33.979270"><ele>316.915915</ele><time>2025-03-21T17:27:35Z</time><extensions><speed>4.396529</speed><course>100.989044</course><hAcc>2.528290</hAcc><vAcc>1.541170</vAcc></extensions></trkpt>
      <trkpt lon="-117.332068" lat="33.979264"><ele>316.971879</ele><time>2025-03-21T17:27:36Z</time><extensions><speed>4.591855</speed><course>95.018041</course><hAcc>2.526810</hAcc><vAcc>1.535733</vAcc></extensions></trkpt>
      <trkpt lon="-117.332018" lat="33.979262"><ele>317.029375</ele><time>2025-03-21T17:27:37Z</time><extensions><speed>4.678328</speed><course>91.400871</course><hAcc>2.526949</hAcc><vAcc>1.530711</vAcc></extensions></trkpt>
      <trkpt lon="-117.331967" lat="33.979261"><ele>317.088174</ele><time>2025-03-21T17:27:38Z</time><extensions><speed>4.767998</speed><course>89.481594</course><hAcc>2.528014</hAcc><vAcc>1.526160</vAcc></extensions></trkpt>
      <trkpt lon="-117.331915" lat="33.979262"><ele>317.148029</ele><time>2025-03-21T17:27:39Z</time><extensions><speed>4.801130</speed><course>88.977204</course><hAcc>2.529203</hAcc><vAcc>1.522138</vAcc></extensions></trkpt>
      <trkpt lon="-117.331863" lat="33.979263"><ele>317.208701</ele><time>2025-03-21T17:27:40Z</time><extensions><speed>4.771454</speed><course>88.819551</course><hAcc>2.529533</hAcc><vAcc>1.518707</vAcc></extensions></trkpt>
      <trkpt lon="-117.331812" lat="33.979264"><ele>317.269963</ele><time>2025-03-21T17:27:41Z</time><extensions><speed>4.701035</speed><course>89.128211</course><hAcc>2.528722</hAcc><vAcc>1.515931</vAcc></extensions></trkpt>
      <trkpt lon="-117.331761" lat="33.979264"><ele>317.331586</ele><time>2025-03-21T17:27:42Z</time><extensions><speed>4.724523</speed><course>90.144146</course><hAcc>2.527122</hAcc><vAcc>1.513880</vAcc></extensions></trkpt>
      <trkpt lon="-117.331710" lat="33.979263"><ele>317.393325</ele><time>2025-03-21T17:27:43Z</time><extensions><speed>4.760588</speed><course>91.010030</course><hAcc>2.525314</hAcc><vAcc>1.512625</vAcc></extensions></trkpt>
      <trkpt lon="-117.331658" lat="33.979263"><ele>317.454919</ele><time>2025-03-21T17:27:44Z</time><extensions><speed>4.748575</speed><course>91.074631</course><hAcc>2.524134</hAcc><vAcc>1.512234</vAcc></extensions></trkpt>
      <trkpt lon="-117.331607" lat="33.979262"><ele>317.516102</ele><time>2025-03-21T17:27:45Z</time><extensions><speed>4.710846</speed><course>90.473602</course><hAcc>2.524643</hAcc><vAcc>1.512773</vAcc></extensions></trkpt>
      <trkpt lon="-117.331556" lat="33.979262"><ele>317.576618</ele><time>2025-03-21T17:27:46Z</time><extensions><speed>4.682262</speed><course>90.304829</course><hAcc>2.527116</hAcc><vAcc>1.514294</vAcc></extensions></trkpt>
      <trkpt lon="-117.331506" lat="33.979261"><ele>317.636219</ele><time>2025-03-21T17:27:47Z</time><extensions><speed>4.597872</speed><course>91.509852</course><hAcc>2.531507</hAcc><vAcc>1.516841</vAcc></extensions></trkpt>
      <trkpt lon="-117.331457" lat="33.979259"><ele>317.694660</ele><time>2025-03-21T17:27:48Z</time><extensions><speed>4.377380</speed><course>93.339287</course><hAcc>2.537060</hAcc><vAcc>1.520464</vAcc></extensions></trkpt>
      <trkpt lon="-117.331413" lat="33.979257"><ele>317.751698</ele><time>2025-03-21T17:27:49Z</time><extensions><speed>3.900524</speed><course>94.360190</course><hAcc>2.542263</hAcc><vAcc>1.525225</vAcc></extensions></trkpt>
      <trkpt lon="-117.331374" lat="33.979254"><ele>317.807096</ele><time>2025-03-21T17:27:50Z</time><extensions><speed>3.241348</speed><course>95.714074</course><hAcc>2.545701</hAcc><vAcc>1.531219</vAcc></extensions></trkpt>
      <trkpt lon="-117.331343" lat="33.979251"><ele>317.860644</ele><time>2025-03-21T17:27:51Z</time><extensions><speed>2.581649</speed><course>97.308978</course><hAcc>2.546622</hAcc><vAcc>1.538585</vAcc></extensions></trkpt>
      <trkpt lon="-117.331317" lat="33.979248"><ele>317.912170</ele><time>2025-03-21T17:27:52Z</time><extensions><speed>2.223426</speed><course>101.647364</course><hAcc>2.545067</hAcc><vAcc>1.547525</vAcc></extensions></trkpt>
      <trkpt lon="-117.331295" lat="33.979243"><ele>317.961551</ele><time>2025-03-21T17:27:53Z</time><extensions><speed>2.133078</speed><course>107.608508</course><hAcc>2.541594</hAcc><vAcc>1.558323</vAcc></extensions></trkpt>
      <trkpt lon="-117.331274" lat="33.979235"><ele>318.008720</ele><time>2025-03-21T17:27:54Z</time><extensions><speed>2.033435</speed><course>121.479249</course><hAcc>2.538183</hAcc><vAcc>1.571361</vAcc></extensions></trkpt>
      <trkpt lon="-117.331258" lat="33.979223"><ele>318.053667</ele><time>2025-03-21T17:27:55Z</time><extensions><speed>2.044264</speed><course>141.193708</course><hAcc>2.536242</hAcc><vAcc>1.587143</vAcc></extensions></trkpt>
      <trkpt lon="-117.331247" lat="33.979207"><ele>318.096429</ele><time>2025-03-21T17:27:56Z</time><extensions><speed>2.050219</speed><course>161.226053</course><hAcc>2.535043</hAcc><vAcc>1.606317</vAcc></extensions></trkpt>
      <trkpt lon="-117.331242" lat="33.979189"><ele>318.137099</ele><time>2025-03-21T17:27:57Z</time><extensions><speed>2.177873</speed><course>171.458535</course><hAcc>2.535916</hAcc><vAcc>1.629680</vAcc></extensions></trkpt>
      <trkpt lon="-117.331239" lat="33.979168"><ele>318.175820</ele><time>2025-03-21T17:27:58Z</time><extensions><speed>2.327226</speed><course>175.860505</course><hAcc>2.542848</hAcc><vAcc>1.658187</vAcc></extensions></trkpt>
      <trkpt lon="-117.331238" lat="33.979146"><ele>318.212783</ele><time>2025-03-21T17:27:59Z</time><extensions><speed>2.690728</speed><course>177.628546</course><hAcc>2.556195</hAcc><vAcc>1.692945</vAcc></extensions></trkpt>
      <trkpt lon="-117.331237" lat="33.979120"><ele>318.248191</ele><time>2025-03-21T17:28:00Z</time><extensions><speed>3.012255</speed><course>178.641273</course><hAcc>2.574278</hAcc><vAcc>1.735209</vAcc></extensions></trkpt>
      <trkpt lon="-117.331237" lat="33.979092"><ele>318.282231</ele><time>2025-03-21T17:28:01Z</time><extensions><speed>3.294982</speed><course>180.288707</course><hAcc>2.598253</hAcc><vAcc>1.786386</vAcc></extensions></trkpt>
      <trkpt lon="-117.331237" lat="33.979061"><ele>318.315070</ele><time>2025-03-21T17:28:02Z</time><extensions><speed>3.596301</speed><course>180.264560</course><hAcc>2.632356</hAcc><vAcc>1.848020</vAcc></extensions></trkpt>
      <trkpt lon="-117.331237" lat="33.979027"><ele>318.346861</ele><time>2025-03-21T17:28:03Z</time><extensions><speed>3.949701</speed><course>181.738230</course><hAcc>2.681895</hAcc><vAcc>1.921747</vAcc></extensions></trkpt>
      <trkpt lon="-117.331239" lat="33.978990"><ele>318.377747</ele><time>2025-03-21T17:28:04Z</time><extensions><speed>4.200685</speed><course>182.486689</course><hAcc>2.753470</hAcc><vAcc>2.009242</vAcc></extensions></trkpt>
      <trkpt lon="-117.331241" lat="33.978952"><ele>318.407868</ele><time>2025-03-21T17:28:05Z</time><extensions><speed>4.328953</speed><course>182.189473</course><hAcc>2.855183</hAcc><vAcc>2.112158</vAcc></extensions></trkpt>
      <trkpt lon="-117.331243" lat="33.978912"><ele>318.437367</ele><time>2025-03-21T17:28:06Z</time><extensions><speed>4.405200</speed><course>182.145412</course><hAcc>2.995904</hAcc><vAcc>2.232058</vAcc></extensions></trkpt>
      <trkpt lon="-117.331244" lat="33.978872"><ele>318.466391</ele><time>2025-03-21T17:28:07Z</time><extensions><speed>4.517867</speed><course>181.973911</course><hAcc>3.189042</hAcc><vAcc>2.370375</vAcc></extensions></trkpt>
      <trkpt lon="-117.331246" lat="33.978831"><ele>318.495108</ele><time>2025-03-21T17:28:08Z</time><extensions><speed>4.571062</speed><course>181.633875</course><hAcc>3.475605</hAcc><vAcc>2.528379</vAcc></extensions></trkpt>
    </trkseg>
  </trk>
</gpx>