<?xml version="1.0" encoding="UTF-8"?>
<gpx version="1.1" creator="Apple Health Export" xmlns="http://www.topografix.com/GPX/1/1" xmlns:xsi="http://www.w3.org/2001/XMLSchema-instance" xsi:schemaLocation="http://www.topografix.com/GPX/1/1 http://www.topografix.com/GPX/1/1/gpx.xsd">
  <metadata>
    <time>2026-01-11T07:58:11Z</time>
  </metadata>
  <trk>
    <name>Route 2025-04-19 10:52am</name>
    <trkseg>
      <trkpt lon="-117.331279" lat="33.979236"><ele>318.507264</ele><time>2025-04-19T17:45:40Z</time><extensions><speed>0.016672</speed><course>172.764627</course><hAcc>4.092527</hAcc><vAcc>1.487981</vAcc></extensions></trkpt>
      <trkpt lon="-117.331279" lat="33.979233"><ele>318.509644</ele><time>2025-04-19T17:45:41Z</time><extensions><speed>0.025179</speed><course>174.127551</course><hAcc>3.794227</hAcc><vAcc>1.299390</vAcc></extensions></trkpt>
      <trkpt lon="-117.331279" lat="33.979231"><ele>318.511422</ele><time>2025-04-19T17:45:42Z</time><extensions><speed>0.039507</speed><course>175.637213</course><hAcc>3.550868</hAcc><vAcc>1.152803</vAcc></extensions></trkpt>
      <trkpt lon="-117.331279" lat="33.979228"><ele>318.512212</ele><time>2025-04-19T17:45:44Z</time><extensions><speed>0.045828</speed><course>176.622096</course><hAcc>3.303153</hAcc><vAcc>0.985628</vAcc></extensions></trkpt>
      <trkpt lon="-117.331279" lat="33.979227"><ele>318.512238</ele><time>2025-04-19T17:45:45Z</time><extensions><speed>0.040577</speed><course>177.164090</course><hAcc>3.145251</hAcc><vAcc>0.914303</vAcc></extensions></trkpt>
      <trkpt lon="-117.331279" lat="33.979225"><ele>318.512425</ele><time>2025-04-19T17:45:46Z</time><extensions><speed>0.051604</speed><course>177.155014</course><hAcc>3.000484</hAcc><vAcc>0.863949</vAcc></extensions></trkpt>
      <trkpt lon="-117.331279" lat="33.979223"><ele>318.512248</ele><time>2025-04-19T17:45:47Z</time><extensions><speed>0.054902</speed><course>177.069340</course><hAcc>2.866971</hAcc><vAcc>0.829606</vAcc></extensions></trkpt>
      <trkpt lon="-117.331279" lat="33.979222"><ele>318.511584</ele><time>2025-04-19T17:45:48Z</time><extensions><speed>0.058924</speed><course>177.039473</course><hAcc>2.742656</hAcc><vAcc>0.806926</vAcc></extensions></trkpt>
      <trkpt lon="-117.331279" lat="33.979222"><ele>318.510732</ele><time>2025-04-19T17:45:49Z</time><extensions><speed>0.040573</speed><course>176.785120</course><hAcc>2.641662</hAcc><vAcc>0.792347</vAcc></extensions></trkpt>
      <trkpt lon="-117.331278" lat="33.979221"><ele>318.509131</ele><time>2025-04-19T17:45:50Z</time><extensions><speed>0.034342</speed><course>175.987656</course><hAcc>2.552735</hAcc><vAcc>0.783138</vAcc></extensions></trkpt>
      <trkpt lon="-117.331278" lat="33.979221"><ele>318.507342</ele><time>2025-04-19T17:45:51Z</time><extensions><speed>0.036625</speed><course>174.581942</course><hAcc>2.468328</hAcc><vAcc>0.777322</vAcc></extensions></trkpt>
      <trkpt lon="-117.331277" lat="33.979221"><ele>318.505048</ele><time>2025-04-19T17:45:52Z</time><extensions><speed>0.038347</speed><course>172.367285</course><hAcc>2.389784</hAcc><vAcc>0.773549</vAcc></extensions></trkpt>
      <trkpt lon="-117.331276" lat="33.979221"><ele>318.501914</ele><time>2025-04-19T17:45:53Z</time><extensions><speed>0.026832</speed><course>164.408479</course><hAcc>2.323104</hAcc><vAcc>0.770946</vAcc></extensions></trkpt>
      <trkpt lon="-117.331276" lat="33.979221"><ele>318.498475</ele><time>2025-04-19T17:45:54Z</time><extensions><speed>0.011488</speed><course>76.768356</course><hAcc>2.258588</hAcc><vAcc>0.768979</vAcc></extensions></trkpt>
      <trkpt lon="-117.331275" lat="33.979222"><ele>318.494767</ele><time>2025-04-19T17:45:55Z</time><extensions><speed>0.149868</speed><course>5.081862</course><hAcc>2.204233</hAcc><vAcc>0.767346</vAcc></extensions></trkpt>
      <trkpt lon="-117.331274" lat="33.979223"><ele>318.490807</ele><time>2025-04-19T17:45:56Z</time><extensions><speed>0.211036</speed><course>4.809583</course><hAcc>2.151159</hAcc><vAcc>0.765895</vAcc></extensions></trkpt>
      <trkpt lon="-117.331273" lat="33.979225"><ele>318.486621</ele><time>2025-04-19T17:45:57Z</time><extensions><speed>0.215753</speed><course>6.108751</course><hAcc>2.103000</hAcc><vAcc>0.764560</vAcc></extensions></trkpt>
      <trkpt lon="-117.331273" lat="33.979227"><ele>318.482260</ele><time>2025-04-19T17:45:58Z</time><extensions><speed>0.151726</speed><course>10.438069</course><hAcc>2.060699</hAcc><vAcc>0.763324</vAcc></extensions></trkpt>
      <trkpt lon="-117.331272" lat="33.979228"><ele>318.477786</ele><time>2025-04-19T17:45:59Z</time><extensions><speed>0.060054</speed><course>49.216572</course><hAcc>2.010092</hAcc><vAcc>0.762191</vAcc></extensions></trkpt>
      <trkpt lon="-117.331271" lat="33.979228"><ele>318.473271</ele><time>2025-04-19T17:46:00Z</time><extensions><speed>0.053706</speed><course>69.784922</course><hAcc>1.972623</hAcc><vAcc>0.761173</vAcc></extensions></trkpt>
      <trkpt lon="-117.331270" lat="33.979229"><ele>318.468792</ele><time>2025-04-19T17:46:01Z</time><extensions><speed>0.053368</speed><course>73.609924</course><hAcc>1.942002</hAcc><vAcc>0.760278</vAcc></extensions></trkpt>
      <trkpt lon="-117.331269" lat="33.979229"><ele>318.464426</ele><time>2025-04-19T17:46:02Z</time><extensions><speed>0.044891</speed><course>74.697140</course><hAcc>1.919351</hAcc><vAcc>0.759511</vAcc></extensions></trkpt>
      <trkpt lon="-117.331269" lat="33.979229"><ele>318.460250</ele><time>2025-04-19T17:46:03Z</time><extensions><speed>0.041475</speed><course>74.843116</course><hAcc>1.895408</hAcc><vAcc>0.758870</vAcc></extensions></trkpt>
      <trkpt lon="-117.331265" lat="33.979233"><ele>318.441306</ele><time>2025-04-19T17:46:04Z</time><extensions><speed>0.060785</speed><course>57.105898</course><hAcc>1.819428</hAcc><vAcc>0.758345</vAcc></extensions></trkpt>
      <trkpt lon="-117.331264" lat="33.979235"><ele>318.417724</ele><time>2025-04-19T17:46:05Z</time><extensions><speed>0.066946</speed><course>48.482698</course><hAcc>1.788658</hAcc><vAcc>0.757927</vAcc></extensions></trkpt>
      <trkpt lon="-117.331262" lat="33.979237"><ele>318.390202</ele><time>2025-04-19T17:46:06Z</time><extensions><speed>0.089993</speed><course>43.559203</course><hAcc>1.760349</hAcc><vAcc>0.757601</vAcc></extensions></trkpt>
      <trkpt lon="-117.331261" lat="33.979238"><ele>318.355989</ele><time>2025-04-19T17:46:07Z</time><extensions><speed>0.112095</speed><course>40.300117</course><hAcc>1.743528</hAcc><vAcc>0.757353</vAcc></extensions></trkpt>
      <trkpt lon="-117.331259" lat="33.979240"><ele>318.315384</ele><time>2025-04-19T17:46:08Z</time><extensions><speed>0.134027</speed><course>38.274714</course><hAcc>1.735181</hAcc><vAcc>0.757704</vAcc></extensions></trkpt>
      <trkpt lon="-117.331258" lat="33.979242"><ele>318.272910</ele><time>2025-04-19T17:46:09Z</time><extensions><speed>0.150494</speed><course>36.951215</course><hAcc>1.734366</hAcc><vAcc>0.759398</vAcc></extensions></trkpt>
      <trkpt lon="-117.331256" lat="33.979243"><ele>318.232035</ele><time>2025-04-19T17:46:10Z</time><extensions><speed>0.153537</speed><course>35.726363</course><hAcc>1.741211</hAcc><vAcc>0.762405</vAcc></extensions></trkpt>
      <trkpt lon="-117.331255" lat="33.979244"><ele>318.200808</ele><time>2025-04-19T17:46:11Z</time><extensions><speed>0.141210</speed><course>35.266805</course><hAcc>1.751567</hAcc><vAcc>0.766211</vAcc></extensions></trkpt>
      <trkpt lon="-117.331253" lat="33.979246"><ele>318.180614</ele><time>2025-04-19T17:46:12Z</time><extensions><speed>0.238359</speed><course>35.650418</course><hAcc>1.744849</hAcc><vAcc>0.771023</vAcc></extensions></trkpt>
      <trkpt lon="-117.331251" lat="33.979248"><ele>318.169585</ele><time>2025-04-19T17:46:13Z</time><extensions><speed>0.356057</speed><course>37.912208</course><hAcc>1.740273</hAcc><vAcc>0.777098</vAcc></extensions></trkpt>
      <trkpt lon="-117.331247" lat="33.979252"><ele>318.146793</ele><time>2025-04-19T17:46:14Z</time><extensions><speed>0.706744</speed><course>42.711367</course><hAcc>1.723106</hAcc><vAcc>0.784249</vAcc></extensions></trkpt>
      <trkpt lon="-117.331239" lat="33.979258"><ele>318.129845</ele><time>2025-04-19T17:46:15Z</time><extensions><speed>1.196030</speed><course>49.848347</course><hAcc>1.745359</hAcc><vAcc>0.792391</vAcc></extensions></trkpt>
      <trkpt lon="-117.331226" lat="33.979265"><ele>318.112907</ele><time>2025-04-19T17:46:16Z</time><extensions><speed>1.569478</speed><course>61.637460</course><hAcc>1.828718</hAcc><vAcc>0.801160</vAcc></extensions></trkpt>
      <trkpt lon="-117.331209" lat="33.979271"><ele>318.096545</ele><time>2025-04-19T17:46:17Z</time><extensions><speed>1.816043</speed><course>68.983709</course><hAcc>1.938758</hAcc><vAcc>0.809202</vAcc></extensions></trkpt>
      <trkpt lon="-117.331190" lat="33.979276"><ele>318.085477</ele><time>2025-04-19T17:46:18Z</time><extensions><speed>1.778178</speed><course>74.465966</course><hAcc>2.019227</hAcc><vAcc>0.816779</vAcc></extensions></trkpt>
      <trkpt lon="-117.331171" lat="33.979280"><ele>318.081845</ele><time>2025-04-19T17:46:19Z</time><extensions><speed>1.692144</speed><course>78.643762</course><hAcc>2.068447</hAcc><vAcc>0.824010</vAcc></extensions></trkpt>
      <trkpt lon="-117.331153" lat="33.979282"><ele>318.080255</ele><time>2025-04-19T17:46:20Z</time><extensions><speed>1.611392</speed><course>83.251894</course><hAcc>2.085381</hAcc><vAcc>0.829861</vAcc></extensions></trkpt>
      <trkpt lon="-117.331136" lat="33.979282"><ele>318.089037</ele><time>2025-04-19T17:46:21Z</time><extensions><speed>1.496820</speed><course>93.340160</course><hAcc>2.083963</hAcc><vAcc>0.834093</vAcc></extensions></trkpt>
      <trkpt lon="-117.331121" lat="33.979281"><ele>318.100244</ele><time>2025-04-19T17:46:22Z</time><extensions><speed>1.284184</speed><course>104.123992</course><hAcc>2.111301</hAcc><vAcc>0.835927</vAcc></extensions></trkpt>
      <trkpt lon="-117.331106" lat="33.979278"><ele>318.114821</ele><time>2025-04-19T17:46:23Z</time><extensions><speed>1.342601</speed><course>96.501114</course><hAcc>2.126711</hAcc><vAcc>0.835975</vAcc></extensions></trkpt>
      <trkpt lon="-117.331092" lat="33.979277"><ele>318.131346</ele><time>2025-04-19T17:46:24Z</time><extensions><speed>1.242492</speed><course>102.089697</course><hAcc>2.123824</hAcc><vAcc>0.834557</vAcc></extensions></trkpt>
      <trkpt lon="-117.331079" lat="33.979273"><ele>318.154901</ele><time>2025-04-19T17:46:25Z</time><extensions><speed>1.342307</speed><course>110.418873</course><hAcc>2.116763</hAcc><vAcc>0.831834</vAcc></extensions></trkpt>
      <trkpt lon="-117.331065" lat="33.979269"><ele>318.185130</ele><time>2025-04-19T17:46:26Z</time><extensions><speed>1.408538</speed><course>108.621713</course><hAcc>2.095475</hAcc><vAcc>0.827866</vAcc></extensions></trkpt>
      <trkpt lon="-117.331050" lat="33.979265"><ele>318.232837</ele><time>2025-04-19T17:46:27Z</time><extensions><speed>1.498406</speed><course>104.416198</course><hAcc>2.073131</hAcc><vAcc>0.823300</vAcc></extensions></trkpt>
      <trkpt lon="-117.331034" lat="33.979261"><ele>318.294509</ele><time>2025-04-19T17:46:28Z</time><extensions><speed>1.473309</speed><course>105.056575</course><hAcc>2.063421</hAcc><vAcc>0.818517</vAcc></extensions></trkpt>
      <trkpt lon="-117.331019" lat="33.979257"><ele>318.367749</ele><time>2025-04-19T17:46:29Z</time><extensions><speed>1.426320</speed><course>106.814656</course><hAcc>2.066329</hAcc><vAcc>0.814125</vAcc></extensions></trkpt>
      <trkpt lon="-117.331005" lat="33.979253"><ele>318.463854</ele><time>2025-04-19T17:46:30Z</time><extensions><speed>1.347333</speed><course>109.745615</course><hAcc>2.067202</hAcc><vAcc>0.810468</vAcc></extensions></trkpt>
      <trkpt lon="-117.330992" lat="33.979248"><ele>318.581717</ele><time>2025-04-19T17:46:31Z</time><extensions><speed>1.263812</speed><course>115.848693</course><hAcc>2.034215</hAcc><vAcc>0.807444</vAcc></extensions></trkpt>
      <trkpt lon="-117.330981" lat="33.979243"><ele>318.705565</ele><time>2025-04-19T17:46:32Z</time><extensions><speed>1.191247</speed><course>120.607449</course><hAcc>2.012705</hAcc><vAcc>0.805142</vAcc></extensions></trkpt>
      <trkpt lon="-117.330970" lat="33.979237"><ele>318.826532</ele><time>2025-04-19T17:46:33Z</time><extensions><speed>1.089876</speed><course>123.454575</course><hAcc>2.015851</hAcc><vAcc>0.806640</vAcc></extensions></trkpt>
      <trkpt lon="-117.330961" lat="33.979231"><ele>318.951305</ele><time>2025-04-19T17:46:34Z</time><extensions><speed>1.057092</speed><course>130.877804</course><hAcc>2.021779</hAcc><vAcc>0.810725</vAcc></extensions></trkpt>
      <trkpt lon="-117.330954" lat="33.979224"><ele>319.090517</ele><time>2025-04-19T17:46:35Z</time><extensions><speed>1.183919</speed><course>151.016330</course><hAcc>1.998468</hAcc><vAcc>0.817488</vAcc></extensions></trkpt>
      <trkpt lon="-117.330949" lat="33.979213"><ele>319.230719</ele><time>2025-04-19T17:46:36Z</time><extensions><speed>1.387874</speed><course>166.468891</course><hAcc>1.986462</hAcc><vAcc>0.826754</vAcc></extensions></trkpt>
      <trkpt lon="-117.330947" lat="33.979200"><ele>319.371224</ele><time>2025-04-19T17:46:37Z</time><extensions><speed>1.464893</speed><course>174.887659</course><hAcc>1.996655</hAcc><vAcc>0.838569</vAcc></extensions></trkpt>
      <trkpt lon="-117.330947" lat="33.979186"><ele>319.507422</ele><time>2025-04-19T17:46:38Z</time><extensions><speed>1.580745</speed><course>184.428330</course><hAcc>1.981311</hAcc><vAcc>0.852611</vAcc></extensions></trkpt>
      <trkpt lon="-117.330949" lat="33.979172"><ele>319.644215</ele><time>2025-04-19T17:46:39Z</time><extensions><speed>1.528020</speed><course>188.472724</course><hAcc>1.979552</hAcc><vAcc>0.868698</vAcc></extensions></trkpt>
      <trkpt lon="-117.330951" lat="33.979158"><ele>319.759762</ele><time>2025-04-19T17:46:40Z</time><extensions><speed>1.464385</speed><course>192.204575</course><hAcc>1.954482</hAcc><vAcc>0.884754</vAcc></extensions></trkpt>
      <trkpt lon="-117.330955" lat="33.979146"><ele>319.881625</ele><time>2025-04-19T17:46:41Z</time><extensions><speed>1.345061</speed><course>195.787008</course><hAcc>1.935690</hAcc><vAcc>0.900971</vAcc></extensions></trkpt>
      <trkpt lon="-117.330959" lat="33.979134"><ele>319.987580</ele><time>2025-04-19T17:46:42Z</time><extensions><speed>1.331452</speed><course>196.679145</course><hAcc>1.934373</hAcc><vAcc>0.917234</vAcc></extensions></trkpt>
      <trkpt lon="-117.330963" lat="33.979122"><ele>320.082850</ele><time>2025-04-19T17:46:43Z</time><extensions><speed>1.270177</speed><course>193.037955</course><hAcc>1.962956</hAcc><vAcc>0.933975</vAcc></extensions></trkpt>
      <trkpt lon="-117.330966" lat="33.979111"><ele>320.161117</ele><time>2025-04-19T17:46:44Z</time><extensions><speed>1.256208</speed><course>188.062225</course><hAcc>1.968113</hAcc><vAcc>0.949689</vAcc></extensions></trkpt>
      <trkpt lon="-117.330967" lat="33.979099"><ele>320.228122</ele><time>2025-04-19T17:46:45Z</time><extensions><speed>1.382931</speed><course>183.827311</course><hAcc>1.950712</hAcc><vAcc>0.964774</vAcc></extensions></trkpt>
      <trkpt lon="-117.330968" lat="33.979086"><ele>320.296793</ele><time>2025-04-19T17:46:46Z</time><extensions><speed>1.346174</speed><course>181.388093</course><hAcc>1.941869</hAcc><vAcc>0.978869</vAcc></extensions></trkpt>
      <trkpt lon="-117.330968" lat="33.979073"><ele>320.334724</ele><time>2025-04-19T17:46:47Z</time><extensions><speed>1.305509</speed><course>180.950496</course><hAcc>1.937070</hAcc><vAcc>0.990792</vAcc></extensions></trkpt>
      <trkpt lon="-117.330968" lat="33.979062"><ele>320.356198</ele><time>2025-04-19T17:46:48Z</time><extensions><speed>1.238479</speed><course>180.319231</course><hAcc>1.922196</hAcc><vAcc>1.000365</vAcc></extensions></trkpt>
      <trkpt lon="-117.330968" lat="33.979050"><ele>320.366592</ele><time>2025-04-19T17:46:49Z</time><extensions><speed>1.267164</speed><course>181.073587</course><hAcc>1.891948</hAcc><vAcc>1.007786</vAcc></extensions></trkpt>
      <trkpt lon="-117.330969" lat="33.979038"><ele>320.365528</ele><time>2025-04-19T17:46:50Z</time><extensions><speed>1.281583</speed><course>180.696551</course><hAcc>1.887940</hAcc><vAcc>1.012274</vAcc></extensions></trkpt>
      <trkpt lon="-117.330969" lat="33.979026"><ele>320.364026</ele><time>2025-04-19T17:46:51Z</time><extensions><speed>1.323898</speed><course>181.778641</course><hAcc>1.883831</hAcc><vAcc>1.017657</vAcc></extensions></trkpt>
      <trkpt lon="-117.330969" lat="33.979014"><ele>320.356937</ele><time>2025-04-19T17:46:52Z</time><extensions><speed>1.314067</speed><course>183.164675</course><hAcc>1.871431</hAcc><vAcc>1.022370</vAcc></extensions></trkpt>
      <trkpt lon="-117.330970" lat="33.979002"><ele>320.346422</ele><time>2025-04-19T17:46:53Z</time><extensions><speed>1.335121</speed><course>183.321779</course><hAcc>1.854331</hAcc><vAcc>1.026618</vAcc></extensions></trkpt>
      <trkpt lon="-117.330970" lat="33.978989"><ele>320.331311</ele><time>2025-04-19T17:46:54Z</time><extensions><speed>1.446339</speed><course>181.237949</course><hAcc>1.832672</hAcc><vAcc>1.030392</vAcc></extensions></trkpt>
      <trkpt lon="-117.330970" lat="33.978976"><ele>320.315778</ele><time>2025-04-19T17:46:55Z</time><extensions><speed>1.433832</speed><course>179.299694</course><hAcc>1.818083</hAcc><vAcc>1.032850</vAcc></extensions></trkpt>
      <trkpt lon="-117.330970" lat="33.978963"><ele>320.297900</ele><time>2025-04-19T17:46:56Z</time><extensions><speed>1.370035</speed><course>177.812497</course><hAcc>1.803067</hAcc><vAcc>1.036041</vAcc></extensions></trkpt>
      <trkpt lon="-117.330969" lat="33.978951"><ele>320.276300</ele><time>2025-04-19T17:46:57Z</time><extensions><speed>1.375612</speed><course>176.184292</course><hAcc>1.780629</hAcc><vAcc>1.038879</vAcc></extensions></trkpt>
      <trkpt lon="-117.330968" lat="33.978938"><ele>320.250939</ele><time>2025-04-19T17:46:58Z</time><extensions><speed>1.424736</speed><course>175.536498</course><hAcc>1.763624</hAcc><vAcc>1.041170</vAcc></extensions></trkpt>
      <trkpt lon="-117.330967" lat="33.978925"><ele>320.231159</ele><time>2025-04-19T17:46:59Z</time><extensions><speed>1.413028</speed><course>175.598211</course><hAcc>1.755758</hAcc><vAcc>1.044251</vAcc></extensions></trkpt>
      <trkpt lon="-117.330966" lat="33.978913"><ele>320.197641</ele><time>2025-04-19T17:47:00Z</time><extensions><speed>1.346476</speed><course>175.559395</course><hAcc>1.747183</hAcc><vAcc>1.046484</vAcc></extensions></trkpt>
      <trkpt lon="-117.330964" lat="33.978901"><ele>320.159751</ele><time>2025-04-19T17:47:01Z</time><extensions><speed>1.283367</speed><course>174.326523</course><hAcc>1.739922</hAcc><vAcc>1.048065</vAcc></extensions></trkpt>
      <trkpt lon="-117.330963" lat="33.978890"><ele>320.130103</ele><time>2025-04-19T17:47:02Z</time><extensions><speed>1.252456</speed><course>173.799830</course><hAcc>1.731329</hAcc><vAcc>1.048922</vAcc></extensions></trkpt>
      <trkpt lon="-117.330961" lat="33.978878"><ele>320.092063</ele><time>2025-04-19T17:47:03Z</time><extensions><speed>1.225178</speed><course>175.792103</course><hAcc>1.724008</hAcc><vAcc>1.048052</vAcc></extensions></trkpt>
      <trkpt lon="-117.330961" lat="33.978868"><ele>320.072136</ele><time>2025-04-19T17:47:04Z</time><extensions><speed>1.175932</speed><course>179.184648</course><hAcc>1.715853</hAcc><vAcc>1.047178</vAcc></extensions></trkpt>
      <trkpt lon="-117.330960" lat="33.978857"><ele>320.066260</ele><time>2025-04-19T17:47:05Z</time><extensions><speed>1.132700</speed><course>180.739250</course><hAcc>1.706943</hAcc><vAcc>1.045672</vAcc></extensions></trkpt>
      <trkpt lon="-117.330960" lat="33.978847"><ele>320.068693</ele><time>2025-04-19T17:47:06Z</time><extensions><speed>1.189740</speed><course>180.276284</course><hAcc>1.704569</hAcc><vAcc>1.043767</vAcc></extensions></trkpt>
      <trkpt lon="-117.330959" lat="33.978836"><ele>320.074318</ele><time>2025-04-19T17:47:07Z</time><extensions><speed>1.174412</speed><course>176.559727</course><hAcc>1.702794</hAcc><vAcc>1.040939</vAcc></extensions></trkpt>
      <trkpt lon="-117.330958" lat="33.978826"><ele>320.077081</ele><time>2025-04-19T17:47:08Z</time><extensions><speed>1.195689</speed><course>173.354368</course><hAcc>1.695652</hAcc><vAcc>1.035394</vAcc></extensions></trkpt>
      <trkpt lon="-117.330956" lat="33.978815"><ele>320.061524</ele><time>2025-04-19T17:47:09Z</time><extensions><speed>1.219832</speed><course>172.166462</course><hAcc>1.688789</hAcc><vAcc>1.029104</vAcc></extensions></trkpt>
      <trkpt lon="-117.330954" lat="33.978804"><ele>320.049021</ele><time>2025-04-19T17:47:10Z</time><extensions><speed>1.236241</speed><course>170.860886</course><hAcc>1.682065</hAcc><vAcc>1.019803</vAcc></extensions></trkpt>
      <trkpt lon="-117.330951" lat="33.978793"><ele>320.043842</ele><time>2025-04-19T17:47:11Z</time><extensions><speed>1.214473</speed><course>168.684992</course><hAcc>1.671089</hAcc><vAcc>1.008141</vAcc></extensions></trkpt>
      <trkpt lon="-117.330948" lat="33.978783"><ele>320.042614</ele><time>2025-04-19T17:47:12Z</time><extensions><speed>1.093073</speed><course>163.453709</course><hAcc>1.659517</hAcc><vAcc>0.998206</vAcc></extensions></trkpt>
      <trkpt lon="-117.330944" lat="33.978774"><ele>320.034437</ele><time>2025-04-19T17:47:13Z</time><extensions><speed>1.053721</speed><course>157.345464</course><hAcc>1.648750</hAcc><vAcc>0.987279</vAcc></extensions></trkpt>
      <trkpt lon="-117.330939" lat="33.978765"><ele>320.026057</ele><time>2025-04-19T17:47:14Z</time><extensions><speed>1.092431</speed><course>149.943561</course><hAcc>1.643736</hAcc><vAcc>0.976424</vAcc></extensions></trkpt>
      <trkpt lon="-117.330933" lat="33.978757"><ele>320.017470</ele><time>2025-04-19T17:47:15Z</time><extensions><speed>1.178714</speed><course>143.833811</course><hAcc>1.621474</hAcc><vAcc>0.965993</vAcc></extensions></trkpt>
      <trkpt lon="-117.330925" lat="33.978748"><ele>320.007771</ele><time>2025-04-19T17:47:16Z</time><extensions><speed>1.191970</speed><course>139.752439</course><hAcc>1.606023</hAcc><vAcc>0.955648</vAcc></extensions></trkpt>
      <trkpt lon="-117.330916" lat="33.978740"><ele>320.004058</ele><time>2025-04-19T17:47:17Z</time><extensions><speed>1.174053</speed><course>137.795529</course><hAcc>1.594791</hAcc><vAcc>0.945860</vAcc></extensions></trkpt>
      <trkpt lon="-117.330908" lat="33.978733"><ele>320.000802</ele><time>2025-04-19T17:47:18Z</time><extensions><speed>1.151089</speed><course>138.085468</course><hAcc>1.586890</hAcc><vAcc>0.936586</vAcc></extensions></trkpt>
      <trkpt lon="-117.330899" lat="33.978725"><ele>319.998627</ele><time>2025-04-19T17:47:19Z</time><extensions><speed>1.171906</speed><course>137.687254</course><hAcc>1.581594</hAcc><vAcc>0.928295</vAcc></extensions></trkpt>
      <trkpt lon="-117.330891" lat="33.978717"><ele>319.996963</ele><time>2025-04-19T17:47:20Z</time><extensions><speed>1.243424</speed><course>140.660165</course><hAcc>1.579846</hAcc><vAcc>0.921534</vAcc></extensions></trkpt>
      <trkpt lon="-117.330882" lat="33.978708"><ele>319.988625</ele><time>2025-04-19T17:47:21Z</time><extensions><speed>1.221701</speed><course>143.787334</course><hAcc>1.581610</hAcc><vAcc>0.916551</vAcc></extensions></trkpt>
      <trkpt lon="-117.330875" lat="33.978699"><ele>319.973168</ele><time>2025-04-19T17:47:22Z</time><extensions><speed>1.170233</speed><course>147.697224</course><hAcc>1.590720</hAcc><vAcc>0.913250</vAcc></extensions></trkpt>
      <trkpt lon="-117.330869" lat="33.978689"><ele>319.961778</ele><time>2025-04-19T17:47:23Z</time><extensions><speed>1.168205</speed><course>155.826186</course><hAcc>1.605105</hAcc><vAcc>0.911155</vAcc></extensions></trkpt>
      <trkpt lon="-117.330864" lat="33.978680"><ele>319.947816</ele><time>2025-04-19T17:47:24Z</time><extensions><speed>1.090357</speed><course>160.275773</course><hAcc>1.615836</hAcc><vAcc>0.910049</vAcc></extensions></trkpt>
      <trkpt lon="-117.330861" lat="33.978670"><ele>319.928136</ele><time>2025-04-19T17:47:25Z</time><extensions><speed>1.066837</speed><course>162.969043</course><hAcc>1.625048</hAcc><vAcc>0.909346</vAcc></extensions></trkpt>
      <trkpt lon="-117.330857" lat="33.978661"><ele>319.908575</ele><time>2025-04-19T17:47:26Z</time><extensions><speed>1.061590</speed><course>163.862203</course><hAcc>1.631769</hAcc><vAcc>0.909090</vAcc></extensions></trkpt>
      <trkpt lon="-117.330854" lat="33.978652"><ele>319.889992</ele><time>2025-04-19T17:47:27Z</time><extensions><speed>1.138845</speed><course>163.470152</course><hAcc>1.635719</hAcc><vAcc>0.909151</vAcc></extensions></trkpt>
      <trkpt lon="-117.330850" lat="33.978641"><ele>319.861457</ele><time>2025-04-19T17:47:28Z</time><extensions><speed>1.200576</speed><course>162.742985</course><hAcc>1.641559</hAcc><vAcc>0.908847</vAcc></extensions></trkpt>
      <trkpt lon="-117.330847" lat="33.978631"><ele>319.827969</ele><time>2025-04-19T17:47:29Z</time><extensions><speed>1.272176</speed><course>163.859859</course><hAcc>1.648764</hAcc><vAcc>0.908091</vAcc></extensions></trkpt>
      <trkpt lon="-117.330843" lat="33.978619"><ele>319.795225</ele><time>2025-04-19T17:47:30Z</time><extensions><speed>1.293807</speed><course>164.189894</course><hAcc>1.651518</hAcc><vAcc>0.907483</vAcc></extensions></trkpt>
      <trkpt lon="-117.330839" lat="33.978608"><ele>319.761094</ele><time>2025-04-19T17:47:31Z</time><extensions><speed>1.299259</speed><course>165.195508</course><hAcc>1.649323</hAcc><vAcc>0.906523</vAcc></extensions></trkpt>
      <trkpt lon="-117.330835" lat="33.978597"><ele>319.725954</ele><time>2025-04-19T17:47:32Z</time><extensions><speed>1.294824</speed><course>166.951378</course><hAcc>1.643529</hAcc><vAcc>0.905325</vAcc></extensions></trkpt>
      <trkpt lon="-117.330833" lat="33.978585"><ele>319.695468</ele><time>2025-04-19T17:47:33Z</time><extensions><speed>1.293481</speed><course>169.096339</course><hAcc>1.635100</hAcc><vAcc>0.904041</vAcc></extensions></trkpt>
      <trkpt lon="-117.330830" lat="33.978574"><ele>319.667730</ele><time>2025-04-19T17:47:34Z</time><extensions><speed>1.297207</speed><course>173.371404</course><hAcc>1.627770</hAcc><vAcc>0.902560</vAcc></extensions></trkpt>
      <trkpt lon="-117.330829" lat="33.978563"><ele>319.644040</ele><time>2025-04-19T17:47:35Z</time><extensions><speed>1.214905</speed><course>174.135508</course><hAcc>1.618900</hAcc><vAcc>0.901195</vAcc></extensions></trkpt>
      <trkpt lon="-117.330827" lat="33.978552"><ele>319.615814</ele><time>2025-04-19T17:47:36Z</time><extensions><speed>1.160534</speed><course>172.906949</course><hAcc>1.610295</hAcc><vAcc>0.899661</vAcc></extensions></trkpt>
      <trkpt lon="-117.330825" lat="33.978542"><ele>319.594020</ele><time>2025-04-19T17:47:37Z</time><extensions><speed>1.195305</speed><course>167.526126</course><hAcc>1.603779</hAcc><vAcc>0.898034</vAcc></extensions></trkpt>
      <trkpt lon="-117.330822" lat="33.978531"><ele>319.581860</ele><time>2025-04-19T17:47:38Z</time><extensions><speed>1.205269</speed><course>162.319741</course><hAcc>1.598353</hAcc><vAcc>0.896162</vAcc></extensions></trkpt>
      <trkpt lon="-117.330817" lat="33.978521"><ele>319.575054</ele><time>2025-04-19T17:47:39Z</time><extensions><speed>1.204477</speed><course>156.942062</course><hAcc>1.597996</hAcc><vAcc>0.894042</vAcc></extensions></trkpt>
      <trkpt lon="-117.330811" lat="33.978511"><ele>319.572393</ele><time>2025-04-19T17:47:40Z</time><extensions><speed>1.219080</speed><course>152.379403</course><hAcc>1.598711</hAcc><vAcc>0.892089</vAcc></extensions></trkpt>
      <trkpt lon="-117.330805" lat="33.978501"><ele>319.574787</ele><time>2025-04-19T17:47:41Z</time><extensions><speed>1.190182</speed><course>150.347433</course><hAcc>1.595958</hAcc><vAcc>0.890768</vAcc></extensions></trkpt>
      <trkpt lon="-117.330799" lat="33.978492"><ele>319.587380</ele><time>2025-04-19T17:47:42Z</time><extensions><speed>1.128079</speed><course>149.217155</course><hAcc>1.590428</hAcc><vAcc>0.888878</vAcc></extensions></trkpt>
      <trkpt lon="-117.330792" lat="33.978484"><ele>319.604453</ele><time>2025-04-19T17:47:43Z</time><extensions><speed>1.137656</speed><course>149.263435</course><hAcc>1.583158</hAcc><vAcc>0.887034</vAcc></extensions></trkpt>
      <trkpt lon="-117.330786" lat="33.978475"><ele>319.625988</ele><time>2025-04-19T17:47:44Z</time><extensions><speed>1.184124</speed><course>149.150645</course><hAcc>1.574859</hAcc><vAcc>0.885253</vAcc></extensions></trkpt>
      <trkpt lon="-117.330779" lat="33.978465"><ele>319.653708</ele><time>2025-04-19T17:47:45Z</time><extensions><speed>1.175462</speed><course>149.047603</course><hAcc>1.567500</hAcc><vAcc>0.883608</vAcc></extensions></trkpt>
      <trkpt lon="-117.330772" lat="33.978456"><ele>319.690129</ele><time>2025-04-19T17:47:46Z</time><extensions><speed>1.177443</speed><course>148.920181</course><hAcc>1.562929</hAcc><vAcc>0.881969</vAcc></extensions></trkpt>
      <trkpt lon="-117.330766" lat="33.978447"><ele>319.727744</ele><time>2025-04-19T17:47:47Z</time><extensions><speed>1.200677</speed><course>148.350196</course><hAcc>1.558961</hAcc><vAcc>0.880551</vAcc></extensions></trkpt>
      <trkpt lon="-117.330759" lat="33.978438"><ele>319.769339</ele><time>2025-04-19T17:47:48Z</time><extensions><speed>1.213907</speed><course>147.137180</course><hAcc>1.554276</hAcc><vAcc>0.879408</vAcc></extensions></trkpt>
      <trkpt lon="-117.330751" lat="33.978429"><ele>319.814189</ele><time>2025-04-19T17:47:49Z</time><extensions><speed>1.198682</speed><course>146.156315</course><hAcc>1.550850</hAcc><vAcc>0.878522</vAcc></extensions></trkpt>
      <trkpt lon="-117.330744" lat="33.978420"><ele>319.863573</ele><time>2025-04-19T17:47:50Z</time><extensions><speed>1.219910</speed><course>146.602197</course><hAcc>1.551233</hAcc><vAcc>0.877751</vAcc></extensions></trkpt>
      <trkpt lon="-117.330737" lat="33.978410"><ele>319.915179</ele><time>2025-04-19T17:47:51Z</time><extensions><speed>1.237031</speed><course>148.059329</course><hAcc>1.550356</hAcc><vAcc>0.877110</vAcc></extensions></trkpt>
      <trkpt lon="-117.330730" lat="33.978401"><ele>319.968521</ele><time>2025-04-19T17:47:52Z</time><extensions><speed>1.232293</speed><course>149.061234</course><hAcc>1.549230</hAcc><vAcc>0.876520</vAcc></extensions></trkpt>
      <trkpt lon="-117.330723" lat="33.978391"><ele>320.017667</ele><time>2025-04-19T17:47:53Z</time><extensions><speed>1.224715</speed><course>149.875804</course><hAcc>1.549843</hAcc><vAcc>0.875771</vAcc></extensions></trkpt>
      <trkpt lon="-117.330716" lat="33.978382"><ele>320.053711</ele><time>2025-04-19T17:47:54Z</time><extensions><speed>1.202264</speed><course>150.410738</course><hAcc>1.551500</hAcc><vAcc>0.875398</vAcc></extensions></trkpt>
      <trkpt lon="-117.330710" lat="33.978372"><ele>320.085534</ele><time>2025-04-19T17:47:55Z</time><extensions><speed>1.181183</speed><course>150.940528</course><hAcc>1.552874</hAcc><vAcc>0.875228</vAcc></extensions></trkpt>
      <trkpt lon="-117.330703" lat="33.978363"><ele>320.114052</ele><time>2025-04-19T17:47:56Z</time><extensions><speed>1.185333</speed><course>150.972680</course><hAcc>1.552429</hAcc><vAcc>0.875054</vAcc></extensions></trkpt>
      <trkpt lon="-117.330697" lat="33.978354"><ele>320.133878</ele><time>2025-04-19T17:47:57Z</time><extensions><speed>1.181127</speed><course>150.843798</course><hAcc>1.550281</hAcc><vAcc>0.874735</vAcc></extensions></trkpt>
      <trkpt lon="-117.330691" lat="33.978344"><ele>320.148799</ele><time>2025-04-19T17:47:58Z</time><extensions><speed>1.230550</speed><course>151.937655</course><hAcc>1.546898</hAcc><vAcc>0.874116</vAcc></extensions></trkpt>
      <trkpt lon="-117.330685" lat="33.978334"><ele>320.164461</ele><time>2025-04-19T17:47:59Z</time><extensions><speed>1.226720</speed><course>153.437690</course><hAcc>1.540853</hAcc><vAcc>0.873132</vAcc></extensions></trkpt>
      <trkpt lon="-117.330679" lat="33.978324"><ele>320.175907</ele><time>2025-04-19T17:48:00Z</time><extensions><speed>1.200963</speed><course>154.513652</course><hAcc>1.532895</hAcc><vAcc>0.872110</vAcc></extensions></trkpt>
      <trkpt lon="-117.330674" lat="33.978315"><ele>320.177680</ele><time>2025-04-19T17:48:01Z</time><extensions><speed>1.187743</speed><course>156.125187</course><hAcc>1.525974</hAcc><vAcc>0.871224</vAcc></extensions></trkpt>
      <trkpt lon="-117.330668" lat="33.978305"><ele>320.172843</ele><time>2025-04-19T17:48:02Z</time><extensions><speed>1.175727</speed><course>154.834245</course><hAcc>1.519461</hAcc><vAcc>0.871090</vAcc></extensions></trkpt>
      <trkpt lon="-117.330663" lat="33.978296"><ele>320.158283</ele><time>2025-04-19T17:48:03Z</time><extensions><speed>1.125144</speed><course>152.758773</course><hAcc>1.516210</hAcc><vAcc>0.870976</vAcc></extensions></trkpt>
      <trkpt lon="-117.330657" lat="33.978287"><ele>320.134990</ele><time>2025-04-19T17:48:04Z</time><extensions><speed>1.120753</speed><course>151.179794</course><hAcc>1.515728</hAcc><vAcc>0.870951</vAcc></extensions></trkpt>
      <trkpt lon="-117.330651" lat="33.978278"><ele>320.113159</ele><time>2025-04-19T17:48:05Z</time><extensions><speed>1.130504</speed><course>149.810248</course><hAcc>1.519656</hAcc><vAcc>0.870972</vAcc></extensions></trkpt>
      <trkpt lon="-117.330645" lat="33.978269"><ele>320.095590</ele><time>2025-04-19T17:48:06Z</time><extensions><speed>1.099571</speed><course>148.731102</course><hAcc>1.522565</hAcc><vAcc>0.871469</vAcc></extensions></trkpt>
      <trkpt lon="-117.330639" lat="33.978261"><ele>320.078961</ele><time>2025-04-19T17:48:07Z</time><extensions><speed>1.088534</speed><course>147.826568</course><hAcc>1.523303</hAcc><vAcc>0.872005</vAcc></extensions></trkpt>
      <trkpt lon="-117.330632" lat="33.978253"><ele>320.069288</ele><time>2025-04-19T17:48:08Z</time><extensions><speed>1.075294</speed><course>145.579481</course><hAcc>1.521525</hAcc><vAcc>0.872800</vAcc></extensions></trkpt>
      <trkpt lon="-117.330625" lat="33.978245"><ele>320.066294</ele><time>2025-04-19T17:48:09Z</time><extensions><speed>1.068548</speed><course>145.245865</course><hAcc>1.517224</hAcc><vAcc>0.873784</vAcc></extensions></trkpt>
      <trkpt lon="-117.330619" lat="33.978237"><ele>320.065606</ele><time>2025-04-19T17:48:10Z</time><extensions><speed>1.088505</speed><course>145.086594</course><hAcc>1.513311</hAcc><vAcc>0.874785</vAcc></extensions></trkpt>
      <trkpt lon="-117.330612" lat="33.978229"><ele>320.068315</ele><time>2025-04-19T17:48:11Z</time><extensions><speed>1.092110</speed><course>144.709616</course><hAcc>1.507660</hAcc><vAcc>0.876142</vAcc></extensions></trkpt>
      <trkpt lon="-117.330605" lat="33.978221"><ele>320.076731</ele><time>2025-04-19T17:48:12Z</time><extensions><speed>1.042124</speed><course>141.628190</course><hAcc>1.503454</hAcc><vAcc>0.877647</vAcc></extensions></trkpt>
      <trkpt lon="-117.330598" lat="33.978214"><ele>320.086479</ele><time>2025-04-19T17:48:13Z</time><extensions><speed>1.062764</speed><course>136.272073</course><hAcc>1.505326</hAcc><vAcc>0.879384</vAcc></extensions></trkpt>
      <trkpt lon="-117.330589" lat="33.978207"><ele>320.101866</ele><time>2025-04-19T17:48:14Z</time><extensions><speed>1.138398</speed><course>131.918413</course><hAcc>1.510277</hAcc><vAcc>0.881538</vAcc></extensions></trkpt>
      <trkpt lon="-117.330580" lat="33.978201"><ele>320.122208</ele><time>2025-04-19T17:48:15Z</time><extensions><speed>1.165538</speed><course>127.517323</course><hAcc>1.518558</hAcc><vAcc>0.884075</vAcc></extensions></trkpt>
      <trkpt lon="-117.330570" lat="33.978195"><ele>320.150273</ele><time>2025-04-19T17:48:16Z</time><extensions><speed>1.110683</speed><course>127.014285</course><hAcc>1.526717</hAcc><vAcc>0.886392</vAcc></extensions></trkpt>
      <trkpt lon="-117.330561" lat="33.978189"><ele>320.177207</ele><time>2025-04-19T17:48:17Z</time><extensions><speed>1.043555</speed><course>126.755225</course><hAcc>1.534064</hAcc><vAcc>0.888053</vAcc></extensions></trkpt>
      <trkpt lon="-117.330552" lat="33.978183"><ele>320.205803</ele><time>2025-04-19T17:48:18Z</time><extensions><speed>1.051197</speed><course>126.194426</course><hAcc>1.541883</hAcc><vAcc>0.890699</vAcc></extensions></trkpt>
      <trkpt lon="-117.330543" lat="33.978178"><ele>320.237894</ele><time>2025-04-19T17:48:19Z</time><extensions><speed>1.057023</speed><course>126.296624</course><hAcc>1.550679</hAcc><vAcc>0.893269</vAcc></extensions></trkpt>
      <trkpt lon="-117.330533" lat="33.978172"><ele>320.273956</ele><time>2025-04-19T17:48:20Z</time><extensions><speed>1.027781</speed><course>125.890057</course><hAcc>1.559179</hAcc><vAcc>0.896651</vAcc></extensions></trkpt>
      <trkpt lon="-117.330525" lat="33.978167"><ele>320.307452</ele><time>2025-04-19T17:48:21Z</time><extensions><speed>1.000868</speed><course>126.089556</course><hAcc>1.569442</hAcc><vAcc>0.900261</vAcc></extensions></trkpt>
      <trkpt lon="-117.330516" lat="33.978161"><ele>320.351821</ele><time>2025-04-19T17:48:22Z</time><extensions><speed>0.991916</speed><course>127.318908</course><hAcc>1.580375</hAcc><vAcc>0.903595</vAcc></extensions></trkpt>
      <trkpt lon="-117.330507" lat="33.978156"><ele>320.397208</ele><time>2025-04-19T17:48:23Z</time><extensions><speed>0.974913</speed><course>128.484441</course><hAcc>1.590974</hAcc><vAcc>0.906434</vAcc></extensions></trkpt>
      <trkpt lon="-117.330499" lat="33.978150"><ele>320.438784</ele><time>2025-04-19T17:48:24Z</time><extensions><speed>0.964513</speed><course>130.553424</course><hAcc>1.598892</hAcc><vAcc>0.909109</vAcc></extensions></trkpt>
      <trkpt lon="-117.330492" lat="33.978144"><ele>320.479064</ele><time>2025-04-19T17:48:25Z</time><extensions><speed>0.944030</speed><course>132.522545</course><hAcc>1.602488</hAcc><vAcc>0.911792</vAcc></extensions></trkpt>
      <trkpt lon="-117.330484" lat="33.978139"><ele>320.515877</ele><time>2025-04-19T17:48:26Z</time><extensions><speed>0.896863</speed><course>132.451697</course><hAcc>1.602824</hAcc><vAcc>0.914382</vAcc></extensions></trkpt>
      <trkpt lon="-117.330477" lat="33.978133"><ele>320.553290</ele><time>2025-04-19T17:48:27Z</time><extensions><speed>0.905843</speed><course>129.809488</course><hAcc>1.605772</hAcc><vAcc>0.917520</vAcc></extensions></trkpt>
      <trkpt lon="-117.330469" lat="33.978128"><ele>320.578496</ele><time>2025-04-19T17:48:28Z</time><extensions><speed>1.003468</speed><course>126.211781</course><hAcc>1.609257</hAcc><vAcc>0.920170</vAcc></extensions></trkpt>
      <trkpt lon="-117.330460" lat="33.978122"><ele>320.605223</ele><time>2025-04-19T17:48:29Z</time><extensions><speed>1.102373</speed><course>128.462025</course><hAcc>1.612414</hAcc><vAcc>0.922438</vAcc></extensions></trkpt>
      <trkpt lon="-117.330451" lat="33.978115"><ele>320.629365</ele><time>2025-04-19T17:48:30Z</time><extensions><speed>1.090807</speed><course>135.553456</course><hAcc>1.616221</hAcc><vAcc>0.924109</vAcc></extensions></trkpt>
      <trkpt lon="-117.330443" lat="33.978108"><ele>320.662204</ele><time>2025-04-19T17:48:31Z</time><extensions><speed>1.104815</speed><course>141.802358</course><hAcc>1.616047</hAcc><vAcc>0.925264</vAcc></extensions></trkpt>
      <trkpt lon="-117.330436" lat="33.978100"><ele>320.692456</ele><time>2025-04-19T17:48:32Z</time><extensions><speed>1.137762</speed><course>145.530379</course><hAcc>1.609940</hAcc><vAcc>0.925903</vAcc></extensions></trkpt>
      <trkpt lon="-117.330429" lat="33.978091"><ele>320.718641</ele><time>2025-04-19T17:48:33Z</time><extensions><speed>1.129661</speed><course>148.850962</course><hAcc>1.603176</hAcc><vAcc>0.926507</vAcc></extensions></trkpt>
      <trkpt lon="-117.330422" lat="33.978082"><ele>320.751735</ele><time>2025-04-19T17:48:34Z</time><extensions><speed>1.157701</speed><course>152.314233</course><hAcc>1.594854</hAcc><vAcc>0.927347</vAcc></extensions></trkpt>
      <trkpt lon="-117.330416" lat="33.978073"><ele>320.779926</ele><time>2025-04-19T17:48:35Z</time><extensions><speed>1.208495</speed><course>153.666089</course><hAcc>1.584470</hAcc><vAcc>0.927608</vAcc></extensions></trkpt>
      <trkpt lon="-117.330410" lat="33.978063"><ele>320.799620</ele><time>2025-04-19T17:48:36Z</time><extensions><speed>1.241246</speed><course>153.787329</course><hAcc>1.576289</hAcc><vAcc>0.927479</vAcc></extensions></trkpt>
      <trkpt lon="-117.330404" lat="33.978053"><ele>320.829564</ele><time>2025-04-19T17:48:37Z</time><extensions><speed>1.284637</speed><course>150.528600</course><hAcc>1.570837</hAcc><vAcc>0.927282</vAcc></extensions></trkpt>
      <trkpt lon="-117.330397" lat="33.978042"><ele>320.860296</ele><time>2025-04-19T17:48:38Z</time><extensions><speed>1.315786</speed><course>150.472682</course><hAcc>1.564065</hAcc><vAcc>0.925894</vAcc></extensions></trkpt>
      <trkpt lon="-117.330390" lat="33.978032"><ele>320.894561</ele><time>2025-04-19T17:48:39Z</time><extensions><speed>1.249084</speed><course>148.810965</course><hAcc>1.556502</hAcc><vAcc>0.924477</vAcc></extensions></trkpt>
      <trkpt lon="-117.330383" lat="33.978023"><ele>320.934932</ele><time>2025-04-19T17:48:40Z</time><extensions><speed>1.229173</speed><course>147.392061</course><hAcc>1.551796</hAcc><vAcc>0.923603</vAcc></extensions></trkpt>
      <trkpt lon="-117.330375" lat="33.978014"><ele>320.977906</ele><time>2025-04-19T17:48:41Z</time><extensions><speed>1.250580</speed><course>144.880368</course><hAcc>1.549417</hAcc><vAcc>0.922822</vAcc></extensions></trkpt>
      <trkpt lon="-117.330367" lat="33.978004"><ele>321.016854</ele><time>2025-04-19T17:48:42Z</time><extensions><speed>1.268936</speed><course>143.519748</course><hAcc>1.550741</hAcc><vAcc>0.921900</vAcc></extensions></trkpt>
      <trkpt lon="-117.330359" lat="33.977995"><ele>321.052714</ele><time>2025-04-19T17:48:43Z</time><extensions><speed>1.264054</speed><course>142.931002</course><hAcc>1.553537</hAcc><vAcc>0.920722</vAcc></extensions></trkpt>
      <trkpt lon="-117.330350" lat="33.977986"><ele>321.090990</ele><time>2025-04-19T17:48:44Z</time><extensions><speed>1.245981</speed><course>142.569296</course><hAcc>1.553728</hAcc><vAcc>0.919640</vAcc></extensions></trkpt>
      <trkpt lon="-117.330343" lat="33.977978"><ele>321.124284</ele><time>2025-04-19T17:48:45Z</time><extensions><speed>1.216966</speed><course>143.693983</course><hAcc>1.553797</hAcc><vAcc>0.918299</vAcc></extensions></trkpt>
      <trkpt lon="-117.330335" lat="33.977969"><ele>321.150754</ele><time>2025-04-19T17:48:46Z</time><extensions><speed>1.210264</speed><course>146.297163</course><hAcc>1.547348</hAcc><vAcc>0.916813</vAcc></extensions></trkpt>
      <trkpt lon="-117.330328" lat="33.977960"><ele>321.181178</ele><time>2025-04-19T17:48:47Z</time><extensions><speed>1.172582</speed><course>148.446172</course><hAcc>1.539103</hAcc><vAcc>0.915983</vAcc></extensions></trkpt>
      <trkpt lon="-117.330322" lat="33.977951"><ele>321.212376</ele><time>2025-04-19T17:48:48Z</time><extensions><speed>1.145758</speed><course>149.145857</course><hAcc>1.531598</hAcc><vAcc>0.915544</vAcc></extensions></trkpt>
      <trkpt lon="-117.330316" lat="33.977942"><ele>321.228776</ele><time>2025-04-19T17:48:49Z</time><extensions><speed>1.096574</speed><course>149.433273</course><hAcc>1.522449</hAcc><vAcc>0.915488</vAcc></extensions></trkpt>
      <trkpt lon="-117.330310" lat="33.977934"><ele>321.243609</ele><time>2025-04-19T17:48:50Z</time><extensions><speed>1.036634</speed><course>150.080276</course><hAcc>1.513194</hAcc><vAcc>0.915376</vAcc></extensions></trkpt>
      <trkpt lon="-117.330305" lat="33.977926"><ele>321.269656</ele><time>2025-04-19T17:48:51Z</time><extensions><speed>0.981434</speed><course>151.166690</course><hAcc>1.504725</hAcc><vAcc>0.914901</vAcc></extensions></trkpt>
      <trkpt lon="-117.330300" lat="33.977918"><ele>321.307953</ele><time>2025-04-19T17:48:52Z</time><extensions><speed>0.924939</speed><course>151.814550</course><hAcc>1.498964</hAcc><vAcc>0.914512</vAcc></extensions></trkpt>
      <trkpt lon="-117.330296" lat="33.977911"><ele>321.333684</ele><time>2025-04-19T17:48:53Z</time><extensions><speed>0.900757</speed><course>154.874508</course><hAcc>1.496327</hAcc><vAcc>0.914891</vAcc></extensions></trkpt>
      <trkpt lon="-117.330292" lat="33.977904"><ele>321.363654</ele><time>2025-04-19T17:48:54Z</time><extensions><speed>0.876509</speed><course>159.410049</course><hAcc>1.496863</hAcc><vAcc>0.913971</vAcc></extensions></trkpt>
      <trkpt lon="-117.330290" lat="33.977897"><ele>321.405644</ele><time>2025-04-19T17:48:55Z</time><extensions><speed>0.812487</speed><course>167.690426</course><hAcc>1.503288</hAcc><vAcc>0.912347</vAcc></extensions></trkpt>
      <trkpt lon="-117.330289" lat="33.977890"><ele>321.454601</ele><time>2025-04-19T17:48:56Z</time><extensions><speed>0.737177</speed><course>178.449158</course><hAcc>1.514758</hAcc><vAcc>0.911494</vAcc></extensions></trkpt>
      <trkpt lon="-117.330289" lat="33.977883"><ele>321.519182</ele><time>2025-04-19T17:48:57Z</time><extensions><speed>0.688192</speed><course>184.386554</course><hAcc>1.521405</hAcc><vAcc>0.909274</vAcc></extensions></trkpt>
      <trkpt lon="-117.330289" lat="33.977877"><ele>321.581287</ele><time>2025-04-19T17:48:58Z</time><extensions><speed>0.610431</speed><course>183.067447</course><hAcc>1.523093</hAcc><vAcc>0.908061</vAcc></extensions></trkpt>
      <trkpt lon="-117.330289" lat="33.977872"><ele>321.663154</ele><time>2025-04-19T17:48:59Z</time><extensions><speed>0.515640</speed><course>173.926471</course><hAcc>1.509687</hAcc><vAcc>0.906329</vAcc></extensions></trkpt>
      <trkpt lon="-117.330287" lat="33.977868"><ele>321.757476</ele><time>2025-04-19T17:49:00Z</time><extensions><speed>0.566423</speed><course>155.989279</course><hAcc>1.504403</hAcc><vAcc>0.905075</vAcc></extensions></trkpt>
      <trkpt lon="-117.330284" lat="33.977862"><ele>321.861771</ele><time>2025-04-19T17:49:01Z</time><extensions><speed>0.771618</speed><course>141.154896</course><hAcc>1.508853</hAcc><vAcc>0.904253</vAcc></extensions></trkpt>
      <trkpt lon="-117.330278" lat="33.977857"><ele>321.980947</ele><time>2025-04-19T17:49:02Z</time><extensions><speed>0.773768</speed><course>131.820390</course><hAcc>1.495639</hAcc><vAcc>0.903722</vAcc></extensions></trkpt>
      <trkpt lon="-117.330271" lat="33.977852"><ele>322.110752</ele><time>2025-04-19T17:49:03Z</time><extensions><speed>0.831771</speed><course>134.594170</course><hAcc>1.476251</hAcc><vAcc>0.902748</vAcc></extensions></trkpt>
      <trkpt lon="-117.330266" lat="33.977846"><ele>322.238761</ele><time>2025-04-19T17:49:04Z</time><extensions><speed>0.872410</speed><course>152.177860</course><hAcc>1.445495</hAcc><vAcc>0.902356</vAcc></extensions></trkpt>
      <trkpt lon="-117.330262" lat="33.977838"><ele>322.374784</ele><time>2025-04-19T17:49:05Z</time><extensions><speed>1.050637</speed><course>163.544195</course><hAcc>1.438994</hAcc><vAcc>0.901961</vAcc></extensions></trkpt>
      <trkpt lon="-117.330259" lat="33.977828"><ele>322.513310</ele><time>2025-04-19T17:49:06Z</time><extensions><speed>1.215772</speed><course>168.520200</course><hAcc>1.454853</hAcc><vAcc>0.901635</vAcc></extensions></trkpt>
      <trkpt lon="-117.330257" lat="33.977817"><ele>322.634873</ele><time>2025-04-19T17:49:07Z</time><extensions><speed>1.274387</speed><course>172.634045</course><hAcc>1.431500</hAcc><vAcc>0.901221</vAcc></extensions></trkpt>
      <trkpt lon="-117.330255" lat="33.977805"><ele>322.753628</ele><time>2025-04-19T17:49:08Z</time><extensions><speed>1.350056</speed><course>175.893356</course><hAcc>1.439076</hAcc><vAcc>0.900743</vAcc></extensions></trkpt>
      <trkpt lon="-117.330254" lat="33.977793"><ele>322.876112</ele><time>2025-04-19T17:49:09Z</time><extensions><speed>1.345797</speed><course>176.108787</course><hAcc>1.435864</hAcc><vAcc>0.901208</vAcc></extensions></trkpt>
      <trkpt lon="-117.330253" lat="33.977781"><ele>322.980031</ele><time>2025-04-19T17:49:10Z</time><extensions><speed>1.309341</speed><course>176.472641</course><hAcc>1.438498</hAcc><vAcc>0.900275</vAcc></extensions></trkpt>
      <trkpt lon="-117.330253" lat="33.977770"><ele>323.068568</ele><time>2025-04-19T17:49:11Z</time><extensions><speed>1.298613</speed><course>177.072906</course><hAcc>1.444186</hAcc><vAcc>0.898453</vAcc></extensions></trkpt>
      <trkpt lon="-117.330252" lat="33.977758"><ele>323.141217</ele><time>2025-04-19T17:49:12Z</time><extensions><speed>1.230431</speed><course>174.464273</course><hAcc>1.450308</hAcc><vAcc>0.895624</vAcc></extensions></trkpt>
      <trkpt lon="-117.330250" lat="33.977748"><ele>323.202938</ele><time>2025-04-19T17:49:13Z</time><extensions><speed>1.107059</speed><course>169.691556</course><hAcc>1.450477</hAcc><vAcc>0.891526</vAcc></extensions></trkpt>
      <trkpt lon="-117.330248" lat="33.977738"><ele>323.261461</ele><time>2025-04-19T17:49:14Z</time><extensions><speed>1.040238</speed><course>167.735443</course><hAcc>1.445942</hAcc><vAcc>0.886189</vAcc></extensions></trkpt>
      <trkpt lon="-117.330245" lat="33.977729"><ele>323.309435</ele><time>2025-04-19T17:49:15Z</time><extensions><speed>1.114478</speed><course>170.454915</course><hAcc>1.434704</hAcc><vAcc>0.879844</vAcc></extensions></trkpt>
      <trkpt lon="-117.330244" lat="33.977718"><ele>323.356877</ele><time>2025-04-19T17:49:16Z</time><extensions><speed>1.204987</speed><course>174.000538</course><hAcc>1.420056</hAcc><vAcc>0.872723</vAcc></extensions></trkpt>
      <trkpt lon="-117.330243" lat="33.977707"><ele>323.396347</ele><time>2025-04-19T17:49:17Z</time><extensions><speed>1.293382</speed><course>176.736797</course><hAcc>1.402284</hAcc><vAcc>0.865245</vAcc></extensions></trkpt>
      <trkpt lon="-117.330242" lat="33.977695"><ele>323.422906</ele><time>2025-04-19T17:49:18Z</time><extensions><speed>1.280677</speed><course>177.634991</course><hAcc>1.394904</hAcc><vAcc>0.858351</vAcc></extensions></trkpt>
      <trkpt lon="-117.330241" lat="33.977684"><ele>323.444047</ele><time>2025-04-19T17:49:19Z</time><extensions><speed>1.191539</speed><course>177.754697</course><hAcc>1.396362</hAcc><vAcc>0.851053</vAcc></extensions></trkpt>
      <trkpt lon="-117.330241" lat="33.977674"><ele>323.454298</ele><time>2025-04-19T17:49:20Z</time><extensions><speed>1.203190</speed><course>178.766536</course><hAcc>1.374068</hAcc><vAcc>0.844340</vAcc></extensions></trkpt>
      <trkpt lon="-117.330241" lat="33.977663"><ele>323.460978</ele><time>2025-04-19T17:49:21Z</time><extensions><speed>1.145106</speed><course>179.256747</course><hAcc>1.361990</hAcc><vAcc>0.838184</vAcc></extensions></trkpt>
      <trkpt lon="-117.330240" lat="33.977653"><ele>323.463672</ele><time>2025-04-19T17:49:22Z</time><extensions><speed>1.102102</speed><course>177.426943</course><hAcc>1.357128</hAcc><vAcc>0.832903</vAcc></extensions></trkpt>
      <trkpt lon="-117.330240" lat="33.977643"><ele>323.460014</ele><time>2025-04-19T17:49:23Z</time><extensions><speed>1.149754</speed><course>174.660785</course><hAcc>1.353685</hAcc><vAcc>0.829069</vAcc></extensions></trkpt>
      <trkpt lon="-117.330238" lat="33.977632"><ele>323.439283</ele><time>2025-04-19T17:49:24Z</time><extensions><speed>1.194675</speed><course>171.567515</course><hAcc>1.346958</hAcc><vAcc>0.826509</vAcc></extensions></trkpt>
      <trkpt lon="-117.330236" lat="33.977621"><ele>323.405700</ele><time>2025-04-19T17:49:25Z</time><extensions><speed>1.268765</speed><course>171.146916</course><hAcc>1.336832</hAcc><vAcc>0.825323</vAcc></extensions></trkpt>
      <trkpt lon="-117.330234" lat="33.977610"><ele>323.354623</ele><time>2025-04-19T17:49:26Z</time><extensions><speed>1.297293</speed><course>173.158819</course><hAcc>1.326176</hAcc><vAcc>0.825377</vAcc></extensions></trkpt>
      <trkpt lon="-117.330233" lat="33.977598"><ele>323.290110</ele><time>2025-04-19T17:49:27Z</time><extensions><speed>1.254055</speed><course>175.070720</course><hAcc>1.331681</hAcc><vAcc>0.827199</vAcc></extensions></trkpt>
      <trkpt lon="-117.330232" lat="33.977588"><ele>323.215636</ele><time>2025-04-19T17:49:28Z</time><extensions><speed>1.090481</speed><course>175.035461</course><hAcc>1.359023</hAcc><vAcc>0.830315</vAcc></extensions></trkpt>
      <trkpt lon="-117.330230" lat="33.977579"><ele>323.130227</ele><time>2025-04-19T17:49:29Z</time><extensions><speed>0.988974</speed><course>174.027474</course><hAcc>1.341750</hAcc><vAcc>0.834448</vAcc></extensions></trkpt>
      <trkpt lon="-117.330229" lat="33.977569"><ele>323.037064</ele><time>2025-04-19T17:49:30Z</time><extensions><speed>1.049432</speed><course>172.042487</course><hAcc>1.359218</hAcc><vAcc>0.839521</vAcc></extensions></trkpt>
      <trkpt lon="-117.330228" lat="33.977560"><ele>322.939100</ele><time>2025-04-19T17:49:31Z</time><extensions><speed>1.031379</speed><course>172.316188</course><hAcc>1.355648</hAcc><vAcc>0.844955</vAcc></extensions></trkpt>
      <trkpt lon="-117.330226" lat="33.977551"><ele>322.837276</ele><time>2025-04-19T17:49:32Z</time><extensions><speed>1.050305</speed><course>171.926037</course><hAcc>1.362794</hAcc><vAcc>0.850840</vAcc></extensions></trkpt>
      <trkpt lon="-117.330224" lat="33.977541"><ele>322.735575</ele><time>2025-04-19T17:49:33Z</time><extensions><speed>1.089480</speed><course>170.869136</course><hAcc>1.384211</hAcc><vAcc>0.856368</vAcc></extensions></trkpt>
      <trkpt lon="-117.330223" lat="33.977532"><ele>322.629259</ele><time>2025-04-19T17:49:34Z</time><extensions><speed>1.017733</speed><course>171.966116</course><hAcc>1.395869</hAcc><vAcc>0.862603</vAcc></extensions></trkpt>
      <trkpt lon="-117.330221" lat="33.977523"><ele>322.515291</ele><time>2025-04-19T17:49:35Z</time><extensions><speed>1.009491</speed><course>170.501055</course><hAcc>1.403793</hAcc><vAcc>0.868512</vAcc></extensions></trkpt>
      <trkpt lon="-117.330219" lat="33.977514"><ele>322.395602</ele><time>2025-04-19T17:49:36Z</time><extensions><speed>0.996161</speed><course>168.450849</course><hAcc>1.410361</hAcc><vAcc>0.874076</vAcc></extensions></trkpt>
      <trkpt lon="-117.330217" lat="33.977505"><ele>322.275553</ele><time>2025-04-19T17:49:37Z</time><extensions><speed>0.995741</speed><course>167.365120</course><hAcc>1.420095</hAcc><vAcc>0.880884</vAcc></extensions></trkpt>
      <trkpt lon="-117.330214" lat="33.977497"><ele>322.150962</ele><time>2025-04-19T17:49:38Z</time><extensions><speed>0.992006</speed><course>166.844036</course><hAcc>1.432479</hAcc><vAcc>0.887235</vAcc></extensions></trkpt>
      <trkpt lon="-117.330212" lat="33.977488"><ele>322.032672</ele><time>2025-04-19T17:49:39Z</time><extensions><speed>0.977044</speed><course>168.912982</course><hAcc>1.440933</hAcc><vAcc>0.892813</vAcc></extensions></trkpt>
      <trkpt lon="-117.330211" lat="33.977479"><ele>321.919895</ele><time>2025-04-19T17:49:40Z</time><extensions><speed>0.970106</speed><course>172.030111</course><hAcc>1.445199</hAcc><vAcc>0.897493</vAcc></extensions></trkpt>
      <trkpt lon="-117.330209" lat="33.977470"><ele>321.810224</ele><time>2025-04-19T17:49:41Z</time><extensions><speed>0.960783</speed><course>174.142831</course><hAcc>1.443973</hAcc><vAcc>0.900715</vAcc></extensions></trkpt>
      <trkpt lon="-117.330208" lat="33.977462"><ele>321.702069</ele><time>2025-04-19T17:49:42Z</time><extensions><speed>0.959859</speed><course>175.941604</course><hAcc>1.436407</hAcc><vAcc>0.903774</vAcc></extensions></trkpt>
      <trkpt lon="-117.330208" lat="33.977453"><ele>321.601331</ele><time>2025-04-19T17:49:43Z</time><extensions><speed>0.991807</speed><course>177.786490</course><hAcc>1.431771</hAcc><vAcc>0.905347</vAcc></extensions></trkpt>
      <trkpt lon="-117.330207" lat="33.977443"><ele>321.500660</ele><time>2025-04-19T17:49:44Z</time><extensions><speed>1.122545</speed><course>175.729736</course><hAcc>1.442109</hAcc><vAcc>0.906244</vAcc></extensions></trkpt>
      <trkpt lon="-117.330207" lat="33.977434"><ele>321.403180</ele><time>2025-04-19T17:49:45Z</time><extensions><speed>1.033674</speed><course>177.587594</course><hAcc>1.420066</hAcc><vAcc>0.906685</vAcc></extensions></trkpt>
      <trkpt lon="-117.330206" lat="33.977425"><ele>321.301839</ele><time>2025-04-19T17:49:46Z</time><extensions><speed>0.946131</speed><course>178.131371</course><hAcc>1.410462</hAcc><vAcc>0.906941</vAcc></extensions></trkpt>
      <trkpt lon="-117.330206" lat="33.977416"><ele>321.207242</ele><time>2025-04-19T17:49:47Z</time><extensions><speed>0.979199</speed><course>176.271589</course><hAcc>1.418643</hAcc><vAcc>0.907107</vAcc></extensions></trkpt>
      <trkpt lon="-117.330205" lat="33.977407"><ele>321.124727</ele><time>2025-04-19T17:49:48Z</time><extensions><speed>0.985735</speed><course>177.301004</course><hAcc>1.402252</hAcc><vAcc>0.906804</vAcc></extensions></trkpt>
      <trkpt lon="-117.330205" lat="33.977398"><ele>321.036602</ele><time>2025-04-19T17:49:49Z</time><extensions><speed>1.004828</speed><course>176.066902</course><hAcc>1.394916</hAcc><vAcc>0.906820</vAcc></extensions></trkpt>
      <trkpt lon="-117.330204" lat="33.977389"><ele>320.943301</ele><time>2025-04-19T17:49:50Z</time><extensions><speed>1.107545</speed><course>177.591186</course><hAcc>1.386746</hAcc><vAcc>0.907197</vAcc></extensions></trkpt>
      <trkpt lon="-117.330203" lat="33.977379"><ele>320.852215</ele><time>2025-04-19T17:49:51Z</time><extensions><speed>1.144990</speed><course>177.789649</course><hAcc>1.387097</hAcc><vAcc>0.908377</vAcc></extensions></trkpt>
      <trkpt lon="-117.330203" lat="33.977368"><ele>320.755807</ele><time>2025-04-19T17:49:52Z</time><extensions><speed>1.095494</speed><course>177.877201</course><hAcc>1.401827</hAcc><vAcc>0.910248</vAcc></extensions></trkpt>
      <trkpt lon="-117.330203" lat="33.977359"><ele>320.647497</ele><time>2025-04-19T17:49:53Z</time><extensions><speed>1.105583</speed><course>178.785123</course><hAcc>1.385156</hAcc><vAcc>0.911914</vAcc></extensions></trkpt>
      <trkpt lon="-117.330202" lat="33.977349"><ele>320.544159</ele><time>2025-04-19T17:49:54Z</time><extensions><speed>1.114061</speed><course>179.426546</course><hAcc>1.383507</hAcc><vAcc>0.912875</vAcc></extensions></trkpt>
      <trkpt lon="-117.330202" lat="33.977338"><ele>320.435005</ele><time>2025-04-19T17:49:55Z</time><extensions><speed>1.119420</speed><course>177.735443</course><hAcc>1.393026</hAcc><vAcc>0.914329</vAcc></extensions></trkpt>
      <trkpt lon="-117.330201" lat="33.977328"><ele>320.337091</ele><time>2025-04-19T17:49:56Z</time><extensions><speed>1.104812</speed><course>174.010459</course><hAcc>1.403998</hAcc><vAcc>0.916969</vAcc></extensions></trkpt>
      <trkpt lon="-117.330199" lat="33.977318"><ele>320.230826</ele><time>2025-04-19T17:49:57Z</time><extensions><speed>1.126678</speed><course>170.124057</course><hAcc>1.418145</hAcc><vAcc>0.920336</vAcc></extensions></trkpt>
      <trkpt lon="-117.330197" lat="33.977308"><ele>320.125511</ele><time>2025-04-19T17:49:58Z</time><extensions><speed>1.180356</speed><course>167.961002</course><hAcc>1.436103</hAcc><vAcc>0.923604</vAcc></extensions></trkpt>
      <trkpt lon="-117.330194" lat="33.977298"><ele>320.018718</ele><time>2025-04-19T17:49:59Z</time><extensions><speed>1.133226</speed><course>166.175602</course><hAcc>1.465071</hAcc><vAcc>0.926260</vAcc></extensions></trkpt>
      <trkpt lon="-117.330191" lat="33.977288"><ele>319.875337</ele><time>2025-04-19T17:50:00Z</time><extensions><speed>1.102508</speed><course>162.175061</course><hAcc>1.464356</hAcc><vAcc>0.927342</vAcc></extensions></trkpt>
      <trkpt lon="-117.330187" lat="33.977279"><ele>319.716952</ele><time>2025-04-19T17:50:01Z</time><extensions><speed>1.040351</speed><course>161.315809</course><hAcc>1.475450</hAcc><vAcc>0.927349</vAcc></extensions></trkpt>
      <trkpt lon="-117.330184" lat="33.977271"><ele>319.561250</ele><time>2025-04-19T17:50:02Z</time><extensions><speed>0.942240</speed><course>161.925574</course><hAcc>1.474723</hAcc><vAcc>0.926239</vAcc></extensions></trkpt>
      <trkpt lon="-117.330181" lat="33.977263"><ele>319.422667</ele><time>2025-04-19T17:50:03Z</time><extensions><speed>0.897550</speed><course>163.964363</course><hAcc>1.481991</hAcc><vAcc>0.923821</vAcc></extensions></trkpt>
      <trkpt lon="-117.330178" lat="33.977255"><ele>319.300887</ele><time>2025-04-19T17:50:04Z</time><extensions><speed>0.852665</speed><course>162.593490</course><hAcc>1.500646</hAcc><vAcc>0.920596</vAcc></extensions></trkpt>
      <trkpt lon="-117.330175" lat="33.977248"><ele>319.188732</ele><time>2025-04-19T17:50:05Z</time><extensions><speed>0.835779</speed><course>159.177250</course><hAcc>1.509823</hAcc><vAcc>0.916680</vAcc></extensions></trkpt>
      <trkpt lon="-117.330172" lat="33.977241"><ele>319.090286</ele><time>2025-04-19T17:50:06Z</time><extensions><speed>0.896457</speed><course>156.364868</course><hAcc>1.523338</hAcc><vAcc>0.911446</vAcc></extensions></trkpt>
      <trkpt lon="-117.330167" lat="33.977234"><ele>318.998074</ele><time>2025-04-19T17:50:07Z</time><extensions><speed>0.912479</speed><course>153.765281</course><hAcc>1.521538</hAcc><vAcc>0.905696</vAcc></extensions></trkpt>
      <trkpt lon="-117.330163" lat="33.977227"><ele>318.919880</ele><time>2025-04-19T17:50:08Z</time><extensions><speed>0.914683</speed><course>153.535927</course><hAcc>1.525455</hAcc><vAcc>0.899570</vAcc></extensions></trkpt>
      <trkpt lon="-117.330159" lat="33.977220"><ele>318.871445</ele><time>2025-04-19T17:50:09Z</time><extensions><speed>0.858619</speed><course>151.525313</course><hAcc>1.522372</hAcc><vAcc>0.892910</vAcc></extensions></trkpt>
      <trkpt lon="-117.330154" lat="33.977214"><ele>318.845294</ele><time>2025-04-19T17:50:10Z</time><extensions><speed>0.750446</speed><course>137.393346</course><hAcc>1.502620</hAcc><vAcc>0.886509</vAcc></extensions></trkpt>
      <trkpt lon="-117.330148" lat="33.977210"><ele>318.831664</ele><time>2025-04-19T17:50:11Z</time><extensions><speed>0.703899</speed><course>120.777595</course><hAcc>1.487884</hAcc><vAcc>0.879967</vAcc></extensions></trkpt>
      <trkpt lon="-117.330140" lat="33.977207"><ele>318.827393</ele><time>2025-04-19T17:50:12Z</time><extensions><speed>0.790453</speed><course>111.290881</course><hAcc>1.483736</hAcc><vAcc>0.873734</vAcc></extensions></trkpt>
      <trkpt lon="-117.330131" lat="33.977204"><ele>318.833461</ele><time>2025-04-19T17:50:13Z</time><extensions><speed>1.000056</speed><course>110.770367</course><hAcc>1.490539</hAcc><vAcc>0.867948</vAcc></extensions></trkpt>
      <trkpt lon="-117.330121" lat="33.977201"><ele>318.865376</ele><time>2025-04-19T17:50:14Z</time><extensions><speed>1.059223</speed><course>105.929486</course><hAcc>1.485722</hAcc><vAcc>0.862286</vAcc></extensions></trkpt>
      <trkpt lon="-117.330110" lat="33.977199"><ele>318.906109</ele><time>2025-04-19T17:50:15Z</time><extensions><speed>1.041949</speed><course>96.723566</course><hAcc>1.478274</hAcc><vAcc>0.857464</vAcc></extensions></trkpt>
      <trkpt lon="-117.330099" lat="33.977199"><ele>318.947472</ele><time>2025-04-19T17:50:16Z</time><extensions><speed>0.990055</speed><course>85.114293</course><hAcc>1.453831</hAcc><vAcc>0.853074</vAcc></extensions></trkpt>
      <trkpt lon="-117.330088" lat="33.977201"><ele>318.990027</ele><time>2025-04-19T17:50:17Z</time><extensions><speed>1.020670</speed><course>77.392291</course><hAcc>1.425654</hAcc><vAcc>0.849502</vAcc></extensions></trkpt>
      <trkpt lon="-117.330077" lat="33.977203"><ele>319.035378</ele><time>2025-04-19T17:50:18Z</time><extensions><speed>1.135170</speed><course>77.808061</course><hAcc>1.430510</hAcc><vAcc>0.846106</vAcc></extensions></trkpt>
      <trkpt lon="-117.330064" lat="33.977205"><ele>319.092407</ele><time>2025-04-19T17:50:19Z</time><extensions><speed>1.275442</speed><course>79.342760</course><hAcc>1.425836</hAcc><vAcc>0.842898</vAcc></extensions></trkpt>
      <trkpt lon="-117.330050" lat="33.977207"><ele>319.148420</ele><time>2025-04-19T17:50:20Z</time><extensions><speed>1.253639</speed><course>79.654559</course><hAcc>1.413020</hAcc><vAcc>0.840756</vAcc></extensions></trkpt>
      <trkpt lon="-117.330037" lat="33.977209"><ele>319.203132</ele><time>2025-04-19T17:50:21Z</time><extensions><speed>1.200409</speed><course>78.513789</course><hAcc>1.405527</hAcc><vAcc>0.839564</vAcc></extensions></trkpt>
      <trkpt lon="-117.330025" lat="33.977211"><ele>319.254009</ele><time>2025-04-19T17:50:22Z</time><extensions><speed>1.197694</speed><course>79.054383</course><hAcc>1.395962</hAcc><vAcc>0.838006</vAcc></extensions></trkpt>
      <trkpt lon="-117.330012" lat="33.977213"><ele>319.307298</ele><time>2025-04-19T17:50:23Z</time><extensions><speed>1.138940</speed><course>78.424422</course><hAcc>1.385174</hAcc><vAcc>0.836080</vAcc></extensions></trkpt>
      <trkpt lon="-117.330001" lat="33.977215"><ele>319.358456</ele><time>2025-04-19T17:50:24Z</time><extensions><speed>1.031715</speed><course>81.258301</course><hAcc>1.372387</hAcc><vAcc>0.834030</vAcc></extensions></trkpt>
      <trkpt lon="-117.329990" lat="33.977216"><ele>319.396672</ele><time>2025-04-19T17:50:25Z</time><extensions><speed>1.026376</speed><course>83.599369</course><hAcc>1.361894</hAcc><vAcc>0.832434</vAcc></extensions></trkpt>
      <trkpt lon="-117.329978" lat="33.977217"><ele>319.421269</ele><time>2025-04-19T17:50:26Z</time><extensions><speed>1.080537</speed><course>85.788506</course><hAcc>1.345692</hAcc><vAcc>0.830384</vAcc></extensions></trkpt>
      <trkpt lon="-117.329966" lat="33.977217"><ele>319.455342</ele><time>2025-04-19T17:50:27Z</time><extensions><speed>1.164939</speed><course>88.953986</course><hAcc>1.326798</hAcc><vAcc>0.827965</vAcc></extensions></trkpt>
      <trkpt lon="-117.329953" lat="33.977217"><ele>319.487280</ele><time>2025-04-19T17:50:28Z</time><extensions><speed>1.255289</speed><course>92.024063</course><hAcc>1.308946</hAcc><vAcc>0.826228</vAcc></extensions></trkpt>
      <trkpt lon="-117.329940" lat="33.977217"><ele>319.526583</ele><time>2025-04-19T17:50:29Z</time><extensions><speed>1.256945</speed><course>91.909476</course><hAcc>1.297595</hAcc><vAcc>0.824303</vAcc></extensions></trkpt>
      <trkpt lon="-117.329927" lat="33.977217"><ele>319.562020</ele><time>2025-04-19T17:50:30Z</time><extensions><speed>1.127281</speed><course>89.388482</course><hAcc>1.313046</hAcc><vAcc>0.822421</vAcc></extensions></trkpt>
      <trkpt lon="-117.329915" lat="33.977217"><ele>319.586281</ele><time>2025-04-19T17:50:31Z</time><extensions><speed>1.074363</speed><course>89.486872</course><hAcc>1.315804</hAcc><vAcc>0.819839</vAcc></extensions></trkpt>
      <trkpt lon="-117.329903" lat="33.977217"><ele>319.597898</ele><time>2025-04-19T17:50:32Z</time><extensions><speed>1.044283</speed><course>91.525150</course><hAcc>1.285654</hAcc><vAcc>0.816551</vAcc></extensions></trkpt>
      <trkpt lon="-117.329892" lat="33.977216"><ele>319.605902</ele><time>2025-04-19T17:50:33Z</time><extensions><speed>1.034143</speed><course>94.328709</course><hAcc>1.280325</hAcc><vAcc>0.812888</vAcc></extensions></trkpt>
      <trkpt lon="-117.329881" lat="33.977215"><ele>319.606474</ele><time>2025-04-19T17:50:34Z</time><extensions><speed>1.047697</speed><course>96.183947</course><hAcc>1.282139</hAcc><vAcc>0.809168</vAcc></extensions></trkpt>
      <trkpt lon="-117.329869" lat="33.977214"><ele>319.619053</ele><time>2025-04-19T17:50:35Z</time><extensions><speed>1.070090</speed><course>94.628922</course><hAcc>1.269129</hAcc><vAcc>0.805719</vAcc></extensions></trkpt>
      <trkpt lon="-117.329857" lat="33.977214"><ele>319.631196</ele><time>2025-04-19T17:50:36Z</time><extensions><speed>1.175132</speed><course>90.801548</course><hAcc>1.247398</hAcc><vAcc>0.802464</vAcc></extensions></trkpt>
      <trkpt lon="-117.329844" lat="33.977214"><ele>319.635789</ele><time>2025-04-19T17:50:37Z</time><extensions><speed>1.290816</speed><course>87.720922</course><hAcc>1.233979</hAcc><vAcc>0.799925</vAcc></extensions></trkpt>
      <trkpt lon="-117.329830" lat="33.977215"><ele>319.644856</ele><time>2025-04-19T17:50:38Z</time><extensions><speed>1.198458</speed><course>87.526935</course><hAcc>1.245974</hAcc><vAcc>0.797351</vAcc></extensions></trkpt>
      <trkpt lon="-117.329818" lat="33.977215"><ele>319.671188</ele><time>2025-04-19T17:50:39Z</time><extensions><speed>1.133100</speed><course>90.775196</course><hAcc>1.220989</hAcc><vAcc>0.794764</vAcc></extensions></trkpt>
      <trkpt lon="-117.329806" lat="33.977214"><ele>319.706303</ele><time>2025-04-19T17:50:40Z</time><extensions><speed>0.997250</speed><course>94.565884</course><hAcc>1.252453</hAcc><vAcc>0.792637</vAcc></extensions></trkpt>
      <trkpt lon="-117.329795" lat="33.977214"><ele>319.745301</ele><time>2025-04-19T17:50:41Z</time><extensions><speed>1.084798</speed><course>93.926455</course><hAcc>1.213870</hAcc><vAcc>0.790868</vAcc></extensions></trkpt>
      <trkpt lon="-117.329783" lat="33.977213"><ele>319.801815</ele><time>2025-04-19T17:50:42Z</time><extensions><speed>1.149667</speed><course>92.288524</course><hAcc>1.216957</hAcc><vAcc>0.789336</vAcc></extensions></trkpt>
      <trkpt lon="-117.329770" lat="33.977213"><ele>319.857258</ele><time>2025-04-19T17:50:43Z</time><extensions><speed>1.229639</speed><course>92.255498</course><hAcc>1.243784</hAcc><vAcc>0.788069</vAcc></extensions></trkpt>
      <trkpt lon="-117.329756" lat="33.977212"><ele>319.906822</ele><time>2025-04-19T17:50:44Z</time><extensions><speed>1.301264</speed><course>93.060894</course><hAcc>1.261846</hAcc><vAcc>0.786938</vAcc></extensions></trkpt>
      <trkpt lon="-117.329742" lat="33.977211"><ele>319.955837</ele><time>2025-04-19T17:50:45Z</time><extensions><speed>1.277122</speed><course>93.583210</course><hAcc>1.267390</hAcc><vAcc>0.785814</vAcc></extensions></trkpt>
      <trkpt lon="-117.329729" lat="33.977211"><ele>320.010802</ele><time>2025-04-19T17:50:46Z</time><extensions><speed>1.238024</speed><course>93.856720</course><hAcc>1.280077</hAcc><vAcc>0.784796</vAcc></extensions></trkpt>
      <trkpt lon="-117.329716" lat="33.977210"><ele>320.071035</ele><time>2025-04-19T17:50:47Z</time><extensions><speed>1.154381</speed><course>91.530662</course><hAcc>1.309955</hAcc><vAcc>0.783567</vAcc></extensions></trkpt>
      <trkpt lon="-117.329704" lat="33.977210"><ele>320.133459</ele><time>2025-04-19T17:50:48Z</time><extensions><speed>1.066618</speed><course>93.549012</course><hAcc>1.286292</hAcc><vAcc>0.782021</vAcc></extensions></trkpt>
      <trkpt lon="-117.329692" lat="33.977209"><ele>320.201343</ele><time>2025-04-19T17:50:49Z</time><extensions><speed>1.151724</speed><course>94.118018</course><hAcc>1.276998</hAcc><vAcc>0.780079</vAcc></extensions></trkpt>
      <trkpt lon="-117.329679" lat="33.977208"><ele>320.268816</ele><time>2025-04-19T17:50:50Z</time><extensions><speed>1.271836</speed><course>96.515145</course><hAcc>1.290684</hAcc><vAcc>0.778010</vAcc></extensions></trkpt>
      <trkpt lon="-117.329665" lat="33.977206"><ele>320.329663</ele><time>2025-04-19T17:50:51Z</time><extensions><speed>1.272406</speed><course>100.949119</course><hAcc>1.305099</hAcc><vAcc>0.775916</vAcc></extensions></trkpt>
      <trkpt lon="-117.329652" lat="33.977204"><ele>320.373835</ele><time>2025-04-19T17:50:52Z</time><extensions><speed>1.249615</speed><course>101.901256</course><hAcc>1.303945</hAcc><vAcc>0.773880</vAcc></extensions></trkpt>
      <trkpt lon="-117.329638" lat="33.977202"><ele>320.413311</ele><time>2025-04-19T17:50:53Z</time><extensions><speed>1.334186</speed><course>98.278529</course><hAcc>1.302710</hAcc><vAcc>0.771976</vAcc></extensions></trkpt>
      <trkpt lon="-117.329624" lat="33.977201"><ele>320.434995</ele><time>2025-04-19T17:50:54Z</time><extensions><speed>1.302765</speed><course>93.633390</course><hAcc>1.292902</hAcc><vAcc>0.770248</vAcc></extensions></trkpt>
      <trkpt lon="-117.329610" lat="33.977200"><ele>320.450371</ele><time>2025-04-19T17:50:55Z</time><extensions><speed>1.194625</speed><course>91.083221</course><hAcc>1.283542</hAcc><vAcc>0.768698</vAcc></extensions></trkpt>
      <trkpt lon="-117.329597" lat="33.977200"><ele>320.471707</ele><time>2025-04-19T17:50:56Z</time><extensions><speed>1.128363</speed><course>90.688729</course><hAcc>1.281410</hAcc><vAcc>0.767281</vAcc></extensions></trkpt>
      <trkpt lon="-117.329585" lat="33.977200"><ele>320.483091</ele><time>2025-04-19T17:50:57Z</time><extensions><speed>1.131695</speed><course>90.305073</course><hAcc>1.281316</hAcc><vAcc>0.765932</vAcc></extensions></trkpt>
      <trkpt lon="-117.329573" lat="33.977200"><ele>320.490078</ele><time>2025-04-19T17:50:58Z</time><extensions><speed>1.194634</speed><course>89.274602</course><hAcc>1.277380</hAcc><vAcc>0.764611</vAcc></extensions></trkpt>
      <trkpt lon="-117.329559" lat="33.977201"><ele>320.486989</ele><time>2025-04-19T17:50:59Z</time><extensions><speed>1.239032</speed><course>87.829385</course><hAcc>1.264314</hAcc><vAcc>0.763329</vAcc></extensions></trkpt>
      <trkpt lon="-117.329546" lat="33.977201"><ele>320.471560</ele><time>2025-04-19T17:51:00Z</time><extensions><speed>1.221093</speed><course>87.296022</course><hAcc>1.272032</hAcc><vAcc>0.762126</vAcc></extensions></trkpt>
      <trkpt lon="-117.329533" lat="33.977202"><ele>320.456347</ele><time>2025-04-19T17:51:01Z</time><extensions><speed>1.122874</speed><course>86.925933</course><hAcc>1.274617</hAcc><vAcc>0.761048</vAcc></extensions></trkpt>
      <trkpt lon="-117.329521" lat="33.977202"><ele>320.432110</ele><time>2025-04-19T17:51:02Z</time><extensions><speed>1.180426</speed><course>86.019340</course><hAcc>1.274089</hAcc><vAcc>0.760548</vAcc></extensions></trkpt>
      <trkpt lon="-117.329508" lat="33.977203"><ele>320.396633</ele><time>2025-04-19T17:51:03Z</time><extensions><speed>1.228562</speed><course>84.918126</course><hAcc>1.280522</hAcc><vAcc>0.760074</vAcc></extensions></trkpt>
      <trkpt lon="-117.329495" lat="33.977205"><ele>320.354388</ele><time>2025-04-19T17:51:04Z</time><extensions><speed>1.244757</speed><course>80.929192</course><hAcc>1.278339</hAcc><vAcc>0.759722</vAcc></extensions></trkpt>
      <trkpt lon="-117.329481" lat="33.977206"><ele>320.312545</ele><time>2025-04-19T17:51:05Z</time><extensions><speed>1.272114</speed><course>81.592686</course><hAcc>1.279338</hAcc><vAcc>0.759552</vAcc></extensions></trkpt>
      <trkpt lon="-117.329468" lat="33.977207"><ele>320.269985</ele><time>2025-04-19T17:51:06Z</time><extensions><speed>1.173064</speed><course>87.862893</course><hAcc>1.274887</hAcc><vAcc>0.759544</vAcc></extensions></trkpt>
      <trkpt lon="-117.329456" lat="33.977207"><ele>320.231257</ele><time>2025-04-19T17:51:07Z</time><extensions><speed>1.139688</speed><course>93.965617</course><hAcc>1.270858</hAcc><vAcc>0.759669</vAcc></extensions></trkpt>
      <trkpt lon="-117.329443" lat="33.977206"><ele>320.205289</ele><time>2025-04-19T17:51:08Z</time><extensions><speed>1.260919</speed><course>96.309578</course><hAcc>1.266493</hAcc><vAcc>0.759892</vAcc></extensions></trkpt>
      <trkpt lon="-117.329429" lat="33.977205"><ele>320.180684</ele><time>2025-04-19T17:51:09Z</time><extensions><speed>1.217486</speed><course>94.480585</course><hAcc>1.265335</hAcc><vAcc>0.760166</vAcc></extensions></trkpt>
      <trkpt lon="-117.329416" lat="33.977205"><ele>320.155303</ele><time>2025-04-19T17:51:10Z</time><extensions><speed>1.228251</speed><course>88.877188</course><hAcc>1.257871</hAcc><vAcc>0.760436</vAcc></extensions></trkpt>
      <trkpt lon="-117.329403" lat="33.977205"><ele>320.128647</ele><time>2025-04-19T17:51:11Z</time><extensions><speed>1.252839</speed><course>86.101880</course><hAcc>1.255745</hAcc><vAcc>0.760638</vAcc></extensions></trkpt>
      <trkpt lon="-117.329390" lat="33.977206"><ele>320.096969</ele><time>2025-04-19T17:51:12Z</time><extensions><speed>1.201832</speed><course>87.360770</course><hAcc>1.268114</hAcc><vAcc>0.760713</vAcc></extensions></trkpt>
      <trkpt lon="-117.329377" lat="33.977207"><ele>320.056128</ele><time>2025-04-19T17:51:13Z</time><extensions><speed>1.061624</speed><course>84.491884</course><hAcc>1.255583</hAcc><vAcc>0.760984</vAcc></extensions></trkpt>
      <trkpt lon="-117.329366" lat="33.977207"><ele>320.023623</ele><time>2025-04-19T17:51:14Z</time><extensions><speed>0.983385</speed><course>86.460693</course><hAcc>1.247395</hAcc><vAcc>0.761393</vAcc></extensions></trkpt>
      <trkpt lon="-117.329356" lat="33.977207"><ele>319.995493</ele><time>2025-04-19T17:51:15Z</time><extensions><speed>0.965494</speed><course>93.173425</course><hAcc>1.251931</hAcc><vAcc>0.762376</vAcc></extensions></trkpt>
      <trkpt lon="-117.329345" lat="33.977206"><ele>319.968010</ele><time>2025-04-19T17:51:16Z</time><extensions><speed>1.048487</speed><course>100.828764</course><hAcc>1.257544</hAcc><vAcc>0.763013</vAcc></extensions></trkpt>
      <trkpt lon="-117.329333" lat="33.977204"><ele>319.946440</ele><time>2025-04-19T17:51:17Z</time><extensions><speed>1.127737</speed><course>103.624359</course><hAcc>1.258991</hAcc><vAcc>0.763965</vAcc></extensions></trkpt>
      <trkpt lon="-117.329321" lat="33.977202"><ele>319.925563</ele><time>2025-04-19T17:51:18Z</time><extensions><speed>1.242134</speed><course>102.366540</course><hAcc>1.259819</hAcc><vAcc>0.766184</vAcc></extensions></trkpt>
      <trkpt lon="-117.329307" lat="33.977200"><ele>319.903206</ele><time>2025-04-19T17:51:19Z</time><extensions><speed>1.289717</speed><course>98.639520</course><hAcc>1.272126</hAcc><vAcc>0.769010</vAcc></extensions></trkpt>
      <trkpt lon="-117.329294" lat="33.977198"><ele>319.880915</ele><time>2025-04-19T17:51:20Z</time><extensions><speed>1.207870</speed><course>96.980505</course><hAcc>1.281686</hAcc><vAcc>0.772899</vAcc></extensions></trkpt>
      <trkpt lon="-117.329282" lat="33.977197"><ele>319.871504</ele><time>2025-04-19T17:51:21Z</time><extensions><speed>1.118874</speed><course>93.772902</course><hAcc>1.286722</hAcc><vAcc>0.777969</vAcc></extensions></trkpt>
      <trkpt lon="-117.329270" lat="33.977197"><ele>319.869046</ele><time>2025-04-19T17:51:22Z</time><extensions><speed>1.014215</speed><course>91.169153</course><hAcc>1.288954</hAcc><vAcc>0.783532</vAcc></extensions></trkpt>
      <trkpt lon="-117.329259" lat="33.977197"><ele>319.875286</ele><time>2025-04-19T17:51:23Z</time><extensions><speed>0.954591</speed><course>88.848999</course><hAcc>1.296842</hAcc><vAcc>0.789257</vAcc></extensions></trkpt>
      <trkpt lon="-117.329249" lat="33.977197"><ele>319.893475</ele><time>2025-04-19T17:51:24Z</time><extensions><speed>1.039320</speed><course>91.108130</course><hAcc>1.312066</hAcc><vAcc>0.794725</vAcc></extensions></trkpt>
      <trkpt lon="-117.329236" lat="33.977196"><ele>319.918181</ele><time>2025-04-19T17:51:25Z</time><extensions><speed>1.204085</speed><course>93.886760</course><hAcc>1.304921</hAcc><vAcc>0.799744</vAcc></extensions></trkpt>
      <trkpt lon="-117.329223" lat="33.977196"><ele>319.941502</ele><time>2025-04-19T17:51:26Z</time><extensions><speed>1.312280</speed><course>94.760243</course><hAcc>1.281762</hAcc><vAcc>0.805404</vAcc></extensions></trkpt>
      <trkpt lon="-117.329208" lat="33.977195"><ele>319.957407</ele><time>2025-04-19T17:51:27Z</time><extensions><speed>1.372881</speed><course>94.448520</course><hAcc>1.281514</hAcc><vAcc>0.810587</vAcc></extensions></trkpt>
      <trkpt lon="-117.329195" lat="33.977194"><ele>319.976040</ele><time>2025-04-19T17:51:28Z</time><extensions><speed>1.218084</speed><course>92.581963</course><hAcc>1.305554</hAcc><vAcc>0.814473</vAcc></extensions></trkpt>
      <trkpt lon="-117.329182" lat="33.977194"><ele>320.000287</ele><time>2025-04-19T17:51:29Z</time><extensions><speed>1.088856</speed><course>90.976249</course><hAcc>1.295874</hAcc><vAcc>0.817185</vAcc></extensions></trkpt>
      <trkpt lon="-117.329170" lat="33.977194"><ele>320.029820</ele><time>2025-04-19T17:51:30Z</time><extensions><speed>1.079945</speed><course>89.761923</course><hAcc>1.302954</hAcc><vAcc>0.819462</vAcc></extensions></trkpt>
      <trkpt lon="-117.329159" lat="33.977194"><ele>320.063491</ele><time>2025-04-19T17:51:31Z</time><extensions><speed>1.122856</speed><course>88.801320</course><hAcc>1.309023</hAcc><vAcc>0.820148</vAcc></extensions></trkpt>
      <trkpt lon="-117.329146" lat="33.977194"><ele>320.093633</ele><time>2025-04-19T17:51:32Z</time><extensions><speed>1.155800</speed><course>87.489779</course><hAcc>1.305239</hAcc><vAcc>0.819672</vAcc></extensions></trkpt>
      <trkpt lon="-117.329134" lat="33.977195"><ele>320.123844</ele><time>2025-04-19T17:51:33Z</time><extensions><speed>1.165514</speed><course>85.379643</course><hAcc>1.307086</hAcc><vAcc>0.817630</vAcc></extensions></trkpt>
      <trkpt lon="-117.329121" lat="33.977196"><ele>320.153592</ele><time>2025-04-19T17:51:34Z</time><extensions><speed>1.169913</speed><course>83.354059</course><hAcc>1.310552</hAcc><vAcc>0.814807</vAcc></extensions></trkpt>
      <trkpt lon="-117.329109" lat="33.977197"><ele>320.186103</ele><time>2025-04-19T17:51:35Z</time><extensions><speed>1.165371</speed><course>83.436724</course><hAcc>1.326431</hAcc><vAcc>0.811118</vAcc></extensions></trkpt>
      <trkpt lon="-117.329097" lat="33.977198"><ele>320.210823</ele><time>2025-04-19T17:51:36Z</time><extensions><speed>1.045374</speed><course>84.975676</course><hAcc>1.360216</hAcc><vAcc>0.806896</vAcc></extensions></trkpt>
      <trkpt lon="-117.329088" lat="33.977199"><ele>320.235712</ele><time>2025-04-19T17:51:37Z</time><extensions><speed>0.665179</speed><course>80.191046</course><hAcc>1.309055</hAcc><vAcc>0.802293</vAcc></extensions></trkpt>
      <trkpt lon="-117.329081" lat="33.977200"><ele>320.264434</ele><time>2025-04-19T17:51:38Z</time><extensions><speed>0.624449</speed><course>77.546894</course><hAcc>1.282438</hAcc><vAcc>0.797672</vAcc></extensions></trkpt>
      <trkpt lon="-117.329073" lat="33.977201"><ele>320.294528</ele><time>2025-04-19T17:51:39Z</time><extensions><speed>0.896633</speed><course>82.416663</course><hAcc>1.307104</hAcc><vAcc>0.792905</vAcc></extensions></trkpt>
      <trkpt lon="-117.329062" lat="33.977202"><ele>320.328150</ele><time>2025-04-19T17:51:40Z</time><extensions><speed>1.086501</speed><course>83.511446</course><hAcc>1.317366</hAcc><vAcc>0.788249</vAcc></extensions></trkpt>
      <trkpt lon="-117.329049" lat="33.977204"><ele>320.369525</ele><time>2025-04-19T17:51:41Z</time><extensions><speed>1.244826</speed><course>82.021869</course><hAcc>1.295775</hAcc><vAcc>0.783782</vAcc></extensions></trkpt>
      <trkpt lon="-117.329036" lat="33.977205"><ele>320.399420</ele><time>2025-04-19T17:51:42Z</time><extensions><speed>1.210905</speed><course>81.400377</course><hAcc>1.288592</hAcc><vAcc>0.779578</vAcc></extensions></trkpt>
      <trkpt lon="-117.329023" lat="33.977207"><ele>320.435625</ele><time>2025-04-19T17:51:43Z</time><extensions><speed>1.180726</speed><course>84.283433</course><hAcc>1.279786</hAcc><vAcc>0.775715</vAcc></extensions></trkpt>
      <trkpt lon="-117.329011" lat="33.977208"><ele>320.489094</ele><time>2025-04-19T17:51:44Z</time><extensions><speed>1.193283</speed><course>84.937191</course><hAcc>1.276503</hAcc><vAcc>0.772327</vAcc></extensions></trkpt>
      <trkpt lon="-117.328998" lat="33.977209"><ele>320.541839</ele><time>2025-04-19T17:51:45Z</time><extensions><speed>1.211572</speed><course>83.603773</course><hAcc>1.270744</hAcc><vAcc>0.769359</vAcc></extensions></trkpt>
      <trkpt lon="-117.328985" lat="33.977210"><ele>320.593572</ele><time>2025-04-19T17:51:46Z</time><extensions><speed>1.136668</speed><course>79.618219</course><hAcc>1.262199</hAcc><vAcc>0.766855</vAcc></extensions></trkpt>
      <trkpt lon="-117.328973" lat="33.977212"><ele>320.645242</ele><time>2025-04-19T17:51:47Z</time><extensions><speed>1.094526</speed><course>78.342883</course><hAcc>1.266750</hAcc><vAcc>0.765142</vAcc></extensions></trkpt>
      <trkpt lon="-117.328961" lat="33.977214"><ele>320.704961</ele><time>2025-04-19T17:51:48Z</time><extensions><speed>1.113925</speed><course>80.852805</course><hAcc>1.277500</hAcc><vAcc>0.763977</vAcc></extensions></trkpt>
      <trkpt lon="-117.328949" lat="33.977216"><ele>320.773767</ele><time>2025-04-19T17:51:49Z</time><extensions><speed>1.211768</speed><course>81.455251</course><hAcc>1.269003</hAcc><vAcc>0.763383</vAcc></extensions></trkpt>
      <trkpt lon="-117.328936" lat="33.977217"><ele>320.833590</ele><time>2025-04-19T17:51:50Z</time><extensions><speed>1.297814</speed><course>81.735577</course><hAcc>1.265817</hAcc><vAcc>0.762891</vAcc></extensions></trkpt>
      <trkpt lon="-117.328922" lat="33.977219"><ele>320.891659</ele><time>2025-04-19T17:51:51Z</time><extensions><speed>1.267889</speed><course>85.874336</course><hAcc>1.262142</hAcc><vAcc>0.762723</vAcc></extensions></trkpt>
      <trkpt lon="-117.328909" lat="33.977219"><ele>320.947468</ele><time>2025-04-19T17:51:52Z</time><extensions><speed>1.164152</speed><course>89.258235</course><hAcc>1.261813</hAcc><vAcc>0.762829</vAcc></extensions></trkpt>
      <trkpt lon="-117.328896" lat="33.977219"><ele>320.995829</ele><time>2025-04-19T17:51:53Z</time><extensions><speed>1.092903</speed><course>92.327188</course><hAcc>1.257380</hAcc><vAcc>0.763146</vAcc></extensions></trkpt>
      <trkpt lon="-117.328885" lat="33.977218"><ele>321.037391</ele><time>2025-04-19T17:51:54Z</time><extensions><speed>1.105068</speed><course>93.831781</course><hAcc>1.252307</hAcc><vAcc>0.763596</vAcc></extensions></trkpt>
      <trkpt lon="-117.328872" lat="33.977217"><ele>321.066312</ele><time>2025-04-19T17:51:55Z</time><extensions><speed>1.167282</speed><course>96.838483</course><hAcc>1.254819</hAcc><vAcc>0.764234</vAcc></extensions></trkpt>
      <trkpt lon="-117.328860" lat="33.977216"><ele>321.086483</ele><time>2025-04-19T17:51:56Z</time><extensions><speed>1.199357</speed><course>100.563841</course><hAcc>1.258745</hAcc><vAcc>0.764912</vAcc></extensions></trkpt>
      <trkpt lon="-117.328847" lat="33.977214"><ele>321.092461</ele><time>2025-04-19T17:51:57Z</time><extensions><speed>1.171383</speed><course>102.336099</course><hAcc>1.264521</hAcc><vAcc>0.765563</vAcc></extensions></trkpt>
      <trkpt lon="-117.328835" lat="33.977211"><ele>321.086365</ele><time>2025-04-19T17:51:58Z</time><extensions><speed>1.078927</speed><course>101.382736</course><hAcc>1.264099</hAcc><vAcc>0.765929</vAcc></extensions></trkpt>
      <trkpt lon="-117.328824" lat="33.977210"><ele>321.074437</ele><time>2025-04-19T17:51:59Z</time><extensions><speed>1.079439</speed><course>97.889590</course><hAcc>1.257473</hAcc><vAcc>0.766161</vAcc></extensions></trkpt>
      <trkpt lon="-117.328812" lat="33.977209"><ele>321.058523</ele><time>2025-04-19T17:52:00Z</time><extensions><speed>1.111696</speed><course>95.459422</course><hAcc>1.259010</hAcc><vAcc>0.766025</vAcc></extensions></trkpt>
      <trkpt lon="-117.328800" lat="33.977208"><ele>321.039968</ele><time>2025-04-19T17:52:01Z</time><extensions><speed>1.163226</speed><course>95.420820</course><hAcc>1.256433</hAcc><vAcc>0.765761</vAcc></extensions></trkpt>
      <trkpt lon="-117.328787" lat="33.977207"><ele>321.016823</ele><time>2025-04-19T17:52:02Z</time><extensions><speed>1.161312</speed><course>97.394780</course><hAcc>1.246282</hAcc><vAcc>0.765459</vAcc></extensions></trkpt>
      <trkpt lon="-117.328774" lat="33.977205"><ele>320.984179</ele><time>2025-04-19T17:52:03Z</time><extensions><speed>1.207587</speed><course>98.852045</course><hAcc>1.238296</hAcc><vAcc>0.765172</vAcc></extensions></trkpt>
      <trkpt lon="-117.328761" lat="33.977204"><ele>320.947299</ele><time>2025-04-19T17:52:04Z</time><extensions><speed>1.260839</speed><course>97.003259</course><hAcc>1.237376</hAcc><vAcc>0.764909</vAcc></extensions></trkpt>
      <trkpt lon="-117.328748" lat="33.977202"><ele>320.908574</ele><time>2025-04-19T17:52:05Z</time><extensions><speed>1.205987</speed><course>95.579255</course><hAcc>1.242882</hAcc><vAcc>0.764642</vAcc></extensions></trkpt>
      <trkpt lon="-117.328735" lat="33.977201"><ele>320.871891</ele><time>2025-04-19T17:52:06Z</time><extensions><speed>1.225207</speed><course>97.292489</course><hAcc>1.231490</hAcc><vAcc>0.764332</vAcc></extensions></trkpt>
      <trkpt lon="-117.328722" lat="33.977200"><ele>320.830662</ele><time>2025-04-19T17:52:07Z</time><extensions><speed>1.202708</speed><course>98.045856</course><hAcc>1.224510</hAcc><vAcc>0.763911</vAcc></extensions></trkpt>
      <trkpt lon="-117.328709" lat="33.977199"><ele>320.793170</ele><time>2025-04-19T17:52:08Z</time><extensions><speed>1.111765</speed><course>95.851368</course><hAcc>1.222801</hAcc><vAcc>0.763656</vAcc></extensions></trkpt>
      <trkpt lon="-117.328698" lat="33.977198"><ele>320.757845</ele><time>2025-04-19T17:52:09Z</time><extensions><speed>1.058423</speed><course>91.299344</course><hAcc>1.227957</hAcc><vAcc>0.763389</vAcc></extensions></trkpt>
      <trkpt lon="-117.328686" lat="33.977198"><ele>320.733589</ele><time>2025-04-19T17:52:10Z</time><extensions><speed>1.164748</speed><course>86.830130</course><hAcc>1.213833</hAcc><vAcc>0.763261</vAcc></extensions></trkpt>
      <trkpt lon="-117.328672" lat="33.977199"><ele>320.714392</ele><time>2025-04-19T17:52:11Z</time><extensions><speed>1.279078</speed><course>85.183518</course><hAcc>1.215137</hAcc><vAcc>0.763360</vAcc></extensions></trkpt>
      <trkpt lon="-117.328659" lat="33.977200"><ele>320.693081</ele><time>2025-04-19T17:52:12Z</time><extensions><speed>1.187683</speed><course>83.482999</course><hAcc>1.230444</hAcc><vAcc>0.763964</vAcc></extensions></trkpt>
      <trkpt lon="-117.328647" lat="33.977201"><ele>320.676108</ele><time>2025-04-19T17:52:13Z</time><extensions><speed>1.123585</speed><course>84.706893</course><hAcc>1.247996</hAcc><vAcc>0.765050</vAcc></extensions></trkpt>
      <trkpt lon="-117.328635" lat="33.977202"><ele>320.667073</ele><time>2025-04-19T17:52:14Z</time><extensions><speed>1.036417</speed><course>87.067781</course><hAcc>1.252859</hAcc><vAcc>0.767082</vAcc></extensions></trkpt>
      <trkpt lon="-117.328624" lat="33.977202"><ele>320.663712</ele><time>2025-04-19T17:52:15Z</time><extensions><speed>1.049312</speed><course>87.246983</course><hAcc>1.262359</hAcc><vAcc>0.769610</vAcc></extensions></trkpt>
      <trkpt lon="-117.328612" lat="33.977203"><ele>320.665343</ele><time>2025-04-19T17:52:16Z</time><extensions><speed>1.052065</speed><course>86.825868</course><hAcc>1.276351</hAcc><vAcc>0.772997</vAcc></extensions></trkpt>
      <trkpt lon="-117.328601" lat="33.977204"><ele>320.671188</ele><time>2025-04-19T17:52:17Z</time><extensions><speed>1.077482</speed><course>83.785009</course><hAcc>1.288294</hAcc><vAcc>0.777084</vAcc></extensions></trkpt>
      <trkpt lon="-117.328589" lat="33.977205"><ele>320.681049</ele><time>2025-04-19T17:52:18Z</time><extensions><speed>1.126182</speed><course>81.391692</course><hAcc>1.304020</hAcc><vAcc>0.781872</vAcc></extensions></trkpt>
      <trkpt lon="-117.328577" lat="33.977207"><ele>320.692288</ele><time>2025-04-19T17:52:19Z</time><extensions><speed>1.157143</speed><course>78.360397</course><hAcc>1.316129</hAcc><vAcc>0.787008</vAcc></extensions></trkpt>
      <trkpt lon="-117.328565" lat="33.977209"><ele>320.705903</ele><time>2025-04-19T17:52:20Z</time><extensions><speed>1.148144</speed><course>75.405187</course><hAcc>1.322067</hAcc><vAcc>0.792332</vAcc></extensions></trkpt>
      <trkpt lon="-117.328553" lat="33.977212"><ele>320.720625</ele><time>2025-04-19T17:52:21Z</time><extensions><speed>1.110700</speed><course>77.134955</course><hAcc>1.335413</hAcc><vAcc>0.797794</vAcc></extensions></trkpt>
      <trkpt lon="-117.328541" lat="33.977214"><ele>320.736140</ele><time>2025-04-19T17:52:22Z</time><extensions><speed>1.086296</speed><course>80.032426</course><hAcc>1.348113</hAcc><vAcc>0.803045</vAcc></extensions></trkpt>
      <trkpt lon="-117.328530" lat="33.977215"><ele>320.737905</ele><time>2025-04-19T17:52:23Z</time><extensions><speed>1.083863</speed><course>82.030822</course><hAcc>1.359267</hAcc><vAcc>0.808056</vAcc></extensions></trkpt>
      <trkpt lon="-117.328518" lat="33.977217"><ele>320.734767</ele><time>2025-04-19T17:52:24Z</time><extensions><speed>1.088265</speed><course>82.414804</course><hAcc>1.368776</hAcc><vAcc>0.812385</vAcc></extensions></trkpt>
      <trkpt lon="-117.328506" lat="33.977218"><ele>320.738820</ele><time>2025-04-19T17:52:25Z</time><extensions><speed>1.088724</speed><course>81.892425</course><hAcc>1.375631</hAcc><vAcc>0.816323</vAcc></extensions></trkpt>
      <trkpt lon="-117.328495" lat="33.977220"><ele>320.744242</ele><time>2025-04-19T17:52:26Z</time><extensions><speed>1.086531</speed><course>79.712519</course><hAcc>1.381328</hAcc><vAcc>0.820096</vAcc></extensions></trkpt>
      <trkpt lon="-117.328483" lat="33.977221"><ele>320.747122</ele><time>2025-04-19T17:52:27Z</time><extensions><speed>1.045539</speed><course>81.973365</course><hAcc>1.383758</hAcc><vAcc>0.823774</vAcc></extensions></trkpt>
      <trkpt lon="-117.328472" lat="33.977222"><ele>320.746495</ele><time>2025-04-19T17:52:28Z</time><extensions><speed>1.030723</speed><course>84.864494</course><hAcc>1.383395</hAcc><vAcc>0.826814</vAcc></extensions></trkpt>
      <trkpt lon="-117.328461" lat="33.977223"><ele>320.741823</ele><time>2025-04-19T17:52:29Z</time><extensions><speed>1.049213</speed><course>86.067523</course><hAcc>1.383978</hAcc><vAcc>0.830163</vAcc></extensions></trkpt>
      <trkpt lon="-117.328449" lat="33.977224"><ele>320.734449</ele><time>2025-04-19T17:52:30Z</time><extensions><speed>1.091846</speed><course>85.891417</course><hAcc>1.387657</hAcc><vAcc>0.833763</vAcc></extensions></trkpt>
      <trkpt lon="-117.328437" lat="33.977224"><ele>320.728078</ele><time>2025-04-19T17:52:31Z</time><extensions><speed>1.106818</speed><course>85.665017</course><hAcc>1.394952</hAcc><vAcc>0.837550</vAcc></extensions></trkpt>
      <trkpt lon="-117.328425" lat="33.977225"><ele>320.726400</ele><time>2025-04-19T17:52:32Z</time><extensions><speed>1.140759</speed><course>86.152636</course><hAcc>1.403207</hAcc><vAcc>0.841809</vAcc></extensions></trkpt>
      <trkpt lon="-117.328413" lat="33.977225"><ele>320.734669</ele><time>2025-04-19T17:52:33Z</time><extensions><speed>1.077763</speed><course>91.429635</course><hAcc>1.406545</hAcc><vAcc>0.846101</vAcc></extensions></trkpt>
      <trkpt lon="-117.328402" lat="33.977225"><ele>320.752311</ele><time>2025-04-19T17:52:34Z</time><extensions><speed>1.070493</speed><course>97.221852</course><hAcc>1.424817</hAcc><vAcc>0.850365</vAcc></extensions></trkpt>
      <trkpt lon="-117.328390" lat="33.977224"><ele>320.785019</ele><time>2025-04-19T17:52:35Z</time><extensions><speed>1.112302</speed><course>97.651274</course><hAcc>1.451093</hAcc><vAcc>0.856354</vAcc></extensions></trkpt>
      <trkpt lon="-117.328378" lat="33.977222"><ele>320.818730</ele><time>2025-04-19T17:52:36Z</time><extensions><speed>1.111403</speed><course>96.001581</course><hAcc>1.463865</hAcc><vAcc>0.861948</vAcc></extensions></trkpt>
      <trkpt lon="-117.328366" lat="33.977222"><ele>320.853492</ele><time>2025-04-19T17:52:37Z</time><extensions><speed>1.071734</speed><course>95.350925</course><hAcc>1.465230</hAcc><vAcc>0.868278</vAcc></extensions></trkpt>
      <trkpt lon="-117.328356" lat="33.977221"><ele>320.889416</ele><time>2025-04-19T17:52:38Z</time><extensions><speed>0.975223</speed><course>96.785328</course><hAcc>1.460213</hAcc><vAcc>0.874783</vAcc></extensions></trkpt>
      <trkpt lon="-117.328346" lat="33.977220"><ele>320.942628</ele><time>2025-04-19T17:52:39Z</time><extensions><speed>0.886574</speed><course>98.773255</course><hAcc>1.471991</hAcc><vAcc>0.879946</vAcc></extensions></trkpt>
      <trkpt lon="-117.328336" lat="33.977218"><ele>321.001519</ele><time>2025-04-19T17:52:40Z</time><extensions><speed>0.976750</speed><course>102.287024</course><hAcc>1.490715</hAcc><vAcc>0.883953</vAcc></extensions></trkpt>
      <trkpt lon="-117.328324" lat="33.977216"><ele>321.051846</ele><time>2025-04-19T17:52:41Z</time><extensions><speed>1.188673</speed><course>103.171482</course><hAcc>1.490592</hAcc><vAcc>0.898460</vAcc></extensions></trkpt>
      <trkpt lon="-117.328311" lat="33.977214"><ele>321.105985</ele><time>2025-04-19T17:52:42Z</time><extensions><speed>1.269076</speed><course>100.494506</course><hAcc>1.493899</hAcc><vAcc>0.917584</vAcc></extensions></trkpt>
      <trkpt lon="-117.328298" lat="33.977212"><ele>321.163099</ele><time>2025-04-19T17:52:43Z</time><extensions><speed>1.166159</speed><course>95.304724</course><hAcc>1.489862</hAcc><vAcc>0.943479</vAcc></extensions></trkpt>
      <trkpt lon="-117.328286" lat="33.977212"><ele>321.222245</ele><time>2025-04-19T17:52:44Z</time><extensions><speed>1.052051</speed><course>88.780367</course><hAcc>1.509370</hAcc><vAcc>0.978799</vAcc></extensions></trkpt>
      <trkpt lon="-117.328275" lat="33.977212"><ele>321.282503</ele><time>2025-04-19T17:52:45Z</time><extensions><speed>1.002650</speed><course>85.842138</course><hAcc>1.540512</hAcc><vAcc>1.026532</vAcc></extensions></trkpt>
      <trkpt lon="-117.328265" lat="33.977212"><ele>321.343130</ele><time>2025-04-19T17:52:46Z</time><extensions><speed>0.916014</speed><course>91.126894</course><hAcc>1.578824</hAcc><vAcc>1.089778</vAcc></extensions></trkpt>
      <trkpt lon="-117.328255" lat="33.977212"><ele>321.403674</ele><time>2025-04-19T17:52:47Z</time><extensions><speed>0.911980</speed><course>95.442045</course><hAcc>1.632254</hAcc><vAcc>1.171503</vAcc></extensions></trkpt>
      <trkpt lon="-117.328244" lat="33.977211"><ele>321.463923</ele><time>2025-04-19T17:52:48Z</time><extensions><speed>1.058916</speed><course>96.976541</course><hAcc>1.736724</hAcc><vAcc>1.274270</vAcc></extensions></trkpt>
      <trkpt lon="-117.328233" lat="33.977210"><ele>321.523782</ele><time>2025-04-19T17:52:49Z</time><extensions><speed>1.134312</speed><course>96.036884</course><hAcc>1.906786</hAcc><vAcc>1.400042</vAcc></extensions></trkpt>
      <trkpt lon="-117.328220" lat="33.977209"><ele>321.583260</ele><time>2025-04-19T17:52:50Z</time><extensions><speed>1.149763</speed><course>95.750220</course><hAcc>2.174798</hAcc><vAcc>1.550067</vAcc></extensions></trkpt>
    </trkseg>
  </trk>
</gpx>