<?xml version="1.0" encoding="UTF-8"?>
<gpx version="1.1" creator="Apple Health Export" xmlns="http://www.topografix.com/GPX/1/1" xmlns:xsi="http://www.w3.org/2001/XMLSchema-instance" xsi:schemaLocation="http://www.topografix.com/GPX/1/1 http://www.topografix.com/GPX/1/1/gpx.xsd">
  <metadata>
    <time>2026-01-11T07:58:11Z</time>
  </metadata>
  <trk>
    <name>Route 2025-04-21 7:53pm</name>
    <trkseg>
      <trkpt lon="-117.332746" lat="33.979884"><ele>316.484374</ele><time>2025-04-22T02:48:25Z</time><extensions><speed>0.046344</speed><course>203.618809</course><hAcc>4.733800</hAcc><vAcc>3.112502</vAcc></extensions></trkpt>
      <trkpt lon="-117.332756" lat="33.979875"><ele>316.476936</ele><time>2025-04-22T02:48:26Z</time><extensions><speed>0.093782</speed><course>206.541987</course><hAcc>4.276266</hAcc><vAcc>2.751743</vAcc></extensions></trkpt>
      <trkpt lon="-117.332763" lat="33.979867"><ele>316.469814</ele><time>2025-04-22T02:48:27Z</time><extensions><speed>0.207733</speed><course>208.665020</course><hAcc>3.861466</hAcc><vAcc>2.433881</vAcc></extensions></trkpt>
      <trkpt lon="-117.332769" lat="33.979861"><ele>316.461639</ele><time>2025-04-22T02:48:28Z</time><extensions><speed>0.334121</speed><course>208.654375</course><hAcc>3.468337</hAcc><vAcc>2.151439</vAcc></extensions></trkpt>
      <trkpt lon="-117.332773" lat="33.979855"><ele>316.448498</ele><time>2025-04-22T02:48:29Z</time><extensions><speed>0.418739</speed><course>205.280555</course><hAcc>3.117859</hAcc><vAcc>1.900565</vAcc></extensions></trkpt>
      <trkpt lon="-117.332777" lat="33.979848"><ele>316.431408</ele><time>2025-04-22T02:48:30Z</time><extensions><speed>0.843665</speed><course>199.008162</course><hAcc>2.734725</hAcc><vAcc>1.678967</vAcc></extensions></trkpt>
      <trkpt lon="-117.332781" lat="33.979837"><ele>316.410326</ele><time>2025-04-22T02:48:31Z</time><extensions><speed>1.273063</speed><course>190.000951</course><hAcc>2.385837</hAcc><vAcc>1.485198</vAcc></extensions></trkpt>
      <trkpt lon="-117.332782" lat="33.979821"><ele>316.386453</ele><time>2025-04-22T02:48:32Z</time><extensions><speed>1.885900</speed><course>177.656308</course><hAcc>2.215496</hAcc><vAcc>1.318474</vAcc></extensions></trkpt>
      <trkpt lon="-117.332780" lat="33.979805"><ele>316.363125</ele><time>2025-04-22T02:48:33Z</time><extensions><speed>1.373044</speed><course>167.065747</course><hAcc>2.100481</hAcc><vAcc>1.178249</vAcc></extensions></trkpt>
      <trkpt lon="-117.332778" lat="33.979794"><ele>316.342731</ele><time>2025-04-22T02:48:34Z</time><extensions><speed>1.325504</speed><course>166.773135</course><hAcc>2.000472</hAcc><vAcc>1.076399</vAcc></extensions></trkpt>
      <trkpt lon="-117.332775" lat="33.979782"><ele>316.322119</ele><time>2025-04-22T02:48:35Z</time><extensions><speed>1.317036</speed><course>168.578271</course><hAcc>1.894553</hAcc><vAcc>0.983947</vAcc></extensions></trkpt>
      <trkpt lon="-117.332773" lat="33.979769"><ele>316.302195</ele><time>2025-04-22T02:48:36Z</time><extensions><speed>1.266638</speed><course>170.722775</course><hAcc>1.806928</hAcc><vAcc>0.913182</vAcc></extensions></trkpt>
      <trkpt lon="-117.332770" lat="33.979757"><ele>316.281295</ele><time>2025-04-22T02:48:37Z</time><extensions><speed>1.267192</speed><course>170.955086</course><hAcc>1.724173</hAcc><vAcc>0.861086</vAcc></extensions></trkpt>
      <trkpt lon="-117.332768" lat="33.979745"><ele>316.246568</ele><time>2025-04-22T02:48:38Z</time><extensions><speed>1.229717</speed><course>172.456311</course><hAcc>1.652590</hAcc><vAcc>0.824295</vAcc></extensions></trkpt>
      <trkpt lon="-117.332766" lat="33.979735"><ele>316.209456</ele><time>2025-04-22T02:48:39Z</time><extensions><speed>0.850318</speed><course>172.417327</course><hAcc>1.588763</hAcc><vAcc>0.799420</vAcc></extensions></trkpt>
      <trkpt lon="-117.332765" lat="33.979726"><ele>316.170357</ele><time>2025-04-22T02:48:40Z</time><extensions><speed>0.938946</speed><course>181.462941</course><hAcc>1.533318</hAcc><vAcc>0.783353</vAcc></extensions></trkpt>
      <trkpt lon="-117.332766" lat="33.979717"><ele>316.132734</ele><time>2025-04-22T02:48:41Z</time><extensions><speed>0.953023</speed><course>185.953027</course><hAcc>1.486431</hAcc><vAcc>0.773466</vAcc></extensions></trkpt>
      <trkpt lon="-117.332767" lat="33.979708"><ele>316.097826</ele><time>2025-04-22T02:48:42Z</time><extensions><speed>0.973101</speed><course>180.540063</course><hAcc>1.440624</hAcc><vAcc>0.767692</vAcc></extensions></trkpt>
      <trkpt lon="-117.332766" lat="33.979699"><ele>316.065964</ele><time>2025-04-22T02:48:43Z</time><extensions><speed>0.937489</speed><course>171.747015</course><hAcc>1.418337</hAcc><vAcc>0.764504</vAcc></extensions></trkpt>
      <trkpt lon="-117.332766" lat="33.979691"><ele>316.036915</ele><time>2025-04-22T02:48:44Z</time><extensions><speed>0.918744</speed><course>187.171427</course><hAcc>1.394302</hAcc><vAcc>0.762837</vAcc></extensions></trkpt>
      <trkpt lon="-117.332768" lat="33.979681"><ele>316.049400</ele><time>2025-04-22T02:48:45Z</time><extensions><speed>0.935499</speed><course>190.088299</course><hAcc>1.368094</hAcc><vAcc>0.761987</vAcc></extensions></trkpt>
      <trkpt lon="-117.332769" lat="33.979671"><ele>316.067140</ele><time>2025-04-22T02:48:46Z</time><extensions><speed>0.931196</speed><course>186.177976</course><hAcc>1.352466</hAcc><vAcc>0.761518</vAcc></extensions></trkpt>
      <trkpt lon="-117.332770" lat="33.979662"><ele>316.089878</ele><time>2025-04-22T02:48:47Z</time><extensions><speed>0.937910</speed><course>185.828339</course><hAcc>1.336857</hAcc><vAcc>0.761182</vAcc></extensions></trkpt>
      <trkpt lon="-117.332771" lat="33.979654"><ele>316.114280</ele><time>2025-04-22T02:48:48Z</time><extensions><speed>0.939282</speed><course>184.115450</course><hAcc>1.337983</hAcc><vAcc>0.760854</vAcc></extensions></trkpt>
      <trkpt lon="-117.332771" lat="33.979645"><ele>316.135962</ele><time>2025-04-22T02:48:49Z</time><extensions><speed>1.010404</speed><course>172.369562</course><hAcc>1.337101</hAcc><vAcc>0.760486</vAcc></extensions></trkpt>
      <trkpt lon="-117.332770" lat="33.979636"><ele>316.170665</ele><time>2025-04-22T02:48:50Z</time><extensions><speed>1.040685</speed><course>170.474895</course><hAcc>1.333381</hAcc><vAcc>0.760072</vAcc></extensions></trkpt>
      <trkpt lon="-117.332767" lat="33.979627"><ele>316.206143</ele><time>2025-04-22T02:48:51Z</time><extensions><speed>1.018767</speed><course>167.085431</course><hAcc>1.351574</hAcc><vAcc>0.759629</vAcc></extensions></trkpt>
      <trkpt lon="-117.332765" lat="33.979618"><ele>316.251754</ele><time>2025-04-22T02:48:52Z</time><extensions><speed>1.015651</speed><course>165.293779</course><hAcc>1.387337</hAcc><vAcc>0.759179</vAcc></extensions></trkpt>
      <trkpt lon="-117.332762" lat="33.979610"><ele>316.308560</ele><time>2025-04-22T02:48:53Z</time><extensions><speed>1.009772</speed><course>165.079077</course><hAcc>1.434591</hAcc><vAcc>0.758745</vAcc></extensions></trkpt>
      <trkpt lon="-117.332760" lat="33.979601"><ele>316.366719</ele><time>2025-04-22T02:48:54Z</time><extensions><speed>1.028121</speed><course>171.365246</course><hAcc>1.469656</hAcc><vAcc>0.758345</vAcc></extensions></trkpt>
      <trkpt lon="-117.332758" lat="33.979591"><ele>316.414223</ele><time>2025-04-22T02:48:55Z</time><extensions><speed>1.184252</speed><course>174.042078</course><hAcc>1.469601</hAcc><vAcc>0.757990</vAcc></extensions></trkpt>
      <trkpt lon="-117.332756" lat="33.979581"><ele>316.457536</ele><time>2025-04-22T02:48:56Z</time><extensions><speed>1.036551</speed><course>160.963766</course><hAcc>1.543622</hAcc><vAcc>0.757686</vAcc></extensions></trkpt>
      <trkpt lon="-117.332751" lat="33.979574"><ele>316.505126</ele><time>2025-04-22T02:48:57Z</time><extensions><speed>0.761367</speed><course>141.200552</course><hAcc>1.634843</hAcc><vAcc>0.757434</vAcc></extensions></trkpt>
      <trkpt lon="-117.332746" lat="33.979570"><ele>316.554557</ele><time>2025-04-22T02:48:58Z</time><extensions><speed>0.652392</speed><course>117.890293</course><hAcc>1.718663</hAcc><vAcc>0.757231</vAcc></extensions></trkpt>
      <trkpt lon="-117.332739" lat="33.979568"><ele>316.595939</ele><time>2025-04-22T02:48:59Z</time><extensions><speed>0.701829</speed><course>95.708612</course><hAcc>1.774872</hAcc><vAcc>0.758108</vAcc></extensions></trkpt>
      <trkpt lon="-117.332730" lat="33.979568"><ele>316.629935</ele><time>2025-04-22T02:49:00Z</time><extensions><speed>0.838765</speed><course>85.104307</course><hAcc>1.797863</hAcc><vAcc>0.759997</vAcc></extensions></trkpt>
      <trkpt lon="-117.332721" lat="33.979569"><ele>316.661830</ele><time>2025-04-22T02:49:01Z</time><extensions><speed>0.951558</speed><course>79.361043</course><hAcc>1.799288</hAcc><vAcc>0.762901</vAcc></extensions></trkpt>
      <trkpt lon="-117.332710" lat="33.979571"><ele>316.682453</ele><time>2025-04-22T02:49:02Z</time><extensions><speed>1.055820</speed><course>80.450166</course><hAcc>1.790970</hAcc><vAcc>0.767249</vAcc></extensions></trkpt>
      <trkpt lon="-117.332698" lat="33.979572"><ele>316.701114</ele><time>2025-04-22T02:49:03Z</time><extensions><speed>1.133373</speed><course>81.453418</course><hAcc>1.785275</hAcc><vAcc>0.773284</vAcc></extensions></trkpt>
      <trkpt lon="-117.332686" lat="33.979574"><ele>316.720301</ele><time>2025-04-22T02:49:04Z</time><extensions><speed>1.137393</speed><course>77.668206</course><hAcc>1.754681</hAcc><vAcc>0.781934</vAcc></extensions></trkpt>
      <trkpt lon="-117.332675" lat="33.979577"><ele>316.739440</ele><time>2025-04-22T02:49:05Z</time><extensions><speed>1.056341</speed><course>74.568073</course><hAcc>1.698624</hAcc><vAcc>0.793246</vAcc></extensions></trkpt>
      <trkpt lon="-117.332664" lat="33.979579"><ele>316.760101</ele><time>2025-04-22T02:49:06Z</time><extensions><speed>1.063307</speed><course>75.225398</course><hAcc>1.655717</hAcc><vAcc>0.807398</vAcc></extensions></trkpt>
      <trkpt lon="-117.332651" lat="33.979581"><ele>316.775310</ele><time>2025-04-22T02:49:07Z</time><extensions><speed>1.210668</speed><course>81.873508</course><hAcc>1.634730</hAcc><vAcc>0.824551</vAcc></extensions></trkpt>
      <trkpt lon="-117.332639" lat="33.979582"><ele>316.784487</ele><time>2025-04-22T02:49:08Z</time><extensions><speed>1.134812</speed><course>91.922350</course><hAcc>1.627214</hAcc><vAcc>0.843625</vAcc></extensions></trkpt>
      <trkpt lon="-117.332627" lat="33.979581"><ele>316.795312</ele><time>2025-04-22T02:49:09Z</time><extensions><speed>1.087681</speed><course>99.097368</course><hAcc>1.646879</hAcc><vAcc>0.863737</vAcc></extensions></trkpt>
      <trkpt lon="-117.332615" lat="33.979579"><ele>316.814745</ele><time>2025-04-22T02:49:10Z</time><extensions><speed>1.055452</speed><course>101.941731</course><hAcc>1.656689</hAcc><vAcc>0.884156</vAcc></extensions></trkpt>
      <trkpt lon="-117.332604" lat="33.979577"><ele>316.828986</ele><time>2025-04-22T02:49:11Z</time><extensions><speed>0.985234</speed><course>102.368592</course><hAcc>1.659577</hAcc><vAcc>0.904360</vAcc></extensions></trkpt>
      <trkpt lon="-117.332594" lat="33.979575"><ele>316.830361</ele><time>2025-04-22T02:49:12Z</time><extensions><speed>0.915740</speed><course>100.720142</course><hAcc>1.672343</hAcc><vAcc>0.924235</vAcc></extensions></trkpt>
      <trkpt lon="-117.332584" lat="33.979574"><ele>316.823009</ele><time>2025-04-22T02:49:13Z</time><extensions><speed>0.907539</speed><course>98.803650</course><hAcc>1.712869</hAcc><vAcc>0.941724</vAcc></extensions></trkpt>
      <trkpt lon="-117.332574" lat="33.979573"><ele>316.812448</ele><time>2025-04-22T02:49:14Z</time><extensions><speed>0.904790</speed><course>97.928067</course><hAcc>1.760093</hAcc><vAcc>0.956659</vAcc></extensions></trkpt>
      <trkpt lon="-117.332565" lat="33.979572"><ele>316.792548</ele><time>2025-04-22T02:49:15Z</time><extensions><speed>0.902480</speed><course>96.725017</course><hAcc>1.795900</hAcc><vAcc>0.968815</vAcc></extensions></trkpt>
      <trkpt lon="-117.332554" lat="33.979571"><ele>316.760852</ele><time>2025-04-22T02:49:16Z</time><extensions><speed>0.998384</speed><course>94.375634</course><hAcc>1.818826</hAcc><vAcc>0.979648</vAcc></extensions></trkpt>
      <trkpt lon="-117.332543" lat="33.979571"><ele>316.718110</ele><time>2025-04-22T02:49:17Z</time><extensions><speed>1.036608</speed><course>93.276515</course><hAcc>1.830584</hAcc><vAcc>0.989014</vAcc></extensions></trkpt>
      <trkpt lon="-117.332532" lat="33.979570"><ele>316.672207</ele><time>2025-04-22T02:49:18Z</time><extensions><speed>1.067881</speed><course>92.606661</course><hAcc>1.828704</hAcc><vAcc>0.996601</vAcc></extensions></trkpt>
      <trkpt lon="-117.332520" lat="33.979570"><ele>316.632373</ele><time>2025-04-22T02:49:19Z</time><extensions><speed>1.090368</speed><course>91.579724</course><hAcc>1.838540</hAcc><vAcc>1.001588</vAcc></extensions></trkpt>
      <trkpt lon="-117.332508" lat="33.979569"><ele>316.592024</ele><time>2025-04-22T02:49:20Z</time><extensions><speed>1.102005</speed><course>91.557269</course><hAcc>1.861143</hAcc><vAcc>1.004578</vAcc></extensions></trkpt>
      <trkpt lon="-117.332496" lat="33.979569"><ele>316.527926</ele><time>2025-04-22T02:49:21Z</time><extensions><speed>1.038467</speed><course>90.312573</course><hAcc>1.857198</hAcc><vAcc>1.006264</vAcc></extensions></trkpt>
      <trkpt lon="-117.332485" lat="33.979569"><ele>316.479454</ele><time>2025-04-22T02:49:22Z</time><extensions><speed>0.970358</speed><course>88.266281</course><hAcc>1.823151</hAcc><vAcc>1.007919</vAcc></extensions></trkpt>
      <trkpt lon="-117.332475" lat="33.979570"><ele>316.440051</ele><time>2025-04-22T02:49:23Z</time><extensions><speed>0.900089</speed><course>87.898553</course><hAcc>1.800483</hAcc><vAcc>1.009657</vAcc></extensions></trkpt>
      <trkpt lon="-117.332465" lat="33.979570"><ele>316.406018</ele><time>2025-04-22T02:49:24Z</time><extensions><speed>0.894555</speed><course>90.056524</course><hAcc>1.802490</hAcc><vAcc>1.012139</vAcc></extensions></trkpt>
      <trkpt lon="-117.332455" lat="33.979570"><ele>316.370652</ele><time>2025-04-22T02:49:25Z</time><extensions><speed>0.967289</speed><course>91.412867</course><hAcc>1.812386</hAcc><vAcc>1.014907</vAcc></extensions></trkpt>
      <trkpt lon="-117.332444" lat="33.979569"><ele>316.327206</ele><time>2025-04-22T02:49:26Z</time><extensions><speed>1.030174</speed><course>92.913884</course><hAcc>1.830860</hAcc><vAcc>1.018845</vAcc></extensions></trkpt>
      <trkpt lon="-117.332433" lat="33.979568"><ele>316.278250</ele><time>2025-04-22T02:49:27Z</time><extensions><speed>1.012652</speed><course>95.572246</course><hAcc>1.829101</hAcc><vAcc>1.024816</vAcc></extensions></trkpt>
      <trkpt lon="-117.332422" lat="33.979567"><ele>316.223784</ele><time>2025-04-22T02:49:28Z</time><extensions><speed>1.013277</speed><course>99.387782</course><hAcc>1.812290</hAcc><vAcc>1.032571</vAcc></extensions></trkpt>
      <trkpt lon="-117.332411" lat="33.979565"><ele>316.160433</ele><time>2025-04-22T02:49:29Z</time><extensions><speed>1.024405</speed><course>103.383768</course><hAcc>1.809237</hAcc><vAcc>1.041465</vAcc></extensions></trkpt>
      <trkpt lon="-117.332401" lat="33.979562"><ele>316.087542</ele><time>2025-04-22T02:49:30Z</time><extensions><speed>1.059615</speed><course>106.389120</course><hAcc>1.807745</hAcc><vAcc>1.051476</vAcc></extensions></trkpt>
      <trkpt lon="-117.332389" lat="33.979559"><ele>316.013171</ele><time>2025-04-22T02:49:31Z</time><extensions><speed>1.097460</speed><course>108.662615</course><hAcc>1.812650</hAcc><vAcc>1.060678</vAcc></extensions></trkpt>
      <trkpt lon="-117.332378" lat="33.979556"><ele>315.943649</ele><time>2025-04-22T02:49:32Z</time><extensions><speed>1.153902</speed><course>112.011161</course><hAcc>1.833591</hAcc><vAcc>1.070832</vAcc></extensions></trkpt>
      <trkpt lon="-117.332367" lat="33.979551"><ele>315.885753</ele><time>2025-04-22T02:49:33Z</time><extensions><speed>1.115444</speed><course>121.130135</course><hAcc>1.837106</hAcc><vAcc>1.080912</vAcc></extensions></trkpt>
      <trkpt lon="-117.332358" lat="33.979545"><ele>315.824060</ele><time>2025-04-22T02:49:34Z</time><extensions><speed>1.094241</speed><course>133.839158</course><hAcc>1.811201</hAcc><vAcc>1.092625</vAcc></extensions></trkpt>
      <trkpt lon="-117.332350" lat="33.979538"><ele>315.751302</ele><time>2025-04-22T02:49:35Z</time><extensions><speed>1.092592</speed><course>143.379715</course><hAcc>1.809467</hAcc><vAcc>1.102825</vAcc></extensions></trkpt>
      <trkpt lon="-117.332343" lat="33.979529"><ele>315.671790</ele><time>2025-04-22T02:49:36Z</time><extensions><speed>1.087983</speed><course>149.893367</course><hAcc>1.833056</hAcc><vAcc>1.112156</vAcc></extensions></trkpt>
      <trkpt lon="-117.332338" lat="33.979521"><ele>315.592495</ele><time>2025-04-22T02:49:37Z</time><extensions><speed>1.026556</speed><course>154.266777</course><hAcc>1.836916</hAcc><vAcc>1.121498</vAcc></extensions></trkpt>
      <trkpt lon="-117.332333" lat="33.979513"><ele>315.510263</ele><time>2025-04-22T02:49:38Z</time><extensions><speed>0.999362</speed><course>157.604881</course><hAcc>1.830475</hAcc><vAcc>1.129453</vAcc></extensions></trkpt>
      <trkpt lon="-117.332329" lat="33.979504"><ele>315.429076</ele><time>2025-04-22T02:49:39Z</time><extensions><speed>1.006298</speed><course>159.061567</course><hAcc>1.845509</hAcc><vAcc>1.137023</vAcc></extensions></trkpt>
      <trkpt lon="-117.332325" lat="33.979496"><ele>315.365130</ele><time>2025-04-22T02:49:40Z</time><extensions><speed>0.996557</speed><course>158.828183</course><hAcc>1.850876</hAcc><vAcc>1.143410</vAcc></extensions></trkpt>
      <trkpt lon="-117.332321" lat="33.979488"><ele>315.295565</ele><time>2025-04-22T02:49:41Z</time><extensions><speed>0.966384</speed><course>156.051456</course><hAcc>1.838105</hAcc><vAcc>1.147230</vAcc></extensions></trkpt>
      <trkpt lon="-117.332316" lat="33.979480"><ele>315.238576</ele><time>2025-04-22T02:49:42Z</time><extensions><speed>0.928404</speed><course>152.592796</course><hAcc>1.834654</hAcc><vAcc>1.150927</vAcc></extensions></trkpt>
      <trkpt lon="-117.332311" lat="33.979473"><ele>315.186050</ele><time>2025-04-22T02:49:43Z</time><extensions><speed>0.870641</speed><course>147.979304</course><hAcc>1.837483</hAcc><vAcc>1.153584</vAcc></extensions></trkpt>
      <trkpt lon="-117.332306" lat="33.979467"><ele>315.151951</ele><time>2025-04-22T02:49:44Z</time><extensions><speed>0.776851</speed><course>141.688240</course><hAcc>1.837107</hAcc><vAcc>1.154867</vAcc></extensions></trkpt>
      <trkpt lon="-117.332300" lat="33.979461"><ele>315.135545</ele><time>2025-04-22T02:49:45Z</time><extensions><speed>0.884169</speed><course>136.171803</course><hAcc>1.822674</hAcc><vAcc>1.154493</vAcc></extensions></trkpt>
      <trkpt lon="-117.332293" lat="33.979456"><ele>315.132192</ele><time>2025-04-22T02:49:46Z</time><extensions><speed>0.940552</speed><course>132.247685</course><hAcc>1.833129</hAcc><vAcc>1.151211</vAcc></extensions></trkpt>
      <trkpt lon="-117.332285" lat="33.979450"><ele>315.131934</ele><time>2025-04-22T02:49:47Z</time><extensions><speed>0.940238</speed><course>130.391611</course><hAcc>1.836400</hAcc><vAcc>1.146851</vAcc></extensions></trkpt>
      <trkpt lon="-117.332277" lat="33.979445"><ele>315.135022</ele><time>2025-04-22T02:49:48Z</time><extensions><speed>0.933136</speed><course>129.427334</course><hAcc>1.829771</hAcc><vAcc>1.142033</vAcc></extensions></trkpt>
      <trkpt lon="-117.332269" lat="33.979439"><ele>315.141954</ele><time>2025-04-22T02:49:49Z</time><extensions><speed>0.968196</speed><course>128.443038</course><hAcc>1.823564</hAcc><vAcc>1.137532</vAcc></extensions></trkpt>
      <trkpt lon="-117.332261" lat="33.979434"><ele>315.157497</ele><time>2025-04-22T02:49:50Z</time><extensions><speed>0.977187</speed><course>127.601039</course><hAcc>1.826754</hAcc><vAcc>1.132974</vAcc></extensions></trkpt>
      <trkpt lon="-117.332253" lat="33.979429"><ele>315.177102</ele><time>2025-04-22T02:49:51Z</time><extensions><speed>0.907267</speed><course>128.951630</course><hAcc>1.827997</hAcc><vAcc>1.128834</vAcc></extensions></trkpt>
      <trkpt lon="-117.332245" lat="33.979424"><ele>315.200166</ele><time>2025-04-22T02:49:52Z</time><extensions><speed>0.858576</speed><course>131.414083</course><hAcc>1.857645</hAcc><vAcc>1.125898</vAcc></extensions></trkpt>
      <trkpt lon="-117.332239" lat="33.979419"><ele>315.226696</ele><time>2025-04-22T02:49:53Z</time><extensions><speed>0.819220</speed><course>133.092566</course><hAcc>1.873170</hAcc><vAcc>1.123916</vAcc></extensions></trkpt>
      <trkpt lon="-117.332233" lat="33.979414"><ele>315.256301</ele><time>2025-04-22T02:49:54Z</time><extensions><speed>0.674553</speed><course>129.787292</course><hAcc>1.867177</hAcc><vAcc>1.122472</vAcc></extensions></trkpt>
      <trkpt lon="-117.332228" lat="33.979411"><ele>315.286217</ele><time>2025-04-22T02:49:55Z</time><extensions><speed>0.476729</speed><course>122.762536</course><hAcc>1.872146</hAcc><vAcc>1.122096</vAcc></extensions></trkpt>
      <trkpt lon="-117.332224" lat="33.979409"><ele>315.317270</ele><time>2025-04-22T02:49:56Z</time><extensions><speed>0.315238</speed><course>109.305042</course><hAcc>1.884128</hAcc><vAcc>1.122441</vAcc></extensions></trkpt>
      <trkpt lon="-117.332221" lat="33.979409"><ele>315.348575</ele><time>2025-04-22T02:49:57Z</time><extensions><speed>0.220256</speed><course>94.448252</course><hAcc>1.911898</hAcc><vAcc>1.124319</vAcc></extensions></trkpt>
      <trkpt lon="-117.332219" lat="33.979409"><ele>315.380771</ele><time>2025-04-22T02:49:58Z</time><extensions><speed>0.163928</speed><course>81.128164</course><hAcc>1.945288</hAcc><vAcc>1.126713</vAcc></extensions></trkpt>
      <trkpt lon="-117.332218" lat="33.979409"><ele>315.413066</ele><time>2025-04-22T02:49:59Z</time><extensions><speed>0.133699</speed><course>75.043306</course><hAcc>1.975212</hAcc><vAcc>1.130157</vAcc></extensions></trkpt>
      <trkpt lon="-117.332216" lat="33.979409"><ele>315.443126</ele><time>2025-04-22T02:50:00Z</time><extensions><speed>0.102552</speed><course>73.508110</course><hAcc>2.000784</hAcc><vAcc>1.134466</vAcc></extensions></trkpt>
      <trkpt lon="-117.332216" lat="33.979410"><ele>315.471659</ele><time>2025-04-22T02:50:01Z</time><extensions><speed>0.066007</speed><course>73.893527</course><hAcc>2.022146</hAcc><vAcc>1.140459</vAcc></extensions></trkpt>
      <trkpt lon="-117.332215" lat="33.979410"><ele>315.498450</ele><time>2025-04-22T02:50:02Z</time><extensions><speed>0.031856</speed><course>78.009655</course><hAcc>2.038813</hAcc><vAcc>1.147563</vAcc></extensions></trkpt>
      <trkpt lon="-117.332215" lat="33.979410"><ele>315.528579</ele><time>2025-04-22T02:50:03Z</time><extensions><speed>0.003476</speed><course>156.661577</course><hAcc>2.054454</hAcc><vAcc>1.157262</vAcc></extensions></trkpt>
      <trkpt lon="-117.332215" lat="33.979410"><ele>315.582898</ele><time>2025-04-22T02:50:04Z</time><extensions><speed>0.025262</speed><course>242.268792</course><hAcc>2.073869</hAcc><vAcc>1.167085</vAcc></extensions></trkpt>
      <trkpt lon="-117.332216" lat="33.979409"><ele>315.647005</ele><time>2025-04-22T02:50:05Z</time><extensions><speed>0.042096</speed><course>246.552232</course><hAcc>2.103753</hAcc><vAcc>1.177486</vAcc></extensions></trkpt>
      <trkpt lon="-117.332216" lat="33.979409"><ele>315.720193</ele><time>2025-04-22T02:50:06Z</time><extensions><speed>0.053721</speed><course>248.035721</course><hAcc>2.130898</hAcc><vAcc>1.186536</vAcc></extensions></trkpt>
      <trkpt lon="-117.332217" lat="33.979409"><ele>315.803656</ele><time>2025-04-22T02:50:07Z</time><extensions><speed>0.068053</speed><course>245.830413</course><hAcc>2.138259</hAcc><vAcc>1.193372</vAcc></extensions></trkpt>
      <trkpt lon="-117.332218" lat="33.979409"><ele>315.903145</ele><time>2025-04-22T02:50:08Z</time><extensions><speed>0.086205</speed><course>236.824421</course><hAcc>2.125837</hAcc><vAcc>1.198869</vAcc></extensions></trkpt>
      <trkpt lon="-117.332218" lat="33.979408"><ele>316.028401</ele><time>2025-04-22T02:50:09Z</time><extensions><speed>0.086789</speed><course>227.797132</course><hAcc>2.137737</hAcc><vAcc>1.202475</vAcc></extensions></trkpt>
      <trkpt lon="-117.332219" lat="33.979408"><ele>316.163012</ele><time>2025-04-22T02:50:10Z</time><extensions><speed>0.081926</speed><course>233.101079</course><hAcc>2.169784</hAcc><vAcc>1.206641</vAcc></extensions></trkpt>
      <trkpt lon="-117.332220" lat="33.979407"><ele>316.313488</ele><time>2025-04-22T02:50:11Z</time><extensions><speed>0.085231</speed><course>218.368524</course><hAcc>2.202030</hAcc><vAcc>1.210438</vAcc></extensions></trkpt>
      <trkpt lon="-117.332220" lat="33.979406"><ele>316.408958</ele><time>2025-04-22T02:50:12Z</time><extensions><speed>0.121766</speed><course>193.005431</course><hAcc>2.222876</hAcc><vAcc>1.214198</vAcc></extensions></trkpt>
      <trkpt lon="-117.332220" lat="33.979405"><ele>316.491690</ele><time>2025-04-22T02:50:13Z</time><extensions><speed>0.236525</speed><course>174.190115</course><hAcc>2.228101</hAcc><vAcc>1.215644</vAcc></extensions></trkpt>
      <trkpt lon="-117.332220" lat="33.979402"><ele>316.562196</ele><time>2025-04-22T02:50:14Z</time><extensions><speed>0.345908</speed><course>173.231019</course><hAcc>2.230058</hAcc><vAcc>1.213832</vAcc></extensions></trkpt>
      <trkpt lon="-117.332220" lat="33.979399"><ele>316.641838</ele><time>2025-04-22T02:50:15Z</time><extensions><speed>0.308419</speed><course>180.423015</course><hAcc>2.222850</hAcc><vAcc>1.212702</vAcc></extensions></trkpt>
      <trkpt lon="-117.332221" lat="33.979397"><ele>316.704363</ele><time>2025-04-22T02:50:16Z</time><extensions><speed>0.236707</speed><course>191.426687</course><hAcc>2.203616</hAcc><vAcc>1.210443</vAcc></extensions></trkpt>
      <trkpt lon="-117.332221" lat="33.979395"><ele>316.758249</ele><time>2025-04-22T02:50:17Z</time><extensions><speed>0.201829</speed><course>201.056131</course><hAcc>2.189965</hAcc><vAcc>1.206752</vAcc></extensions></trkpt>
      <trkpt lon="-117.332222" lat="33.979393"><ele>316.816517</ele><time>2025-04-22T02:50:18Z</time><extensions><speed>0.238118</speed><course>203.400110</course><hAcc>2.163911</hAcc><vAcc>1.201678</vAcc></extensions></trkpt>
      <trkpt lon="-117.332223" lat="33.979390"><ele>316.873994</ele><time>2025-04-22T02:50:19Z</time><extensions><speed>0.362196</speed><course>198.448959</course><hAcc>2.131017</hAcc><vAcc>1.195665</vAcc></extensions></trkpt>
      <trkpt lon="-117.332225" lat="33.979386"><ele>316.934388</ele><time>2025-04-22T02:50:20Z</time><extensions><speed>0.375253</speed><course>200.359780</course><hAcc>2.122063</hAcc><vAcc>1.189557</vAcc></extensions></trkpt>
      <trkpt lon="-117.332226" lat="33.979383"><ele>317.002252</ele><time>2025-04-22T02:50:21Z</time><extensions><speed>0.324823</speed><course>216.872445</course><hAcc>2.120045</hAcc><vAcc>1.181226</vAcc></extensions></trkpt>
      <trkpt lon="-117.332229" lat="33.979381"><ele>317.058275</ele><time>2025-04-22T02:50:22Z</time><extensions><speed>0.271562</speed><course>250.414177</course><hAcc>2.125857</hAcc><vAcc>1.171275</vAcc></extensions></trkpt>
      <trkpt lon="-117.332231" lat="33.979380"><ele>317.117250</ele><time>2025-04-22T02:50:23Z</time><extensions><speed>0.209395</speed><course>223.953236</course><hAcc>2.102962</hAcc><vAcc>1.160478</vAcc></extensions></trkpt>
      <trkpt lon="-117.332232" lat="33.979378"><ele>317.158672</ele><time>2025-04-22T02:50:24Z</time><extensions><speed>0.272881</speed><course>200.835850</course><hAcc>2.068925</hAcc><vAcc>1.148979</vAcc></extensions></trkpt>
      <trkpt lon="-117.332232" lat="33.979375"><ele>317.208329</ele><time>2025-04-22T02:50:25Z</time><extensions><speed>0.341200</speed><course>186.909302</course><hAcc>2.067033</hAcc><vAcc>1.137664</vAcc></extensions></trkpt>
      <trkpt lon="-117.332232" lat="33.979371"><ele>317.243820</ele><time>2025-04-22T02:50:26Z</time><extensions><speed>0.453036</speed><course>177.390253</course><hAcc>2.069980</hAcc><vAcc>1.125814</vAcc></extensions></trkpt>
      <trkpt lon="-117.332232" lat="33.979367"><ele>317.279152</ele><time>2025-04-22T02:50:27Z</time><extensions><speed>0.578057</speed><course>170.395626</course><hAcc>2.069892</hAcc><vAcc>1.113495</vAcc></extensions></trkpt>
      <trkpt lon="-117.332230" lat="33.979361"><ele>317.309271</ele><time>2025-04-22T02:50:28Z</time><extensions><speed>0.696580</speed><course>164.840093</course><hAcc>2.065126</hAcc><vAcc>1.100299</vAcc></extensions></trkpt>
      <trkpt lon="-117.332227" lat="33.979354"><ele>317.351256</ele><time>2025-04-22T02:50:29Z</time><extensions><speed>0.796941</speed><course>159.701022</course><hAcc>2.054954</hAcc><vAcc>1.085904</vAcc></extensions></trkpt>
      <trkpt lon="-117.332224" lat="33.979347"><ele>317.397794</ele><time>2025-04-22T02:50:30Z</time><extensions><speed>0.866422</speed><course>154.779373</course><hAcc>2.041020</hAcc><vAcc>1.071059</vAcc></extensions></trkpt>
      <trkpt lon="-117.332219" lat="33.979340"><ele>317.443228</ele><time>2025-04-22T02:50:31Z</time><extensions><speed>0.922835</speed><course>150.369758</course><hAcc>2.022230</hAcc><vAcc>1.055879</vAcc></extensions></trkpt>
      <trkpt lon="-117.332214" lat="33.979333"><ele>317.488929</ele><time>2025-04-22T02:50:32Z</time><extensions><speed>0.958268</speed><course>146.922727</course><hAcc>2.001901</hAcc><vAcc>1.041646</vAcc></extensions></trkpt>
      <trkpt lon="-117.332208" lat="33.979326"><ele>317.526779</ele><time>2025-04-22T02:50:33Z</time><extensions><speed>0.967803</speed><course>144.293448</course><hAcc>1.981600</hAcc><vAcc>1.028083</vAcc></extensions></trkpt>
      <trkpt lon="-117.332201" lat="33.979319"><ele>317.544885</ele><time>2025-04-22T02:50:34Z</time><extensions><speed>0.960544</speed><course>141.920285</course><hAcc>1.959932</hAcc><vAcc>1.014810</vAcc></extensions></trkpt>
      <trkpt lon="-117.332195" lat="33.979312"><ele>317.565413</ele><time>2025-04-22T02:50:35Z</time><extensions><speed>0.917758</speed><course>138.980249</course><hAcc>1.940053</hAcc><vAcc>1.001768</vAcc></extensions></trkpt>
      <trkpt lon="-117.332188" lat="33.979306"><ele>317.581425</ele><time>2025-04-22T02:50:36Z</time><extensions><speed>0.874744</speed><course>134.615324</course><hAcc>1.919941</hAcc><vAcc>0.988969</vAcc></extensions></trkpt>
      <trkpt lon="-117.332181" lat="33.979301"><ele>317.593073</ele><time>2025-04-22T02:50:37Z</time><extensions><speed>0.849614</speed><course>128.989667</course><hAcc>1.900366</hAcc><vAcc>0.975950</vAcc></extensions></trkpt>
      <trkpt lon="-117.332173" lat="33.979297"><ele>317.586299</ele><time>2025-04-22T02:50:38Z</time><extensions><speed>0.842373</speed><course>123.652486</course><hAcc>1.884069</hAcc><vAcc>0.963702</vAcc></extensions></trkpt>
      <trkpt lon="-117.332166" lat="33.979292"><ele>317.595476</ele><time>2025-04-22T02:50:39Z</time><extensions><speed>0.859734</speed><course>120.075606</course><hAcc>1.869024</hAcc><vAcc>0.952876</vAcc></extensions></trkpt>
      <trkpt lon="-117.332157" lat="33.979289"><ele>317.593208</ele><time>2025-04-22T02:50:40Z</time><extensions><speed>0.871544</speed><course>118.082988</course><hAcc>1.856666</hAcc><vAcc>0.942815</vAcc></extensions></trkpt>
      <trkpt lon="-117.332149" lat="33.979285"><ele>317.591938</ele><time>2025-04-22T02:50:41Z</time><extensions><speed>0.876864</speed><course>116.715185</course><hAcc>1.844674</hAcc><vAcc>0.933714</vAcc></extensions></trkpt>
      <trkpt lon="-117.332140" lat="33.979282"><ele>317.581971</ele><time>2025-04-22T02:50:42Z</time><extensions><speed>0.865420</speed><course>115.443047</course><hAcc>1.833585</hAcc><vAcc>0.925714</vAcc></extensions></trkpt>
      <trkpt lon="-117.332132" lat="33.979278"><ele>317.573356</ele><time>2025-04-22T02:50:43Z</time><extensions><speed>0.834140</speed><course>114.184642</course><hAcc>1.822278</hAcc><vAcc>0.918035</vAcc></extensions></trkpt>
      <trkpt lon="-117.332124" lat="33.979275"><ele>317.558554</ele><time>2025-04-22T02:50:44Z</time><extensions><speed>0.802672</speed><course>112.504711</course><hAcc>1.805314</hAcc><vAcc>0.911117</vAcc></extensions></trkpt>
      <trkpt lon="-117.332116" lat="33.979273"><ele>317.548860</ele><time>2025-04-22T02:50:45Z</time><extensions><speed>0.756511</speed><course>108.839972</course><hAcc>1.782211</hAcc><vAcc>0.905097</vAcc></extensions></trkpt>
      <trkpt lon="-117.332108" lat="33.979271"><ele>317.550828</ele><time>2025-04-22T02:50:46Z</time><extensions><speed>0.739560</speed><course>102.448190</course><hAcc>1.746112</hAcc><vAcc>0.899854</vAcc></extensions></trkpt>
      <trkpt lon="-117.332100" lat="33.979270"><ele>317.557014</ele><time>2025-04-22T02:50:47Z</time><extensions><speed>0.776127</speed><course>94.839351</course><hAcc>1.702955</hAcc><vAcc>0.895509</vAcc></extensions></trkpt>
      <trkpt lon="-117.332091" lat="33.979270"><ele>317.564097</ele><time>2025-04-22T02:50:48Z</time><extensions><speed>0.899194</speed><course>88.154238</course><hAcc>1.672758</hAcc><vAcc>0.891378</vAcc></extensions></trkpt>
      <trkpt lon="-117.332081" lat="33.979270"><ele>317.571073</ele><time>2025-04-22T02:50:49Z</time><extensions><speed>0.979229</speed><course>89.177539</course><hAcc>1.665917</hAcc><vAcc>0.887816</vAcc></extensions></trkpt>
      <trkpt lon="-117.332070" lat="33.979270"><ele>317.577622</ele><time>2025-04-22T02:50:50Z</time><extensions><speed>1.005217</speed><course>92.121506</course><hAcc>1.628209</hAcc><vAcc>0.886172</vAcc></extensions></trkpt>
      <trkpt lon="-117.332059" lat="33.979270"><ele>317.589289</ele><time>2025-04-22T02:50:51Z</time><extensions><speed>0.977139</speed><course>90.147650</course><hAcc>1.596388</hAcc><vAcc>0.884528</vAcc></extensions></trkpt>
      <trkpt lon="-117.332048" lat="33.979270"><ele>317.604767</ele><time>2025-04-22T02:50:52Z</time><extensions><speed>1.035011</speed><course>90.516231</course><hAcc>1.565968</hAcc><vAcc>0.882746</vAcc></extensions></trkpt>
      <trkpt lon="-117.332037" lat="33.979270"><ele>317.632489</ele><time>2025-04-22T02:50:53Z</time><extensions><speed>1.124551</speed><course>90.740386</course><hAcc>1.540617</hAcc><vAcc>0.881766</vAcc></extensions></trkpt>
      <trkpt lon="-117.332024" lat="33.979270"><ele>317.664049</ele><time>2025-04-22T02:50:54Z</time><extensions><speed>1.161569</speed><course>90.317230</course><hAcc>1.521832</hAcc><vAcc>0.881485</vAcc></extensions></trkpt>
      <trkpt lon="-117.332012" lat="33.979270"><ele>317.703102</ele><time>2025-04-22T02:50:55Z</time><extensions><speed>1.145981</speed><course>89.183410</course><hAcc>1.504903</hAcc><vAcc>0.881753</vAcc></extensions></trkpt>
      <trkpt lon="-117.332000" lat="33.979270"><ele>317.753091</ele><time>2025-04-22T02:50:56Z</time><extensions><speed>1.086252</speed><course>87.313855</course><hAcc>1.487437</hAcc><vAcc>0.881759</vAcc></extensions></trkpt>
      <trkpt lon="-117.331988" lat="33.979270"><ele>317.804601</ele><time>2025-04-22T02:50:57Z</time><extensions><speed>1.084772</speed><course>90.418331</course><hAcc>1.471980</hAcc><vAcc>0.882329</vAcc></extensions></trkpt>
      <trkpt lon="-117.331976" lat="33.979270"><ele>317.856119</ele><time>2025-04-22T02:50:58Z</time><extensions><speed>1.062985</speed><course>94.362285</course><hAcc>1.453639</hAcc><vAcc>0.883354</vAcc></extensions></trkpt>
      <trkpt lon="-117.331965" lat="33.979269"><ele>317.915204</ele><time>2025-04-22T02:50:59Z</time><extensions><speed>1.055309</speed><course>94.865295</course><hAcc>1.448971</hAcc><vAcc>0.884768</vAcc></extensions></trkpt>
      <trkpt lon="-117.331953" lat="33.979268"><ele>317.981509</ele><time>2025-04-22T02:51:00Z</time><extensions><speed>1.066208</speed><course>94.019511</course><hAcc>1.465202</hAcc><vAcc>0.885856</vAcc></extensions></trkpt>
      <trkpt lon="-117.331941" lat="33.979268"><ele>318.038575</ele><time>2025-04-22T02:51:01Z</time><extensions><speed>1.212101</speed><course>90.078340</course><hAcc>1.440387</hAcc><vAcc>0.886440</vAcc></extensions></trkpt>
      <trkpt lon="-117.331928" lat="33.979269"><ele>318.077867</ele><time>2025-04-22T02:51:02Z</time><extensions><speed>1.203081</speed><course>83.846313</course><hAcc>1.432421</hAcc><vAcc>0.887855</vAcc></extensions></trkpt>
      <trkpt lon="-117.331916" lat="33.979271"><ele>318.120297</ele><time>2025-04-22T02:51:03Z</time><extensions><speed>1.097628</speed><course>72.879331</course><hAcc>1.437666</hAcc><vAcc>0.888429</vAcc></extensions></trkpt>
      <trkpt lon="-117.331905" lat="33.979274"><ele>318.174147</ele><time>2025-04-22T02:51:04Z</time><extensions><speed>1.067895</speed><course>70.730556</course><hAcc>1.446654</hAcc><vAcc>0.888896</vAcc></extensions></trkpt>
      <trkpt lon="-117.331893" lat="33.979277"><ele>318.217029</ele><time>2025-04-22T02:51:05Z</time><extensions><speed>1.166374</speed><course>75.416378</course><hAcc>1.449955</hAcc><vAcc>0.889187</vAcc></extensions></trkpt>
      <trkpt lon="-117.331881" lat="33.979278"><ele>318.267084</ele><time>2025-04-22T02:51:06Z</time><extensions><speed>1.198967</speed><course>87.260100</course><hAcc>1.445574</hAcc><vAcc>0.890090</vAcc></extensions></trkpt>
      <trkpt lon="-117.331868" lat="33.979278"><ele>318.317911</ele><time>2025-04-22T02:51:07Z</time><extensions><speed>1.255581</speed><course>96.555266</course><hAcc>1.447458</hAcc><vAcc>0.891042</vAcc></extensions></trkpt>
      <trkpt lon="-117.331854" lat="33.979276"><ele>318.367515</ele><time>2025-04-22T02:51:08Z</time><extensions><speed>1.220655</speed><course>97.844505</course><hAcc>1.452935</hAcc><vAcc>0.890978</vAcc></extensions></trkpt>
      <trkpt lon="-117.331841" lat="33.979275"><ele>318.409861</ele><time>2025-04-22T02:51:09Z</time><extensions><speed>1.185475</speed><course>95.981724</course><hAcc>1.457000</hAcc><vAcc>0.889712</vAcc></extensions></trkpt>
      <trkpt lon="-117.331829" lat="33.979274"><ele>318.437153</ele><time>2025-04-22T02:51:10Z</time><extensions><speed>1.208910</speed><course>93.867104</course><hAcc>1.440890</hAcc><vAcc>0.888157</vAcc></extensions></trkpt>
      <trkpt lon="-117.331816" lat="33.979273"><ele>318.465018</ele><time>2025-04-22T02:51:11Z</time><extensions><speed>1.197071</speed><course>92.843828</course><hAcc>1.447053</hAcc><vAcc>0.886979</vAcc></extensions></trkpt>
      <trkpt lon="-117.331803" lat="33.979273"><ele>318.490852</ele><time>2025-04-22T02:51:12Z</time><extensions><speed>1.041059</speed><course>89.140122</course><hAcc>1.480369</hAcc><vAcc>0.885289</vAcc></extensions></trkpt>
      <trkpt lon="-117.331792" lat="33.979273"><ele>318.509814</ele><time>2025-04-22T02:51:13Z</time><extensions><speed>0.967626</speed><course>86.758846</course><hAcc>1.443219</hAcc><vAcc>0.882299</vAcc></extensions></trkpt>
      <trkpt lon="-117.331782" lat="33.979274"><ele>318.521735</ele><time>2025-04-22T02:51:14Z</time><extensions><speed>1.060855</speed><course>86.380144</course><hAcc>1.428884</hAcc><vAcc>0.879463</vAcc></extensions></trkpt>
      <trkpt lon="-117.331770" lat="33.979274"><ele>318.537036</ele><time>2025-04-22T02:51:15Z</time><extensions><speed>1.040064</speed><course>89.737800</course><hAcc>1.433116</hAcc><vAcc>0.876749</vAcc></extensions></trkpt>
      <trkpt lon="-117.331759" lat="33.979274"><ele>318.560472</ele><time>2025-04-22T02:51:16Z</time><extensions><speed>0.971220</speed><course>88.688095</course><hAcc>1.436103</hAcc><vAcc>0.873822</vAcc></extensions></trkpt>
      <trkpt lon="-117.331749" lat="33.979275"><ele>318.589665</ele><time>2025-04-22T02:51:17Z</time><extensions><speed>1.015935</speed><course>88.559935</course><hAcc>1.439809</hAcc><vAcc>0.870378</vAcc></extensions></trkpt>
      <trkpt lon="-117.331737" lat="33.979275"><ele>318.637034</ele><time>2025-04-22T02:51:18Z</time><extensions><speed>1.080139</speed><course>88.797926</course><hAcc>1.424022</hAcc><vAcc>0.866764</vAcc></extensions></trkpt>
      <trkpt lon="-117.331725" lat="33.979275"><ele>318.673899</ele><time>2025-04-22T02:51:19Z</time><extensions><speed>1.084073</speed><course>92.087412</course><hAcc>1.413334</hAcc><vAcc>0.863450</vAcc></extensions></trkpt>
      <trkpt lon="-117.331714" lat="33.979274"><ele>318.698730</ele><time>2025-04-22T02:51:20Z</time><extensions><speed>1.116640</speed><course>97.191588</course><hAcc>1.411721</hAcc><vAcc>0.860574</vAcc></extensions></trkpt>
      <trkpt lon="-117.331701" lat="33.979273"><ele>318.717288</ele><time>2025-04-22T02:51:21Z</time><extensions><speed>1.230501</speed><course>98.030145</course><hAcc>1.429331</hAcc><vAcc>0.856629</vAcc></extensions></trkpt>
      <trkpt lon="-117.331687" lat="33.979271"><ele>318.733719</ele><time>2025-04-22T02:51:22Z</time><extensions><speed>1.291665</speed><course>98.090133</course><hAcc>1.428496</hAcc><vAcc>0.853250</vAcc></extensions></trkpt>
      <trkpt lon="-117.331674" lat="33.979270"><ele>318.747618</ele><time>2025-04-22T02:51:23Z</time><extensions><speed>1.215847</speed><course>98.277253</course><hAcc>1.409410</hAcc><vAcc>0.851154</vAcc></extensions></trkpt>
      <trkpt lon="-117.331661" lat="33.979268"><ele>318.754693</ele><time>2025-04-22T02:51:24Z</time><extensions><speed>1.124840</speed><course>96.314010</course><hAcc>1.408238</hAcc><vAcc>0.849986</vAcc></extensions></trkpt>
      <trkpt lon="-117.331650" lat="33.979268"><ele>318.761177</ele><time>2025-04-22T02:51:25Z</time><extensions><speed>1.018056</speed><course>92.301875</course><hAcc>1.423739</hAcc><vAcc>0.848799</vAcc></extensions></trkpt>
      <trkpt lon="-117.331639" lat="33.979268"><ele>318.764049</ele><time>2025-04-22T02:51:26Z</time><extensions><speed>0.915226</speed><course>86.479971</course><hAcc>1.434113</hAcc><vAcc>0.848192</vAcc></extensions></trkpt>
      <trkpt lon="-117.331629" lat="33.979269"><ele>318.759490</ele><time>2025-04-22T02:51:27Z</time><extensions><speed>1.009785</speed><course>83.187311</course><hAcc>1.412785</hAcc><vAcc>0.848366</vAcc></extensions></trkpt>
      <trkpt lon="-117.331618" lat="33.979270"><ele>318.750023</ele><time>2025-04-22T02:51:28Z</time><extensions><speed>1.115773</speed><course>84.110179</course><hAcc>1.413168</hAcc><vAcc>0.849381</vAcc></extensions></trkpt>
      <trkpt lon="-117.331605" lat="33.979270"><ele>318.730375</ele><time>2025-04-22T02:51:29Z</time><extensions><speed>1.131829</speed><course>88.657335</course><hAcc>1.430231</hAcc><vAcc>0.850876</vAcc></extensions></trkpt>
      <trkpt lon="-117.331593" lat="33.979271"><ele>318.703288</ele><time>2025-04-22T02:51:30Z</time><extensions><speed>1.129960</speed><course>89.098657</course><hAcc>1.435718</hAcc><vAcc>0.853236</vAcc></extensions></trkpt>
      <trkpt lon="-117.331581" lat="33.979271"><ele>318.682727</ele><time>2025-04-22T02:51:31Z</time><extensions><speed>1.083356</speed><course>88.260831</course><hAcc>1.435168</hAcc><vAcc>0.857066</vAcc></extensions></trkpt>
      <trkpt lon="-117.331570" lat="33.979271"><ele>318.649480</ele><time>2025-04-22T02:51:32Z</time><extensions><speed>1.031843</speed><course>87.191812</course><hAcc>1.436243</hAcc><vAcc>0.863736</vAcc></extensions></trkpt>
      <trkpt lon="-117.331558" lat="33.979272"><ele>318.610384</ele><time>2025-04-22T02:51:33Z</time><extensions><speed>1.096313</speed><course>85.420782</course><hAcc>1.448443</hAcc><vAcc>0.873227</vAcc></extensions></trkpt>
      <trkpt lon="-117.331545" lat="33.979273"><ele>318.571377</ele><time>2025-04-22T02:51:34Z</time><extensions><speed>1.229768</speed><course>84.753681</course><hAcc>1.473996</hAcc><vAcc>0.884503</vAcc></extensions></trkpt>
      <trkpt lon="-117.331533" lat="33.979274"><ele>318.544005</ele><time>2025-04-22T02:51:35Z</time><extensions><speed>1.111794</speed><course>81.950350</course><hAcc>1.473118</hAcc><vAcc>0.897126</vAcc></extensions></trkpt>
      <trkpt lon="-117.331521" lat="33.979276"><ele>318.517083</ele><time>2025-04-22T02:51:36Z</time><extensions><speed>1.041903</speed><course>79.885948</course><hAcc>1.488528</hAcc><vAcc>0.912437</vAcc></extensions></trkpt>
      <trkpt lon="-117.331510" lat="33.979278"><ele>318.490111</ele><time>2025-04-22T02:51:37Z</time><extensions><speed>1.040686</speed><course>78.969266</course><hAcc>1.514163</hAcc><vAcc>0.928974</vAcc></extensions></trkpt>
      <trkpt lon="-117.331499" lat="33.979280"><ele>318.463242</ele><time>2025-04-22T02:51:38Z</time><extensions><speed>1.015079</speed><course>78.211739</course><hAcc>1.538013</hAcc><vAcc>0.945562</vAcc></extensions></trkpt>
      <trkpt lon="-117.331488" lat="33.979282"><ele>318.433340</ele><time>2025-04-22T02:51:39Z</time><extensions><speed>1.063971</speed><course>75.036908</course><hAcc>1.556402</hAcc><vAcc>0.961908</vAcc></extensions></trkpt>
      <trkpt lon="-117.331477" lat="33.979285"><ele>318.400393</ele><time>2025-04-22T02:51:40Z</time><extensions><speed>1.075514</speed><course>75.059397</course><hAcc>1.573863</hAcc><vAcc>0.976190</vAcc></extensions></trkpt>
      <trkpt lon="-117.331465" lat="33.979287"><ele>318.366924</ele><time>2025-04-22T02:51:41Z</time><extensions><speed>1.095269</speed><course>76.057797</course><hAcc>1.594523</hAcc><vAcc>0.989040</vAcc></extensions></trkpt>
      <trkpt lon="-117.331453" lat="33.979290"><ele>318.355454</ele><time>2025-04-22T02:51:42Z</time><extensions><speed>1.171328</speed><course>76.085149</course><hAcc>1.636864</hAcc><vAcc>1.000520</vAcc></extensions></trkpt>
      <trkpt lon="-117.331441" lat="33.979292"><ele>318.340119</ele><time>2025-04-22T02:51:43Z</time><extensions><speed>1.136391</speed><course>78.353197</course><hAcc>1.681121</hAcc><vAcc>1.010799</vAcc></extensions></trkpt>
      <trkpt lon="-117.331429" lat="33.979294"><ele>318.322946</ele><time>2025-04-22T02:51:44Z</time><extensions><speed>1.088311</speed><course>78.497632</course><hAcc>1.671308</hAcc><vAcc>1.021654</vAcc></extensions></trkpt>
      <trkpt lon="-117.331418" lat="33.979296"><ele>318.310216</ele><time>2025-04-22T02:51:45Z</time><extensions><speed>1.010174</speed><course>77.951225</course><hAcc>1.677374</hAcc><vAcc>1.031384</vAcc></extensions></trkpt>
      <trkpt lon="-117.331407" lat="33.979298"><ele>318.301950</ele><time>2025-04-22T02:51:46Z</time><extensions><speed>0.970767</speed><course>79.789578</course><hAcc>1.703033</hAcc><vAcc>1.039963</vAcc></extensions></trkpt>
      <trkpt lon="-117.331397" lat="33.979299"><ele>318.297904</ele><time>2025-04-22T02:51:47Z</time><extensions><speed>0.955052</speed><course>81.276455</course><hAcc>1.721652</hAcc><vAcc>1.047296</vAcc></extensions></trkpt>
      <trkpt lon="-117.331386" lat="33.979300"><ele>318.287301</ele><time>2025-04-22T02:51:48Z</time><extensions><speed>0.975860</speed><course>83.265854</course><hAcc>1.730891</hAcc><vAcc>1.054011</vAcc></extensions></trkpt>
      <trkpt lon="-117.331375" lat="33.979301"><ele>318.285954</ele><time>2025-04-22T02:51:49Z</time><extensions><speed>1.016549</speed><course>85.447799</course><hAcc>1.733051</hAcc><vAcc>1.061133</vAcc></extensions></trkpt>
      <trkpt lon="-117.331364" lat="33.979301"><ele>318.294631</ele><time>2025-04-22T02:51:50Z</time><extensions><speed>1.051894</speed><course>89.108265</course><hAcc>1.733860</hAcc><vAcc>1.069765</vAcc></extensions></trkpt>
      <trkpt lon="-117.331353" lat="33.979300"><ele>318.306823</ele><time>2025-04-22T02:51:51Z</time><extensions><speed>1.072903</speed><course>92.139199</course><hAcc>1.730897</hAcc><vAcc>1.076710</vAcc></extensions></trkpt>
      <trkpt lon="-117.331341" lat="33.979300"><ele>318.321652</ele><time>2025-04-22T02:51:52Z</time><extensions><speed>1.111604</speed><course>94.682602</course><hAcc>1.728038</hAcc><vAcc>1.084968</vAcc></extensions></trkpt>
      <trkpt lon="-117.331329" lat="33.979298"><ele>318.336601</ele><time>2025-04-22T02:51:53Z</time><extensions><speed>1.084568</speed><course>100.319575</course><hAcc>1.746884</hAcc><vAcc>1.094540</vAcc></extensions></trkpt>
      <trkpt lon="-117.331317" lat="33.979296"><ele>318.361834</ele><time>2025-04-22T02:51:54Z</time><extensions><speed>1.114997</speed><course>106.697287</course><hAcc>1.765138</hAcc><vAcc>1.102283</vAcc></extensions></trkpt>
      <trkpt lon="-117.331305" lat="33.979292"><ele>318.392465</ele><time>2025-04-22T02:51:55Z</time><extensions><speed>1.172186</speed><course>112.932861</course><hAcc>1.781439</hAcc><vAcc>1.108959</vAcc></extensions></trkpt>
      <trkpt lon="-117.331294" lat="33.979288"><ele>318.425309</ele><time>2025-04-22T02:51:56Z</time><extensions><speed>1.203613</speed><course>117.118260</course><hAcc>1.794582</hAcc><vAcc>1.114095</vAcc></extensions></trkpt>
      <trkpt lon="-117.331282" lat="33.979283"><ele>318.458087</ele><time>2025-04-22T02:51:57Z</time><extensions><speed>1.177142</speed><course>118.736898</course><hAcc>1.801558</hAcc><vAcc>1.120673</vAcc></extensions></trkpt>
      <trkpt lon="-117.331271" lat="33.979278"><ele>318.491599</ele><time>2025-04-22T02:51:58Z</time><extensions><speed>1.168159</speed><course>120.109104</course><hAcc>1.813213</hAcc><vAcc>1.127061</vAcc></extensions></trkpt>
      <trkpt lon="-117.331260" lat="33.979272"><ele>318.547859</ele><time>2025-04-22T02:51:59Z</time><extensions><speed>1.185387</speed><course>117.914442</course><hAcc>1.864166</hAcc><vAcc>1.132726</vAcc></extensions></trkpt>
      <trkpt lon="-117.331249" lat="33.979268"><ele>318.605280</ele><time>2025-04-22T02:52:00Z</time><extensions><speed>1.114193</speed><course>116.628417</course><hAcc>1.908747</hAcc><vAcc>1.137740</vAcc></extensions></trkpt>
      <trkpt lon="-117.331239" lat="33.979263"><ele>318.663452</ele><time>2025-04-22T02:52:01Z</time><extensions><speed>0.939327</speed><course>120.540256</course><hAcc>1.892728</hAcc><vAcc>1.141801</vAcc></extensions></trkpt>
      <trkpt lon="-117.331231" lat="33.979259"><ele>318.722009</ele><time>2025-04-22T02:52:02Z</time><extensions><speed>0.756307</speed><course>121.273454</course><hAcc>1.909650</hAcc><vAcc>1.144883</vAcc></extensions></trkpt>
      <trkpt lon="-117.331224" lat="33.979256"><ele>318.780128</ele><time>2025-04-22T02:52:03Z</time><extensions><speed>0.575563</speed><course>119.363697</course><hAcc>1.945996</hAcc><vAcc>1.147832</vAcc></extensions></trkpt>
      <trkpt lon="-117.331220" lat="33.979254"><ele>318.801285</ele><time>2025-04-22T02:52:04Z</time><extensions><speed>0.447081</speed><course>114.669840</course><hAcc>1.983391</hAcc><vAcc>1.150314</vAcc></extensions></trkpt>
      <trkpt lon="-117.331216" lat="33.979253"><ele>318.821939</ele><time>2025-04-22T02:52:05Z</time><extensions><speed>0.334613</speed><course>107.591345</course><hAcc>2.034613</hAcc><vAcc>1.154660</vAcc></extensions></trkpt>
      <trkpt lon="-117.331213" lat="33.979253"><ele>318.833275</ele><time>2025-04-22T02:52:06Z</time><extensions><speed>0.236592</speed><course>94.912254</course><hAcc>2.089370</hAcc><vAcc>1.161061</vAcc></extensions></trkpt>
      <trkpt lon="-117.331210" lat="33.979253"><ele>318.831427</ele><time>2025-04-22T02:52:07Z</time><extensions><speed>0.203338</speed><course>79.706548</course><hAcc>2.135491</hAcc><vAcc>1.168872</vAcc></extensions></trkpt>
      <trkpt lon="-117.331208" lat="33.979254"><ele>318.823070</ele><time>2025-04-22T02:52:08Z</time><extensions><speed>0.208933</speed><course>67.487583</course><hAcc>2.173257</hAcc><vAcc>1.181163</vAcc></extensions></trkpt>
      <trkpt lon="-117.331206" lat="33.979255"><ele>318.793688</ele><time>2025-04-22T02:52:09Z</time><extensions><speed>0.229275</speed><course>60.714119</course><hAcc>2.206957</hAcc><vAcc>1.197259</vAcc></extensions></trkpt>
      <trkpt lon="-117.331204" lat="33.979257"><ele>318.755554</ele><time>2025-04-22T02:52:10Z</time><extensions><speed>0.227786</speed><course>45.259127</course><hAcc>2.244445</hAcc><vAcc>1.211513</vAcc></extensions></trkpt>
      <trkpt lon="-117.331202" lat="33.979258"><ele>318.712157</ele><time>2025-04-22T02:52:11Z</time><extensions><speed>0.251466</speed><course>34.977578</course><hAcc>2.281403</hAcc><vAcc>1.228444</vAcc></extensions></trkpt>
      <trkpt lon="-117.331200" lat="33.979261"><ele>318.640856</ele><time>2025-04-22T02:52:12Z</time><extensions><speed>0.289838</speed><course>29.982451</course><hAcc>2.316200</hAcc><vAcc>1.248308</vAcc></extensions></trkpt>
      <trkpt lon="-117.331198" lat="33.979263"><ele>318.558878</ele><time>2025-04-22T02:52:13Z</time><extensions><speed>0.335285</speed><course>30.867507</course><hAcc>2.346427</hAcc><vAcc>1.270541</vAcc></extensions></trkpt>
      <trkpt lon="-117.331196" lat="33.979266"><ele>318.460772</ele><time>2025-04-22T02:52:14Z</time><extensions><speed>0.382521</speed><course>39.151293</course><hAcc>2.370808</hAcc><vAcc>1.294540</vAcc></extensions></trkpt>
      <trkpt lon="-117.331193" lat="33.979269"><ele>318.351395</ele><time>2025-04-22T02:52:15Z</time><extensions><speed>0.427685</speed><course>49.106042</course><hAcc>2.391521</hAcc><vAcc>1.318668</vAcc></extensions></trkpt>
      <trkpt lon="-117.331188" lat="33.979272"><ele>318.234799</ele><time>2025-04-22T02:52:16Z</time><extensions><speed>0.564690</speed><course>67.384191</course><hAcc>2.404339</hAcc><vAcc>1.338394</vAcc></extensions></trkpt>
      <trkpt lon="-117.331182" lat="33.979274"><ele>318.122063</ele><time>2025-04-22T02:52:17Z</time><extensions><speed>0.724414</speed><course>78.149970</course><hAcc>2.422414</hAcc><vAcc>1.354395</vAcc></extensions></trkpt>
      <trkpt lon="-117.331173" lat="33.979276"><ele>318.013221</ele><time>2025-04-22T02:52:18Z</time><extensions><speed>0.846907</speed><course>83.412623</course><hAcc>2.428613</hAcc><vAcc>1.368385</vAcc></extensions></trkpt>
      <trkpt lon="-117.331164" lat="33.979277"><ele>317.921540</ele><time>2025-04-22T02:52:19Z</time><extensions><speed>0.942505</speed><course>84.642700</course><hAcc>2.411779</hAcc><vAcc>1.380519</vAcc></extensions></trkpt>
      <trkpt lon="-117.331153" lat="33.979278"><ele>317.826046</ele><time>2025-04-22T02:52:20Z</time><extensions><speed>1.071708</speed><course>86.626268</course><hAcc>2.403700</hAcc><vAcc>1.393796</vAcc></extensions></trkpt>
      <trkpt lon="-117.331141" lat="33.979280"><ele>317.731095</ele><time>2025-04-22T02:52:21Z</time><extensions><speed>1.143734</speed><course>79.452209</course><hAcc>2.380546</hAcc><vAcc>1.405155</vAcc></extensions></trkpt>
      <trkpt lon="-117.331129" lat="33.979283"><ele>317.674190</ele><time>2025-04-22T02:52:22Z</time><extensions><speed>1.193597</speed><course>74.025005</course><hAcc>2.346406</hAcc><vAcc>1.409853</vAcc></extensions></trkpt>
      <trkpt lon="-117.331116" lat="33.979287"><ele>317.615855</ele><time>2025-04-22T02:52:23Z</time><extensions><speed>1.217367</speed><course>72.114014</course><hAcc>2.319245</hAcc><vAcc>1.415904</vAcc></extensions></trkpt>
      <trkpt lon="-117.331104" lat="33.979290"><ele>317.564297</ele><time>2025-04-22T02:52:24Z</time><extensions><speed>1.158320</speed><course>72.280002</course><hAcc>2.292870</hAcc><vAcc>1.418873</vAcc></extensions></trkpt>
      <trkpt lon="-117.331092" lat="33.979294"><ele>317.520191</ele><time>2025-04-22T02:52:25Z</time><extensions><speed>1.125430</speed><course>73.271693</course><hAcc>2.269582</hAcc><vAcc>1.419155</vAcc></extensions></trkpt>
      <trkpt lon="-117.331080" lat="33.979297"><ele>317.484952</ele><time>2025-04-22T02:52:26Z</time><extensions><speed>1.085822</speed><course>73.689416</course><hAcc>2.248073</hAcc><vAcc>1.415686</vAcc></extensions></trkpt>
      <trkpt lon="-117.331069" lat="33.979300"><ele>317.456143</ele><time>2025-04-22T02:52:27Z</time><extensions><speed>1.051358</speed><course>74.123734</course><hAcc>2.225730</hAcc><vAcc>1.410252</vAcc></extensions></trkpt>
      <trkpt lon="-117.331058" lat="33.979303"><ele>317.444009</ele><time>2025-04-22T02:52:28Z</time><extensions><speed>1.045576</speed><course>75.356319</course><hAcc>2.201743</hAcc><vAcc>1.400790</vAcc></extensions></trkpt>
      <trkpt lon="-117.331047" lat="33.979306"><ele>317.447188</ele><time>2025-04-22T02:52:29Z</time><extensions><speed>1.078285</speed><course>75.354613</course><hAcc>2.180624</hAcc><vAcc>1.388663</vAcc></extensions></trkpt>
      <trkpt lon="-117.331035" lat="33.979310"><ele>317.461926</ele><time>2025-04-22T02:52:30Z</time><extensions><speed>1.131545</speed><course>74.832079</course><hAcc>2.168219</hAcc><vAcc>1.378677</vAcc></extensions></trkpt>
      <trkpt lon="-117.331024" lat="33.979313"><ele>317.490834</ele><time>2025-04-22T02:52:31Z</time><extensions><speed>1.134712</speed><course>75.107245</course><hAcc>2.154014</hAcc><vAcc>1.370343</vAcc></extensions></trkpt>
      <trkpt lon="-117.331012" lat="33.979316"><ele>317.517378</ele><time>2025-04-22T02:52:32Z</time><extensions><speed>1.097830</speed><course>76.411677</course><hAcc>2.139966</hAcc><vAcc>1.362743</vAcc></extensions></trkpt>
      <trkpt lon="-117.331001" lat="33.979319"><ele>317.552938</ele><time>2025-04-22T02:52:33Z</time><extensions><speed>1.049035</speed><course>78.300339</course><hAcc>2.131902</hAcc><vAcc>1.355463</vAcc></extensions></trkpt>
      <trkpt lon="-117.330990" lat="33.979321"><ele>317.592891</ele><time>2025-04-22T02:52:34Z</time><extensions><speed>1.053977</speed><course>77.306111</course><hAcc>2.120263</hAcc><vAcc>1.347398</vAcc></extensions></trkpt>
      <trkpt lon="-117.330978" lat="33.979324"><ele>317.646577</ele><time>2025-04-22T02:52:35Z</time><extensions><speed>1.110178</speed><course>76.528820</course><hAcc>2.113850</hAcc><vAcc>1.340561</vAcc></extensions></trkpt>
      <trkpt lon="-117.330967" lat="33.979326"><ele>317.696415</ele><time>2025-04-22T02:52:36Z</time><extensions><speed>1.120072</speed><course>75.971702</course><hAcc>2.109479</hAcc><vAcc>1.335640</vAcc></extensions></trkpt>
      <trkpt lon="-117.330955" lat="33.979329"><ele>317.780088</ele><time>2025-04-22T02:52:37Z</time><extensions><speed>1.075262</speed><course>74.725220</course><hAcc>2.100349</hAcc><vAcc>1.329869</vAcc></extensions></trkpt>
      <trkpt lon="-117.330945" lat="33.979332"><ele>317.877243</ele><time>2025-04-22T02:52:38Z</time><extensions><speed>1.009965</speed><course>72.607403</course><hAcc>2.085797</hAcc><vAcc>1.323781</vAcc></extensions></trkpt>
      <trkpt lon="-117.330934" lat="33.979334"><ele>317.953797</ele><time>2025-04-22T02:52:39Z</time><extensions><speed>1.047180</speed><course>70.316525</course><hAcc>2.073073</hAcc><vAcc>1.318366</vAcc></extensions></trkpt>
      <trkpt lon="-117.330923" lat="33.979338"><ele>318.070794</ele><time>2025-04-22T02:52:40Z</time><extensions><speed>1.180869</speed><course>67.955454</course><hAcc>2.065252</hAcc><vAcc>1.311779</vAcc></extensions></trkpt>
      <trkpt lon="-117.330911" lat="33.979342"><ele>318.176934</ele><time>2025-04-22T02:52:41Z</time><extensions><speed>1.248092</speed><course>70.227702</course><hAcc>2.057909</hAcc><vAcc>1.304594</vAcc></extensions></trkpt>
      <trkpt lon="-117.330899" lat="33.979346"><ele>318.290796</ele><time>2025-04-22T02:52:42Z</time><extensions><speed>1.178423</speed><course>73.164333</course><hAcc>2.052095</hAcc><vAcc>1.299979</vAcc></extensions></trkpt>
      <trkpt lon="-117.330887" lat="33.979349"><ele>318.398084</ele><time>2025-04-22T02:52:43Z</time><extensions><speed>1.113138</speed><course>73.251050</course><hAcc>2.046647</hAcc><vAcc>1.292773</vAcc></extensions></trkpt>
      <trkpt lon="-117.330876" lat="33.979352"><ele>318.502930</ele><time>2025-04-22T02:52:44Z</time><extensions><speed>1.127691</speed><course>72.080232</course><hAcc>2.042717</hAcc><vAcc>1.287236</vAcc></extensions></trkpt>
      <trkpt lon="-117.330864" lat="33.979355"><ele>318.603140</ele><time>2025-04-22T02:52:45Z</time><extensions><speed>1.114827</speed><course>72.166269</course><hAcc>2.039224</hAcc><vAcc>1.283152</vAcc></extensions></trkpt>
      <trkpt lon="-117.330853" lat="33.979358"><ele>318.687847</ele><time>2025-04-22T02:52:46Z</time><extensions><speed>1.014711</speed><course>74.736688</course><hAcc>2.032516</hAcc><vAcc>1.274696</vAcc></extensions></trkpt>
      <trkpt lon="-117.330843" lat="33.979360"><ele>318.774783</ele><time>2025-04-22T02:52:47Z</time><extensions><speed>0.939385</speed><course>81.265294</course><hAcc>2.017356</hAcc><vAcc>1.265773</vAcc></extensions></trkpt>
      <trkpt lon="-117.330833" lat="33.979362"><ele>318.857290</ele><time>2025-04-22T02:52:48Z</time><extensions><speed>1.008649</speed><course>82.160910</course><hAcc>2.008370</hAcc><vAcc>1.256983</vAcc></extensions></trkpt>
      <trkpt lon="-117.330822" lat="33.979363"><ele>318.939815</ele><time>2025-04-22T02:52:49Z</time><extensions><speed>1.021105</speed><course>79.705230</course><hAcc>1.990409</hAcc><vAcc>1.248589</vAcc></extensions></trkpt>
      <trkpt lon="-117.330811" lat="33.979365"><ele>319.021052</ele><time>2025-04-22T02:52:50Z</time><extensions><speed>1.019776</speed><course>75.637597</course><hAcc>1.978206</hAcc><vAcc>1.240957</vAcc></extensions></trkpt>
      <trkpt lon="-117.330800" lat="33.979368"><ele>319.102265</ele><time>2025-04-22T02:52:51Z</time><extensions><speed>1.068049</speed><course>74.381504</course><hAcc>1.968446</hAcc><vAcc>1.235012</vAcc></extensions></trkpt>
      <trkpt lon="-117.330789" lat="33.979371"><ele>319.173450</ele><time>2025-04-22T02:52:52Z</time><extensions><speed>1.089822</speed><course>74.028301</course><hAcc>1.960493</hAcc><vAcc>1.250305</vAcc></extensions></trkpt>
      <trkpt lon="-117.330778" lat="33.979373"><ele>319.241249</ele><time>2025-04-22T02:52:53Z</time><extensions><speed>1.094860</speed><course>76.378680</course><hAcc>1.962292</hAcc><vAcc>1.273002</vAcc></extensions></trkpt>
      <trkpt lon="-117.330766" lat="33.979375"><ele>319.305801</ele><time>2025-04-22T02:52:54Z</time><extensions><speed>1.103435</speed><course>80.360597</course><hAcc>1.970746</hAcc><vAcc>1.305156</vAcc></extensions></trkpt>
      <trkpt lon="-117.330754" lat="33.979377"><ele>319.367385</ele><time>2025-04-22T02:52:55Z</time><extensions><speed>1.099625</speed><course>83.159140</course><hAcc>1.986998</hAcc><vAcc>1.349014</vAcc></extensions></trkpt>
      <trkpt lon="-117.330742" lat="33.979378"><ele>319.426379</ele><time>2025-04-22T02:52:56Z</time><extensions><speed>1.070855</speed><course>83.671033</course><hAcc>2.011749</hAcc><vAcc>1.406932</vAcc></extensions></trkpt>
      <trkpt lon="-117.330731" lat="33.979379"><ele>319.483212</ele><time>2025-04-22T02:52:57Z</time><extensions><speed>1.067836</speed><course>84.220850</course><hAcc>2.062397</hAcc><vAcc>1.481233</vAcc></extensions></trkpt>
      <trkpt lon="-117.330719" lat="33.979380"><ele>319.538310</ele><time>2025-04-22T02:52:58Z</time><extensions><speed>1.081917</speed><course>84.056429</course><hAcc>2.140147</hAcc><vAcc>1.574032</vAcc></extensions></trkpt>
      <trkpt lon="-117.330708" lat="33.979381"><ele>319.592074</ele><time>2025-04-22T02:52:59Z</time><extensions><speed>1.093664</speed><course>85.060196</course><hAcc>2.253578</hAcc><vAcc>1.687092</vAcc></extensions></trkpt>
      <trkpt lon="-117.330696" lat="33.979382"><ele>319.644886</ele><time>2025-04-22T02:53:00Z</time><extensions><speed>1.121420</speed><course>85.211669</course><hAcc>2.415862</hAcc><vAcc>1.821751</vAcc></extensions></trkpt>
      <trkpt lon="-117.330684" lat="33.979382"><ele>319.697118</ele><time>2025-04-22T02:53:01Z</time><extensions><speed>1.108733</speed><course>86.568769</course><hAcc>2.665668</hAcc><vAcc>1.978919</vAcc></extensions></trkpt>
    </trkseg>
  </trk>
</gpx>