<?xml version="1.0" encoding="UTF-8"?>
<gpx version="1.1" creator="Apple Health Export" xmlns="http://www.topografix.com/GPX/1/1" xmlns:xsi="http://www.w3.org/2001/XMLSchema-instance" xsi:schemaLocation="http://www.topografix.com/GPX/1/1 http://www.topografix.com/GPX/1/1/gpx.xsd">
  <metadata>
    <time>2026-01-11T07:57:29Z</time>
  </metadata>
  <trk>
    <name>Route 2023-11-17 7:39pm</name>
    <trkseg>
      <trkpt lon="-117.325498" lat="33.977327"><ele>323.446111</ele><time>2023-11-18T03:32:29Z</time><extensions><speed>1.008937</speed><course>83.350243</course><hAcc>2.894039</hAcc><vAcc>1.217037</vAcc></extensions></trkpt>
      <trkpt lon="-117.325487" lat="33.977329"><ele>323.482138</ele><time>2023-11-18T03:32:30Z</time><extensions><speed>1.168445</speed><course>78.496501</course><hAcc>2.756542</hAcc><vAcc>1.044922</vAcc></extensions></trkpt>
      <trkpt lon="-117.325475" lat="33.977332"><ele>323.520297</ele><time>2023-11-18T03:32:31Z</time><extensions><speed>1.226328</speed><course>76.952843</course><hAcc>2.649168</hAcc><vAcc>0.914290</vAcc></extensions></trkpt>
      <trkpt lon="-117.325461" lat="33.977336"><ele>323.560505</ele><time>2023-11-18T03:32:32Z</time><extensions><speed>1.350660</speed><course>77.538186</course><hAcc>2.550812</hAcc><vAcc>0.819057</vAcc></extensions></trkpt>
      <trkpt lon="-117.325447" lat="33.977338"><ele>323.602869</ele><time>2023-11-18T03:32:33Z</time><extensions><speed>1.441260</speed><course>82.014034</course><hAcc>2.448032</hAcc><vAcc>0.752996</vAcc></extensions></trkpt>
      <trkpt lon="-117.325431" lat="33.977340"><ele>323.645858</ele><time>2023-11-18T03:32:34Z</time><extensions><speed>1.438486</speed><course>89.421301</course><hAcc>2.355194</hAcc><vAcc>0.709704</vAcc></extensions></trkpt>
      <trkpt lon="-117.325416" lat="33.977341"><ele>323.688986</ele><time>2023-11-18T03:32:35Z</time><extensions><speed>1.366104</speed><course>93.254467</course><hAcc>2.284799</hAcc><vAcc>0.683019</vAcc></extensions></trkpt>
      <trkpt lon="-117.325402" lat="33.977340"><ele>323.732352</ele><time>2023-11-18T03:32:36Z</time><extensions><speed>1.289710</speed><course>99.017734</course><hAcc>2.222544</hAcc><vAcc>0.667583</vAcc></extensions></trkpt>
      <trkpt lon="-117.325389" lat="33.977339"><ele>323.776541</ele><time>2023-11-18T03:32:37Z</time><extensions><speed>1.243034</speed><course>101.808049</course><hAcc>2.180935</hAcc><vAcc>0.659197</vAcc></extensions></trkpt>
      <trkpt lon="-117.325377" lat="33.977337"><ele>323.821125</ele><time>2023-11-18T03:32:38Z</time><extensions><speed>1.230998</speed><course>101.113575</course><hAcc>2.145068</hAcc><vAcc>0.654870</vAcc></extensions></trkpt>
      <trkpt lon="-117.325365" lat="33.977336"><ele>323.865881</ele><time>2023-11-18T03:32:39Z</time><extensions><speed>1.208904</speed><course>99.239185</course><hAcc>2.101263</hAcc><vAcc>0.652650</vAcc></extensions></trkpt>
      <trkpt lon="-117.325353" lat="33.977336"><ele>323.911119</ele><time>2023-11-18T03:32:40Z</time><extensions><speed>1.168008</speed><course>96.838192</course><hAcc>2.061003</hAcc><vAcc>0.651368</vAcc></extensions></trkpt>
      <trkpt lon="-117.325342" lat="33.977337"><ele>323.956357</ele><time>2023-11-18T03:32:41Z</time><extensions><speed>1.143158</speed><course>92.230506</course><hAcc>2.030708</hAcc><vAcc>0.650392</vAcc></extensions></trkpt>
      <trkpt lon="-117.325330" lat="33.977338"><ele>324.001299</ele><time>2023-11-18T03:32:42Z</time><extensions><speed>1.129196</speed><course>89.492377</course><hAcc>1.996311</hAcc><vAcc>0.649435</vAcc></extensions></trkpt>
      <trkpt lon="-117.325320" lat="33.977340"><ele>324.046446</ele><time>2023-11-18T03:32:43Z</time><extensions><speed>1.117708</speed><course>87.596564</course><hAcc>1.966796</hAcc><vAcc>0.648406</vAcc></extensions></trkpt>
      <trkpt lon="-117.325309" lat="33.977343"><ele>324.090356</ele><time>2023-11-18T03:32:44Z</time><extensions><speed>1.113071</speed><course>84.370202</course><hAcc>1.941424</hAcc><vAcc>0.647316</vAcc></extensions></trkpt>
      <trkpt lon="-117.325299" lat="33.977346"><ele>324.133202</ele><time>2023-11-18T03:32:45Z</time><extensions><speed>1.088284</speed><course>79.454515</course><hAcc>1.905416</hAcc><vAcc>0.646216</vAcc></extensions></trkpt>
      <trkpt lon="-117.325290" lat="33.977350"><ele>324.174470</ele><time>2023-11-18T03:32:46Z</time><extensions><speed>1.039434</speed><course>75.850520</course><hAcc>1.871966</hAcc><vAcc>0.645166</vAcc></extensions></trkpt>
      <trkpt lon="-117.325281" lat="33.977354"><ele>324.215058</ele><time>2023-11-18T03:32:47Z</time><extensions><speed>1.013176</speed><course>80.404707</course><hAcc>1.852275</hAcc><vAcc>0.644212</vAcc></extensions></trkpt>
      <trkpt lon="-117.325271" lat="33.977357"><ele>324.254393</ele><time>2023-11-18T03:32:48Z</time><extensions><speed>1.052250</speed><course>79.242749</course><hAcc>1.833155</hAcc><vAcc>0.643383</vAcc></extensions></trkpt>
      <trkpt lon="-117.325262" lat="33.977361"><ele>324.292946</ele><time>2023-11-18T03:32:49Z</time><extensions><speed>0.943741</speed><course>76.621235</course><hAcc>1.797641</hAcc><vAcc>0.642693</vAcc></extensions></trkpt>
      <trkpt lon="-117.325254" lat="33.977365"><ele>324.330828</ele><time>2023-11-18T03:32:50Z</time><extensions><speed>0.866214</speed><course>70.230316</course><hAcc>1.763543</hAcc><vAcc>0.642138</vAcc></extensions></trkpt>
      <trkpt lon="-117.325246" lat="33.977369"><ele>324.367654</ele><time>2023-11-18T03:32:51Z</time><extensions><speed>0.836543</speed><course>69.358188</course><hAcc>1.740334</hAcc><vAcc>0.641709</vAcc></extensions></trkpt>
      <trkpt lon="-117.325240" lat="33.977373"><ele>324.402864</ele><time>2023-11-18T03:32:52Z</time><extensions><speed>0.720657</speed><course>61.879105</course><hAcc>1.713332</hAcc><vAcc>0.641387</vAcc></extensions></trkpt>
      <trkpt lon="-117.325239" lat="33.977380"><ele>324.456288</ele><time>2023-11-18T03:32:53Z</time><extensions><speed>0.686250</speed><course>56.015230</course><hAcc>1.666613</hAcc><vAcc>0.641699</vAcc></extensions></trkpt>
      <trkpt lon="-117.325237" lat="33.977386"><ele>324.523062</ele><time>2023-11-18T03:32:54Z</time><extensions><speed>0.770386</speed><course>47.851406</course><hAcc>1.646087</hAcc><vAcc>0.642847</vAcc></extensions></trkpt>
      <trkpt lon="-117.325233" lat="33.977392"><ele>324.604683</ele><time>2023-11-18T03:32:55Z</time><extensions><speed>0.791426</speed><course>40.201130</course><hAcc>1.621763</hAcc><vAcc>0.645204</vAcc></extensions></trkpt>
      <trkpt lon="-117.325229" lat="33.977399"><ele>324.705551</ele><time>2023-11-18T03:32:56Z</time><extensions><speed>0.824152</speed><course>31.540681</course><hAcc>1.610331</hAcc><vAcc>0.649099</vAcc></extensions></trkpt>
      <trkpt lon="-117.325225" lat="33.977406"><ele>324.820638</ele><time>2023-11-18T03:32:57Z</time><extensions><speed>0.878915</speed><course>22.486649</course><hAcc>1.596858</hAcc><vAcc>0.654822</vAcc></extensions></trkpt>
      <trkpt lon="-117.325222" lat="33.977413"><ele>324.945696</ele><time>2023-11-18T03:32:58Z</time><extensions><speed>0.882865</speed><course>21.048971</course><hAcc>1.602736</hAcc><vAcc>0.662603</vAcc></extensions></trkpt>
      <trkpt lon="-117.325218" lat="33.977421"><ele>325.089607</ele><time>2023-11-18T03:32:59Z</time><extensions><speed>0.944715</speed><course>24.802833</course><hAcc>1.621992</hAcc><vAcc>0.672565</vAcc></extensions></trkpt>
      <trkpt lon="-117.325214" lat="33.977429"><ele>325.248490</ele><time>2023-11-18T03:33:00Z</time><extensions><speed>0.979962</speed><course>18.443627</course><hAcc>1.628175</hAcc><vAcc>0.684674</vAcc></extensions></trkpt>
      <trkpt lon="-117.325211" lat="33.977438"><ele>325.422575</ele><time>2023-11-18T03:33:01Z</time><extensions><speed>0.963801</speed><course>17.522675</course><hAcc>1.649711</hAcc><vAcc>0.698676</vAcc></extensions></trkpt>
      <trkpt lon="-117.325208" lat="33.977446"><ele>325.609729</ele><time>2023-11-18T03:33:02Z</time><extensions><speed>0.908608</speed><course>13.271760</course><hAcc>1.655285</hAcc><vAcc>0.714075</vAcc></extensions></trkpt>
      <trkpt lon="-117.325210" lat="33.977455"><ele>325.799447</ele><time>2023-11-18T03:33:03Z</time><extensions><speed>1.185884</speed><course>337.120394</course><hAcc>1.600797</hAcc><vAcc>0.730098</vAcc></extensions></trkpt>
      <trkpt lon="-117.325215" lat="33.977464"><ele>325.987066</ele><time>2023-11-18T03:33:04Z</time><extensions><speed>1.054483</speed><course>330.402362</course><hAcc>1.619440</hAcc><vAcc>0.745824</vAcc></extensions></trkpt>
      <trkpt lon="-117.325220" lat="33.977472"><ele>326.174378</ele><time>2023-11-18T03:33:05Z</time><extensions><speed>1.064810</speed><course>337.741192</course><hAcc>1.647682</hAcc><vAcc>0.760479</vAcc></extensions></trkpt>
      <trkpt lon="-117.325223" lat="33.977481"><ele>326.369025</ele><time>2023-11-18T03:33:06Z</time><extensions><speed>0.949074</speed><course>353.404904</course><hAcc>1.694923</hAcc><vAcc>0.773611</vAcc></extensions></trkpt>
      <trkpt lon="-117.325222" lat="33.977489"><ele>326.570519</ele><time>2023-11-18T03:33:07Z</time><extensions><speed>0.851036</speed><course>11.865697</course><hAcc>1.738153</hAcc><vAcc>0.785001</vAcc></extensions></trkpt>
      <trkpt lon="-117.325219" lat="33.977496"><ele>326.752793</ele><time>2023-11-18T03:33:08Z</time><extensions><speed>0.860235</speed><course>25.267641</course><hAcc>1.751831</hAcc><vAcc>0.794598</vAcc></extensions></trkpt>
      <trkpt lon="-117.325214" lat="33.977503"><ele>326.928826</ele><time>2023-11-18T03:33:09Z</time><extensions><speed>0.895410</speed><course>36.545521</course><hAcc>1.752854</hAcc><vAcc>0.802483</vAcc></extensions></trkpt>
      <trkpt lon="-117.325208" lat="33.977509"><ele>327.106881</ele><time>2023-11-18T03:33:10Z</time><extensions><speed>0.899873</speed><course>47.207715</course><hAcc>1.743131</hAcc><vAcc>0.808822</vAcc></extensions></trkpt>
      <trkpt lon="-117.325200" lat="33.977514"><ele>327.262869</ele><time>2023-11-18T03:33:11Z</time><extensions><speed>0.888490</speed><course>60.148354</course><hAcc>1.720253</hAcc><vAcc>0.813804</vAcc></extensions></trkpt>
      <trkpt lon="-117.325191" lat="33.977517"><ele>327.411179</ele><time>2023-11-18T03:33:12Z</time><extensions><speed>1.006639</speed><course>68.688862</course><hAcc>1.714724</hAcc><vAcc>0.817632</vAcc></extensions></trkpt>
      <trkpt lon="-117.325180" lat="33.977521"><ele>327.558524</ele><time>2023-11-18T03:33:13Z</time><extensions><speed>1.062570</speed><course>70.808357</course><hAcc>1.714278</hAcc><vAcc>0.820527</vAcc></extensions></trkpt>
      <trkpt lon="-117.325170" lat="33.977524"><ele>327.699977</ele><time>2023-11-18T03:33:14Z</time><extensions><speed>1.013592</speed><course>71.582209</course><hAcc>1.702739</hAcc><vAcc>0.822677</vAcc></extensions></trkpt>
      <trkpt lon="-117.325160" lat="33.977527"><ele>327.805829</ele><time>2023-11-18T03:33:15Z</time><extensions><speed>0.974725</speed><course>68.022312</course><hAcc>1.689118</hAcc><vAcc>0.824238</vAcc></extensions></trkpt>
      <trkpt lon="-117.325150" lat="33.977530"><ele>327.894663</ele><time>2023-11-18T03:33:16Z</time><extensions><speed>1.025720</speed><course>67.666554</course><hAcc>1.689049</hAcc><vAcc>0.825339</vAcc></extensions></trkpt>
      <trkpt lon="-117.325140" lat="33.977533"><ele>327.975079</ele><time>2023-11-18T03:33:17Z</time><extensions><speed>0.981805</speed><course>71.677854</course><hAcc>1.692986</hAcc><vAcc>0.826093</vAcc></extensions></trkpt>
      <trkpt lon="-117.325130" lat="33.977536"><ele>328.040450</ele><time>2023-11-18T03:33:18Z</time><extensions><speed>0.903666</speed><course>74.721857</course><hAcc>1.698491</hAcc><vAcc>0.826573</vAcc></extensions></trkpt>
      <trkpt lon="-117.325121" lat="33.977538"><ele>328.086011</ele><time>2023-11-18T03:33:19Z</time><extensions><speed>0.867699</speed><course>74.651158</course><hAcc>1.692580</hAcc><vAcc>0.826846</vAcc></extensions></trkpt>
      <trkpt lon="-117.325112" lat="33.977539"><ele>328.127372</ele><time>2023-11-18T03:33:20Z</time><extensions><speed>0.667713</speed><course>78.187623</course><hAcc>1.702045</hAcc><vAcc>0.826983</vAcc></extensions></trkpt>
      <trkpt lon="-117.325107" lat="33.977540"><ele>328.155989</ele><time>2023-11-18T03:33:21Z</time><extensions><speed>0.430921</speed><course>86.559740</course><hAcc>1.709224</hAcc><vAcc>0.827028</vAcc></extensions></trkpt>
      <trkpt lon="-117.325103" lat="33.977540"><ele>328.164271</ele><time>2023-11-18T03:33:22Z</time><extensions><speed>0.252728</speed><course>88.935423</course><hAcc>1.715529</hAcc><vAcc>0.827008</vAcc></extensions></trkpt>
      <trkpt lon="-117.325101" lat="33.977541"><ele>328.157348</ele><time>2023-11-18T03:33:23Z</time><extensions><speed>0.212321</speed><course>78.426357</course><hAcc>1.725872</hAcc><vAcc>0.826934</vAcc></extensions></trkpt>
      <trkpt lon="-117.325099" lat="33.977541"><ele>328.151159</ele><time>2023-11-18T03:33:24Z</time><extensions><speed>0.195967</speed><course>61.531933</course><hAcc>1.752421</hAcc><vAcc>0.826827</vAcc></extensions></trkpt>
      <trkpt lon="-117.325096" lat="33.977543"><ele>328.133900</ele><time>2023-11-18T03:33:25Z</time><extensions><speed>0.381243</speed><course>54.675026</course><hAcc>1.730241</hAcc><vAcc>0.826718</vAcc></extensions></trkpt>
      <trkpt lon="-117.325092" lat="33.977545"><ele>328.128446</ele><time>2023-11-18T03:33:26Z</time><extensions><speed>0.602303</speed><course>47.136769</course><hAcc>1.723247</hAcc><vAcc>0.826635</vAcc></extensions></trkpt>
      <trkpt lon="-117.325087" lat="33.977550"><ele>328.113417</ele><time>2023-11-18T03:33:27Z</time><extensions><speed>0.776007</speed><course>42.875366</course><hAcc>1.726608</hAcc><vAcc>0.826566</vAcc></extensions></trkpt>
      <trkpt lon="-117.325081" lat="33.977555"><ele>328.115425</ele><time>2023-11-18T03:33:28Z</time><extensions><speed>0.813360</speed><course>38.194292</course><hAcc>1.716590</hAcc><vAcc>0.826521</vAcc></extensions></trkpt>
      <trkpt lon="-117.325076" lat="33.977562"><ele>328.134837</ele><time>2023-11-18T03:33:29Z</time><extensions><speed>0.885453</speed><course>33.481950</course><hAcc>1.707672</hAcc><vAcc>0.826478</vAcc></extensions></trkpt>
      <trkpt lon="-117.325071" lat="33.977569"><ele>328.164627</ele><time>2023-11-18T03:33:30Z</time><extensions><speed>0.920557</speed><course>24.762206</course><hAcc>1.711561</hAcc><vAcc>0.826432</vAcc></extensions></trkpt>
      <trkpt lon="-117.325068" lat="33.977577"><ele>328.188361</ele><time>2023-11-18T03:33:31Z</time><extensions><speed>0.923894</speed><course>11.646679</course><hAcc>1.706813</hAcc><vAcc>0.826372</vAcc></extensions></trkpt>
      <trkpt lon="-117.325067" lat="33.977586"><ele>328.225886</ele><time>2023-11-18T03:33:32Z</time><extensions><speed>1.088739</speed><course>4.258314</course><hAcc>1.701798</hAcc><vAcc>0.826297</vAcc></extensions></trkpt>
      <trkpt lon="-117.325066" lat="33.977596"><ele>328.278050</ele><time>2023-11-18T03:33:33Z</time><extensions><speed>1.109114</speed><course>2.092532</course><hAcc>1.698781</hAcc><vAcc>0.826223</vAcc></extensions></trkpt>
      <trkpt lon="-117.325066" lat="33.977605"><ele>328.328149</ele><time>2023-11-18T03:33:34Z</time><extensions><speed>1.048190</speed><course>2.883440</course><hAcc>1.697230</hAcc><vAcc>0.826215</vAcc></extensions></trkpt>
      <trkpt lon="-117.325065" lat="33.977615"><ele>328.388015</ele><time>2023-11-18T03:33:35Z</time><extensions><speed>1.086330</speed><course>5.422144</course><hAcc>1.698149</hAcc><vAcc>0.826215</vAcc></extensions></trkpt>
      <trkpt lon="-117.325063" lat="33.977625"><ele>328.461496</ele><time>2023-11-18T03:33:36Z</time><extensions><speed>1.236538</speed><course>7.388653</course><hAcc>1.696973</hAcc><vAcc>0.826224</vAcc></extensions></trkpt>
      <trkpt lon="-117.325061" lat="33.977637"><ele>328.560524</ele><time>2023-11-18T03:33:37Z</time><extensions><speed>1.389717</speed><course>8.256462</course><hAcc>1.694380</hAcc><vAcc>0.826270</vAcc></extensions></trkpt>
      <trkpt lon="-117.325059" lat="33.977649"><ele>328.651099</ele><time>2023-11-18T03:33:38Z</time><extensions><speed>1.390406</speed><course>7.874756</course><hAcc>1.696820</hAcc><vAcc>0.826353</vAcc></extensions></trkpt>
      <trkpt lon="-117.325057" lat="33.977662"><ele>328.736301</ele><time>2023-11-18T03:33:39Z</time><extensions><speed>1.404671</speed><course>8.657026</course><hAcc>1.698349</hAcc><vAcc>0.826494</vAcc></extensions></trkpt>
      <trkpt lon="-117.325054" lat="33.977674"><ele>328.843172</ele><time>2023-11-18T03:33:40Z</time><extensions><speed>1.429658</speed><course>10.848248</course><hAcc>1.693997</hAcc><vAcc>0.826701</vAcc></extensions></trkpt>
      <trkpt lon="-117.325051" lat="33.977687"><ele>328.955131</ele><time>2023-11-18T03:33:41Z</time><extensions><speed>1.391236</speed><course>13.779076</course><hAcc>1.682102</hAcc><vAcc>0.826932</vAcc></extensions></trkpt>
      <trkpt lon="-117.325047" lat="33.977699"><ele>329.065360</ele><time>2023-11-18T03:33:42Z</time><extensions><speed>1.347368</speed><course>16.546665</course><hAcc>1.676984</hAcc><vAcc>0.827199</vAcc></extensions></trkpt>
      <trkpt lon="-117.325042" lat="33.977710"><ele>329.197324</ele><time>2023-11-18T03:33:43Z</time><extensions><speed>1.338123</speed><course>20.504883</course><hAcc>1.681087</hAcc><vAcc>0.827496</vAcc></extensions></trkpt>
      <trkpt lon="-117.325037" lat="33.977721"><ele>329.324971</ele><time>2023-11-18T03:33:44Z</time><extensions><speed>1.357896</speed><course>23.469423</course><hAcc>1.687635</hAcc><vAcc>0.827819</vAcc></extensions></trkpt>
      <trkpt lon="-117.325031" lat="33.977733"><ele>329.460572</ele><time>2023-11-18T03:33:45Z</time><extensions><speed>1.380132</speed><course>26.602170</course><hAcc>1.675650</hAcc><vAcc>0.828168</vAcc></extensions></trkpt>
      <trkpt lon="-117.325024" lat="33.977743"><ele>329.585970</ele><time>2023-11-18T03:33:46Z</time><extensions><speed>1.334036</speed><course>27.979980</course><hAcc>1.661364</hAcc><vAcc>0.828538</vAcc></extensions></trkpt>
      <trkpt lon="-117.325017" lat="33.977754"><ele>329.704808</ele><time>2023-11-18T03:33:47Z</time><extensions><speed>1.221363</speed><course>28.365315</course><hAcc>1.649645</hAcc><vAcc>0.828894</vAcc></extensions></trkpt>
      <trkpt lon="-117.325011" lat="33.977763"><ele>329.829324</ele><time>2023-11-18T03:33:48Z</time><extensions><speed>1.190343</speed><course>28.904397</course><hAcc>1.641165</hAcc><vAcc>0.829221</vAcc></extensions></trkpt>
      <trkpt lon="-117.325005" lat="33.977773"><ele>329.944581</ele><time>2023-11-18T03:33:49Z</time><extensions><speed>1.269417</speed><course>26.226818</course><hAcc>1.654336</hAcc><vAcc>0.829574</vAcc></extensions></trkpt>
      <trkpt lon="-117.324999" lat="33.977784"><ele>330.048463</ele><time>2023-11-18T03:33:50Z</time><extensions><speed>1.243611</speed><course>22.935806</course><hAcc>1.671125</hAcc><vAcc>0.829919</vAcc></extensions></trkpt>
      <trkpt lon="-117.324994" lat="33.977794"><ele>330.128822</ele><time>2023-11-18T03:33:51Z</time><extensions><speed>1.273298</speed><course>18.747463</course><hAcc>1.633151</hAcc><vAcc>0.830227</vAcc></extensions></trkpt>
      <trkpt lon="-117.324990" lat="33.977805"><ele>330.220638</ele><time>2023-11-18T03:33:52Z</time><extensions><speed>1.312374</speed><course>16.948035</course><hAcc>1.609734</hAcc><vAcc>0.830504</vAcc></extensions></trkpt>
      <trkpt lon="-117.324986" lat="33.977817"><ele>330.318360</ele><time>2023-11-18T03:33:53Z</time><extensions><speed>1.344501</speed><course>17.483341</course><hAcc>1.596720</hAcc><vAcc>0.830758</vAcc></extensions></trkpt>
      <trkpt lon="-117.324981" lat="33.977828"><ele>330.401829</ele><time>2023-11-18T03:33:54Z</time><extensions><speed>1.361776</speed><course>19.258226</course><hAcc>1.587489</hAcc><vAcc>0.831000</vAcc></extensions></trkpt>
      <trkpt lon="-117.324976" lat="33.977840"><ele>330.466821</ele><time>2023-11-18T03:33:55Z</time><extensions><speed>1.323636</speed><course>22.254862</course><hAcc>1.593963</hAcc><vAcc>0.831203</vAcc></extensions></trkpt>
      <trkpt lon="-117.324970" lat="33.977850"><ele>330.521934</ele><time>2023-11-18T03:33:56Z</time><extensions><speed>1.236904</speed><course>23.582417</course><hAcc>1.618718</hAcc><vAcc>0.831353</vAcc></extensions></trkpt>
      <trkpt lon="-117.324965" lat="33.977861"><ele>330.575562</ele><time>2023-11-18T03:33:57Z</time><extensions><speed>1.428266</speed><course>21.324820</course><hAcc>1.563006</hAcc><vAcc>0.831457</vAcc></extensions></trkpt>
      <trkpt lon="-117.324959" lat="33.977874"><ele>330.616940</ele><time>2023-11-18T03:33:58Z</time><extensions><speed>1.558189</speed><course>19.684244</course><hAcc>1.559662</hAcc><vAcc>0.831546</vAcc></extensions></trkpt>
      <trkpt lon="-117.324954" lat="33.977887"><ele>330.644190</ele><time>2023-11-18T03:33:59Z</time><extensions><speed>1.554689</speed><course>18.448580</course><hAcc>1.618617</hAcc><vAcc>0.831584</vAcc></extensions></trkpt>
      <trkpt lon="-117.324948" lat="33.977900"><ele>330.660304</ele><time>2023-11-18T03:34:00Z</time><extensions><speed>1.527764</speed><course>21.133674</course><hAcc>1.597241</hAcc><vAcc>0.831571</vAcc></extensions></trkpt>
      <trkpt lon="-117.324941" lat="33.977913"><ele>330.681763</ele><time>2023-11-18T03:34:01Z</time><extensions><speed>1.515535</speed><course>25.393373</course><hAcc>1.575996</hAcc><vAcc>0.831581</vAcc></extensions></trkpt>
      <trkpt lon="-117.324934" lat="33.977925"><ele>330.693986</ele><time>2023-11-18T03:34:02Z</time><extensions><speed>1.541266</speed><course>27.347491</course><hAcc>1.582816</hAcc><vAcc>0.831586</vAcc></extensions></trkpt>
      <trkpt lon="-117.324926" lat="33.977938"><ele>330.688306</ele><time>2023-11-18T03:34:03Z</time><extensions><speed>1.548397</speed><course>28.708895</course><hAcc>1.605344</hAcc><vAcc>0.831595</vAcc></extensions></trkpt>
      <trkpt lon="-117.324917" lat="33.977950"><ele>330.668364</ele><time>2023-11-18T03:34:04Z</time><extensions><speed>1.524062</speed><course>30.339299</course><hAcc>1.626760</hAcc><vAcc>0.831605</vAcc></extensions></trkpt>
      <trkpt lon="-117.324909" lat="33.977961"><ele>330.628911</ele><time>2023-11-18T03:34:05Z</time><extensions><speed>1.483234</speed><course>31.018362</course><hAcc>1.612824</hAcc><vAcc>0.831612</vAcc></extensions></trkpt>
      <trkpt lon="-117.324901" lat="33.977972"><ele>330.586280</ele><time>2023-11-18T03:34:06Z</time><extensions><speed>1.400316</speed><course>31.400282</course><hAcc>1.598318</hAcc><vAcc>0.831629</vAcc></extensions></trkpt>
      <trkpt lon="-117.324893" lat="33.977983"><ele>330.532170</ele><time>2023-11-18T03:34:07Z</time><extensions><speed>1.280401</speed><course>29.011708</course><hAcc>1.622479</hAcc><vAcc>0.831689</vAcc></extensions></trkpt>
      <trkpt lon="-117.324888" lat="33.977992"><ele>330.474797</ele><time>2023-11-18T03:34:08Z</time><extensions><speed>0.965463</speed><course>21.417445</course><hAcc>1.679628</hAcc><vAcc>0.831769</vAcc></extensions></trkpt>
      <trkpt lon="-117.324883" lat="33.978001"><ele>330.413540</ele><time>2023-11-18T03:34:09Z</time><extensions><speed>1.163841</speed><course>29.099889</course><hAcc>1.632377</hAcc><vAcc>0.831871</vAcc></extensions></trkpt>
      <trkpt lon="-117.324876" lat="33.978010"><ele>330.356638</ele><time>2023-11-18T03:34:10Z</time><extensions><speed>1.211684</speed><course>35.055088</course><hAcc>1.615287</hAcc><vAcc>0.831974</vAcc></extensions></trkpt>
      <trkpt lon="-117.324869" lat="33.978018"><ele>330.305929</ele><time>2023-11-18T03:34:11Z</time><extensions><speed>1.166693</speed><course>39.836123</course><hAcc>1.633280</hAcc><vAcc>0.832076</vAcc></extensions></trkpt>
      <trkpt lon="-117.324860" lat="33.978026"><ele>330.248639</ele><time>2023-11-18T03:34:12Z</time><extensions><speed>1.197520</speed><course>40.560124</course><hAcc>1.653509</hAcc><vAcc>0.832143</vAcc></extensions></trkpt>
      <trkpt lon="-117.324852" lat="33.978035"><ele>330.198287</ele><time>2023-11-18T03:34:13Z</time><extensions><speed>1.287648</speed><course>39.162286</course><hAcc>1.664482</hAcc><vAcc>0.832169</vAcc></extensions></trkpt>
      <trkpt lon="-117.324843" lat="33.978045"><ele>330.149819</ele><time>2023-11-18T03:34:14Z</time><extensions><speed>1.379423</speed><course>36.887769</course><hAcc>1.666239</hAcc><vAcc>0.832216</vAcc></extensions></trkpt>
      <trkpt lon="-117.324834" lat="33.978055"><ele>330.100155</ele><time>2023-11-18T03:34:15Z</time><extensions><speed>1.367264</speed><course>35.329103</course><hAcc>1.663479</hAcc><vAcc>0.832226</vAcc></extensions></trkpt>
      <trkpt lon="-117.324826" lat="33.978065"><ele>330.054093</ele><time>2023-11-18T03:34:16Z</time><extensions><speed>1.305743</speed><course>35.841480</course><hAcc>1.664874</hAcc><vAcc>0.832215</vAcc></extensions></trkpt>
      <trkpt lon="-117.324818" lat="33.978074"><ele>330.027319</ele><time>2023-11-18T03:34:17Z</time><extensions><speed>1.244286</speed><course>33.781031</course><hAcc>1.676983</hAcc><vAcc>0.832159</vAcc></extensions></trkpt>
      <trkpt lon="-117.324811" lat="33.978084"><ele>330.004397</ele><time>2023-11-18T03:34:18Z</time><extensions><speed>1.287730</speed><course>26.479999</course><hAcc>1.668464</hAcc><vAcc>0.832049</vAcc></extensions></trkpt>
      <trkpt lon="-117.324805" lat="33.978095"><ele>329.985974</ele><time>2023-11-18T03:34:19Z</time><extensions><speed>1.398473</speed><course>21.815161</course><hAcc>1.667779</hAcc><vAcc>0.831873</vAcc></extensions></trkpt>
      <trkpt lon="-117.324799" lat="33.978107"><ele>329.968660</ele><time>2023-11-18T03:34:20Z</time><extensions><speed>1.455253</speed><course>20.091778</course><hAcc>1.671642</hAcc><vAcc>0.831664</vAcc></extensions></trkpt>
      <trkpt lon="-117.324794" lat="33.978120"><ele>329.954251</ele><time>2023-11-18T03:34:21Z</time><extensions><speed>1.428978</speed><course>22.267113</course><hAcc>1.674352</hAcc><vAcc>0.831436</vAcc></extensions></trkpt>
      <trkpt lon="-117.324788" lat="33.978131"><ele>329.942586</ele><time>2023-11-18T03:34:22Z</time><extensions><speed>1.384633</speed><course>26.210573</course><hAcc>1.676724</hAcc><vAcc>0.831173</vAcc></extensions></trkpt>
      <trkpt lon="-117.324781" lat="33.978142"><ele>329.936520</ele><time>2023-11-18T03:34:23Z</time><extensions><speed>1.309301</speed><course>27.743080</course><hAcc>1.685518</hAcc><vAcc>0.830910</vAcc></extensions></trkpt>
      <trkpt lon="-117.324774" lat="33.978153"><ele>329.921580</ele><time>2023-11-18T03:34:24Z</time><extensions><speed>1.293753</speed><course>27.623970</course><hAcc>1.702001</hAcc><vAcc>0.830656</vAcc></extensions></trkpt>
      <trkpt lon="-117.324768" lat="33.978163"><ele>329.916078</ele><time>2023-11-18T03:34:25Z</time><extensions><speed>1.326509</speed><course>25.491428</course><hAcc>1.705859</hAcc><vAcc>0.830400</vAcc></extensions></trkpt>
      <trkpt lon="-117.324763" lat="33.978175"><ele>329.915940</ele><time>2023-11-18T03:34:26Z</time><extensions><speed>1.383575</speed><course>18.770541</course><hAcc>1.713147</hAcc><vAcc>0.830105</vAcc></extensions></trkpt>
      <trkpt lon="-117.324759" lat="33.978187"><ele>329.932701</ele><time>2023-11-18T03:34:27Z</time><extensions><speed>1.411705</speed><course>10.982709</course><hAcc>1.697069</hAcc><vAcc>0.829812</vAcc></extensions></trkpt>
      <trkpt lon="-117.324756" lat="33.978200"><ele>329.971795</ele><time>2023-11-18T03:34:28Z</time><extensions><speed>1.491099</speed><course>4.696233</course><hAcc>1.691433</hAcc><vAcc>0.829577</vAcc></extensions></trkpt>
      <trkpt lon="-117.324756" lat="33.978214"><ele>330.008876</ele><time>2023-11-18T03:34:29Z</time><extensions><speed>1.526721</speed><course>359.340853</course><hAcc>1.709014</hAcc><vAcc>0.829383</vAcc></extensions></trkpt>
      <trkpt lon="-117.324756" lat="33.978227"><ele>330.051296</ele><time>2023-11-18T03:34:30Z</time><extensions><speed>1.444345</speed><course>356.744405</course><hAcc>1.723175</hAcc><vAcc>0.829216</vAcc></extensions></trkpt>
      <trkpt lon="-117.324757" lat="33.978239"><ele>330.101525</ele><time>2023-11-18T03:34:31Z</time><extensions><speed>1.277974</speed><course>359.274848</course><hAcc>1.728585</hAcc><vAcc>0.829073</vAcc></extensions></trkpt>
      <trkpt lon="-117.324756" lat="33.978250"><ele>330.151997</ele><time>2023-11-18T03:34:32Z</time><extensions><speed>1.128515</speed><course>6.336962</course><hAcc>1.727942</hAcc><vAcc>0.828990</vAcc></extensions></trkpt>
      <trkpt lon="-117.324754" lat="33.978260"><ele>330.211826</ele><time>2023-11-18T03:34:33Z</time><extensions><speed>1.044878</speed><course>16.237861</course><hAcc>1.734236</hAcc><vAcc>0.828921</vAcc></extensions></trkpt>
      <trkpt lon="-117.324750" lat="33.978269"><ele>330.278143</ele><time>2023-11-18T03:34:34Z</time><extensions><speed>1.024227</speed><course>22.904617</course><hAcc>1.749891</hAcc><vAcc>0.828895</vAcc></extensions></trkpt>
      <trkpt lon="-117.324746" lat="33.978277"><ele>330.352857</ele><time>2023-11-18T03:34:35Z</time><extensions><speed>1.015897</speed><course>25.754313</course><hAcc>1.752850</hAcc><vAcc>0.828912</vAcc></extensions></trkpt>
      <trkpt lon="-117.324741" lat="33.978285"><ele>330.427384</ele><time>2023-11-18T03:34:36Z</time><extensions><speed>1.039657</speed><course>26.094843</course><hAcc>1.761966</hAcc><vAcc>0.828974</vAcc></extensions></trkpt>
      <trkpt lon="-117.324736" lat="33.978294"><ele>330.507366</ele><time>2023-11-18T03:34:37Z</time><extensions><speed>1.005666</speed><course>25.095084</course><hAcc>1.788173</hAcc><vAcc>0.829045</vAcc></extensions></trkpt>
      <trkpt lon="-117.324731" lat="33.978302"><ele>330.603754</ele><time>2023-11-18T03:34:38Z</time><extensions><speed>1.084062</speed><course>24.128512</course><hAcc>1.796455</hAcc><vAcc>0.829120</vAcc></extensions></trkpt>
      <trkpt lon="-117.324726" lat="33.978312"><ele>330.707116</ele><time>2023-11-18T03:34:39Z</time><extensions><speed>1.277283</speed><course>24.180092</course><hAcc>1.780714</hAcc><vAcc>0.829125</vAcc></extensions></trkpt>
      <trkpt lon="-117.324720" lat="33.978323"><ele>330.805916</ele><time>2023-11-18T03:34:40Z</time><extensions><speed>1.313890</speed><course>25.283621</course><hAcc>1.776231</hAcc><vAcc>0.829054</vAcc></extensions></trkpt>
      <trkpt lon="-117.324714" lat="33.978333"><ele>330.907217</ele><time>2023-11-18T03:34:41Z</time><extensions><speed>1.269333</speed><course>27.456962</course><hAcc>1.777066</hAcc><vAcc>0.828855</vAcc></extensions></trkpt>
      <trkpt lon="-117.324707" lat="33.978343"><ele>330.992660</ele><time>2023-11-18T03:34:42Z</time><extensions><speed>1.286783</speed><course>30.745788</course><hAcc>1.759863</hAcc><vAcc>0.828494</vAcc></extensions></trkpt>
      <trkpt lon="-117.324699" lat="33.978353"><ele>331.077154</ele><time>2023-11-18T03:34:43Z</time><extensions><speed>1.394247</speed><course>35.177408</course><hAcc>1.731896</hAcc><vAcc>0.827784</vAcc></extensions></trkpt>
      <trkpt lon="-117.324690" lat="33.978363"><ele>331.157821</ele><time>2023-11-18T03:34:44Z</time><extensions><speed>1.317643</speed><course>39.089377</course><hAcc>1.726250</hAcc><vAcc>0.826691</vAcc></extensions></trkpt>
      <trkpt lon="-117.324682" lat="33.978372"><ele>331.231140</ele><time>2023-11-18T03:34:45Z</time><extensions><speed>1.252572</speed><course>40.323260</course><hAcc>1.732401</hAcc><vAcc>0.825168</vAcc></extensions></trkpt>
      <trkpt lon="-117.324673" lat="33.978380"><ele>331.293863</ele><time>2023-11-18T03:34:46Z</time><extensions><speed>1.187684</speed><course>42.841226</course><hAcc>1.742560</hAcc><vAcc>0.823166</vAcc></extensions></trkpt>
      <trkpt lon="-117.324664" lat="33.978388"><ele>331.341003</ele><time>2023-11-18T03:34:47Z</time><extensions><speed>1.131683</speed><course>42.714659</course><hAcc>1.718227</hAcc><vAcc>0.820787</vAcc></extensions></trkpt>
      <trkpt lon="-117.324656" lat="33.978395"><ele>331.378076</ele><time>2023-11-18T03:34:48Z</time><extensions><speed>1.092562</speed><course>42.101109</course><hAcc>1.711757</hAcc><vAcc>0.817944</vAcc></extensions></trkpt>
      <trkpt lon="-117.324648" lat="33.978403"><ele>331.411267</ele><time>2023-11-18T03:34:49Z</time><extensions><speed>1.152475</speed><course>40.655698</course><hAcc>1.718099</hAcc><vAcc>0.814604</vAcc></extensions></trkpt>
      <trkpt lon="-117.324639" lat="33.978411"><ele>331.424920</ele><time>2023-11-18T03:34:50Z</time><extensions><speed>1.266568</speed><course>39.632550</course><hAcc>1.732953</hAcc><vAcc>0.810847</vAcc></extensions></trkpt>
      <trkpt lon="-117.324630" lat="33.978421"><ele>331.425866</ele><time>2023-11-18T03:34:51Z</time><extensions><speed>1.340275</speed><course>40.003175</course><hAcc>1.751253</hAcc><vAcc>0.806712</vAcc></extensions></trkpt>
      <trkpt lon="-117.324621" lat="33.978430"><ele>331.420817</ele><time>2023-11-18T03:34:52Z</time><extensions><speed>1.369135</speed><course>40.144933</course><hAcc>1.760886</hAcc><vAcc>0.802241</vAcc></extensions></trkpt>
      <trkpt lon="-117.324611" lat="33.978439"><ele>331.401304</ele><time>2023-11-18T03:34:53Z</time><extensions><speed>1.318959</speed><course>41.180615</course><hAcc>1.756247</hAcc><vAcc>0.797649</vAcc></extensions></trkpt>
      <trkpt lon="-117.324602" lat="33.978448"><ele>331.373429</ele><time>2023-11-18T03:34:54Z</time><extensions><speed>1.235386</speed><course>41.066931</course><hAcc>1.750853</hAcc><vAcc>0.793167</vAcc></extensions></trkpt>
      <trkpt lon="-117.324593" lat="33.978457"><ele>331.345506</ele><time>2023-11-18T03:34:55Z</time><extensions><speed>1.237717</speed><course>41.648591</course><hAcc>1.744549</hAcc><vAcc>0.788929</vAcc></extensions></trkpt>
      <trkpt lon="-117.324584" lat="33.978465"><ele>331.322272</ele><time>2023-11-18T03:34:56Z</time><extensions><speed>1.313936</speed><course>41.787315</course><hAcc>1.757109</hAcc><vAcc>0.785110</vAcc></extensions></trkpt>
      <trkpt lon="-117.324575" lat="33.978474"><ele>331.303733</ele><time>2023-11-18T03:34:57Z</time><extensions><speed>1.365477</speed><course>39.961632</course><hAcc>1.794131</hAcc><vAcc>0.781834</vAcc></extensions></trkpt>
      <trkpt lon="-117.324565" lat="33.978485"><ele>331.297051</ele><time>2023-11-18T03:34:58Z</time><extensions><speed>1.572255</speed><course>38.836447</course><hAcc>1.787591</hAcc><vAcc>0.779198</vAcc></extensions></trkpt>
      <trkpt lon="-117.324553" lat="33.978497"><ele>331.296387</ele><time>2023-11-18T03:34:59Z</time><extensions><speed>1.821728</speed><course>37.472792</course><hAcc>1.762253</hAcc><vAcc>0.777282</vAcc></extensions></trkpt>
      <trkpt lon="-117.324542" lat="33.978510"><ele>331.314114</ele><time>2023-11-18T03:35:00Z</time><extensions><speed>1.840255</speed><course>35.471099</course><hAcc>1.762296</hAcc><vAcc>0.776167</vAcc></extensions></trkpt>
      <trkpt lon="-117.324531" lat="33.978524"><ele>331.339151</ele><time>2023-11-18T03:35:01Z</time><extensions><speed>1.633307</speed><course>30.732133</course><hAcc>1.772356</hAcc><vAcc>0.775863</vAcc></extensions></trkpt>
      <trkpt lon="-117.324524" lat="33.978536"><ele>331.374645</ele><time>2023-11-18T03:35:02Z</time><extensions><speed>1.520787</speed><course>24.242874</course><hAcc>1.777716</hAcc><vAcc>0.776327</vAcc></extensions></trkpt>
      <trkpt lon="-117.324518" lat="33.978549"><ele>331.417992</ele><time>2023-11-18T03:35:03Z</time><extensions><speed>1.492018</speed><course>17.152959</course><hAcc>1.779094</hAcc><vAcc>0.777496</vAcc></extensions></trkpt>
      <trkpt lon="-117.324514" lat="33.978562"><ele>331.479237</ele><time>2023-11-18T03:35:04Z</time><extensions><speed>1.468193</speed><course>9.889294</course><hAcc>1.780766</hAcc><vAcc>0.779229</vAcc></extensions></trkpt>
      <trkpt lon="-117.324513" lat="33.978575"><ele>331.558078</ele><time>2023-11-18T03:35:05Z</time><extensions><speed>1.489194</speed><course>2.459855</course><hAcc>1.777642</hAcc><vAcc>0.781398</vAcc></extensions></trkpt>
      <trkpt lon="-117.324513" lat="33.978589"><ele>331.652011</ele><time>2023-11-18T03:35:06Z</time><extensions><speed>1.520047</speed><course>353.213275</course><hAcc>1.773159</hAcc><vAcc>0.783857</vAcc></extensions></trkpt>
      <trkpt lon="-117.324516" lat="33.978603"><ele>331.749942</ele><time>2023-11-18T03:35:07Z</time><extensions><speed>1.694700</speed><course>346.925444</course><hAcc>1.762872</hAcc><vAcc>0.786527</vAcc></extensions></trkpt>
      <trkpt lon="-117.324521" lat="33.978619"><ele>331.846362</ele><time>2023-11-18T03:35:08Z</time><extensions><speed>1.855524</speed><course>343.894026</course><hAcc>1.755243</hAcc><vAcc>0.789308</vAcc></extensions></trkpt>
      <trkpt lon="-117.324527" lat="33.978635"><ele>331.948344</ele><time>2023-11-18T03:35:09Z</time><extensions><speed>1.920740</speed><course>342.601870</course><hAcc>1.752299</hAcc><vAcc>0.792131</vAcc></extensions></trkpt>
      <trkpt lon="-117.324534" lat="33.978651"><ele>332.050220</ele><time>2023-11-18T03:35:10Z</time><extensions><speed>1.870165</speed><course>340.824690</course><hAcc>1.751991</hAcc><vAcc>0.794963</vAcc></extensions></trkpt>
      <trkpt lon="-117.324540" lat="33.978667"><ele>332.147851</ele><time>2023-11-18T03:35:11Z</time><extensions><speed>1.830155</speed><course>338.864712</course><hAcc>1.745074</hAcc><vAcc>0.797756</vAcc></extensions></trkpt>
      <trkpt lon="-117.324547" lat="33.978682"><ele>332.248520</ele><time>2023-11-18T03:35:12Z</time><extensions><speed>1.724975</speed><course>337.892599</course><hAcc>1.736458</hAcc><vAcc>0.800519</vAcc></extensions></trkpt>
      <trkpt lon="-117.324554" lat="33.978696"><ele>332.339977</ele><time>2023-11-18T03:35:13Z</time><extensions><speed>1.567077</speed><course>336.809132</course><hAcc>1.728951</hAcc><vAcc>0.803224</vAcc></extensions></trkpt>
      <trkpt lon="-117.324560" lat="33.978708"><ele>332.423348</ele><time>2023-11-18T03:35:14Z</time><extensions><speed>1.340060</speed><course>334.517498</course><hAcc>1.719397</hAcc><vAcc>0.805862</vAcc></extensions></trkpt>
      <trkpt lon="-117.324566" lat="33.978718"><ele>332.500171</ele><time>2023-11-18T03:35:15Z</time><extensions><speed>1.138242</speed><course>335.684161</course><hAcc>1.703128</hAcc><vAcc>0.808425</vAcc></extensions></trkpt>
      <trkpt lon="-117.324570" lat="33.978727"><ele>332.568691</ele><time>2023-11-18T03:35:16Z</time><extensions><speed>1.043554</speed><course>339.588903</course><hAcc>1.687847</hAcc><vAcc>0.810888</vAcc></extensions></trkpt>
      <trkpt lon="-117.324573" lat="33.978736"><ele>332.628262</ele><time>2023-11-18T03:35:17Z</time><extensions><speed>0.991979</speed><course>347.376041</course><hAcc>1.683448</hAcc><vAcc>0.813264</vAcc></extensions></trkpt>
      <trkpt lon="-117.324574" lat="33.978745"><ele>332.671840</ele><time>2023-11-18T03:35:18Z</time><extensions><speed>1.047101</speed><course>356.656764</course><hAcc>1.679550</hAcc><vAcc>0.815563</vAcc></extensions></trkpt>
      <trkpt lon="-117.324573" lat="33.978755"><ele>332.707185</ele><time>2023-11-18T03:35:19Z</time><extensions><speed>1.177552</speed><course>7.743786</course><hAcc>1.647169</hAcc><vAcc>0.817727</vAcc></extensions></trkpt>
      <trkpt lon="-117.324570" lat="33.978766"><ele>332.727613</ele><time>2023-11-18T03:35:20Z</time><extensions><speed>1.358487</speed><course>16.411475</course><hAcc>1.607309</hAcc><vAcc>0.819759</vAcc></extensions></trkpt>
      <trkpt lon="-117.324564" lat="33.978778"><ele>332.739700</ele><time>2023-11-18T03:35:21Z</time><extensions><speed>1.536985</speed><course>20.005744</course><hAcc>1.582552</hAcc><vAcc>0.821614</vAcc></extensions></trkpt>
      <trkpt lon="-117.324559" lat="33.978792"><ele>332.740049</ele><time>2023-11-18T03:35:22Z</time><extensions><speed>1.611150</speed><course>18.086701</course><hAcc>1.592334</hAcc><vAcc>0.823271</vAcc></extensions></trkpt>
      <trkpt lon="-117.324554" lat="33.978805"><ele>332.727212</ele><time>2023-11-18T03:35:23Z</time><extensions><speed>1.551956</speed><course>14.324496</course><hAcc>1.622631</hAcc><vAcc>0.824767</vAcc></extensions></trkpt>
      <trkpt lon="-117.324548" lat="33.978818"><ele>332.721422</ele><time>2023-11-18T03:35:24Z</time><extensions><speed>1.512636</speed><course>20.942468</course><hAcc>1.615603</hAcc><vAcc>0.826063</vAcc></extensions></trkpt>
      <trkpt lon="-117.324541" lat="33.978830"><ele>332.718417</ele><time>2023-11-18T03:35:25Z</time><extensions><speed>1.424172</speed><course>34.037008</course><hAcc>1.577922</hAcc><vAcc>0.827200</vAcc></extensions></trkpt>
      <trkpt lon="-117.324532" lat="33.978840"><ele>332.714354</ele><time>2023-11-18T03:35:26Z</time><extensions><speed>1.279454</speed><course>44.262417</course><hAcc>1.564894</hAcc><vAcc>0.828169</vAcc></extensions></trkpt>
      <trkpt lon="-117.324522" lat="33.978848"><ele>332.707481</ele><time>2023-11-18T03:35:27Z</time><extensions><speed>1.235940</speed><course>42.132029</course><hAcc>1.586096</hAcc><vAcc>0.828952</vAcc></extensions></trkpt>
      <trkpt lon="-117.324514" lat="33.978857"><ele>332.714639</ele><time>2023-11-18T03:35:28Z</time><extensions><speed>1.295993</speed><course>30.025276</course><hAcc>1.620932</hAcc><vAcc>0.829620</vAcc></extensions></trkpt>
      <trkpt lon="-117.324507" lat="33.978868"><ele>332.723270</ele><time>2023-11-18T03:35:29Z</time><extensions><speed>1.351927</speed><course>28.711328</course><hAcc>1.626704</hAcc><vAcc>0.830142</vAcc></extensions></trkpt>
      <trkpt lon="-117.324500" lat="33.978878"><ele>332.745919</ele><time>2023-11-18T03:35:30Z</time><extensions><speed>1.281115</speed><course>26.250489</course><hAcc>1.650705</hAcc><vAcc>0.830560</vAcc></extensions></trkpt>
      <trkpt lon="-117.324493" lat="33.978888"><ele>332.779198</ele><time>2023-11-18T03:35:31Z</time><extensions><speed>1.240327</speed><course>35.844046</course><hAcc>1.636999</hAcc><vAcc>0.830882</vAcc></extensions></trkpt>
      <trkpt lon="-117.324484" lat="33.978897"><ele>332.824394</ele><time>2023-11-18T03:35:32Z</time><extensions><speed>1.255114</speed><course>43.880947</course><hAcc>1.624247</hAcc><vAcc>0.831122</vAcc></extensions></trkpt>
      <trkpt lon="-117.324474" lat="33.978906"><ele>332.883893</ele><time>2023-11-18T03:35:33Z</time><extensions><speed>1.363857</speed><course>45.939984</course><hAcc>1.614260</hAcc><vAcc>0.831255</vAcc></extensions></trkpt>
      <trkpt lon="-117.324463" lat="33.978915"><ele>332.957290</ele><time>2023-11-18T03:35:34Z</time><extensions><speed>1.503349</speed><course>43.093163</course><hAcc>1.622615</hAcc><vAcc>0.831286</vAcc></extensions></trkpt>
      <trkpt lon="-117.324451" lat="33.978926"><ele>333.043073</ele><time>2023-11-18T03:35:35Z</time><extensions><speed>1.561527</speed><course>39.537060</course><hAcc>1.642975</hAcc><vAcc>0.831230</vAcc></extensions></trkpt>
      <trkpt lon="-117.324440" lat="33.978937"><ele>333.150517</ele><time>2023-11-18T03:35:36Z</time><extensions><speed>1.579691</speed><course>39.658488</course><hAcc>1.634832</hAcc><vAcc>0.831081</vAcc></extensions></trkpt>
      <trkpt lon="-117.324429" lat="33.978948"><ele>333.268754</ele><time>2023-11-18T03:35:37Z</time><extensions><speed>1.713880</speed><course>41.882793</course><hAcc>1.595690</hAcc><vAcc>0.830801</vAcc></extensions></trkpt>
      <trkpt lon="-117.324416" lat="33.978959"><ele>333.399412</ele><time>2023-11-18T03:35:38Z</time><extensions><speed>1.645937</speed><course>43.048174</course><hAcc>1.582127</hAcc><vAcc>0.830337</vAcc></extensions></trkpt>
      <trkpt lon="-117.324403" lat="33.978970"><ele>333.525796</ele><time>2023-11-18T03:35:39Z</time><extensions><speed>1.708233</speed><course>46.244263</course><hAcc>1.562732</hAcc><vAcc>0.829670</vAcc></extensions></trkpt>
      <trkpt lon="-117.324391" lat="33.978980"><ele>333.659509</ele><time>2023-11-18T03:35:40Z</time><extensions><speed>1.476922</speed><course>49.271145</course><hAcc>1.590396</hAcc><vAcc>0.828749</vAcc></extensions></trkpt>
      <trkpt lon="-117.324380" lat="33.978988"><ele>333.798829</ele><time>2023-11-18T03:35:41Z</time><extensions><speed>1.184131</speed><course>47.843406</course><hAcc>1.621729</hAcc><vAcc>0.827685</vAcc></extensions></trkpt>
      <trkpt lon="-117.324372" lat="33.978994"><ele>333.935838</ele><time>2023-11-18T03:35:42Z</time><extensions><speed>0.862280</speed><course>40.565104</course><hAcc>1.635903</hAcc><vAcc>0.826397</vAcc></extensions></trkpt>
      <trkpt lon="-117.324365" lat="33.979001"><ele>334.064543</ele><time>2023-11-18T03:35:43Z</time><extensions><speed>1.061712</speed><course>42.762614</course><hAcc>1.594343</hAcc><vAcc>0.824771</vAcc></extensions></trkpt>
      <trkpt lon="-117.324357" lat="33.979007"><ele>334.190386</ele><time>2023-11-18T03:35:44Z</time><extensions><speed>1.116669</speed><course>48.042558</course><hAcc>1.613826</hAcc><vAcc>0.822578</vAcc></extensions></trkpt>
      <trkpt lon="-117.324347" lat="33.979014"><ele>334.304129</ele><time>2023-11-18T03:35:45Z</time><extensions><speed>1.176309</speed><course>50.505013</course><hAcc>1.662992</hAcc><vAcc>0.819401</vAcc></extensions></trkpt>
      <trkpt lon="-117.324338" lat="33.979020"><ele>334.404508</ele><time>2023-11-18T03:35:46Z</time><extensions><speed>1.138758</speed><course>53.596796</course><hAcc>1.706380</hAcc><vAcc>0.815073</vAcc></extensions></trkpt>
      <trkpt lon="-117.324328" lat="33.979026"><ele>334.495686</ele><time>2023-11-18T03:35:47Z</time><extensions><speed>0.948534</speed><course>57.285922</course><hAcc>1.735199</hAcc><vAcc>0.810122</vAcc></extensions></trkpt>
      <trkpt lon="-117.324321" lat="33.979030"><ele>334.562360</ele><time>2023-11-18T03:35:48Z</time><extensions><speed>0.721046</speed><course>60.644922</course><hAcc>1.751105</hAcc><vAcc>0.803819</vAcc></extensions></trkpt>
      <trkpt lon="-117.324315" lat="33.979032"><ele>334.609307</ele><time>2023-11-18T03:35:49Z</time><extensions><speed>0.536571</speed><course>62.129292</course><hAcc>1.761895</hAcc><vAcc>0.794593</vAcc></extensions></trkpt>
      <trkpt lon="-117.324310" lat="33.979035"><ele>334.645561</ele><time>2023-11-18T03:35:50Z</time><extensions><speed>0.492531</speed><course>57.509099</course><hAcc>1.783112</hAcc><vAcc>0.783785</vAcc></extensions></trkpt>
      <trkpt lon="-117.324307" lat="33.979037"><ele>334.671565</ele><time>2023-11-18T03:35:51Z</time><extensions><speed>0.350011</speed><course>45.451354</course><hAcc>1.814669</hAcc><vAcc>0.770404</vAcc></extensions></trkpt>
      <trkpt lon="-117.324305" lat="33.979039"><ele>334.687616</ele><time>2023-11-18T03:35:52Z</time><extensions><speed>0.119177</speed><course>41.500475</course><hAcc>1.834231</hAcc><vAcc>0.754433</vAcc></extensions></trkpt>
      <trkpt lon="-117.324305" lat="33.979038"><ele>334.691911</ele><time>2023-11-18T03:35:53Z</time><extensions><speed>0.219340</speed><course>220.447882</course><hAcc>1.841423</hAcc><vAcc>0.735243</vAcc></extensions></trkpt>
      <trkpt lon="-117.324307" lat="33.979036"><ele>334.681576</ele><time>2023-11-18T03:35:54Z</time><extensions><speed>0.433205</speed><course>214.806856</course><hAcc>1.873174</hAcc><vAcc>0.712756</vAcc></extensions></trkpt>
      <trkpt lon="-117.324310" lat="33.979032"><ele>334.659451</ele><time>2023-11-18T03:35:55Z</time><extensions><speed>0.537526</speed><course>204.889788</course><hAcc>1.908101</hAcc><vAcc>0.687105</vAcc></extensions></trkpt>
      <trkpt lon="-117.324312" lat="33.979027"><ele>334.629364</ele><time>2023-11-18T03:35:56Z</time><extensions><speed>0.593226</speed><course>189.516516</course><hAcc>1.934279</hAcc><vAcc>0.658910</vAcc></extensions></trkpt>
      <trkpt lon="-117.324311" lat="33.979022"><ele>334.580194</ele><time>2023-11-18T03:35:57Z</time><extensions><speed>0.640465</speed><course>169.036415</course><hAcc>1.960242</hAcc><vAcc>0.628558</vAcc></extensions></trkpt>
      <trkpt lon="-117.324308" lat="33.979016"><ele>334.540881</ele><time>2023-11-18T03:35:58Z</time><extensions><speed>0.743449</speed><course>141.626673</course><hAcc>1.985946</hAcc><vAcc>0.596867</vAcc></extensions></trkpt>
      <trkpt lon="-117.324301" lat="33.979011"><ele>334.509193</ele><time>2023-11-18T03:35:59Z</time><extensions><speed>1.002408</speed><course>121.251425</course><hAcc>2.010837</hAcc><vAcc>0.565087</vAcc></extensions></trkpt>
      <trkpt lon="-117.324290" lat="33.979007"><ele>334.494050</ele><time>2023-11-18T03:36:00Z</time><extensions><speed>1.327205</speed><course>107.693390</course><hAcc>2.050806</hAcc><vAcc>0.534648</vAcc></extensions></trkpt>
      <trkpt lon="-117.324275" lat="33.979004"><ele>334.481057</ele><time>2023-11-18T03:36:01Z</time><extensions><speed>1.423228</speed><course>98.959725</course><hAcc>2.127577</hAcc><vAcc>0.507057</vAcc></extensions></trkpt>
      <trkpt lon="-117.324261" lat="33.979003"><ele>334.474205</ele><time>2023-11-18T03:36:02Z</time><extensions><speed>1.312534</speed><course>88.478239</course><hAcc>2.221333</hAcc><vAcc>0.482721</vAcc></extensions></trkpt>
      <trkpt lon="-117.324246" lat="33.979005"><ele>334.502214</ele><time>2023-11-18T03:36:03Z</time><extensions><speed>1.336842</speed><course>77.355172</course><hAcc>2.219248</hAcc><vAcc>0.463426</vAcc></extensions></trkpt>
      <trkpt lon="-117.324232" lat="33.979009"><ele>334.547138</ele><time>2023-11-18T03:36:04Z</time><extensions><speed>1.445637</speed><course>66.123640</course><hAcc>2.258227</hAcc><vAcc>0.445886</vAcc></extensions></trkpt>
      <trkpt lon="-117.324218" lat="33.979015"><ele>334.609962</ele><time>2023-11-18T03:36:05Z</time><extensions><speed>1.522272</speed><course>61.468054</course><hAcc>2.385226</hAcc><vAcc>0.430294</vAcc></extensions></trkpt>
      <trkpt lon="-117.324203" lat="33.979022"><ele>334.690401</ele><time>2023-11-18T03:36:06Z</time><extensions><speed>1.581181</speed><course>59.590393</course><hAcc>2.617282</hAcc><vAcc>0.417766</vAcc></extensions></trkpt>
      <trkpt lon="-117.324188" lat="33.979029"><ele>334.786518</ele><time>2023-11-18T03:36:07Z</time><extensions><speed>1.633753</speed><course>58.804651</course><hAcc>2.960176</hAcc><vAcc>0.410477</vAcc></extensions></trkpt>
      <trkpt lon="-117.324173" lat="33.979037"><ele>334.895155</ele><time>2023-11-18T03:36:08Z</time><extensions><speed>1.674309</speed><course>58.741003</course><hAcc>3.421650</hAcc><vAcc>0.412365</vAcc></extensions></trkpt>
      <trkpt lon="-117.324157" lat="33.979045"><ele>335.013286</ele><time>2023-11-18T03:36:09Z</time><extensions><speed>1.692761</speed><course>58.884193</course><hAcc>4.031831</hAcc><vAcc>0.429885</vAcc></extensions></trkpt>
      <trkpt lon="-117.324141" lat="33.979053"><ele>335.145743</ele><time>2023-11-18T03:36:10Z</time><extensions><speed>1.695433</speed><course>59.018342</course><hAcc>4.894116</hAcc><vAcc>0.474112</vAcc></extensions></trkpt>
      <trkpt lon="-117.324125" lat="33.979061"><ele>335.275903</ele><time>2023-11-18T03:36:11Z</time><extensions><speed>1.692621</speed><course>59.142137</course><hAcc>5.993728</hAcc><vAcc>0.548682</vAcc></extensions></trkpt>
      <trkpt lon="-117.324109" lat="33.979069"><ele>335.408593</ele><time>2023-11-18T03:36:12Z</time><extensions><speed>1.689872</speed><course>59.207886</course><hAcc>7.437708</hAcc><vAcc>0.659987</vAcc></extensions></trkpt>
      <trkpt lon="-117.323452" lat="33.979054"><ele>340.195829</ele><time>2023-11-18T03:37:18Z</time><extensions><speed>1.388027</speed><course>253.831032</course><hAcc>11.343570</hAcc><vAcc>0.909162</vAcc></extensions></trkpt>
      <trkpt lon="-117.323468" lat="33.979050"><ele>339.976840</ele><time>2023-11-18T03:37:19Z</time><extensions><speed>1.628642</speed><course>252.684689</course><hAcc>9.802571</hAcc><vAcc>0.749571</vAcc></extensions></trkpt>
      <trkpt lon="-117.323488" lat="33.979044"><ele>339.726969</ele><time>2023-11-18T03:37:20Z</time><extensions><speed>1.794398</speed><course>251.848357</course><hAcc>8.639646</hAcc><vAcc>0.628444</vAcc></extensions></trkpt>
      <trkpt lon="-117.323517" lat="33.979036"><ele>339.490396</ele><time>2023-11-18T03:37:21Z</time><extensions><speed>2.299985</speed><course>250.219308</course><hAcc>7.791775</hAcc><vAcc>0.541913</vAcc></extensions></trkpt>
      <trkpt lon="-117.323554" lat="33.979023"><ele>339.259457</ele><time>2023-11-18T03:37:22Z</time><extensions><speed>2.894836</speed><course>248.230041</course><hAcc>7.169557</hAcc><vAcc>0.483822</vAcc></extensions></trkpt>
      <trkpt lon="-117.323594" lat="33.979010"><ele>339.043577</ele><time>2023-11-18T03:37:23Z</time><extensions><speed>3.327218</speed><course>247.034359</course><hAcc>6.685588</hAcc><vAcc>0.447960</vAcc></extensions></trkpt>
      <trkpt lon="-117.323634" lat="33.978996"><ele>338.839218</ele><time>2023-11-18T03:37:24Z</time><extensions><speed>3.706522</speed><course>245.872549</course><hAcc>6.311310</hAcc><vAcc>0.427543</vAcc></extensions></trkpt>
      <trkpt lon="-117.323675" lat="33.978981"><ele>338.631822</ele><time>2023-11-18T03:37:25Z</time><extensions><speed>4.135271</speed><course>244.774139</course><hAcc>6.004583</hAcc><vAcc>0.416347</vAcc></extensions></trkpt>
      <trkpt lon="-117.323719" lat="33.978963"><ele>338.416832</ele><time>2023-11-18T03:37:26Z</time><extensions><speed>4.470585</speed><course>243.804943</course><hAcc>5.728651</hAcc><vAcc>0.410033</vAcc></extensions></trkpt>
      <trkpt lon="-117.323764" lat="33.978945"><ele>338.197867</ele><time>2023-11-18T03:37:27Z</time><extensions><speed>4.651536</speed><course>242.802423</course><hAcc>5.453793</hAcc><vAcc>0.405927</vAcc></extensions></trkpt>
      <trkpt lon="-117.323809" lat="33.978925"><ele>337.983821</ele><time>2023-11-18T03:37:28Z</time><extensions><speed>4.631800</speed><course>241.485072</course><hAcc>5.158627</hAcc><vAcc>0.402673</vAcc></extensions></trkpt>
      <trkpt lon="-117.323852" lat="33.978905"><ele>337.770889</ele><time>2023-11-18T03:37:29Z</time><extensions><speed>4.368048</speed><course>239.503624</course><hAcc>4.834952</hAcc><vAcc>0.399613</vAcc></extensions></trkpt>
      <trkpt lon="-117.323890" lat="33.978886"><ele>337.556750</ele><time>2023-11-18T03:37:30Z</time><extensions><speed>3.825606</speed><course>236.242280</course><hAcc>4.496847</hAcc><vAcc>0.396542</vAcc></extensions></trkpt>
      <trkpt lon="-117.323920" lat="33.978867"><ele>337.339729</ele><time>2023-11-18T03:37:31Z</time><extensions><speed>3.042576</speed><course>230.004622</course><hAcc>4.177186</hAcc><vAcc>0.393514</vAcc></extensions></trkpt>
      <trkpt lon="-117.323940" lat="33.978850"><ele>337.130220</ele><time>2023-11-18T03:37:32Z</time><extensions><speed>2.225517</speed><course>216.550596</course><hAcc>3.926285</hAcc><vAcc>0.390622</vAcc></extensions></trkpt>
      <trkpt lon="-117.323949" lat="33.978835"><ele>336.926395</ele><time>2023-11-18T03:37:33Z</time><extensions><speed>1.706522</speed><course>191.716734</course><hAcc>3.797120</hAcc><vAcc>0.387943</vAcc></extensions></trkpt>
      <trkpt lon="-117.323949" lat="33.978820"><ele>336.729263</ele><time>2023-11-18T03:37:34Z</time><extensions><speed>1.678000</speed><course>166.803838</course><hAcc>3.807096</hAcc><vAcc>0.385542</vAcc></extensions></trkpt>
      <trkpt lon="-117.323942" lat="33.978805"><ele>336.548321</ele><time>2023-11-18T03:37:35Z</time><extensions><speed>1.842123</speed><course>150.522802</course><hAcc>3.947454</hAcc><vAcc>0.383515</vAcc></extensions></trkpt>
      <trkpt lon="-117.323929" lat="33.978791"><ele>336.391837</ele><time>2023-11-18T03:37:36Z</time><extensions><speed>2.056998</speed><course>140.789794</course><hAcc>4.201097</hAcc><vAcc>0.381852</vAcc></extensions></trkpt>
      <trkpt lon="-117.323914" lat="33.978776"><ele>336.262463</ele><time>2023-11-18T03:37:37Z</time><extensions><speed>2.252023</speed><course>134.882783</course><hAcc>4.544383</hAcc><vAcc>0.380490</vAcc></extensions></trkpt>
      <trkpt lon="-117.323896" lat="33.978764"><ele>336.148117</ele><time>2023-11-18T03:37:38Z</time><extensions><speed>2.286380</speed><course>128.504978</course><hAcc>4.966270</hAcc><vAcc>0.379127</vAcc></extensions></trkpt>
      <trkpt lon="-117.323876" lat="33.978753"><ele>336.058645</ele><time>2023-11-18T03:37:39Z</time><extensions><speed>2.253444</speed><course>122.245345</course><hAcc>5.443266</hAcc><vAcc>0.378427</vAcc></extensions></trkpt>
      <trkpt lon="-117.323856" lat="33.978745"><ele>335.994797</ele><time>2023-11-18T03:37:40Z</time><extensions><speed>2.149158</speed><course>115.514349</course><hAcc>5.957309</hAcc><vAcc>0.378003</vAcc></extensions></trkpt>
      <trkpt lon="-117.323837" lat="33.978739"><ele>335.945719</ele><time>2023-11-18T03:37:41Z</time><extensions><speed>1.990912</speed><course>107.860316</course><hAcc>6.499079</hAcc><vAcc>0.378995</vAcc></extensions></trkpt>
      <trkpt lon="-117.323818" lat="33.978737"><ele>335.916950</ele><time>2023-11-18T03:37:42Z</time><extensions><speed>1.806269</speed><course>97.669945</course><hAcc>7.049164</hAcc><vAcc>0.383417</vAcc></extensions></trkpt>
      <trkpt lon="-117.323802" lat="33.978738"><ele>335.909267</ele><time>2023-11-18T03:37:43Z</time><extensions><speed>1.637658</speed><course>83.552769</course><hAcc>7.585827</hAcc><vAcc>0.394066</vAcc></extensions></trkpt>
      <trkpt lon="-117.323789" lat="33.978743"><ele>335.918051</ele><time>2023-11-18T03:37:44Z</time><extensions><speed>1.544149</speed><course>65.294583</course><hAcc>8.078579</hAcc><vAcc>0.413932</vAcc></extensions></trkpt>
      <trkpt lon="-117.323778" lat="33.978753"><ele>335.945274</ele><time>2023-11-18T03:37:45Z</time><extensions><speed>1.618222</speed><course>45.295077</course><hAcc>8.482511</hAcc><vAcc>0.445538</vAcc></extensions></trkpt>
      <trkpt lon="-117.323771" lat="33.978767"><ele>335.983577</ele><time>2023-11-18T03:37:46Z</time><extensions><speed>1.865246</speed><course>27.318786</course><hAcc>8.743638</hAcc><vAcc>0.490241</vAcc></extensions></trkpt>
      <trkpt lon="-117.323769" lat="33.978786"><ele>336.041164</ele><time>2023-11-18T03:37:47Z</time><extensions><speed>2.270038</speed><course>12.746918</course><hAcc>8.802913</hAcc><vAcc>0.548281</vAcc></extensions></trkpt>
      <trkpt lon="-117.323660" lat="33.979006"><ele>337.458469</ele><time>2023-11-18T03:38:02Z</time><extensions><speed>1.413092</speed><course>45.398497</course><hAcc>11.873219</hAcc><vAcc>0.582453</vAcc></extensions></trkpt>
      <trkpt lon="-117.323661" lat="33.979018"><ele>337.595812</ele><time>2023-11-18T03:38:03Z</time><extensions><speed>1.325211</speed><course>45.496091</course><hAcc>11.557355</hAcc><vAcc>0.522830</vAcc></extensions></trkpt>
      <trkpt lon="-117.323660" lat="33.979029"><ele>337.710500</ele><time>2023-11-18T03:38:04Z</time><extensions><speed>1.221305</speed><course>39.598634</course><hAcc>11.223062</hAcc><vAcc>0.475789</vAcc></extensions></trkpt>
      <trkpt lon="-117.323662" lat="33.979041"><ele>337.797550</ele><time>2023-11-18T03:38:05Z</time><extensions><speed>1.106093</speed><course>28.826374</course><hAcc>10.887361</hAcc><vAcc>0.441188</vAcc></extensions></trkpt>
      <trkpt lon="-117.323666" lat="33.979054"><ele>337.865271</ele><time>2023-11-18T03:38:06Z</time><extensions><speed>1.049863</speed><course>12.127657</course><hAcc>10.549342</hAcc><vAcc>0.417570</vAcc></extensions></trkpt>
      <trkpt lon="-117.323675" lat="33.979067"><ele>337.910233</ele><time>2023-11-18T03:38:07Z</time><extensions><speed>1.096928</speed><course>353.130376</course><hAcc>10.232622</hAcc><vAcc>0.402358</vAcc></extensions></trkpt>
      <trkpt lon="-117.323683" lat="33.979080"><ele>337.933659</ele><time>2023-11-18T03:38:08Z</time><extensions><speed>1.246657</speed><course>339.148076</course><hAcc>9.962143</hAcc><vAcc>0.393356</vAcc></extensions></trkpt>
      <trkpt lon="-117.323695" lat="33.979093"><ele>337.935073</ele><time>2023-11-18T03:38:09Z</time><extensions><speed>1.433841</speed><course>328.335781</course><hAcc>9.749387</hAcc><vAcc>0.388577</vAcc></extensions></trkpt>
      <trkpt lon="-117.323710" lat="33.979105"><ele>337.915774</ele><time>2023-11-18T03:38:10Z</time><extensions><speed>1.628644</speed><course>320.375656</course><hAcc>9.602590</hAcc><vAcc>0.386433</vAcc></extensions></trkpt>
      <trkpt lon="-117.323722" lat="33.979117"><ele>337.880155</ele><time>2023-11-18T03:38:11Z</time><extensions><speed>1.742571</speed><course>316.345101</course><hAcc>9.598810</hAcc><vAcc>0.386656</vAcc></extensions></trkpt>
      <trkpt lon="-117.323736" lat="33.979128"><ele>337.829222</ele><time>2023-11-18T03:38:12Z</time><extensions><speed>1.811274</speed><course>313.733356</course><hAcc>9.691572</hAcc><vAcc>0.387698</vAcc></extensions></trkpt>
      <trkpt lon="-117.323750" lat="33.979139"><ele>337.766725</ele><time>2023-11-18T03:38:13Z</time><extensions><speed>1.875431</speed><course>312.366743</course><hAcc>9.882702</hAcc><vAcc>0.389677</vAcc></extensions></trkpt>
      <trkpt lon="-117.323766" lat="33.979151"><ele>337.695968</ele><time>2023-11-18T03:38:14Z</time><extensions><speed>1.938894</speed><course>312.020704</course><hAcc>10.190734</hAcc><vAcc>0.393640</vAcc></extensions></trkpt>
      <trkpt lon="-117.323781" lat="33.979163"><ele>337.620630</ele><time>2023-11-18T03:38:15Z</time><extensions><speed>1.993298</speed><course>312.383412</course><hAcc>10.651764</hAcc><vAcc>0.401982</vAcc></extensions></trkpt>
      <trkpt lon="-117.323797" lat="33.979175"><ele>337.542704</ele><time>2023-11-18T03:38:16Z</time><extensions><speed>1.997654</speed><course>312.710674</course><hAcc>11.317579</hAcc><vAcc>0.419094</vAcc></extensions></trkpt>
      <trkpt lon="-117.323813" lat="33.979187"><ele>337.464543</ele><time>2023-11-18T03:38:17Z</time><extensions><speed>1.962258</speed><course>313.248788</course><hAcc>12.224112</hAcc><vAcc>0.451330</vAcc></extensions></trkpt>
      <trkpt lon="-117.323828" lat="33.979199"><ele>337.387244</ele><time>2023-11-18T03:38:18Z</time><extensions><speed>1.906612</speed><course>313.829410</course><hAcc>13.402671</hAcc><vAcc>0.506422</vAcc></extensions></trkpt>
      <trkpt lon="-117.323843" lat="33.979211"><ele>337.310984</ele><time>2023-11-18T03:38:19Z</time><extensions><speed>1.848951</speed><course>314.168558</course><hAcc>14.879961</hAcc><vAcc>0.591288</vAcc></extensions></trkpt>
      <trkpt lon="-117.323857" lat="33.979222"><ele>337.235789</ele><time>2023-11-18T03:38:20Z</time><extensions><speed>1.808908</speed><course>314.425931</course><hAcc>16.669716</hAcc><vAcc>0.709066</vAcc></extensions></trkpt>
      <trkpt lon="-117.324318" lat="33.978814"><ele>332.696443</ele><time>2023-11-18T03:38:47Z</time><extensions><speed>0.008962</speed><course>158.411359</course><hAcc>13.662173</hAcc><vAcc>0.784656</vAcc></extensions></trkpt>
      <trkpt lon="-117.324332" lat="33.978805"><ele>332.804510</ele><time>2023-11-18T03:38:48Z</time><extensions><speed>0.015547</speed><course>183.331508</course><hAcc>12.902781</hAcc><vAcc>0.650924</vAcc></extensions></trkpt>
      <trkpt lon="-117.324344" lat="33.978797"><ele>332.868941</ele><time>2023-11-18T03:38:49Z</time><extensions><speed>0.026888</speed><course>183.213665</course><hAcc>12.233797</hAcc><vAcc>0.554550</vAcc></extensions></trkpt>
      <trkpt lon="-117.324354" lat="33.978790"><ele>332.905230</ele><time>2023-11-18T03:38:50Z</time><extensions><speed>0.047801</speed><course>208.332888</course><hAcc>11.636340</hAcc><vAcc>0.491070</vAcc></extensions></trkpt>
      <trkpt lon="-117.324363" lat="33.978785"><ele>332.922900</ele><time>2023-11-18T03:38:51Z</time><extensions><speed>0.073947</speed><course>224.235539</course><hAcc>11.122977</hAcc><vAcc>0.452625</vAcc></extensions></trkpt>
      <trkpt lon="-117.324371" lat="33.978780"><ele>332.925103</ele><time>2023-11-18T03:38:52Z</time><extensions><speed>0.094886</speed><course>229.184119</course><hAcc>10.678368</hAcc><vAcc>0.431257</vAcc></extensions></trkpt>
      <trkpt lon="-117.324378" lat="33.978775"><ele>332.912286</ele><time>2023-11-18T03:38:53Z</time><extensions><speed>0.116050</speed><course>231.147825</course><hAcc>10.282542</hAcc><vAcc>0.419911</vAcc></extensions></trkpt>
      <trkpt lon="-117.324385" lat="33.978771"><ele>332.884486</ele><time>2023-11-18T03:38:54Z</time><extensions><speed>0.133815</speed><course>231.964155</course><hAcc>9.926987</hAcc><vAcc>0.413563</vAcc></extensions></trkpt>
      <trkpt lon="-117.324391" lat="33.978767"><ele>332.842295</ele><time>2023-11-18T03:38:55Z</time><extensions><speed>0.150310</speed><course>232.256589</course><hAcc>9.605758</hAcc><vAcc>0.409209</vAcc></extensions></trkpt>
      <trkpt lon="-117.324396" lat="33.978764"><ele>332.787220</ele><time>2023-11-18T03:38:56Z</time><extensions><speed>0.170619</speed><course>232.214067</course><hAcc>9.308614</hAcc><vAcc>0.405292</vAcc></extensions></trkpt>
      <trkpt lon="-117.324402" lat="33.978760"><ele>332.722027</ele><time>2023-11-18T03:38:57Z</time><extensions><speed>0.194064</speed><course>231.845278</course><hAcc>9.028179</hAcc><vAcc>0.401106</vAcc></extensions></trkpt>
      <trkpt lon="-117.324407" lat="33.978757"><ele>332.651128</ele><time>2023-11-18T03:38:58Z</time><extensions><speed>0.220550</speed><course>231.017734</course><hAcc>8.761635</hAcc><vAcc>0.396271</vAcc></extensions></trkpt>
      <trkpt lon="-117.324412" lat="33.978754"><ele>332.581104</ele><time>2023-11-18T03:38:59Z</time><extensions><speed>0.225871</speed><course>231.987861</course><hAcc>8.523540</hAcc><vAcc>0.390904</vAcc></extensions></trkpt>
      <trkpt lon="-117.324416" lat="33.978751"><ele>332.515456</ele><time>2023-11-18T03:39:00Z</time><extensions><speed>0.215432</speed><course>232.482445</course><hAcc>8.311737</hAcc><vAcc>0.385235</vAcc></extensions></trkpt>
      <trkpt lon="-117.324420" lat="33.978748"><ele>332.457668</ele><time>2023-11-18T03:39:01Z</time><extensions><speed>0.199322</speed><course>232.750449</course><hAcc>8.118922</hAcc><vAcc>0.379650</vAcc></extensions></trkpt>
      <trkpt lon="-117.324424" lat="33.978746"><ele>332.408841</ele><time>2023-11-18T03:39:02Z</time><extensions><speed>0.176398</speed><course>232.902569</course><hAcc>7.943144</hAcc><vAcc>0.374458</vAcc></extensions></trkpt>
      <trkpt lon="-117.324412" lat="33.978746"><ele>332.395756</ele><time>2023-11-18T03:39:03Z</time><extensions><speed>0.118940</speed><course>223.345000</course><hAcc>7.776142</hAcc><vAcc>0.369686</vAcc></extensions></trkpt>
      <trkpt lon="-117.324400" lat="33.978747"><ele>332.368416</ele><time>2023-11-18T03:39:04Z</time><extensions><speed>0.072731</speed><course>201.230061</course><hAcc>7.619621</hAcc><vAcc>0.365942</vAcc></extensions></trkpt>
      <trkpt lon="-117.324391" lat="33.978746"><ele>332.324635</ele><time>2023-11-18T03:39:05Z</time><extensions><speed>0.058855</speed><course>162.119304</course><hAcc>7.471598</hAcc><vAcc>0.363040</vAcc></extensions></trkpt>
      <trkpt lon="-117.324382" lat="33.978746"><ele>332.275229</ele><time>2023-11-18T03:39:06Z</time><extensions><speed>0.072485</speed><course>125.994777</course><hAcc>7.337010</hAcc><vAcc>0.361102</vAcc></extensions></trkpt>
      <trkpt lon="-117.324374" lat="33.978746"><ele>332.217639</ele><time>2023-11-18T03:39:07Z</time><extensions><speed>0.098895</speed><course>107.603114</course><hAcc>7.213316</hAcc><vAcc>0.360292</vAcc></extensions></trkpt>
      <trkpt lon="-117.324366" lat="33.978746"><ele>332.150048</ele><time>2023-11-18T03:39:08Z</time><extensions><speed>0.133068</speed><course>98.510617</course><hAcc>7.095804</hAcc><vAcc>0.360737</vAcc></extensions></trkpt>
      <trkpt lon="-117.324359" lat="33.978746"><ele>332.071042</ele><time>2023-11-18T03:39:09Z</time><extensions><speed>0.172574</speed><course>93.500996</course><hAcc>6.984543</hAcc><vAcc>0.362548</vAcc></extensions></trkpt>
      <trkpt lon="-117.324361" lat="33.978744"><ele>331.970744</ele><time>2023-11-18T03:39:10Z</time><extensions><speed>0.187480</speed><course>93.442495</course><hAcc>6.880988</hAcc><vAcc>0.365713</vAcc></extensions></trkpt>
      <trkpt lon="-117.324363" lat="33.978742"><ele>331.868760</ele><time>2023-11-18T03:39:11Z</time><extensions><speed>0.207770</speed><course>93.873396</course><hAcc>6.780582</hAcc><vAcc>0.369793</vAcc></extensions></trkpt>
      <trkpt lon="-117.324365" lat="33.978740"><ele>331.773356</ele><time>2023-11-18T03:39:12Z</time><extensions><speed>0.236693</speed><course>95.349702</course><hAcc>6.687773</hAcc><vAcc>0.374286</vAcc></extensions></trkpt>
      <trkpt lon="-117.324370" lat="33.978736"><ele>331.700975</ele><time>2023-11-18T03:39:13Z</time><extensions><speed>0.173235</speed><course>103.006168</course><hAcc>6.611870</hAcc><vAcc>0.378862</vAcc></extensions></trkpt>
      <trkpt lon="-117.324375" lat="33.978732"><ele>331.642879</ele><time>2023-11-18T03:39:14Z</time><extensions><speed>0.153707</speed><course>120.972289</course><hAcc>6.523072</hAcc><vAcc>0.383077</vAcc></extensions></trkpt>
      <trkpt lon="-117.324380" lat="33.978728"><ele>331.604269</ele><time>2023-11-18T03:39:15Z</time><extensions><speed>0.130098</speed><course>154.809017</course><hAcc>6.451964</hAcc><vAcc>0.386480</vAcc></extensions></trkpt>
      <trkpt lon="-117.324388" lat="33.978724"><ele>331.590762</ele><time>2023-11-18T03:39:16Z</time><extensions><speed>0.171069</speed><course>203.969986</course><hAcc>6.406674</hAcc><vAcc>0.388830</vAcc></extensions></trkpt>
      <trkpt lon="-117.324396" lat="33.978720"><ele>331.590400</ele><time>2023-11-18T03:39:17Z</time><extensions><speed>0.267144</speed><course>224.913277</course><hAcc>6.373486</hAcc><vAcc>0.390032</vAcc></extensions></trkpt>
      <trkpt lon="-117.324405" lat="33.978715"><ele>331.599380</ele><time>2023-11-18T03:39:18Z</time><extensions><speed>0.369219</speed><course>233.728144</course><hAcc>6.340919</hAcc><vAcc>0.390188</vAcc></extensions></trkpt>
      <trkpt lon="-117.324417" lat="33.978711"><ele>331.615054</ele><time>2023-11-18T03:39:19Z</time><extensions><speed>0.480427</speed><course>239.244830</course><hAcc>6.304499</hAcc><vAcc>0.389547</vAcc></extensions></trkpt>
      <trkpt lon="-117.324428" lat="33.978708"><ele>331.626950</ele><time>2023-11-18T03:39:20Z</time><extensions><speed>0.587550</speed><course>241.779585</course><hAcc>6.270569</hAcc><vAcc>0.388142</vAcc></extensions></trkpt>
      <trkpt lon="-117.324439" lat="33.978704"><ele>331.624277</ele><time>2023-11-18T03:39:21Z</time><extensions><speed>0.627104</speed><course>243.672666</course><hAcc>6.248040</hAcc><vAcc>0.386148</vAcc></extensions></trkpt>
      <trkpt lon="-117.324450" lat="33.978700"><ele>331.601567</ele><time>2023-11-18T03:39:22Z</time><extensions><speed>0.634970</speed><course>245.073826</course><hAcc>6.231327</hAcc><vAcc>0.383873</vAcc></extensions></trkpt>
      <trkpt lon="-117.324393" lat="33.978747"><ele>331.560618</ele><time>2023-11-18T03:39:23Z</time><extensions><speed>0.195708</speed><course>312.370085</course><hAcc>5.937273</hAcc><vAcc>0.381667</vAcc></extensions></trkpt>
      <trkpt lon="-117.324347" lat="33.978785"><ele>331.501232</ele><time>2023-11-18T03:39:24Z</time><extensions><speed>0.539385</speed><course>26.272042</course><hAcc>5.652936</hAcc><vAcc>0.379861</vAcc></extensions></trkpt>
      <trkpt lon="-117.324315" lat="33.978812"><ele>331.427401</ele><time>2023-11-18T03:39:25Z</time><extensions><speed>0.971040</speed><course>35.921811</course><hAcc>5.415686</hAcc><vAcc>0.378564</vAcc></extensions></trkpt>
      <trkpt lon="-117.324290" lat="33.978833"><ele>331.343997</ele><time>2023-11-18T03:39:26Z</time><extensions><speed>1.468373</speed><course>39.534074</course><hAcc>5.197839</hAcc><vAcc>0.377705</vAcc></extensions></trkpt>
      <trkpt lon="-117.324269" lat="33.978853"><ele>331.256479</ele><time>2023-11-18T03:39:27Z</time><extensions><speed>1.888627</speed><course>41.622121</course><hAcc>4.986330</hAcc><vAcc>0.377137</vAcc></extensions></trkpt>
      <trkpt lon="-117.324247" lat="33.978871"><ele>331.167884</ele><time>2023-11-18T03:39:28Z</time><extensions><speed>2.307363</speed><course>43.164307</course><hAcc>4.759399</hAcc><vAcc>0.376503</vAcc></extensions></trkpt>
      <trkpt lon="-117.324224" lat="33.978891"><ele>331.082272</ele><time>2023-11-18T03:39:29Z</time><extensions><speed>2.845441</speed><course>44.383804</course><hAcc>4.493007</hAcc><vAcc>0.375585</vAcc></extensions></trkpt>
      <trkpt lon="-117.324198" lat="33.978913"><ele>331.001701</ele><time>2023-11-18T03:39:30Z</time><extensions><speed>3.243048</speed><course>45.249619</course><hAcc>4.200231</hAcc><vAcc>0.374497</vAcc></extensions></trkpt>
      <trkpt lon="-117.324172" lat="33.978934"><ele>330.928804</ele><time>2023-11-18T03:39:31Z</time><extensions><speed>2.940489</speed><course>45.757082</course><hAcc>3.935629</hAcc><vAcc>0.373574</vAcc></extensions></trkpt>
      <trkpt lon="-117.324148" lat="33.978952"><ele>330.843064</ele><time>2023-11-18T03:39:32Z</time><extensions><speed>2.689978</speed><course>46.419316</course><hAcc>3.678492</hAcc><vAcc>0.373697</vAcc></extensions></trkpt>
      <trkpt lon="-117.324126" lat="33.978968"><ele>330.812970</ele><time>2023-11-18T03:39:33Z</time><extensions><speed>2.472671</speed><course>46.949078</course><hAcc>3.409320</hAcc><vAcc>0.375803</vAcc></extensions></trkpt>
      <trkpt lon="-117.324107" lat="33.978983"><ele>330.837213</ele><time>2023-11-18T03:39:34Z</time><extensions><speed>2.124641</speed><course>47.407960</course><hAcc>3.149990</hAcc><vAcc>0.380779</vAcc></extensions></trkpt>
      <trkpt lon="-117.324091" lat="33.978994"><ele>330.919579</ele><time>2023-11-18T03:39:35Z</time><extensions><speed>1.733536</speed><course>47.956087</course><hAcc>2.926149</hAcc><vAcc>0.389211</vAcc></extensions></trkpt>
      <trkpt lon="-117.324079" lat="33.979004"><ele>331.061067</ele><time>2023-11-18T03:39:36Z</time><extensions><speed>1.373779</speed><course>48.735923</course><hAcc>2.749381</hAcc><vAcc>0.401051</vAcc></extensions></trkpt>
      <trkpt lon="-117.324069" lat="33.979011"><ele>331.260788</ele><time>2023-11-18T03:39:37Z</time><extensions><speed>1.000792</speed><course>49.976633</course><hAcc>2.629129</hAcc><vAcc>0.415272</vAcc></extensions></trkpt>
      <trkpt lon="-117.324061" lat="33.979016"><ele>331.516535</ele><time>2023-11-18T03:39:38Z</time><extensions><speed>0.755170</speed><course>52.036153</course><hAcc>2.548785</hAcc><vAcc>0.430164</vAcc></extensions></trkpt>
      <trkpt lon="-117.324055" lat="33.979019"><ele>331.825234</ele><time>2023-11-18T03:39:39Z</time><extensions><speed>0.565717</speed><course>55.454281</course><hAcc>2.497446</hAcc><vAcc>0.443914</vAcc></extensions></trkpt>
      <trkpt lon="-117.324050" lat="33.979022"><ele>332.168061</ele><time>2023-11-18T03:39:40Z</time><extensions><speed>0.499021</speed><course>60.494277</course><hAcc>2.446822</hAcc><vAcc>0.455685</vAcc></extensions></trkpt>
      <trkpt lon="-117.324045" lat="33.979024"><ele>332.547559</ele><time>2023-11-18T03:39:41Z</time><extensions><speed>0.567933</speed><course>65.439406</course><hAcc>2.378386</hAcc><vAcc>0.463901</vAcc></extensions></trkpt>
      <trkpt lon="-117.324040" lat="33.979026"><ele>332.949086</ele><time>2023-11-18T03:39:42Z</time><extensions><speed>0.535818</speed><course>68.639374</course><hAcc>2.353428</hAcc><vAcc>0.468500</vAcc></extensions></trkpt>
      <trkpt lon="-117.324035" lat="33.979028"><ele>333.356491</ele><time>2023-11-18T03:39:43Z</time><extensions><speed>0.418471</speed><course>70.114432</course><hAcc>2.381396</hAcc><vAcc>0.470521</vAcc></extensions></trkpt>
      <trkpt lon="-117.324031" lat="33.979029"><ele>333.755115</ele><time>2023-11-18T03:39:44Z</time><extensions><speed>0.306665</speed><course>71.089311</course><hAcc>2.439942</hAcc><vAcc>0.472709</vAcc></extensions></trkpt>
      <trkpt lon="-117.324029" lat="33.979029"><ele>334.138078</ele><time>2023-11-18T03:39:45Z</time><extensions><speed>0.215877</speed><course>71.780434</course><hAcc>2.523136</hAcc><vAcc>0.480258</vAcc></extensions></trkpt>
      <trkpt lon="-117.324027" lat="33.979030"><ele>334.506625</ele><time>2023-11-18T03:39:46Z</time><extensions><speed>0.151870</speed><course>72.281237</course><hAcc>2.640779</hAcc><vAcc>0.501151</vAcc></extensions></trkpt>
      <trkpt lon="-117.324025" lat="33.979030"><ele>334.856267</ele><time>2023-11-18T03:39:47Z</time><extensions><speed>0.102940</speed><course>72.618320</course><hAcc>2.816184</hAcc><vAcc>0.544573</vAcc></extensions></trkpt>
      <trkpt lon="-117.324024" lat="33.979030"><ele>335.196274</ele><time>2023-11-18T03:39:48Z</time><extensions><speed>0.071182</speed><course>72.827175</course><hAcc>3.081883</hAcc><vAcc>0.619638</vAcc></extensions></trkpt>
      <trkpt lon="-117.324024" lat="33.979031"><ele>335.527547</ele><time>2023-11-18T03:39:49Z</time><extensions><speed>0.057203</speed><course>72.899389</course><hAcc>3.537825</hAcc><vAcc>0.729903</vAcc></extensions></trkpt>
    </trkseg>
  </trk>
</gpx>