<?xml version="1.0" encoding="UTF-8"?>
<gpx version="1.1" creator="Apple Health Export" xmlns="http://www.topografix.com/GPX/1/1" xmlns:xsi="http://www.w3.org/2001/XMLSchema-instance" xsi:schemaLocation="http://www.topografix.com/GPX/1/1 http://www.topografix.com/GPX/1/1/gpx.xsd">
  <metadata>
    <time>2026-01-11T07:57:30Z</time>
  </metadata>
  <trk>
    <name>Route 2024-05-25 8:10pm</name>
    <trkseg>
      <trkpt lon="-117.167824" lat="32.899275"><ele>96.766170</ele><time>2024-05-26T03:08:41Z</time><extensions><speed>1.481045</speed><course>266.356151</course><hAcc>1.783100</hAcc><vAcc>1.217035</vAcc></extensions></trkpt>
      <trkpt lon="-117.167846" lat="32.899274"><ele>96.808746</ele><time>2024-05-26T03:08:42Z</time><extensions><speed>1.453705</speed><course>271.850699</course><hAcc>1.686110</hAcc><vAcc>1.044922</vAcc></extensions></trkpt>
      <trkpt lon="-117.167866" lat="32.899273"><ele>96.862522</ele><time>2024-05-26T03:08:43Z</time><extensions><speed>1.388197</speed><course>264.005680</course><hAcc>1.605125</hAcc><vAcc>0.914525</vAcc></extensions></trkpt>
      <trkpt lon="-117.167886" lat="32.899273"><ele>96.919873</ele><time>2024-05-26T03:08:44Z</time><extensions><speed>1.373603</speed><course>274.408630</course><hAcc>1.534986</hAcc><vAcc>0.819116</vAcc></extensions></trkpt>
      <trkpt lon="-117.167907" lat="32.899273"><ele>96.980492</ele><time>2024-05-26T03:08:45Z</time><extensions><speed>1.638125</speed><course>278.961096</course><hAcc>1.476219</hAcc><vAcc>0.753428</vAcc></extensions></trkpt>
      <trkpt lon="-117.167930" lat="32.899276"><ele>97.056411</ele><time>2024-05-26T03:08:46Z</time><extensions><speed>1.993705</speed><course>283.748932</course><hAcc>1.415924</hAcc><vAcc>0.711526</vAcc></extensions></trkpt>
      <trkpt lon="-117.167956" lat="32.899279"><ele>97.150153</ele><time>2024-05-26T03:08:47Z</time><extensions><speed>2.181838</speed><course>282.553854</course><hAcc>1.358047</hAcc><vAcc>0.687336</vAcc></extensions></trkpt>
      <trkpt lon="-117.167983" lat="32.899283"><ele>97.263265</ele><time>2024-05-26T03:08:48Z</time><extensions><speed>2.253463</speed><course>284.380213</course><hAcc>1.318554</hAcc><vAcc>0.675408</vAcc></extensions></trkpt>
      <trkpt lon="-117.168010" lat="32.899285"><ele>97.395571</ele><time>2024-05-26T03:08:49Z</time><extensions><speed>2.228700</speed><course>274.374495</course><hAcc>1.294767</hAcc><vAcc>0.671384</vAcc></extensions></trkpt>
      <trkpt lon="-117.168040" lat="32.899285"><ele>97.538614</ele><time>2024-05-26T03:08:50Z</time><extensions><speed>2.897020</speed><course>268.294800</course><hAcc>1.264392</hAcc><vAcc>0.672224</vAcc></extensions></trkpt>
      <trkpt lon="-117.168075" lat="32.899282"><ele>97.702030</ele><time>2024-05-26T03:08:51Z</time><extensions><speed>3.128292</speed><course>264.755259</course><hAcc>1.237783</hAcc><vAcc>0.675932</vAcc></extensions></trkpt>
      <trkpt lon="-117.168111" lat="32.899278"><ele>97.884946</ele><time>2024-05-26T03:08:52Z</time><extensions><speed>3.142686</speed><course>263.609063</course><hAcc>1.214215</hAcc><vAcc>0.681193</vAcc></extensions></trkpt>
      <trkpt lon="-117.168148" lat="32.899273"><ele>98.092457</ele><time>2024-05-26T03:08:53Z</time><extensions><speed>3.255810</speed><course>263.672040</course><hAcc>1.191124</hAcc><vAcc>0.687051</vAcc></extensions></trkpt>
      <trkpt lon="-117.168185" lat="32.899270"><ele>98.325660</ele><time>2024-05-26T03:08:54Z</time><extensions><speed>3.300324</speed><course>268.626117</course><hAcc>1.172242</hAcc><vAcc>0.692863</vAcc></extensions></trkpt>
      <trkpt lon="-117.168223" lat="32.899267"><ele>98.585228</ele><time>2024-05-26T03:08:55Z</time><extensions><speed>3.401080</speed><course>263.621178</course><hAcc>1.158619</hAcc><vAcc>0.698230</vAcc></extensions></trkpt>
      <trkpt lon="-117.168262" lat="32.899262"><ele>98.874049</ele><time>2024-05-26T03:08:56Z</time><extensions><speed>3.550407</speed><course>262.233534</course><hAcc>1.145538</hAcc><vAcc>0.702976</vAcc></extensions></trkpt>
      <trkpt lon="-117.168301" lat="32.899256"><ele>99.192260</ele><time>2024-05-26T03:08:57Z</time><extensions><speed>3.553717</speed><course>261.456090</course><hAcc>1.134858</hAcc><vAcc>0.707069</vAcc></extensions></trkpt>
      <trkpt lon="-117.168340" lat="32.899250"><ele>99.542181</ele><time>2024-05-26T03:08:58Z</time><extensions><speed>3.543135</speed><course>261.419122</course><hAcc>1.124097</hAcc><vAcc>0.710561</vAcc></extensions></trkpt>
      <trkpt lon="-117.168379" lat="32.899244"><ele>99.921832</ele><time>2024-05-26T03:08:59Z</time><extensions><speed>3.540704</speed><course>260.570608</course><hAcc>1.116225</hAcc><vAcc>0.713616</vAcc></extensions></trkpt>
      <trkpt lon="-117.168417" lat="32.899237"><ele>100.333785</ele><time>2024-05-26T03:09:00Z</time><extensions><speed>3.545752</speed><course>259.622314</course><hAcc>1.110802</hAcc><vAcc>0.716323</vAcc></extensions></trkpt>
      <trkpt lon="-117.168456" lat="32.899230"><ele>100.774149</ele><time>2024-05-26T03:09:01Z</time><extensions><speed>3.598818</speed><course>258.481998</course><hAcc>1.102633</hAcc><vAcc>0.718743</vAcc></extensions></trkpt>
      <trkpt lon="-117.168494" lat="32.899222"><ele>101.250525</ele><time>2024-05-26T03:09:02Z</time><extensions><speed>3.688306</speed><course>258.318675</course><hAcc>1.096430</hAcc><vAcc>0.720919</vAcc></extensions></trkpt>
      <trkpt lon="-117.168533" lat="32.899213"><ele>101.682166</ele><time>2024-05-26T03:09:03Z</time><extensions><speed>3.690657</speed><course>255.601335</course><hAcc>1.088257</hAcc><vAcc>0.723599</vAcc></extensions></trkpt>
      <trkpt lon="-117.168571" lat="32.899203"><ele>102.115256</ele><time>2024-05-26T03:09:04Z</time><extensions><speed>3.739174</speed><course>251.728011</course><hAcc>1.084537</hAcc><vAcc>0.726489</vAcc></extensions></trkpt>
      <trkpt lon="-117.168609" lat="32.899192"><ele>102.545979</ele><time>2024-05-26T03:09:05Z</time><extensions><speed>3.726433</speed><course>251.207860</course><hAcc>1.084707</hAcc><vAcc>0.729717</vAcc></extensions></trkpt>
      <trkpt lon="-117.168647" lat="32.899181"><ele>102.958287</ele><time>2024-05-26T03:09:06Z</time><extensions><speed>3.723552</speed><course>252.390386</course><hAcc>1.091994</hAcc><vAcc>0.733401</vAcc></extensions></trkpt>
      <trkpt lon="-117.168685" lat="32.899170"><ele>103.343068</ele><time>2024-05-26T03:09:07Z</time><extensions><speed>3.700682</speed><course>251.807849</course><hAcc>1.104520</hAcc><vAcc>0.737767</vAcc></extensions></trkpt>
      <trkpt lon="-117.168722" lat="32.899159"><ele>103.738190</ele><time>2024-05-26T03:09:08Z</time><extensions><speed>3.666446</speed><course>249.623612</course><hAcc>1.117250</hAcc><vAcc>0.742872</vAcc></extensions></trkpt>
      <trkpt lon="-117.168759" lat="32.899148"><ele>104.151070</ele><time>2024-05-26T03:09:09Z</time><extensions><speed>3.642421</speed><course>249.013587</course><hAcc>1.139047</hAcc><vAcc>0.748801</vAcc></extensions></trkpt>
      <trkpt lon="-117.168795" lat="32.899135"><ele>104.566951</ele><time>2024-05-26T03:09:10Z</time><extensions><speed>3.615493</speed><course>246.295841</course><hAcc>1.162789</hAcc><vAcc>0.755602</vAcc></extensions></trkpt>
      <trkpt lon="-117.168830" lat="32.899122"><ele>104.977875</ele><time>2024-05-26T03:09:11Z</time><extensions><speed>3.470150</speed><course>247.052785</course><hAcc>1.186679</hAcc><vAcc>0.763135</vAcc></extensions></trkpt>
      <trkpt lon="-117.168863" lat="32.899109"><ele>105.355080</ele><time>2024-05-26T03:09:12Z</time><extensions><speed>3.508493</speed><course>241.546647</course><hAcc>1.210733</hAcc><vAcc>0.771213</vAcc></extensions></trkpt>
      <trkpt lon="-117.168897" lat="32.899092"><ele>105.690156</ele><time>2024-05-26T03:09:13Z</time><extensions><speed>3.852778</speed><course>236.486618</course><hAcc>1.204463</hAcc><vAcc>0.779498</vAcc></extensions></trkpt>
      <trkpt lon="-117.168931" lat="32.899072"><ele>106.027260</ele><time>2024-05-26T03:09:14Z</time><extensions><speed>3.872460</speed><course>236.143142</course><hAcc>1.360476</hAcc><vAcc>0.787581</vAcc></extensions></trkpt>
      <trkpt lon="-117.168965" lat="32.899053"><ele>106.344917</ele><time>2024-05-26T03:09:15Z</time><extensions><speed>3.816232</speed><course>236.555559</course><hAcc>1.519236</hAcc><vAcc>0.795106</vAcc></extensions></trkpt>
      <trkpt lon="-117.168999" lat="32.899034"><ele>106.638937</ele><time>2024-05-26T03:09:16Z</time><extensions><speed>3.764405</speed><course>236.390281</course><hAcc>1.611264</hAcc><vAcc>0.801869</vAcc></extensions></trkpt>
      <trkpt lon="-117.169033" lat="32.899016"><ele>106.915797</ele><time>2024-05-26T03:09:17Z</time><extensions><speed>3.751022</speed><course>236.731050</course><hAcc>1.661674</hAcc><vAcc>0.807779</vAcc></extensions></trkpt>
      <trkpt lon="-117.169065" lat="32.898997"><ele>107.212616</ele><time>2024-05-26T03:09:18Z</time><extensions><speed>3.636071</speed><course>234.463726</course><hAcc>1.663834</hAcc><vAcc>0.812772</vAcc></extensions></trkpt>
      <trkpt lon="-117.169096" lat="32.898978"><ele>107.484487</ele><time>2024-05-26T03:09:19Z</time><extensions><speed>3.550833</speed><course>233.870415</course><hAcc>1.653090</hAcc><vAcc>0.816856</vAcc></extensions></trkpt>
      <trkpt lon="-117.169128" lat="32.898959"><ele>107.743721</ele><time>2024-05-26T03:09:20Z</time><extensions><speed>3.732103</speed><course>234.328247</course><hAcc>1.641335</hAcc><vAcc>0.820113</vAcc></extensions></trkpt>
      <trkpt lon="-117.169160" lat="32.898939"><ele>107.960268</ele><time>2024-05-26T03:09:21Z</time><extensions><speed>3.784188</speed><course>235.340432</course><hAcc>1.631027</hAcc><vAcc>0.822618</vAcc></extensions></trkpt>
      <trkpt lon="-117.169193" lat="32.898920"><ele>108.155027</ele><time>2024-05-26T03:09:22Z</time><extensions><speed>3.578272</speed><course>235.611250</course><hAcc>1.626774</hAcc><vAcc>0.824483</vAcc></extensions></trkpt>
      <trkpt lon="-117.169224" lat="32.898903"><ele>108.321486</ele><time>2024-05-26T03:09:23Z</time><extensions><speed>3.439531</speed><course>237.456191</course><hAcc>1.626670</hAcc><vAcc>0.825820</vAcc></extensions></trkpt>
      <trkpt lon="-117.169255" lat="32.898886"><ele>108.469809</ele><time>2024-05-26T03:09:24Z</time><extensions><speed>3.525654</speed><course>238.593942</course><hAcc>1.626087</hAcc><vAcc>0.826745</vAcc></extensions></trkpt>
      <trkpt lon="-117.169287" lat="32.898870"><ele>108.622206</ele><time>2024-05-26T03:09:25Z</time><extensions><speed>3.432923</speed><course>238.887929</course><hAcc>1.624964</hAcc><vAcc>0.827322</vAcc></extensions></trkpt>
      <trkpt lon="-117.169317" lat="32.898855"><ele>108.769863</ele><time>2024-05-26T03:09:26Z</time><extensions><speed>3.255114</speed><course>238.945061</course><hAcc>1.626123</hAcc><vAcc>0.827631</vAcc></extensions></trkpt>
      <trkpt lon="-117.169347" lat="32.898840"><ele>108.893613</ele><time>2024-05-26T03:09:27Z</time><extensions><speed>3.227051</speed><course>239.446116</course><hAcc>1.628908</hAcc><vAcc>0.827763</vAcc></extensions></trkpt>
      <trkpt lon="-117.169376" lat="32.898824"><ele>108.973987</ele><time>2024-05-26T03:09:28Z</time><extensions><speed>3.282420</speed><course>235.109043</course><hAcc>1.629610</hAcc><vAcc>0.827784</vAcc></extensions></trkpt>
      <trkpt lon="-117.169403" lat="32.898807"><ele>109.042593</ele><time>2024-05-26T03:09:29Z</time><extensions><speed>3.083200</speed><course>231.357153</course><hAcc>1.633012</hAcc><vAcc>0.827740</vAcc></extensions></trkpt>
      <trkpt lon="-117.169426" lat="32.898790"><ele>109.106969</ele><time>2024-05-26T03:09:30Z</time><extensions><speed>2.535320</speed><course>226.376321</course><hAcc>1.642118</hAcc><vAcc>0.827643</vAcc></extensions></trkpt>
      <trkpt lon="-117.169442" lat="32.898777"><ele>109.163051</ele><time>2024-05-26T03:09:31Z</time><extensions><speed>1.739249</speed><course>224.457682</course><hAcc>1.654303</hAcc><vAcc>0.827487</vAcc></extensions></trkpt>
      <trkpt lon="-117.169451" lat="32.898769"><ele>109.223584</ele><time>2024-05-26T03:09:32Z</time><extensions><speed>0.762266</speed><course>222.418123</course><hAcc>1.662494</hAcc><vAcc>0.827308</vAcc></extensions></trkpt>
      <trkpt lon="-117.169453" lat="32.898766"><ele>109.269428</ele><time>2024-05-26T03:09:33Z</time><extensions><speed>0.250386</speed><course>83.425711</course><hAcc>1.670485</hAcc><vAcc>0.827140</vAcc></extensions></trkpt>
      <trkpt lon="-117.169448" lat="32.898768"><ele>109.319405</ele><time>2024-05-26T03:09:34Z</time><extensions><speed>0.742484</speed><course>64.861269</course><hAcc>1.671960</hAcc><vAcc>0.826985</vAcc></extensions></trkpt>
      <trkpt lon="-117.169441" lat="32.898771"><ele>109.366270</ele><time>2024-05-26T03:09:35Z</time><extensions><speed>0.623005</speed><course>62.265604</course><hAcc>1.683510</hAcc><vAcc>0.826840</vAcc></extensions></trkpt>
      <trkpt lon="-117.169437" lat="32.898773"><ele>109.419406</ele><time>2024-05-26T03:09:36Z</time><extensions><speed>0.238816</speed><course>61.851116</course><hAcc>1.688132</hAcc><vAcc>0.826717</vAcc></extensions></trkpt>
      <trkpt lon="-117.169437" lat="32.898773"><ele>109.477773</ele><time>2024-05-26T03:09:37Z</time><extensions><speed>0.187587</speed><course>243.551861</course><hAcc>1.707906</hAcc><vAcc>0.826628</vAcc></extensions></trkpt>
      <trkpt lon="-117.169440" lat="32.898772"><ele>109.519216</ele><time>2024-05-26T03:09:38Z</time><extensions><speed>0.379700</speed><course>261.839313</course><hAcc>1.732668</hAcc><vAcc>0.826597</vAcc></extensions></trkpt>
      <trkpt lon="-117.169442" lat="32.898772"><ele>109.559338</ele><time>2024-05-26T03:09:39Z</time><extensions><speed>0.079041</speed><course>229.753083</course><hAcc>1.737625</hAcc><vAcc>0.826598</vAcc></extensions></trkpt>
      <trkpt lon="-117.169442" lat="32.898771"><ele>109.594634</ele><time>2024-05-26T03:09:40Z</time><extensions><speed>0.156505</speed><course>99.930980</course><hAcc>1.727686</hAcc><vAcc>0.826621</vAcc></extensions></trkpt>
      <trkpt lon="-117.169440" lat="32.898771"><ele>109.609855</ele><time>2024-05-26T03:09:41Z</time><extensions><speed>0.217191</speed><course>113.791808</course><hAcc>1.720195</hAcc><vAcc>0.826665</vAcc></extensions></trkpt>
      <trkpt lon="-117.169438" lat="32.898770"><ele>109.601310</ele><time>2024-05-26T03:09:42Z</time><extensions><speed>0.181743</speed><course>134.782632</course><hAcc>1.704470</hAcc><vAcc>0.826756</vAcc></extensions></trkpt>
      <trkpt lon="-117.169438" lat="32.898768"><ele>109.606404</ele><time>2024-05-26T03:09:43Z</time><extensions><speed>0.235449</speed><course>190.755745</course><hAcc>1.697627</hAcc><vAcc>0.826837</vAcc></extensions></trkpt>
      <trkpt lon="-117.169439" lat="32.898766"><ele>109.617441</ele><time>2024-05-26T03:09:44Z</time><extensions><speed>0.430713</speed><course>193.740930</course><hAcc>1.667401</hAcc><vAcc>0.826947</vAcc></extensions></trkpt>
      <trkpt lon="-117.169441" lat="32.898760"><ele>109.627939</ele><time>2024-05-26T03:09:45Z</time><extensions><speed>0.864695</speed><course>191.853344</course><hAcc>1.633297</hAcc><vAcc>0.827078</vAcc></extensions></trkpt>
      <trkpt lon="-117.169444" lat="32.898750"><ele>109.620935</ele><time>2024-05-26T03:09:46Z</time><extensions><speed>1.328725</speed><course>200.041282</course><hAcc>1.616339</hAcc><vAcc>0.827149</vAcc></extensions></trkpt>
      <trkpt lon="-117.169452" lat="32.898740"><ele>109.585237</ele><time>2024-05-26T03:09:47Z</time><extensions><speed>1.479234</speed><course>219.371226</course><hAcc>1.627641</hAcc><vAcc>0.827228</vAcc></extensions></trkpt>
      <trkpt lon="-117.169464" lat="32.898732"><ele>109.546010</ele><time>2024-05-26T03:09:48Z</time><extensions><speed>1.459622</speed><course>245.381555</course><hAcc>1.608327</hAcc><vAcc>0.827309</vAcc></extensions></trkpt>
      <trkpt lon="-117.169478" lat="32.898727"><ele>109.543407</ele><time>2024-05-26T03:09:49Z</time><extensions><speed>1.307575</speed><course>257.019364</course><hAcc>1.621120</hAcc><vAcc>0.827371</vAcc></extensions></trkpt>
      <trkpt lon="-117.169493" lat="32.898725"><ele>109.517447</ele><time>2024-05-26T03:09:50Z</time><extensions><speed>1.422726</speed><course>258.601716</course><hAcc>1.570532</hAcc><vAcc>0.827433</vAcc></extensions></trkpt>
      <trkpt lon="-117.169509" lat="32.898722"><ele>109.480924</ele><time>2024-05-26T03:09:51Z</time><extensions><speed>1.529592</speed><course>257.650901</course><hAcc>1.551799</hAcc><vAcc>0.827500</vAcc></extensions></trkpt>
      <trkpt lon="-117.169525" lat="32.898718"><ele>109.468778</ele><time>2024-05-26T03:09:52Z</time><extensions><speed>1.620480</speed><course>254.688808</course><hAcc>1.558017</hAcc><vAcc>0.827541</vAcc></extensions></trkpt>
      <trkpt lon="-117.169543" lat="32.898714"><ele>109.424702</ele><time>2024-05-26T03:09:53Z</time><extensions><speed>1.654456</speed><course>248.998179</course><hAcc>1.569367</hAcc><vAcc>0.827585</vAcc></extensions></trkpt>
      <trkpt lon="-117.169560" lat="32.898707"><ele>109.368243</ele><time>2024-05-26T03:09:54Z</time><extensions><speed>1.696559</speed><course>243.995455</course><hAcc>1.584048</hAcc><vAcc>0.827651</vAcc></extensions></trkpt>
      <trkpt lon="-117.169576" lat="32.898701"><ele>109.271732</ele><time>2024-05-26T03:09:55Z</time><extensions><speed>1.572485</speed><course>243.469258</course><hAcc>1.595466</hAcc><vAcc>0.827741</vAcc></extensions></trkpt>
      <trkpt lon="-117.169592" lat="32.898695"><ele>109.215873</ele><time>2024-05-26T03:09:56Z</time><extensions><speed>1.644630</speed><course>249.077931</course><hAcc>1.560193</hAcc><vAcc>0.835319</vAcc></extensions></trkpt>
      <trkpt lon="-117.169608" lat="32.898691"><ele>109.157344</ele><time>2024-05-26T03:09:57Z</time><extensions><speed>1.455067</speed><course>254.695725</course><hAcc>1.564257</hAcc><vAcc>0.847525</vAcc></extensions></trkpt>
      <trkpt lon="-117.169626" lat="32.898687"><ele>109.096219</ele><time>2024-05-26T03:09:58Z</time><extensions><speed>2.042511</speed><course>258.043902</course><hAcc>1.542608</hAcc><vAcc>0.866603</vAcc></extensions></trkpt>
      <trkpt lon="-117.169651" lat="32.898683"><ele>109.032109</ele><time>2024-05-26T03:09:59Z</time><extensions><speed>2.695087</speed><course>258.769493</course><hAcc>1.557080</hAcc><vAcc>0.895354</vAcc></extensions></trkpt>
      <trkpt lon="-117.169677" lat="32.898677"><ele>108.964458</ele><time>2024-05-26T03:10:00Z</time><extensions><speed>2.294482</speed><course>253.405038</course><hAcc>1.605723</hAcc><vAcc>0.937025</vAcc></extensions></trkpt>
      <trkpt lon="-117.169698" lat="32.898672"><ele>108.893143</ele><time>2024-05-26T03:10:01Z</time><extensions><speed>1.882749</speed><course>254.712201</course><hAcc>1.638805</hAcc><vAcc>0.995043</vAcc></extensions></trkpt>
      <trkpt lon="-117.169720" lat="32.898667"><ele>108.818431</ele><time>2024-05-26T03:10:02Z</time><extensions><speed>2.326249</speed><course>254.879355</course><hAcc>1.655191</hAcc><vAcc>1.072661</vAcc></extensions></trkpt>
      <trkpt lon="-117.169743" lat="32.898662"><ele>108.740922</ele><time>2024-05-26T03:10:03Z</time><extensions><speed>2.087862</speed><course>256.436964</course><hAcc>1.770789</hAcc><vAcc>1.172597</vAcc></extensions></trkpt>
      <trkpt lon="-117.169762" lat="32.898658"><ele>108.661667</ele><time>2024-05-26T03:10:04Z</time><extensions><speed>1.642822</speed><course>256.915024</course><hAcc>1.914403</hAcc><vAcc>1.296771</vAcc></extensions></trkpt>
      <trkpt lon="-117.169780" lat="32.898655"><ele>108.581807</ele><time>2024-05-26T03:10:05Z</time><extensions><speed>1.801327</speed><course>257.949036</course><hAcc>2.090918</hAcc><vAcc>1.446196</vAcc></extensions></trkpt>
    </trkseg>
  </trk>
</gpx>