<?xml version="1.0" encoding="UTF-8"?>
<gpx version="1.1" creator="Apple Health Export" xmlns="http://www.topografix.com/GPX/1/1" xmlns:xsi="http://www.w3.org/2001/XMLSchema-instance" xsi:schemaLocation="http://www.topografix.com/GPX/1/1 http://www.topografix.com/GPX/1/1/gpx.xsd">
  <metadata>
    <time>2026-01-11T07:57:33Z</time>
  </metadata>
  <trk>
    <name>Route 2024-08-30 7:27pm</name>
    <trkseg>
      <trkpt lon="-117.165760" lat="32.898243"><ele>93.209148</ele><time>2024-08-31T02:24:20Z</time><extensions><speed>0.157876</speed><course>150.183834</course><hAcc>5.778111</hAcc><vAcc>2.794080</vAcc></extensions></trkpt>
      <trkpt lon="-117.165757" lat="32.898240"><ele>93.199140</ele><time>2024-08-31T02:24:21Z</time><extensions><speed>0.219503</speed><course>149.024105</course><hAcc>5.152924</hAcc><vAcc>2.454030</vAcc></extensions></trkpt>
      <trkpt lon="-117.165754" lat="32.898238"><ele>93.189718</ele><time>2024-08-31T02:24:22Z</time><extensions><speed>0.336185</speed><course>148.094864</course><hAcc>4.613884</hAcc><vAcc>2.155318</vAcc></extensions></trkpt>
      <trkpt lon="-117.165750" lat="32.898235"><ele>93.177236</ele><time>2024-08-31T02:24:23Z</time><extensions><speed>0.480832</speed><course>148.633307</course><hAcc>4.131927</hAcc><vAcc>1.893087</vAcc></extensions></trkpt>
      <trkpt lon="-117.165746" lat="32.898230"><ele>93.161284</ele><time>2024-08-31T02:24:24Z</time><extensions><speed>0.642583</speed><course>151.113413</course><hAcc>3.745926</hAcc><vAcc>1.664124</vAcc></extensions></trkpt>
      <trkpt lon="-117.165741" lat="32.898225"><ele>93.142763</ele><time>2024-08-31T02:24:25Z</time><extensions><speed>0.878898</speed><course>155.096900</course><hAcc>3.493803</hAcc><vAcc>1.466150</vAcc></extensions></trkpt>
      <trkpt lon="-117.165736" lat="32.898217"><ele>93.118304</ele><time>2024-08-31T02:24:26Z</time><extensions><speed>1.162297</speed><course>159.967754</course><hAcc>3.375081</hAcc><vAcc>1.297626</vAcc></extensions></trkpt>
      <trkpt lon="-117.165730" lat="32.898205"><ele>93.085405</ele><time>2024-08-31T02:24:27Z</time><extensions><speed>1.699047</speed><course>161.340576</course><hAcc>3.244336</hAcc><vAcc>1.157287</vAcc></extensions></trkpt>
      <trkpt lon="-117.165726" lat="32.898196"><ele>93.059213</ele><time>2024-08-31T02:24:28Z</time><extensions><speed>1.809929</speed><course>161.448088</course><hAcc>3.135050</hAcc><vAcc>1.082431</vAcc></extensions></trkpt>
      <trkpt lon="-117.165719" lat="32.898181"><ele>93.011022</ele><time>2024-08-31T02:24:29Z</time><extensions><speed>1.769768</speed><course>159.663990</course><hAcc>3.014006</hAcc><vAcc>0.987004</vAcc></extensions></trkpt>
      <trkpt lon="-117.165711" lat="32.898167"><ele>92.954573</ele><time>2024-08-31T02:24:30Z</time><extensions><speed>1.723880</speed><course>157.129593</course><hAcc>2.908012</hAcc><vAcc>0.914297</vAcc></extensions></trkpt>
      <trkpt lon="-117.165703" lat="32.898153"><ele>92.890773</ele><time>2024-08-31T02:24:31Z</time><extensions><speed>1.707986</speed><course>155.759949</course><hAcc>2.812833</hAcc><vAcc>0.861076</vAcc></extensions></trkpt>
      <trkpt lon="-117.165695" lat="32.898140"><ele>92.819882</ele><time>2024-08-31T02:24:32Z</time><extensions><speed>1.687026</speed><course>154.272178</course><hAcc>2.733470</hAcc><vAcc>0.823758</vAcc></extensions></trkpt>
      <trkpt lon="-117.165686" lat="32.898127"><ele>92.741640</ele><time>2024-08-31T02:24:33Z</time><extensions><speed>1.606323</speed><course>154.318191</course><hAcc>2.674157</hAcc><vAcc>0.798749</vAcc></extensions></trkpt>
      <trkpt lon="-117.165678" lat="32.898114"><ele>92.656694</ele><time>2024-08-31T02:24:34Z</time><extensions><speed>1.587945</speed><course>156.377094</course><hAcc>2.604772</hAcc><vAcc>0.782773</vAcc></extensions></trkpt>
      <trkpt lon="-117.165671" lat="32.898102"><ele>92.559138</ele><time>2024-08-31T02:24:35Z</time><extensions><speed>1.536856</speed><course>157.753479</course><hAcc>2.540163</hAcc><vAcc>0.773081</vAcc></extensions></trkpt>
      <trkpt lon="-117.165664" lat="32.898090"><ele>92.447867</ele><time>2024-08-31T02:24:36Z</time><extensions><speed>1.519712</speed><course>157.345116</course><hAcc>2.500510</hAcc><vAcc>0.767525</vAcc></extensions></trkpt>
      <trkpt lon="-117.165657" lat="32.898079"><ele>92.331443</ele><time>2024-08-31T02:24:37Z</time><extensions><speed>1.486436</speed><course>156.461151</course><hAcc>2.446978</hAcc><vAcc>0.764533</vAcc></extensions></trkpt>
      <trkpt lon="-117.165650" lat="32.898068"><ele>92.210952</ele><time>2024-08-31T02:24:38Z</time><extensions><speed>1.479282</speed><course>155.059713</course><hAcc>2.407066</hAcc><vAcc>0.763019</vAcc></extensions></trkpt>
      <trkpt lon="-117.165643" lat="32.898058"><ele>92.087218</ele><time>2024-08-31T02:24:39Z</time><extensions><speed>1.467969</speed><course>153.919482</course><hAcc>2.348857</hAcc><vAcc>0.762274</vAcc></extensions></trkpt>
      <trkpt lon="-117.165636" lat="32.898048"><ele>91.961208</ele><time>2024-08-31T02:24:40Z</time><extensions><speed>1.443428</speed><course>153.361674</course><hAcc>2.307535</hAcc><vAcc>0.761866</vAcc></extensions></trkpt>
      <trkpt lon="-117.165628" lat="32.898039"><ele>91.842729</ele><time>2024-08-31T02:24:41Z</time><extensions><speed>1.451615</speed><course>151.441719</course><hAcc>2.285547</hAcc><vAcc>0.764075</vAcc></extensions></trkpt>
      <trkpt lon="-117.165619" lat="32.898031"><ele>91.728766</ele><time>2024-08-31T02:24:42Z</time><extensions><speed>1.415987</speed><course>148.296987</course><hAcc>2.232993</hAcc><vAcc>0.767324</vAcc></extensions></trkpt>
      <trkpt lon="-117.165609" lat="32.898022"><ele>91.623414</ele><time>2024-08-31T02:24:43Z</time><extensions><speed>1.441282</speed><course>146.152160</course><hAcc>2.189723</hAcc><vAcc>0.770778</vAcc></extensions></trkpt>
      <trkpt lon="-117.165600" lat="32.898014"><ele>91.512967</ele><time>2024-08-31T02:24:44Z</time><extensions><speed>1.392036</speed><course>144.956703</course><hAcc>2.135250</hAcc><vAcc>0.777347</vAcc></extensions></trkpt>
      <trkpt lon="-117.165591" lat="32.898005"><ele>91.405637</ele><time>2024-08-31T02:24:45Z</time><extensions><speed>1.325910</speed><course>143.674404</course><hAcc>2.099921</hAcc><vAcc>0.785902</vAcc></extensions></trkpt>
      <trkpt lon="-117.165582" lat="32.897997"><ele>91.311844</ele><time>2024-08-31T02:24:46Z</time><extensions><speed>1.322630</speed><course>145.285191</course><hAcc>2.092821</hAcc><vAcc>0.795611</vAcc></extensions></trkpt>
      <trkpt lon="-117.165574" lat="32.897987"><ele>91.229980</ele><time>2024-08-31T02:24:47Z</time><extensions><speed>1.267436</speed><course>143.924037</course><hAcc>2.071457</hAcc><vAcc>0.808051</vAcc></extensions></trkpt>
      <trkpt lon="-117.165566" lat="32.897978"><ele>91.151017</ele><time>2024-08-31T02:24:48Z</time><extensions><speed>1.244470</speed><course>150.674590</course><hAcc>2.073821</hAcc><vAcc>0.821514</vAcc></extensions></trkpt>
      <trkpt lon="-117.165559" lat="32.897969"><ele>91.078139</ele><time>2024-08-31T02:24:49Z</time><extensions><speed>1.186121</speed><course>145.545539</course><hAcc>2.048974</hAcc><vAcc>0.835632</vAcc></extensions></trkpt>
      <trkpt lon="-117.165551" lat="32.897961"><ele>91.000763</ele><time>2024-08-31T02:24:50Z</time><extensions><speed>1.130755</speed><course>138.601051</course><hAcc>2.019150</hAcc><vAcc>0.853383</vAcc></extensions></trkpt>
      <trkpt lon="-117.165543" lat="32.897955"><ele>90.895739</ele><time>2024-08-31T02:24:51Z</time><extensions><speed>0.959622</speed><course>123.110581</course><hAcc>1.954777</hAcc><vAcc>0.868914</vAcc></extensions></trkpt>
      <trkpt lon="-117.165534" lat="32.897950"><ele>90.790634</ele><time>2024-08-31T02:24:52Z</time><extensions><speed>0.963515</speed><course>121.547056</course><hAcc>1.900323</hAcc><vAcc>0.884151</vAcc></extensions></trkpt>
      <trkpt lon="-117.165525" lat="32.897946"><ele>90.686688</ele><time>2024-08-31T02:24:53Z</time><extensions><speed>0.995881</speed><course>125.639957</course><hAcc>1.857982</hAcc><vAcc>0.900867</vAcc></extensions></trkpt>
      <trkpt lon="-117.165516" lat="32.897940"><ele>90.587884</ele><time>2024-08-31T02:24:54Z</time><extensions><speed>1.087453</speed><course>133.726801</course><hAcc>1.838655</hAcc><vAcc>0.917963</vAcc></extensions></trkpt>
      <trkpt lon="-117.165508" lat="32.897932"><ele>90.502915</ele><time>2024-08-31T02:24:55Z</time><extensions><speed>1.144174</speed><course>137.739253</course><hAcc>1.795324</hAcc><vAcc>0.933932</vAcc></extensions></trkpt>
      <trkpt lon="-117.165500" lat="32.897924"><ele>90.419082</ele><time>2024-08-31T02:24:56Z</time><extensions><speed>1.265451</speed><course>145.009320</course><hAcc>1.763398</hAcc><vAcc>0.948204</vAcc></extensions></trkpt>
      <trkpt lon="-117.165494" lat="32.897914"><ele>90.342800</ele><time>2024-08-31T02:24:57Z</time><extensions><speed>1.263417</speed><course>156.862872</course><hAcc>1.769100</hAcc><vAcc>0.962946</vAcc></extensions></trkpt>
      <trkpt lon="-117.165489" lat="32.897903"><ele>90.254422</ele><time>2024-08-31T02:24:58Z</time><extensions><speed>1.333456</speed><course>158.523365</course><hAcc>1.728912</hAcc><vAcc>0.974831</vAcc></extensions></trkpt>
      <trkpt lon="-117.165483" lat="32.897891"><ele>90.168156</ele><time>2024-08-31T02:24:59Z</time><extensions><speed>1.351597</speed><course>158.274231</course><hAcc>1.718468</hAcc><vAcc>0.985426</vAcc></extensions></trkpt>
      <trkpt lon="-117.165478" lat="32.897880"><ele>90.098751</ele><time>2024-08-31T02:25:00Z</time><extensions><speed>1.298911</speed><course>156.006751</course><hAcc>1.733944</hAcc><vAcc>0.994324</vAcc></extensions></trkpt>
      <trkpt lon="-117.165472" lat="32.897870"><ele>90.020889</ele><time>2024-08-31T02:25:01Z</time><extensions><speed>1.312374</speed><course>148.359452</course><hAcc>1.735686</hAcc><vAcc>1.000616</vAcc></extensions></trkpt>
      <trkpt lon="-117.165464" lat="32.897860"><ele>89.943633</ele><time>2024-08-31T02:25:02Z</time><extensions><speed>1.370637</speed><course>142.975696</course><hAcc>1.757406</hAcc><vAcc>1.005414</vAcc></extensions></trkpt>
      <trkpt lon="-117.165455" lat="32.897850"><ele>89.861155</ele><time>2024-08-31T02:25:03Z</time><extensions><speed>1.307274</speed><course>145.044602</course><hAcc>1.783096</hAcc><vAcc>1.008580</vAcc></extensions></trkpt>
      <trkpt lon="-117.165448" lat="32.897841"><ele>89.782022</ele><time>2024-08-31T02:25:04Z</time><extensions><speed>1.193223</speed><course>151.367688</course><hAcc>1.793538</hAcc><vAcc>1.010158</vAcc></extensions></trkpt>
      <trkpt lon="-117.165443" lat="32.897830"><ele>89.713928</ele><time>2024-08-31T02:25:05Z</time><extensions><speed>1.352725</speed><course>159.727741</course><hAcc>1.777680</hAcc><vAcc>1.011205</vAcc></extensions></trkpt>
      <trkpt lon="-117.165438" lat="32.897818"><ele>89.640281</ele><time>2024-08-31T02:25:06Z</time><extensions><speed>1.459476</speed><course>162.499248</course><hAcc>1.765782</hAcc><vAcc>1.011021</vAcc></extensions></trkpt>
      <trkpt lon="-117.165433" lat="32.897806"><ele>89.541823</ele><time>2024-08-31T02:25:07Z</time><extensions><speed>1.370410</speed><course>162.323001</course><hAcc>1.768225</hAcc><vAcc>1.009061</vAcc></extensions></trkpt>
      <trkpt lon="-117.165429" lat="32.897794"><ele>89.454265</ele><time>2024-08-31T02:25:08Z</time><extensions><speed>1.406345</speed><course>163.289840</course><hAcc>1.730260</hAcc><vAcc>1.008216</vAcc></extensions></trkpt>
      <trkpt lon="-117.165424" lat="32.897782"><ele>89.363006</ele><time>2024-08-31T02:25:09Z</time><extensions><speed>1.393345</speed><course>162.097542</course><hAcc>1.702341</hAcc><vAcc>1.006786</vAcc></extensions></trkpt>
      <trkpt lon="-117.165420" lat="32.897769"><ele>89.259190</ele><time>2024-08-31T02:25:10Z</time><extensions><speed>1.419905</speed><course>161.982585</course><hAcc>1.684616</hAcc><vAcc>1.004259</vAcc></extensions></trkpt>
      <trkpt lon="-117.165415" lat="32.897757"><ele>89.151978</ele><time>2024-08-31T02:25:11Z</time><extensions><speed>1.410462</speed><course>161.171413</course><hAcc>1.670765</hAcc><vAcc>1.001003</vAcc></extensions></trkpt>
      <trkpt lon="-117.165410" lat="32.897745"><ele>89.046968</ele><time>2024-08-31T02:25:12Z</time><extensions><speed>1.349046</speed><course>157.528052</course><hAcc>1.658282</hAcc><vAcc>0.998565</vAcc></extensions></trkpt>
      <trkpt lon="-117.165405" lat="32.897735"><ele>88.921420</ele><time>2024-08-31T02:25:13Z</time><extensions><speed>1.218861</speed><course>156.345038</course><hAcc>1.637666</hAcc><vAcc>0.995336</vAcc></extensions></trkpt>
      <trkpt lon="-117.165400" lat="32.897724"><ele>88.793307</ele><time>2024-08-31T02:25:14Z</time><extensions><speed>1.206633</speed><course>161.775865</course><hAcc>1.611943</hAcc><vAcc>0.993134</vAcc></extensions></trkpt>
      <trkpt lon="-117.165397" lat="32.897714"><ele>88.662649</ele><time>2024-08-31T02:25:15Z</time><extensions><speed>1.246342</speed><course>167.556126</course><hAcc>1.584045</hAcc><vAcc>0.990555</vAcc></extensions></trkpt>
      <trkpt lon="-117.165394" lat="32.897702"><ele>88.525837</ele><time>2024-08-31T02:25:16Z</time><extensions><speed>1.397121</speed><course>167.697977</course><hAcc>1.562581</hAcc><vAcc>0.989525</vAcc></extensions></trkpt>
      <trkpt lon="-117.165390" lat="32.897689"><ele>88.385590</ele><time>2024-08-31T02:25:17Z</time><extensions><speed>1.559624</speed><course>165.935411</course><hAcc>1.550712</hAcc><vAcc>0.988758</vAcc></extensions></trkpt>
      <trkpt lon="-117.165386" lat="32.897675"><ele>88.251606</ele><time>2024-08-31T02:25:18Z</time><extensions><speed>1.486452</speed><course>164.424746</course><hAcc>1.565285</hAcc><vAcc>0.988213</vAcc></extensions></trkpt>
      <trkpt lon="-117.165382" lat="32.897662"><ele>88.120608</ele><time>2024-08-31T02:25:19Z</time><extensions><speed>1.498560</speed><course>167.334410</course><hAcc>1.539362</hAcc><vAcc>0.987253</vAcc></extensions></trkpt>
      <trkpt lon="-117.165379" lat="32.897649"><ele>87.982055</ele><time>2024-08-31T02:25:20Z</time><extensions><speed>1.535031</speed><course>171.093547</course><hAcc>1.516461</hAcc><vAcc>0.988061</vAcc></extensions></trkpt>
      <trkpt lon="-117.165377" lat="32.897635"><ele>87.828612</ele><time>2024-08-31T02:25:21Z</time><extensions><speed>1.469432</speed><course>173.585479</course><hAcc>1.514358</hAcc><vAcc>0.987012</vAcc></extensions></trkpt>
      <trkpt lon="-117.165376" lat="32.897622"><ele>87.670288</ele><time>2024-08-31T02:25:22Z</time><extensions><speed>1.439349</speed><course>175.044691</course><hAcc>1.511378</hAcc><vAcc>0.986989</vAcc></extensions></trkpt>
      <trkpt lon="-117.165375" lat="32.897609"><ele>87.488535</ele><time>2024-08-31T02:25:23Z</time><extensions><speed>1.441256</speed><course>176.376100</course><hAcc>1.498333</hAcc><vAcc>0.985210</vAcc></extensions></trkpt>
      <trkpt lon="-117.165374" lat="32.897596"><ele>87.306822</ele><time>2024-08-31T02:25:24Z</time><extensions><speed>1.437631</speed><course>178.492926</course><hAcc>1.514685</hAcc><vAcc>0.984721</vAcc></extensions></trkpt>
      <trkpt lon="-117.165374" lat="32.897583"><ele>87.132699</ele><time>2024-08-31T02:25:25Z</time><extensions><speed>1.457910</speed><course>180.617439</course><hAcc>1.503559</hAcc><vAcc>0.983416</vAcc></extensions></trkpt>
      <trkpt lon="-117.165374" lat="32.897570"><ele>86.960282</ele><time>2024-08-31T02:25:26Z</time><extensions><speed>1.437532</speed><course>181.135177</course><hAcc>1.509471</hAcc><vAcc>0.981548</vAcc></extensions></trkpt>
      <trkpt lon="-117.165375" lat="32.897557"><ele>86.789772</ele><time>2024-08-31T02:25:27Z</time><extensions><speed>1.411701</speed><course>179.415884</course><hAcc>1.515017</hAcc><vAcc>0.980015</vAcc></extensions></trkpt>
      <trkpt lon="-117.165374" lat="32.897544"><ele>86.617423</ele><time>2024-08-31T02:25:28Z</time><extensions><speed>1.469782</speed><course>178.169728</course><hAcc>1.524078</hAcc><vAcc>0.980618</vAcc></extensions></trkpt>
      <trkpt lon="-117.165374" lat="32.897530"><ele>86.420932</ele><time>2024-08-31T02:25:29Z</time><extensions><speed>1.518563</speed><course>179.423861</course><hAcc>1.534867</hAcc><vAcc>0.980981</vAcc></extensions></trkpt>
      <trkpt lon="-117.165375" lat="32.897517"><ele>86.208144</ele><time>2024-08-31T02:25:30Z</time><extensions><speed>1.469257</speed><course>183.969659</course><hAcc>1.555828</hAcc><vAcc>0.983100</vAcc></extensions></trkpt>
      <trkpt lon="-117.165376" lat="32.897503"><ele>85.977516</ele><time>2024-08-31T02:25:31Z</time><extensions><speed>1.512183</speed><course>187.170013</course><hAcc>1.549729</hAcc><vAcc>0.984135</vAcc></extensions></trkpt>
      <trkpt lon="-117.165378" lat="32.897490"><ele>85.731602</ele><time>2024-08-31T02:25:32Z</time><extensions><speed>1.464173</speed><course>188.347686</course><hAcc>1.556081</hAcc><vAcc>0.986544</vAcc></extensions></trkpt>
      <trkpt lon="-117.165381" lat="32.897477"><ele>85.489952</ele><time>2024-08-31T02:25:33Z</time><extensions><speed>1.462250</speed><course>189.327305</course><hAcc>1.550917</hAcc><vAcc>0.990103</vAcc></extensions></trkpt>
      <trkpt lon="-117.165383" lat="32.897464"><ele>85.253907</ele><time>2024-08-31T02:25:34Z</time><extensions><speed>1.413141</speed><course>188.771156</course><hAcc>1.567595</hAcc><vAcc>0.992035</vAcc></extensions></trkpt>
      <trkpt lon="-117.165385" lat="32.897451"><ele>85.048499</ele><time>2024-08-31T02:25:35Z</time><extensions><speed>1.400997</speed><course>187.961980</course><hAcc>1.549169</hAcc><vAcc>0.995777</vAcc></extensions></trkpt>
      <trkpt lon="-117.165387" lat="32.897439"><ele>84.849713</ele><time>2024-08-31T02:25:36Z</time><extensions><speed>1.426679</speed><course>187.363113</course><hAcc>1.546422</hAcc><vAcc>1.001508</vAcc></extensions></trkpt>
      <trkpt lon="-117.165389" lat="32.897425"><ele>84.649315</ele><time>2024-08-31T02:25:37Z</time><extensions><speed>1.585297</speed><course>187.568578</course><hAcc>1.559254</hAcc><vAcc>1.006047</vAcc></extensions></trkpt>
      <trkpt lon="-117.165391" lat="32.897411"><ele>84.447829</ele><time>2024-08-31T02:25:38Z</time><extensions><speed>1.562454</speed><course>187.075841</course><hAcc>1.574155</hAcc><vAcc>1.011116</vAcc></extensions></trkpt>
      <trkpt lon="-117.165393" lat="32.897397"><ele>84.261624</ele><time>2024-08-31T02:25:39Z</time><extensions><speed>1.615235</speed><course>184.899367</course><hAcc>1.580507</hAcc><vAcc>1.016315</vAcc></extensions></trkpt>
      <trkpt lon="-117.165394" lat="32.897382"><ele>84.076114</ele><time>2024-08-31T02:25:40Z</time><extensions><speed>1.523848</speed><course>183.759028</course><hAcc>1.598680</hAcc><vAcc>1.020215</vAcc></extensions></trkpt>
      <trkpt lon="-117.165394" lat="32.897368"><ele>83.904589</ele><time>2024-08-31T02:25:41Z</time><extensions><speed>1.527479</speed><course>180.923467</course><hAcc>1.596131</hAcc><vAcc>1.024395</vAcc></extensions></trkpt>
      <trkpt lon="-117.165395" lat="32.897355"><ele>83.747784</ele><time>2024-08-31T02:25:42Z</time><extensions><speed>1.451158</speed><course>181.079265</course><hAcc>1.612716</hAcc><vAcc>1.029342</vAcc></extensions></trkpt>
      <trkpt lon="-117.165394" lat="32.897342"><ele>83.607027</ele><time>2024-08-31T02:25:43Z</time><extensions><speed>1.374642</speed><course>176.593858</course><hAcc>1.608481</hAcc><vAcc>1.034800</vAcc></extensions></trkpt>
      <trkpt lon="-117.165393" lat="32.897330"><ele>83.466960</ele><time>2024-08-31T02:25:44Z</time><extensions><speed>1.316329</speed><course>174.994500</course><hAcc>1.605515</hAcc><vAcc>1.040795</vAcc></extensions></trkpt>
      <trkpt lon="-117.165392" lat="32.897317"><ele>83.329788</ele><time>2024-08-31T02:25:45Z</time><extensions><speed>1.432228</speed><course>174.758311</course><hAcc>1.617166</hAcc><vAcc>1.043248</vAcc></extensions></trkpt>
      <trkpt lon="-117.165391" lat="32.897304"><ele>83.188798</ele><time>2024-08-31T02:25:46Z</time><extensions><speed>1.443490</speed><course>177.970500</course><hAcc>1.645867</hAcc><vAcc>1.045537</vAcc></extensions></trkpt>
      <trkpt lon="-117.165390" lat="32.897291"><ele>83.035539</ele><time>2024-08-31T02:25:47Z</time><extensions><speed>1.518607</speed><course>177.385583</course><hAcc>1.627576</hAcc><vAcc>1.046364</vAcc></extensions></trkpt>
      <trkpt lon="-117.165389" lat="32.897277"><ele>82.879246</ele><time>2024-08-31T02:25:48Z</time><extensions><speed>1.590974</speed><course>176.231255</course><hAcc>1.619360</hAcc><vAcc>1.047580</vAcc></extensions></trkpt>
      <trkpt lon="-117.165387" lat="32.897263"><ele>82.705555</ele><time>2024-08-31T02:25:49Z</time><extensions><speed>1.575885</speed><course>174.541838</course><hAcc>1.621460</hAcc><vAcc>1.047347</vAcc></extensions></trkpt>
      <trkpt lon="-117.165385" lat="32.897248"><ele>82.532475</ele><time>2024-08-31T02:25:50Z</time><extensions><speed>1.583467</speed><course>173.470215</course><hAcc>1.617116</hAcc><vAcc>1.047022</vAcc></extensions></trkpt>
      <trkpt lon="-117.165383" lat="32.897234"><ele>82.352735</ele><time>2024-08-31T02:25:51Z</time><extensions><speed>1.543982</speed><course>173.723016</course><hAcc>1.621836</hAcc><vAcc>1.048206</vAcc></extensions></trkpt>
      <trkpt lon="-117.165382" lat="32.897221"><ele>82.170903</ele><time>2024-08-31T02:25:52Z</time><extensions><speed>1.488819</speed><course>175.918849</course><hAcc>1.629970</hAcc><vAcc>1.051120</vAcc></extensions></trkpt>
      <trkpt lon="-117.165381" lat="32.897207"><ele>81.968344</ele><time>2024-08-31T02:25:53Z</time><extensions><speed>1.511620</speed><course>178.908316</course><hAcc>1.640389</hAcc><vAcc>1.053139</vAcc></extensions></trkpt>
      <trkpt lon="-117.165381" lat="32.897193"><ele>81.736290</ele><time>2024-08-31T02:25:54Z</time><extensions><speed>1.497171</speed><course>182.176965</course><hAcc>1.651117</hAcc><vAcc>1.052671</vAcc></extensions></trkpt>
      <trkpt lon="-117.165382" lat="32.897180"><ele>81.496063</ele><time>2024-08-31T02:25:55Z</time><extensions><speed>1.461515</speed><course>180.890423</course><hAcc>1.658604</hAcc><vAcc>1.052976</vAcc></extensions></trkpt>
      <trkpt lon="-117.165381" lat="32.897168"><ele>81.257125</ele><time>2024-08-31T02:25:56Z</time><extensions><speed>1.392442</speed><course>175.651105</course><hAcc>1.674845</hAcc><vAcc>1.053458</vAcc></extensions></trkpt>
      <trkpt lon="-117.165379" lat="32.897155"><ele>81.021456</ele><time>2024-08-31T02:25:57Z</time><extensions><speed>1.354291</speed><course>171.259640</course><hAcc>1.697533</hAcc><vAcc>1.055716</vAcc></extensions></trkpt>
      <trkpt lon="-117.165377" lat="32.897144"><ele>80.809893</ele><time>2024-08-31T02:25:58Z</time><extensions><speed>1.326644</speed><course>173.403449</course><hAcc>1.728117</hAcc><vAcc>1.058909</vAcc></extensions></trkpt>
      <trkpt lon="-117.165375" lat="32.897132"><ele>80.641055</ele><time>2024-08-31T02:25:59Z</time><extensions><speed>1.263023</speed><course>174.183593</course><hAcc>1.758043</hAcc><vAcc>1.062740</vAcc></extensions></trkpt>
      <trkpt lon="-117.165373" lat="32.897121"><ele>80.497389</ele><time>2024-08-31T02:26:00Z</time><extensions><speed>1.288526</speed><course>171.034265</course><hAcc>1.792803</hAcc><vAcc>1.068917</vAcc></extensions></trkpt>
      <trkpt lon="-117.165370" lat="32.897109"><ele>80.388209</ele><time>2024-08-31T02:26:01Z</time><extensions><speed>1.370925</speed><course>166.478691</course><hAcc>1.829633</hAcc><vAcc>1.074067</vAcc></extensions></trkpt>
      <trkpt lon="-117.165366" lat="32.897098"><ele>80.295062</ele><time>2024-08-31T02:26:02Z</time><extensions><speed>1.334490</speed><course>158.789489</course><hAcc>1.864246</hAcc><vAcc>1.080029</vAcc></extensions></trkpt>
      <trkpt lon="-117.165360" lat="32.897088"><ele>80.202676</ele><time>2024-08-31T02:26:03Z</time><extensions><speed>1.200643</speed><course>150.736954</course><hAcc>1.877683</hAcc><vAcc>1.087476</vAcc></extensions></trkpt>
      <trkpt lon="-117.165352" lat="32.897080"><ele>80.131933</ele><time>2024-08-31T02:26:04Z</time><extensions><speed>1.078773</speed><course>135.551672</course><hAcc>1.891885</hAcc><vAcc>1.095488</vAcc></extensions></trkpt>
      <trkpt lon="-117.165342" lat="32.897075"><ele>80.089621</ele><time>2024-08-31T02:26:05Z</time><extensions><speed>1.003442</speed><course>112.519366</course><hAcc>1.906224</hAcc><vAcc>1.104098</vAcc></extensions></trkpt>
      <trkpt lon="-117.165331" lat="32.897073"><ele>80.081881</ele><time>2024-08-31T02:26:06Z</time><extensions><speed>1.119884</speed><course>92.345427</course><hAcc>1.913149</hAcc><vAcc>1.112018</vAcc></extensions></trkpt>
      <trkpt lon="-117.165317" lat="32.897073"><ele>80.087723</ele><time>2024-08-31T02:26:07Z</time><extensions><speed>1.311025</speed><course>81.485134</course><hAcc>1.911602</hAcc><vAcc>1.117575</vAcc></extensions></trkpt>
      <trkpt lon="-117.165302" lat="32.897075"><ele>80.091631</ele><time>2024-08-31T02:26:08Z</time><extensions><speed>1.521690</speed><course>79.127001</course><hAcc>1.911341</hAcc><vAcc>1.121654</vAcc></extensions></trkpt>
      <trkpt lon="-117.165284" lat="32.897077"><ele>80.107212</ele><time>2024-08-31T02:26:09Z</time><extensions><speed>1.632182</speed><course>80.459686</course><hAcc>1.904752</hAcc><vAcc>1.127006</vAcc></extensions></trkpt>
      <trkpt lon="-117.165267" lat="32.897079"><ele>80.120234</ele><time>2024-08-31T02:26:10Z</time><extensions><speed>1.548704</speed><course>85.057926</course><hAcc>1.901951</hAcc><vAcc>1.131891</vAcc></extensions></trkpt>
      <trkpt lon="-117.165250" lat="32.897079"><ele>80.125125</ele><time>2024-08-31T02:26:11Z</time><extensions><speed>1.516750</speed><course>87.170334</course><hAcc>1.869503</hAcc><vAcc>1.135312</vAcc></extensions></trkpt>
      <trkpt lon="-117.165233" lat="32.897080"><ele>80.117093</ele><time>2024-08-31T02:26:12Z</time><extensions><speed>1.563814</speed><course>88.726210</course><hAcc>1.844594</hAcc><vAcc>1.137488</vAcc></extensions></trkpt>
      <trkpt lon="-117.165216" lat="32.897080"><ele>80.105322</ele><time>2024-08-31T02:26:13Z</time><extensions><speed>1.614348</speed><course>91.677013</course><hAcc>1.843862</hAcc><vAcc>1.138481</vAcc></extensions></trkpt>
      <trkpt lon="-117.165198" lat="32.897079"><ele>80.105859</ele><time>2024-08-31T02:26:14Z</time><extensions><speed>1.670321</speed><course>94.421264</course><hAcc>1.830039</hAcc><vAcc>1.136394</vAcc></extensions></trkpt>
      <trkpt lon="-117.165180" lat="32.897077"><ele>80.088216</ele><time>2024-08-31T02:26:15Z</time><extensions><speed>1.680878</speed><course>98.746466</course><hAcc>1.810084</hAcc><vAcc>1.133828</vAcc></extensions></trkpt>
      <trkpt lon="-117.165163" lat="32.897074"><ele>80.072450</ele><time>2024-08-31T02:26:16Z</time><extensions><speed>1.718550</speed><course>104.719207</course><hAcc>1.785046</hAcc><vAcc>1.130022</vAcc></extensions></trkpt>
      <trkpt lon="-117.165145" lat="32.897069"><ele>80.065371</ele><time>2024-08-31T02:26:17Z</time><extensions><speed>1.713430</speed><course>110.030913</course><hAcc>1.768958</hAcc><vAcc>1.124377</vAcc></extensions></trkpt>
      <trkpt lon="-117.165128" lat="32.897063"><ele>80.055795</ele><time>2024-08-31T02:26:18Z</time><extensions><speed>1.763119</speed><course>115.743487</course><hAcc>1.764591</hAcc><vAcc>1.120039</vAcc></extensions></trkpt>
      <trkpt lon="-117.165112" lat="32.897056"><ele>80.048942</ele><time>2024-08-31T02:26:19Z</time><extensions><speed>1.592176</speed><course>122.162599</course><hAcc>1.774176</hAcc><vAcc>1.113846</vAcc></extensions></trkpt>
      <trkpt lon="-117.165098" lat="32.897047"><ele>80.025607</ele><time>2024-08-31T02:26:20Z</time><extensions><speed>1.509731</speed><course>131.824278</course><hAcc>1.764204</hAcc><vAcc>1.108531</vAcc></extensions></trkpt>
      <trkpt lon="-117.165087" lat="32.897038"><ele>80.011505</ele><time>2024-08-31T02:26:21Z</time><extensions><speed>1.434621</speed><course>140.498381</course><hAcc>1.743129</hAcc><vAcc>1.103085</vAcc></extensions></trkpt>
      <trkpt lon="-117.165078" lat="32.897027"><ele>80.017360</ele><time>2024-08-31T02:26:22Z</time><extensions><speed>1.434980</speed><course>144.982515</course><hAcc>1.729688</hAcc><vAcc>1.097201</vAcc></extensions></trkpt>
      <trkpt lon="-117.165069" lat="32.897016"><ele>80.028638</ele><time>2024-08-31T02:26:23Z</time><extensions><speed>1.457078</speed><course>145.893767</course><hAcc>1.725239</hAcc><vAcc>1.094359</vAcc></extensions></trkpt>
      <trkpt lon="-117.165060" lat="32.897005"><ele>80.038104</ele><time>2024-08-31T02:26:24Z</time><extensions><speed>1.527639</speed><course>140.723889</course><hAcc>1.720013</hAcc><vAcc>1.092505</vAcc></extensions></trkpt>
      <trkpt lon="-117.165049" lat="32.896994"><ele>80.053217</ele><time>2024-08-31T02:26:25Z</time><extensions><speed>1.486288</speed><course>134.928207</course><hAcc>1.722608</hAcc><vAcc>1.091260</vAcc></extensions></trkpt>
      <trkpt lon="-117.165037" lat="32.896984"><ele>80.086769</ele><time>2024-08-31T02:26:26Z</time><extensions><speed>1.545054</speed><course>133.106282</course><hAcc>1.693281</hAcc><vAcc>1.087684</vAcc></extensions></trkpt>
      <trkpt lon="-117.165025" lat="32.896974"><ele>80.112915</ele><time>2024-08-31T02:26:27Z</time><extensions><speed>1.633279</speed><course>131.519875</course><hAcc>1.684611</hAcc><vAcc>1.083645</vAcc></extensions></trkpt>
      <trkpt lon="-117.165012" lat="32.896964"><ele>80.129929</ele><time>2024-08-31T02:26:28Z</time><extensions><speed>1.520661</speed><course>128.243903</course><hAcc>1.699803</hAcc><vAcc>1.082058</vAcc></extensions></trkpt>
      <trkpt lon="-117.165000" lat="32.896956"><ele>80.118863</ele><time>2024-08-31T02:26:29Z</time><extensions><speed>1.591993</speed><course>127.095269</course><hAcc>1.673367</hAcc><vAcc>1.079189</vAcc></extensions></trkpt>
      <trkpt lon="-117.164987" lat="32.896947"><ele>80.101319</ele><time>2024-08-31T02:26:30Z</time><extensions><speed>1.478110</speed><course>128.624205</course><hAcc>1.681129</hAcc><vAcc>1.075821</vAcc></extensions></trkpt>
      <trkpt lon="-117.164976" lat="32.896938"><ele>80.073352</ele><time>2024-08-31T02:26:31Z</time><extensions><speed>1.487047</speed><course>135.746683</course><hAcc>1.646023</hAcc><vAcc>1.071914</vAcc></extensions></trkpt>
      <trkpt lon="-117.164966" lat="32.896927"><ele>80.035865</ele><time>2024-08-31T02:26:32Z</time><extensions><speed>1.609989</speed><course>144.641286</course><hAcc>1.633171</hAcc><vAcc>1.067465</vAcc></extensions></trkpt>
      <trkpt lon="-117.164956" lat="32.896915"><ele>79.977507</ele><time>2024-08-31T02:26:33Z</time><extensions><speed>1.609049</speed><course>150.477554</course><hAcc>1.652675</hAcc><vAcc>1.061799</vAcc></extensions></trkpt>
      <trkpt lon="-117.164949" lat="32.896902"><ele>79.915869</ele><time>2024-08-31T02:26:34Z</time><extensions><speed>1.564818</speed><course>154.500313</course><hAcc>1.672924</hAcc><vAcc>1.058842</vAcc></extensions></trkpt>
      <trkpt lon="-117.164942" lat="32.896888"><ele>79.861421</ele><time>2024-08-31T02:26:35Z</time><extensions><speed>1.706327</speed><course>161.301948</course><hAcc>1.656638</hAcc><vAcc>1.056535</vAcc></extensions></trkpt>
      <trkpt lon="-117.164937" lat="32.896872"><ele>79.801643</ele><time>2024-08-31T02:26:36Z</time><extensions><speed>1.812522</speed><course>169.387019</course><hAcc>1.645017</hAcc><vAcc>1.055577</vAcc></extensions></trkpt>
      <trkpt lon="-117.164935" lat="32.896856"><ele>79.696522</ele><time>2024-08-31T02:26:37Z</time><extensions><speed>1.777248</speed><course>178.109045</course><hAcc>1.659330</hAcc><vAcc>1.053332</vAcc></extensions></trkpt>
      <trkpt lon="-117.164936" lat="32.896841"><ele>79.526789</ele><time>2024-08-31T02:26:38Z</time><extensions><speed>1.582944</speed><course>186.556918</course><hAcc>1.682440</hAcc><vAcc>1.047203</vAcc></extensions></trkpt>
      <trkpt lon="-117.164938" lat="32.896828"><ele>79.349189</ele><time>2024-08-31T02:26:39Z</time><extensions><speed>1.413563</speed><course>195.852509</course><hAcc>1.673495</hAcc><vAcc>1.041086</vAcc></extensions></trkpt>
      <trkpt lon="-117.164943" lat="32.896817"><ele>79.155464</ele><time>2024-08-31T02:26:40Z</time><extensions><speed>1.250297</speed><course>203.291744</course><hAcc>1.677306</hAcc><vAcc>1.036067</vAcc></extensions></trkpt>
      <trkpt lon="-117.164948" lat="32.896806"><ele>78.919707</ele><time>2024-08-31T02:26:41Z</time><extensions><speed>1.229924</speed><course>206.260544</course><hAcc>1.692245</hAcc><vAcc>1.029568</vAcc></extensions></trkpt>
      <trkpt lon="-117.164954" lat="32.896796"><ele>78.626278</ele><time>2024-08-31T02:26:42Z</time><extensions><speed>1.316176</speed><course>203.033146</course><hAcc>1.701321</hAcc><vAcc>1.018541</vAcc></extensions></trkpt>
      <trkpt lon="-117.164958" lat="32.896784"><ele>78.341569</ele><time>2024-08-31T02:26:43Z</time><extensions><speed>1.366280</speed><course>194.680021</course><hAcc>1.708204</hAcc><vAcc>1.005496</vAcc></extensions></trkpt>
      <trkpt lon="-117.164961" lat="32.896771"><ele>78.029592</ele><time>2024-08-31T02:26:44Z</time><extensions><speed>1.577573</speed><course>189.021661</course><hAcc>1.755025</hAcc><vAcc>0.992502</vAcc></extensions></trkpt>
      <trkpt lon="-117.164963" lat="32.896757"><ele>77.695330</ele><time>2024-08-31T02:26:45Z</time><extensions><speed>1.469535</speed><course>185.536868</course><hAcc>1.797840</hAcc><vAcc>0.979029</vAcc></extensions></trkpt>
      <trkpt lon="-117.164965" lat="32.896745"><ele>77.356201</ele><time>2024-08-31T02:26:46Z</time><extensions><speed>1.317402</speed><course>186.099171</course><hAcc>1.805746</hAcc><vAcc>0.964499</vAcc></extensions></trkpt>
      <trkpt lon="-117.164965" lat="32.896735"><ele>77.004463</ele><time>2024-08-31T02:26:47Z</time><extensions><speed>0.818152</speed><course>175.385643</course><hAcc>1.786094</hAcc><vAcc>0.948602</vAcc></extensions></trkpt>
      <trkpt lon="-117.164963" lat="32.896730"><ele>76.662415</ele><time>2024-08-31T02:26:48Z</time><extensions><speed>0.410979</speed><course>133.225015</course><hAcc>1.808027</hAcc><vAcc>0.931315</vAcc></extensions></trkpt>
      <trkpt lon="-117.164959" lat="32.896728"><ele>76.303262</ele><time>2024-08-31T02:26:49Z</time><extensions><speed>0.459248</speed><course>110.199824</course><hAcc>1.833114</hAcc><vAcc>0.912845</vAcc></extensions></trkpt>
      <trkpt lon="-117.164955" lat="32.896726"><ele>75.934503</ele><time>2024-08-31T02:26:50Z</time><extensions><speed>0.501240</speed><course>127.922674</course><hAcc>1.876636</hAcc><vAcc>0.893552</vAcc></extensions></trkpt>
      <trkpt lon="-117.164952" lat="32.896722"><ele>75.566464</ele><time>2024-08-31T02:26:51Z</time><extensions><speed>0.669075</speed><course>162.818567</course><hAcc>1.907370</hAcc><vAcc>0.873936</vAcc></extensions></trkpt>
      <trkpt lon="-117.164950" lat="32.896714"><ele>75.200701</ele><time>2024-08-31T02:26:52Z</time><extensions><speed>1.063131</speed><course>175.295091</course><hAcc>1.930521</hAcc><vAcc>0.854657</vAcc></extensions></trkpt>
      <trkpt lon="-117.164950" lat="32.896703"><ele>74.841845</ele><time>2024-08-31T02:26:53Z</time><extensions><speed>1.334948</speed><course>178.620459</course><hAcc>1.971092</hAcc><vAcc>0.836453</vAcc></extensions></trkpt>
      <trkpt lon="-117.164950" lat="32.896690"><ele>74.495598</ele><time>2024-08-31T02:26:54Z</time><extensions><speed>1.524412</speed><course>180.253791</course><hAcc>2.028355</hAcc><vAcc>0.819963</vAcc></extensions></trkpt>
      <trkpt lon="-117.164950" lat="32.896677"><ele>74.161658</ele><time>2024-08-31T02:26:55Z</time><extensions><speed>1.523162</speed><course>181.196843</course><hAcc>2.108826</hAcc><vAcc>0.805602</vAcc></extensions></trkpt>
      <trkpt lon="-117.164951" lat="32.896662"><ele>73.851446</ele><time>2024-08-31T02:26:56Z</time><extensions><speed>1.629338</speed><course>183.917679</course><hAcc>2.141314</hAcc><vAcc>0.793537</vAcc></extensions></trkpt>
      <trkpt lon="-117.164952" lat="32.896647"><ele>73.552125</ele><time>2024-08-31T02:26:57Z</time><extensions><speed>1.695600</speed><course>187.013728</course><hAcc>2.208017</hAcc><vAcc>0.785504</vAcc></extensions></trkpt>
      <trkpt lon="-117.164955" lat="32.896632"><ele>73.270138</ele><time>2024-08-31T02:26:58Z</time><extensions><speed>1.693799</speed><course>187.658496</course><hAcc>2.354943</hAcc><vAcc>0.784363</vAcc></extensions></trkpt>
      <trkpt lon="-117.164957" lat="32.896617"><ele>73.002327</ele><time>2024-08-31T02:26:59Z</time><extensions><speed>1.638752</speed><course>187.018532</course><hAcc>2.604200</hAcc><vAcc>0.789760</vAcc></extensions></trkpt>
      <trkpt lon="-117.164959" lat="32.896603"><ele>72.748816</ele><time>2024-08-31T02:27:00Z</time><extensions><speed>1.533543</speed><course>185.728331</course><hAcc>2.966955</hAcc><vAcc>0.803962</vAcc></extensions></trkpt>
      <trkpt lon="-117.164960" lat="32.896590"><ele>72.509305</ele><time>2024-08-31T02:27:01Z</time><extensions><speed>1.422727</speed><course>185.029721</course><hAcc>3.447531</hAcc><vAcc>0.829865</vAcc></extensions></trkpt>
      <trkpt lon="-117.164961" lat="32.896577"><ele>72.282878</ele><time>2024-08-31T02:27:02Z</time><extensions><speed>1.341354</speed><course>184.532642</course><hAcc>4.026500</hAcc><vAcc>0.870821</vAcc></extensions></trkpt>
      <trkpt lon="-117.164962" lat="32.896566"><ele>72.068029</ele><time>2024-08-31T02:27:03Z</time><extensions><speed>1.269008</speed><course>184.075141</course><hAcc>4.699560</hAcc><vAcc>0.930289</vAcc></extensions></trkpt>
      <trkpt lon="-117.164963" lat="32.896555"><ele>71.862777</ele><time>2024-08-31T02:27:04Z</time><extensions><speed>1.192333</speed><course>183.647961</course><hAcc>5.476853</hAcc><vAcc>1.011372</vAcc></extensions></trkpt>
      <trkpt lon="-117.164964" lat="32.896544"><ele>71.664839</ele><time>2024-08-31T02:27:05Z</time><extensions><speed>1.102439</speed><course>183.237418</course><hAcc>6.377514</hAcc><vAcc>1.116412</vAcc></extensions></trkpt>
      <trkpt lon="-117.164965" lat="32.896535"><ele>71.471831</ele><time>2024-08-31T02:27:06Z</time><extensions><speed>0.995805</speed><course>182.885094</course><hAcc>7.426222</hAcc><vAcc>1.246749</vAcc></extensions></trkpt>
      <trkpt lon="-117.164965" lat="32.896526"><ele>71.273156</ele><time>2024-08-31T02:27:07Z</time><extensions><speed>0.858781</speed><course>182.625372</course><hAcc>8.708963</hAcc><vAcc>1.410145</vAcc></extensions></trkpt>
    </trkseg>
  </trk>
</gpx>