<?xml version="1.0" encoding="UTF-8"?>
<gpx version="1.1" creator="Apple Health Export" xmlns="http://www.topografix.com/GPX/1/1" xmlns:xsi="http://www.w3.org/2001/XMLSchema-instance" xsi:schemaLocation="http://www.topografix.com/GPX/1/1 http://www.topografix.com/GPX/1/1/gpx.xsd">
  <metadata>
    <time>2026-01-11T07:57:29Z</time>
  </metadata>
  <trk>
    <name>Route 2024-05-13 1:25pm</name>
    <trkseg>
      <trkpt lon="-117.324428" lat="33.974192"><ele>328.142057</ele><time>2024-05-13T20:24:43Z</time><extensions><speed>1.122339</speed><course>238.287353</course><hAcc>2.970000</hAcc><vAcc>1.217027</vAcc></extensions></trkpt>
      <trkpt lon="-117.324438" lat="33.974187"><ele>328.155695</ele><time>2024-05-13T20:24:44Z</time><extensions><speed>1.110391</speed><course>235.993828</course><hAcc>2.841154</hAcc><vAcc>1.044917</vAcc></extensions></trkpt>
      <trkpt lon="-117.324448" lat="33.974182"><ele>328.168336</ele><time>2024-05-13T20:24:45Z</time><extensions><speed>1.068272</speed><course>238.661206</course><hAcc>2.745786</hAcc><vAcc>0.914287</vAcc></extensions></trkpt>
      <trkpt lon="-117.324458" lat="33.974178"><ele>328.176489</ele><time>2024-05-13T20:24:46Z</time><extensions><speed>1.046309</speed><course>250.270038</course><hAcc>2.671489</hAcc><vAcc>0.819054</vAcc></extensions></trkpt>
      <trkpt lon="-117.324469" lat="33.974177"><ele>328.181542</ele><time>2024-05-13T20:24:47Z</time><extensions><speed>0.999713</speed><course>269.214803</course><hAcc>2.638851</hAcc><vAcc>0.752994</vAcc></extensions></trkpt>
      <trkpt lon="-117.324479" lat="33.974180"><ele>328.182135</ele><time>2024-05-13T20:24:48Z</time><extensions><speed>1.114156</speed><course>298.442679</course><hAcc>2.677788</hAcc><vAcc>0.709700</vAcc></extensions></trkpt>
      <trkpt lon="-117.324490" lat="33.974185"><ele>328.178154</ele><time>2024-05-13T20:24:49Z</time><extensions><speed>1.212602</speed><course>303.566298</course><hAcc>2.651992</hAcc><vAcc>0.683015</vAcc></extensions></trkpt>
      <trkpt lon="-117.324500" lat="33.974192"><ele>328.170258</ele><time>2024-05-13T20:24:50Z</time><extensions><speed>1.320982</speed><course>309.700882</course><hAcc>2.621003</hAcc><vAcc>0.667578</vAcc></extensions></trkpt>
      <trkpt lon="-117.324511" lat="33.974200"><ele>328.158988</ele><time>2024-05-13T20:24:51Z</time><extensions><speed>1.417781</speed><course>314.029713</course><hAcc>2.688701</hAcc><vAcc>0.659192</vAcc></extensions></trkpt>
      <trkpt lon="-117.324522" lat="33.974209"><ele>328.144690</ele><time>2024-05-13T20:24:52Z</time><extensions><speed>1.460277</speed><course>314.736880</course><hAcc>2.900356</hAcc><vAcc>0.654865</vAcc></extensions></trkpt>
      <trkpt lon="-117.324532" lat="33.974218"><ele>328.127624</ele><time>2024-05-13T20:24:53Z</time><extensions><speed>1.442241</speed><course>312.094535</course><hAcc>3.160085</hAcc><vAcc>0.652645</vAcc></extensions></trkpt>
      <trkpt lon="-117.324543" lat="33.974227"><ele>328.108114</ele><time>2024-05-13T20:24:54Z</time><extensions><speed>1.411332</speed><course>310.861570</course><hAcc>3.364727</hAcc><vAcc>0.651417</vAcc></extensions></trkpt>
      <trkpt lon="-117.324555" lat="33.974235"><ele>328.087228</ele><time>2024-05-13T20:24:55Z</time><extensions><speed>1.373647</speed><course>310.002567</course><hAcc>3.553075</hAcc><vAcc>0.652704</vAcc></extensions></trkpt>
      <trkpt lon="-117.324566" lat="33.974242"><ele>328.064404</ele><time>2024-05-13T20:24:56Z</time><extensions><speed>1.323612</speed><course>309.071136</course><hAcc>3.748687</hAcc><vAcc>0.656079</vAcc></extensions></trkpt>
      <trkpt lon="-117.324577" lat="33.974250"><ele>328.040092</ele><time>2024-05-13T20:24:57Z</time><extensions><speed>1.259039</speed><course>308.330746</course><hAcc>3.965987</hAcc><vAcc>0.663284</vAcc></extensions></trkpt>
      <trkpt lon="-117.324587" lat="33.974256"><ele>328.014805</ele><time>2024-05-13T20:24:58Z</time><extensions><speed>1.188836</speed><course>307.632250</course><hAcc>4.220786</hAcc><vAcc>0.677076</vAcc></extensions></trkpt>
      <trkpt lon="-117.324597" lat="33.974263"><ele>327.989048</ele><time>2024-05-13T20:24:59Z</time><extensions><speed>1.112503</speed><course>306.892471</course><hAcc>4.525255</hAcc><vAcc>0.701242</vAcc></extensions></trkpt>
      <trkpt lon="-117.324607" lat="33.974269"><ele>327.963235</ele><time>2024-05-13T20:25:00Z</time><extensions><speed>1.045270</speed><course>306.067574</course><hAcc>4.884506</hAcc><vAcc>0.740366</vAcc></extensions></trkpt>
      <trkpt lon="-117.324616" lat="33.974274"><ele>327.937639</ele><time>2024-05-13T20:25:01Z</time><extensions><speed>0.992232</speed><course>305.192416</course><hAcc>5.303719</hAcc><vAcc>0.799249</vAcc></extensions></trkpt>
      <trkpt lon="-117.324624" lat="33.974279"><ele>327.912388</ele><time>2024-05-13T20:25:02Z</time><extensions><speed>0.953334</speed><course>304.350941</course><hAcc>5.794979</hAcc><vAcc>0.882120</vAcc></extensions></trkpt>
      <trkpt lon="-117.324633" lat="33.974284"><ele>327.887483</ele><time>2024-05-13T20:25:03Z</time><extensions><speed>0.939457</speed><course>303.625862</course><hAcc>6.390022</hAcc><vAcc>0.991926</vAcc></extensions></trkpt>
      <trkpt lon="-117.324642" lat="33.974289"><ele>327.861456</ele><time>2024-05-13T20:25:04Z</time><extensions><speed>0.934040</speed><course>303.142181</course><hAcc>7.208513</hAcc><vAcc>1.138560</vAcc></extensions></trkpt>
    </trkseg>
  </trk>
</gpx>