<?xml version="1.0" encoding="UTF-8"?>
<gpx version="1.1" creator="Apple Health Export" xmlns="http://www.topografix.com/GPX/1/1" xmlns:xsi="http://www.w3.org/2001/XMLSchema-instance" xsi:schemaLocation="http://www.topografix.com/GPX/1/1 http://www.topografix.com/GPX/1/1/gpx.xsd">
  <metadata>
    <time>2026-01-11T07:58:11Z</time>
  </metadata>
  <trk>
    <name>Route 2025-04-21 7:59pm</name>
    <trkseg>
      <trkpt lon="-117.330606" lat="33.979380"><ele>320.856985</ele><time>2025-04-22T02:53:06Z</time><extensions><speed>1.205202</speed><course>81.061171</course><hAcc>2.468216</hAcc><vAcc>1.438631</vAcc></extensions></trkpt>
      <trkpt lon="-117.330594" lat="33.979382"><ele>320.853730</ele><time>2025-04-22T02:53:07Z</time><extensions><speed>1.205713</speed><course>80.758410</course><hAcc>2.339441</hAcc><vAcc>1.252903</vAcc></extensions></trkpt>
      <trkpt lon="-117.330581" lat="33.979384"><ele>320.867496</ele><time>2025-04-22T02:53:08Z</time><extensions><speed>1.197106</speed><course>79.694527</course><hAcc>2.224478</hAcc><vAcc>1.108417</vAcc></extensions></trkpt>
      <trkpt lon="-117.330569" lat="33.979386"><ele>320.891683</ele><time>2025-04-22T02:53:09Z</time><extensions><speed>1.182096</speed><course>78.326799</course><hAcc>2.108923</hAcc><vAcc>0.999256</vAcc></extensions></trkpt>
      <trkpt lon="-117.330557" lat="33.979388"><ele>320.921582</ele><time>2025-04-22T02:53:10Z</time><extensions><speed>1.142068</speed><course>76.222302</course><hAcc>2.001347</hAcc><vAcc>0.919664</vAcc></extensions></trkpt>
      <trkpt lon="-117.330545" lat="33.979390"><ele>320.955830</ele><time>2025-04-22T02:53:11Z</time><extensions><speed>1.134606</speed><course>75.655381</course><hAcc>1.905240</hAcc><vAcc>0.863919</vAcc></extensions></trkpt>
      <trkpt lon="-117.330533" lat="33.979393"><ele>320.993365</ele><time>2025-04-22T02:53:12Z</time><extensions><speed>1.127748</speed><course>76.024535</course><hAcc>1.822522</hAcc><vAcc>0.826519</vAcc></extensions></trkpt>
      <trkpt lon="-117.330522" lat="33.979395"><ele>321.034219</ele><time>2025-04-22T02:53:13Z</time><extensions><speed>1.097306</speed><course>76.813927</course><hAcc>1.752318</hAcc><vAcc>0.802501</vAcc></extensions></trkpt>
      <trkpt lon="-117.330510" lat="33.979397"><ele>321.077784</ele><time>2025-04-22T02:53:14Z</time><extensions><speed>1.078461</speed><course>81.319038</course><hAcc>1.697145</hAcc><vAcc>0.787723</vAcc></extensions></trkpt>
      <trkpt lon="-117.330499" lat="33.979397"><ele>321.123222</ele><time>2025-04-22T02:53:15Z</time><extensions><speed>1.095960</speed><course>92.140425</course><hAcc>1.677745</hAcc><vAcc>0.778975</vAcc></extensions></trkpt>
      <trkpt lon="-117.330487" lat="33.979397"><ele>321.168830</ele><time>2025-04-22T02:53:16Z</time><extensions><speed>1.084698</speed><course>85.609108</course><hAcc>1.648145</hAcc><vAcc>0.773932</vAcc></extensions></trkpt>
      <trkpt lon="-117.330476" lat="33.979398"><ele>321.214434</ele><time>2025-04-22T02:53:17Z</time><extensions><speed>1.074549</speed><course>84.949795</course><hAcc>1.608121</hAcc><vAcc>0.771011</vAcc></extensions></trkpt>
      <trkpt lon="-117.330464" lat="33.979398"><ele>321.259345</ele><time>2025-04-22T02:53:18Z</time><extensions><speed>1.079852</speed><course>86.850869</course><hAcc>1.590459</hAcc><vAcc>0.769204</vAcc></extensions></trkpt>
      <trkpt lon="-117.330453" lat="33.979398"><ele>321.304064</ele><time>2025-04-22T02:53:19Z</time><extensions><speed>1.079982</speed><course>87.349897</course><hAcc>1.558730</hAcc><vAcc>0.767909</vAcc></extensions></trkpt>
      <trkpt lon="-117.330441" lat="33.979399"><ele>321.347816</ele><time>2025-04-22T02:53:20Z</time><extensions><speed>1.107944</speed><course>87.324631</course><hAcc>1.529120</hAcc><vAcc>0.766800</vAcc></extensions></trkpt>
      <trkpt lon="-117.330429" lat="33.979399"><ele>321.392316</ele><time>2025-04-22T02:53:21Z</time><extensions><speed>1.115465</speed><course>88.390651</course><hAcc>1.529336</hAcc><vAcc>0.765727</vAcc></extensions></trkpt>
      <trkpt lon="-117.330417" lat="33.979399"><ele>321.428710</ele><time>2025-04-22T02:53:22Z</time><extensions><speed>1.071109</speed><course>91.451901</course><hAcc>1.514131</hAcc><vAcc>0.764644</vAcc></extensions></trkpt>
      <trkpt lon="-117.330406" lat="33.979398"><ele>321.467404</ele><time>2025-04-22T02:53:23Z</time><extensions><speed>1.088319</speed><course>90.753434</course><hAcc>1.493646</hAcc><vAcc>0.763557</vAcc></extensions></trkpt>
      <trkpt lon="-117.330394" lat="33.979398"><ele>321.505564</ele><time>2025-04-22T02:53:24Z</time><extensions><speed>1.089899</speed><course>90.311694</course><hAcc>1.475785</hAcc><vAcc>0.762496</vAcc></extensions></trkpt>
      <trkpt lon="-117.330382" lat="33.979398"><ele>321.541851</ele><time>2025-04-22T02:53:25Z</time><extensions><speed>1.090251</speed><course>90.392680</course><hAcc>1.460714</hAcc><vAcc>0.761496</vAcc></extensions></trkpt>
      <trkpt lon="-117.330370" lat="33.979397"><ele>321.581026</ele><time>2025-04-22T02:53:26Z</time><extensions><speed>1.089510</speed><course>89.192618</course><hAcc>1.451618</hAcc><vAcc>0.760585</vAcc></extensions></trkpt>
      <trkpt lon="-117.330358" lat="33.979398"><ele>321.619015</ele><time>2025-04-22T02:53:27Z</time><extensions><speed>1.078033</speed><course>87.687809</course><hAcc>1.445661</hAcc><vAcc>0.759782</vAcc></extensions></trkpt>
      <trkpt lon="-117.330347" lat="33.979397"><ele>321.655891</ele><time>2025-04-22T02:53:28Z</time><extensions><speed>1.079434</speed><course>92.979621</course><hAcc>1.441609</hAcc><vAcc>0.759095</vAcc></extensions></trkpt>
      <trkpt lon="-117.330335" lat="33.979396"><ele>321.692238</ele><time>2025-04-22T02:53:29Z</time><extensions><speed>1.081546</speed><course>96.857558</course><hAcc>1.447289</hAcc><vAcc>0.761317</vAcc></extensions></trkpt>
      <trkpt lon="-117.330323" lat="33.979395"><ele>321.728370</ele><time>2025-04-22T02:53:30Z</time><extensions><speed>1.077158</speed><course>96.946374</course><hAcc>1.452023</hAcc><vAcc>0.765938</vAcc></extensions></trkpt>
      <trkpt lon="-117.330312" lat="33.979394"><ele>321.764614</ele><time>2025-04-22T02:53:31Z</time><extensions><speed>1.085822</speed><course>93.514197</course><hAcc>1.465582</hAcc><vAcc>0.772298</vAcc></extensions></trkpt>
      <trkpt lon="-117.330300" lat="33.979394"><ele>321.799566</ele><time>2025-04-22T02:53:32Z</time><extensions><speed>1.098253</speed><course>80.166491</course><hAcc>1.470863</hAcc><vAcc>0.780122</vAcc></extensions></trkpt>
      <trkpt lon="-117.330288" lat="33.979395"><ele>321.834544</ele><time>2025-04-22T02:53:33Z</time><extensions><speed>1.102683</speed><course>81.057103</course><hAcc>1.473343</hAcc><vAcc>0.789955</vAcc></extensions></trkpt>
      <trkpt lon="-117.330276" lat="33.979397"><ele>321.854512</ele><time>2025-04-22T02:53:34Z</time><extensions><speed>1.104946</speed><course>80.164123</course><hAcc>1.509750</hAcc><vAcc>0.801261</vAcc></extensions></trkpt>
      <trkpt lon="-117.330264" lat="33.979398"><ele>321.877951</ele><time>2025-04-22T02:53:35Z</time><extensions><speed>1.115920</speed><course>83.417839</course><hAcc>1.532620</hAcc><vAcc>0.813898</vAcc></extensions></trkpt>
      <trkpt lon="-117.330252" lat="33.979398"><ele>321.899326</ele><time>2025-04-22T02:53:36Z</time><extensions><speed>1.123704</speed><course>91.312958</course><hAcc>1.579175</hAcc><vAcc>0.826826</vAcc></extensions></trkpt>
      <trkpt lon="-117.330240" lat="33.979398"><ele>321.919152</ele><time>2025-04-22T02:53:37Z</time><extensions><speed>1.134969</speed><course>85.686652</course><hAcc>1.615471</hAcc><vAcc>0.839071</vAcc></extensions></trkpt>
      <trkpt lon="-117.330228" lat="33.979399"><ele>321.937122</ele><time>2025-04-22T02:53:38Z</time><extensions><speed>1.139960</speed><course>89.559412</course><hAcc>1.649433</hAcc><vAcc>0.850289</vAcc></extensions></trkpt>
      <trkpt lon="-117.330215" lat="33.979398"><ele>321.955701</ele><time>2025-04-22T02:53:39Z</time><extensions><speed>1.178650</speed><course>95.388557</course><hAcc>1.684565</hAcc><vAcc>0.860730</vAcc></extensions></trkpt>
      <trkpt lon="-117.330202" lat="33.979397"><ele>321.978733</ele><time>2025-04-22T02:53:40Z</time><extensions><speed>1.187802</speed><course>94.732347</course><hAcc>1.833134</hAcc><vAcc>0.870628</vAcc></extensions></trkpt>
      <trkpt lon="-117.330190" lat="33.979397"><ele>321.992667</ele><time>2025-04-22T02:53:40Z</time><extensions><speed>1.170274</speed><course>95.313757</course><hAcc>2.001306</hAcc><vAcc>0.878801</vAcc></extensions></trkpt>
      <trkpt lon="-117.330177" lat="33.979396"><ele>322.000469</ele><time>2025-04-22T02:53:41Z</time><extensions><speed>1.159025</speed><course>95.649045</course><hAcc>2.134320</hAcc><vAcc>0.883250</vAcc></extensions></trkpt>
      <trkpt lon="-117.330165" lat="33.979395"><ele>321.998352</ele><time>2025-04-22T02:53:42Z</time><extensions><speed>1.155818</speed><course>95.971441</course><hAcc>2.226853</hAcc><vAcc>0.884872</vAcc></extensions></trkpt>
      <trkpt lon="-117.330152" lat="33.979394"><ele>322.002503</ele><time>2025-04-22T02:53:43Z</time><extensions><speed>1.129099</speed><course>95.182694</course><hAcc>2.285111</hAcc><vAcc>0.884812</vAcc></extensions></trkpt>
      <trkpt lon="-117.330140" lat="33.979393"><ele>322.001770</ele><time>2025-04-22T02:53:44Z</time><extensions><speed>1.094358</speed><course>94.178330</course><hAcc>2.313681</hAcc><vAcc>0.882879</vAcc></extensions></trkpt>
      <trkpt lon="-117.330129" lat="33.979392"><ele>321.987436</ele><time>2025-04-22T02:53:45Z</time><extensions><speed>1.063880</speed><course>92.971277</course><hAcc>2.314657</hAcc><vAcc>0.878953</vAcc></extensions></trkpt>
      <trkpt lon="-117.330117" lat="33.979392"><ele>321.982230</ele><time>2025-04-22T02:53:46Z</time><extensions><speed>1.049414</speed><course>87.579240</course><hAcc>2.298952</hAcc><vAcc>0.873912</vAcc></extensions></trkpt>
      <trkpt lon="-117.330106" lat="33.979392"><ele>321.975273</ele><time>2025-04-22T02:53:47Z</time><extensions><speed>1.072570</speed><course>84.999093</course><hAcc>2.301931</hAcc><vAcc>0.868089</vAcc></extensions></trkpt>
      <trkpt lon="-117.330094" lat="33.979393"><ele>321.966992</ele><time>2025-04-22T02:53:48Z</time><extensions><speed>1.098477</speed><course>86.166838</course><hAcc>2.300641</hAcc><vAcc>0.861689</vAcc></extensions></trkpt>
      <trkpt lon="-117.330083" lat="33.979393"><ele>321.953544</ele><time>2025-04-22T02:53:49Z</time><extensions><speed>1.111828</speed><course>83.257396</course><hAcc>2.293808</hAcc><vAcc>0.855178</vAcc></extensions></trkpt>
      <trkpt lon="-117.330071" lat="33.979393"><ele>321.939970</ele><time>2025-04-22T02:53:50Z</time><extensions><speed>1.084128</speed><course>89.223631</course><hAcc>2.285898</hAcc><vAcc>0.848459</vAcc></extensions></trkpt>
      <trkpt lon="-117.330059" lat="33.979393"><ele>321.922523</ele><time>2025-04-22T02:53:51Z</time><extensions><speed>1.085205</speed><course>93.656621</course><hAcc>2.278593</hAcc><vAcc>0.841424</vAcc></extensions></trkpt>
      <trkpt lon="-117.330048" lat="33.979392"><ele>321.906703</ele><time>2025-04-22T02:53:52Z</time><extensions><speed>1.086827</speed><course>95.988008</course><hAcc>2.272204</hAcc><vAcc>0.834027</vAcc></extensions></trkpt>
      <trkpt lon="-117.330036" lat="33.979390"><ele>321.891244</ele><time>2025-04-22T02:53:53Z</time><extensions><speed>1.106663</speed><course>97.746291</course><hAcc>2.266517</hAcc><vAcc>0.826269</vAcc></extensions></trkpt>
      <trkpt lon="-117.330024" lat="33.979388"><ele>321.878319</ele><time>2025-04-22T02:53:54Z</time><extensions><speed>1.108979</speed><course>101.154667</course><hAcc>2.260174</hAcc><vAcc>0.818201</vAcc></extensions></trkpt>
      <trkpt lon="-117.330013" lat="33.979386"><ele>321.873723</ele><time>2025-04-22T02:53:55Z</time><extensions><speed>1.078141</speed><course>102.810186</course><hAcc>2.253197</hAcc><vAcc>0.809965</vAcc></extensions></trkpt>
      <trkpt lon="-117.330002" lat="33.979383"><ele>321.870967</ele><time>2025-04-22T02:53:56Z</time><extensions><speed>1.064728</speed><course>105.364946</course><hAcc>2.244031</hAcc><vAcc>0.801795</vAcc></extensions></trkpt>
      <trkpt lon="-117.329991" lat="33.979380"><ele>321.871072</ele><time>2025-04-22T02:53:57Z</time><extensions><speed>1.061418</speed><course>110.828994</course><hAcc>2.228016</hAcc><vAcc>0.793965</vAcc></extensions></trkpt>
      <trkpt lon="-117.329980" lat="33.979376"><ele>321.877856</ele><time>2025-04-22T02:53:58Z</time><extensions><speed>1.047919</speed><course>115.353468</course><hAcc>2.206724</hAcc><vAcc>0.786741</vAcc></extensions></trkpt>
      <trkpt lon="-117.329970" lat="33.979372"><ele>321.892343</ele><time>2025-04-22T02:53:59Z</time><extensions><speed>1.036263</speed><course>111.634137</course><hAcc>2.208034</hAcc><vAcc>0.780328</vAcc></extensions></trkpt>
      <trkpt lon="-117.329960" lat="33.979368"><ele>321.914236</ele><time>2025-04-22T02:54:00Z</time><extensions><speed>1.026413</speed><course>109.431227</course><hAcc>2.201112</hAcc><vAcc>0.774838</vAcc></extensions></trkpt>
      <trkpt lon="-117.329949" lat="33.979365"><ele>321.943313</ele><time>2025-04-22T02:54:01Z</time><extensions><speed>1.013072</speed><course>109.863897</course><hAcc>2.186156</hAcc><vAcc>0.770290</vAcc></extensions></trkpt>
      <trkpt lon="-117.329939" lat="33.979362"><ele>321.976572</ele><time>2025-04-22T02:54:02Z</time><extensions><speed>1.047961</speed><course>107.924634</course><hAcc>2.194742</hAcc><vAcc>0.766639</vAcc></extensions></trkpt>
      <trkpt lon="-117.329928" lat="33.979359"><ele>322.012033</ele><time>2025-04-22T02:54:03Z</time><extensions><speed>1.057014</speed><course>108.654994</course><hAcc>2.199066</hAcc><vAcc>0.763793</vAcc></extensions></trkpt>
      <trkpt lon="-117.329917" lat="33.979356"><ele>322.053104</ele><time>2025-04-22T02:54:04Z</time><extensions><speed>1.067920</speed><course>108.659351</course><hAcc>2.194388</hAcc><vAcc>0.761637</vAcc></extensions></trkpt>
      <trkpt lon="-117.329906" lat="33.979353"><ele>322.101417</ele><time>2025-04-22T02:54:05Z</time><extensions><speed>1.072129</speed><course>106.777878</course><hAcc>2.183601</hAcc><vAcc>0.760051</vAcc></extensions></trkpt>
      <trkpt lon="-117.329895" lat="33.979350"><ele>322.156962</ele><time>2025-04-22T02:54:06Z</time><extensions><speed>1.065751</speed><course>105.756209</course><hAcc>2.165181</hAcc><vAcc>0.758918</vAcc></extensions></trkpt>
      <trkpt lon="-117.329884" lat="33.979348"><ele>322.219919</ele><time>2025-04-22T02:54:07Z</time><extensions><speed>1.048902</speed><course>102.801541</course><hAcc>2.142079</hAcc><vAcc>0.758134</vAcc></extensions></trkpt>
      <trkpt lon="-117.329873" lat="33.979346"><ele>322.283907</ele><time>2025-04-22T02:54:08Z</time><extensions><speed>1.055647</speed><course>98.624923</course><hAcc>2.144186</hAcc><vAcc>0.757610</vAcc></extensions></trkpt>
      <trkpt lon="-117.329861" lat="33.979345"><ele>322.352629</ele><time>2025-04-22T02:54:09Z</time><extensions><speed>1.046848</speed><course>95.575548</course><hAcc>2.141488</hAcc><vAcc>0.757273</vAcc></extensions></trkpt>
      <trkpt lon="-117.329850" lat="33.979344"><ele>322.424146</ele><time>2025-04-22T02:54:10Z</time><extensions><speed>1.058844</speed><course>93.817201</course><hAcc>2.131362</hAcc><vAcc>0.757064</vAcc></extensions></trkpt>
      <trkpt lon="-117.329838" lat="33.979343"><ele>322.497787</ele><time>2025-04-22T02:54:11Z</time><extensions><speed>1.095578</speed><course>94.250662</course><hAcc>2.119113</hAcc><vAcc>0.756942</vAcc></extensions></trkpt>
      <trkpt lon="-117.329826" lat="33.979343"><ele>322.573143</ele><time>2025-04-22T02:54:12Z</time><extensions><speed>1.101989</speed><course>94.075416</course><hAcc>2.108250</hAcc><vAcc>0.756875</vAcc></extensions></trkpt>
      <trkpt lon="-117.329814" lat="33.979342"><ele>322.652066</ele><time>2025-04-22T02:54:13Z</time><extensions><speed>1.089544</speed><course>94.265126</course><hAcc>2.099789</hAcc><vAcc>0.756841</vAcc></extensions></trkpt>
      <trkpt lon="-117.329803" lat="33.979341"><ele>322.732829</ele><time>2025-04-22T02:54:14Z</time><extensions><speed>1.094843</speed><course>94.924371</course><hAcc>2.091874</hAcc><vAcc>0.756825</vAcc></extensions></trkpt>
      <trkpt lon="-117.329791" lat="33.979340"><ele>322.811339</ele><time>2025-04-22T02:54:15Z</time><extensions><speed>1.092427</speed><course>94.274131</course><hAcc>2.078379</hAcc><vAcc>0.756818</vAcc></extensions></trkpt>
      <trkpt lon="-117.329779" lat="33.979339"><ele>322.887455</ele><time>2025-04-22T02:54:16Z</time><extensions><speed>1.076040</speed><course>93.497898</course><hAcc>2.057982</hAcc><vAcc>0.756814</vAcc></extensions></trkpt>
      <trkpt lon="-117.329768" lat="33.979339"><ele>322.961007</ele><time>2025-04-22T02:54:17Z</time><extensions><speed>1.076160</speed><course>92.655575</course><hAcc>2.054361</hAcc><vAcc>0.756914</vAcc></extensions></trkpt>
      <trkpt lon="-117.329756" lat="33.979339"><ele>323.035492</ele><time>2025-04-22T02:54:18Z</time><extensions><speed>1.064196</speed><course>89.200136</course><hAcc>2.040597</hAcc><vAcc>0.757025</vAcc></extensions></trkpt>
      <trkpt lon="-117.329745" lat="33.979339"><ele>323.109902</ele><time>2025-04-22T02:54:19Z</time><extensions><speed>1.063058</speed><course>89.119150</course><hAcc>2.046593</hAcc><vAcc>0.757310</vAcc></extensions></trkpt>
      <trkpt lon="-117.329733" lat="33.979339"><ele>323.178111</ele><time>2025-04-22T02:54:20Z</time><extensions><speed>1.062929</speed><course>89.248464</course><hAcc>2.054373</hAcc><vAcc>0.757793</vAcc></extensions></trkpt>
      <trkpt lon="-117.329722" lat="33.979338"><ele>323.237437</ele><time>2025-04-22T02:54:21Z</time><extensions><speed>1.045540</speed><course>90.836133</course><hAcc>2.067095</hAcc><vAcc>0.758483</vAcc></extensions></trkpt>
      <trkpt lon="-117.329710" lat="33.979338"><ele>323.292933</ele><time>2025-04-22T02:54:22Z</time><extensions><speed>1.054212</speed><course>94.176903</course><hAcc>2.076636</hAcc><vAcc>0.759651</vAcc></extensions></trkpt>
      <trkpt lon="-117.329699" lat="33.979337"><ele>323.342648</ele><time>2025-04-22T02:54:23Z</time><extensions><speed>1.083927</speed><course>97.740607</course><hAcc>2.082904</hAcc><vAcc>0.761222</vAcc></extensions></trkpt>
      <trkpt lon="-117.329687" lat="33.979335"><ele>323.382883</ele><time>2025-04-22T02:54:24Z</time><extensions><speed>1.109566</speed><course>101.079773</course><hAcc>2.085562</hAcc><vAcc>0.763258</vAcc></extensions></trkpt>
      <trkpt lon="-117.329675" lat="33.979333"><ele>323.412456</ele><time>2025-04-22T02:54:25Z</time><extensions><speed>1.114991</speed><course>101.178845</course><hAcc>2.096177</hAcc><vAcc>0.765695</vAcc></extensions></trkpt>
      <trkpt lon="-117.329663" lat="33.979331"><ele>323.433869</ele><time>2025-04-22T02:54:26Z</time><extensions><speed>1.123372</speed><course>101.066233</course><hAcc>2.109603</hAcc><vAcc>0.768266</vAcc></extensions></trkpt>
      <trkpt lon="-117.329651" lat="33.979330"><ele>323.446843</ele><time>2025-04-22T02:54:27Z</time><extensions><speed>1.132241</speed><course>100.839276</course><hAcc>2.121061</hAcc><vAcc>0.770867</vAcc></extensions></trkpt>
      <trkpt lon="-117.329639" lat="33.979328"><ele>323.447975</ele><time>2025-04-22T02:54:28Z</time><extensions><speed>1.139227</speed><course>99.786290</course><hAcc>2.128754</hAcc><vAcc>0.773767</vAcc></extensions></trkpt>
      <trkpt lon="-117.329626" lat="33.979326"><ele>323.434967</ele><time>2025-04-22T02:54:29Z</time><extensions><speed>1.153131</speed><course>97.160125</course><hAcc>2.133060</hAcc><vAcc>0.776747</vAcc></extensions></trkpt>
      <trkpt lon="-117.329614" lat="33.979325"><ele>323.415850</ele><time>2025-04-22T02:54:30Z</time><extensions><speed>1.183991</speed><course>94.413473</course><hAcc>2.134274</hAcc><vAcc>0.779213</vAcc></extensions></trkpt>
      <trkpt lon="-117.329601" lat="33.979325"><ele>323.389537</ele><time>2025-04-22T02:54:31Z</time><extensions><speed>1.200199</speed><course>92.718823</course><hAcc>2.132185</hAcc><vAcc>0.781266</vAcc></extensions></trkpt>
      <trkpt lon="-117.329588" lat="33.979325"><ele>323.356386</ele><time>2025-04-22T02:54:32Z</time><extensions><speed>1.194680</speed><course>89.462996</course><hAcc>2.126965</hAcc><vAcc>0.782754</vAcc></extensions></trkpt>
      <trkpt lon="-117.329575" lat="33.979325"><ele>323.318041</ele><time>2025-04-22T02:54:33Z</time><extensions><speed>1.186935</speed><course>87.931115</course><hAcc>2.119639</hAcc><vAcc>0.783529</vAcc></extensions></trkpt>
      <trkpt lon="-117.329562" lat="33.979325"><ele>323.275340</ele><time>2025-04-22T02:54:34Z</time><extensions><speed>1.170932</speed><course>88.688031</course><hAcc>2.110581</hAcc><vAcc>0.783502</vAcc></extensions></trkpt>
      <trkpt lon="-117.329550" lat="33.979325"><ele>323.227104</ele><time>2025-04-22T02:54:35Z</time><extensions><speed>1.162860</speed><course>89.083635</course><hAcc>2.099848</hAcc><vAcc>0.782674</vAcc></extensions></trkpt>
      <trkpt lon="-117.329537" lat="33.979325"><ele>323.183200</ele><time>2025-04-22T02:54:36Z</time><extensions><speed>1.176661</speed><course>89.436184</course><hAcc>2.087505</hAcc><vAcc>0.781133</vAcc></extensions></trkpt>
      <trkpt lon="-117.329524" lat="33.979325"><ele>323.142967</ele><time>2025-04-22T02:54:37Z</time><extensions><speed>1.183400</speed><course>92.886898</course><hAcc>2.073006</hAcc><vAcc>0.779032</vAcc></extensions></trkpt>
      <trkpt lon="-117.329512" lat="33.979324"><ele>323.105181</ele><time>2025-04-22T02:54:38Z</time><extensions><speed>1.157713</speed><course>94.443266</course><hAcc>2.056531</hAcc><vAcc>0.776545</vAcc></extensions></trkpt>
      <trkpt lon="-117.329499" lat="33.979323"><ele>323.071162</ele><time>2025-04-22T02:54:39Z</time><extensions><speed>1.141785</speed><course>96.876601</course><hAcc>2.038758</hAcc><vAcc>0.773833</vAcc></extensions></trkpt>
      <trkpt lon="-117.329487" lat="33.979321"><ele>323.042772</ele><time>2025-04-22T02:54:40Z</time><extensions><speed>1.137246</speed><course>97.525512</course><hAcc>2.020398</hAcc><vAcc>0.771064</vAcc></extensions></trkpt>
      <trkpt lon="-117.329475" lat="33.979320"><ele>323.017152</ele><time>2025-04-22T02:54:41Z</time><extensions><speed>1.137873</speed><course>99.265299</course><hAcc>2.001555</hAcc><vAcc>0.768403</vAcc></extensions></trkpt>
      <trkpt lon="-117.329463" lat="33.979318"><ele>322.998678</ele><time>2025-04-22T02:54:42Z</time><extensions><speed>1.143969</speed><course>100.523952</course><hAcc>1.982970</hAcc><vAcc>0.765978</vAcc></extensions></trkpt>
      <trkpt lon="-117.329450" lat="33.979316"><ele>322.989385</ele><time>2025-04-22T02:54:43Z</time><extensions><speed>1.150836</speed><course>101.460178</course><hAcc>1.965045</hAcc><vAcc>0.763864</vAcc></extensions></trkpt>
      <trkpt lon="-117.329438" lat="33.979314"><ele>322.990987</ele><time>2025-04-22T02:54:44Z</time><extensions><speed>1.161839</speed><course>100.304176</course><hAcc>1.947123</hAcc><vAcc>0.762089</vAcc></extensions></trkpt>
      <trkpt lon="-117.329426" lat="33.979313"><ele>323.005617</ele><time>2025-04-22T02:54:45Z</time><extensions><speed>1.149134</speed><course>98.879451</course><hAcc>1.928909</hAcc><vAcc>0.760650</vAcc></extensions></trkpt>
      <trkpt lon="-117.329414" lat="33.979311"><ele>323.028125</ele><time>2025-04-22T02:54:46Z</time><extensions><speed>1.137620</speed><course>98.282117</course><hAcc>1.910992</hAcc><vAcc>0.759520</vAcc></extensions></trkpt>
      <trkpt lon="-117.329401" lat="33.979310"><ele>323.058425</ele><time>2025-04-22T02:54:47Z</time><extensions><speed>1.147551</speed><course>98.101854</course><hAcc>1.894219</hAcc><vAcc>0.758660</vAcc></extensions></trkpt>
      <trkpt lon="-117.329389" lat="33.979309"><ele>323.086767</ele><time>2025-04-22T02:54:48Z</time><extensions><speed>1.137844</speed><course>97.528087</course><hAcc>1.878201</hAcc><vAcc>0.758026</vAcc></extensions></trkpt>
      <trkpt lon="-117.329377" lat="33.979308"><ele>323.118743</ele><time>2025-04-22T02:54:49Z</time><extensions><speed>1.130138</speed><course>93.380090</course><hAcc>1.862447</hAcc><vAcc>0.757573</vAcc></extensions></trkpt>
      <trkpt lon="-117.329365" lat="33.979308"><ele>323.158273</ele><time>2025-04-22T02:54:50Z</time><extensions><speed>1.132403</speed><course>88.730695</course><hAcc>1.846946</hAcc><vAcc>0.757261</vAcc></extensions></trkpt>
      <trkpt lon="-117.329352" lat="33.979308"><ele>323.203329</ele><time>2025-04-22T02:54:51Z</time><extensions><speed>1.149712</speed><course>85.125639</course><hAcc>1.831441</hAcc><vAcc>0.757053</vAcc></extensions></trkpt>
      <trkpt lon="-117.329340" lat="33.979310"><ele>323.250657</ele><time>2025-04-22T02:54:52Z</time><extensions><speed>1.168800</speed><course>80.462624</course><hAcc>1.817006</hAcc><vAcc>0.756921</vAcc></extensions></trkpt>
      <trkpt lon="-117.329327" lat="33.979312"><ele>323.300955</ele><time>2025-04-22T02:54:53Z</time><extensions><speed>1.174219</speed><course>78.094487</course><hAcc>1.804465</hAcc><vAcc>0.756842</vAcc></extensions></trkpt>
      <trkpt lon="-117.329315" lat="33.979314"><ele>323.352195</ele><time>2025-04-22T02:54:54Z</time><extensions><speed>1.165988</speed><course>77.775115</course><hAcc>1.794649</hAcc><vAcc>0.756797</vAcc></extensions></trkpt>
      <trkpt lon="-117.329303" lat="33.979317"><ele>323.405909</ele><time>2025-04-22T02:54:55Z</time><extensions><speed>1.146631</speed><course>78.509962</course><hAcc>1.788055</hAcc><vAcc>0.756775</vAcc></extensions></trkpt>
      <trkpt lon="-117.329291" lat="33.979318"><ele>323.457870</ele><time>2025-04-22T02:54:56Z</time><extensions><speed>1.124718</speed><course>81.718642</course><hAcc>1.784366</hAcc><vAcc>0.756766</vAcc></extensions></trkpt>
      <trkpt lon="-117.329278" lat="33.979320"><ele>323.505560</ele><time>2025-04-22T02:54:57Z</time><extensions><speed>1.134272</speed><course>84.299148</course><hAcc>1.782524</hAcc><vAcc>0.756763</vAcc></extensions></trkpt>
      <trkpt lon="-117.329266" lat="33.979321"><ele>323.547718</ele><time>2025-04-22T02:54:58Z</time><extensions><speed>1.137341</speed><course>85.959545</course><hAcc>1.780872</hAcc><vAcc>0.756763</vAcc></extensions></trkpt>
      <trkpt lon="-117.329254" lat="33.979321"><ele>323.585236</ele><time>2025-04-22T02:54:59Z</time><extensions><speed>1.140747</speed><course>84.742109</course><hAcc>1.779169</hAcc><vAcc>0.756764</vAcc></extensions></trkpt>
      <trkpt lon="-117.329242" lat="33.979323"><ele>323.611882</ele><time>2025-04-22T02:55:00Z</time><extensions><speed>1.141998</speed><course>82.207699</course><hAcc>1.778789</hAcc><vAcc>0.756764</vAcc></extensions></trkpt>
      <trkpt lon="-117.329229" lat="33.979324"><ele>323.634289</ele><time>2025-04-22T02:55:01Z</time><extensions><speed>1.165860</speed><course>79.933617</course><hAcc>1.780378</hAcc><vAcc>0.756765</vAcc></extensions></trkpt>
      <trkpt lon="-117.329217" lat="33.979326"><ele>323.642269</ele><time>2025-04-22T02:55:02Z</time><extensions><speed>1.176752</speed><course>77.220997</course><hAcc>1.783742</hAcc><vAcc>0.756764</vAcc></extensions></trkpt>
      <trkpt lon="-117.329204" lat="33.979328"><ele>323.636019</ele><time>2025-04-22T02:55:03Z</time><extensions><speed>1.184598</speed><course>77.374502</course><hAcc>1.787985</hAcc><vAcc>0.756763</vAcc></extensions></trkpt>
      <trkpt lon="-117.329192" lat="33.979330"><ele>323.619939</ele><time>2025-04-22T02:55:04Z</time><extensions><speed>1.178028</speed><course>79.108658</course><hAcc>1.791935</hAcc><vAcc>0.756761</vAcc></extensions></trkpt>
      <trkpt lon="-117.329179" lat="33.979332"><ele>323.594948</ele><time>2025-04-22T02:55:05Z</time><extensions><speed>1.176068</speed><course>82.638216</course><hAcc>1.794896</hAcc><vAcc>0.756759</vAcc></extensions></trkpt>
      <trkpt lon="-117.329167" lat="33.979333"><ele>323.567505</ele><time>2025-04-22T02:55:06Z</time><extensions><speed>1.141391</speed><course>90.797625</course><hAcc>1.796765</hAcc><vAcc>0.756756</vAcc></extensions></trkpt>
      <trkpt lon="-117.329155" lat="33.979332"><ele>323.536569</ele><time>2025-04-22T02:55:07Z</time><extensions><speed>1.118602</speed><course>97.990692</course><hAcc>1.797426</hAcc><vAcc>0.756754</vAcc></extensions></trkpt>
      <trkpt lon="-117.329143" lat="33.979330"><ele>323.503319</ele><time>2025-04-22T02:55:08Z</time><extensions><speed>1.110607</speed><course>100.686931</course><hAcc>1.797386</hAcc><vAcc>0.756752</vAcc></extensions></trkpt>
      <trkpt lon="-117.329131" lat="33.979328"><ele>323.469334</ele><time>2025-04-22T02:55:09Z</time><extensions><speed>1.131110</speed><course>101.435379</course><hAcc>1.797402</hAcc><vAcc>0.756750</vAcc></extensions></trkpt>
      <trkpt lon="-117.329118" lat="33.979326"><ele>323.433714</ele><time>2025-04-22T02:55:10Z</time><extensions><speed>1.172013</speed><course>103.614962</course><hAcc>1.798225</hAcc><vAcc>0.756748</vAcc></extensions></trkpt>
      <trkpt lon="-117.329106" lat="33.979324"><ele>323.398658</ele><time>2025-04-22T02:55:11Z</time><extensions><speed>1.184729</speed><course>102.136169</course><hAcc>1.798411</hAcc><vAcc>0.756747</vAcc></extensions></trkpt>
      <trkpt lon="-117.329093" lat="33.979322"><ele>323.368911</ele><time>2025-04-22T02:55:12Z</time><extensions><speed>1.188532</speed><course>100.173031</course><hAcc>1.795666</hAcc><vAcc>0.756746</vAcc></extensions></trkpt>
      <trkpt lon="-117.329081" lat="33.979320"><ele>323.344746</ele><time>2025-04-22T02:55:13Z</time><extensions><speed>1.219012</speed><course>101.407944</course><hAcc>1.790615</hAcc><vAcc>0.756745</vAcc></extensions></trkpt>
      <trkpt lon="-117.329068" lat="33.979318"><ele>323.330186</ele><time>2025-04-22T02:55:14Z</time><extensions><speed>1.208272</speed><course>102.136755</course><hAcc>1.785943</hAcc><vAcc>0.756744</vAcc></extensions></trkpt>
      <trkpt lon="-117.329055" lat="33.979315"><ele>323.320482</ele><time>2025-04-22T02:55:15Z</time><extensions><speed>1.212601</speed><course>102.755074</course><hAcc>1.783964</hAcc><vAcc>0.756744</vAcc></extensions></trkpt>
      <trkpt lon="-117.329042" lat="33.979313"><ele>323.315279</ele><time>2025-04-22T02:55:16Z</time><extensions><speed>1.201467</speed><course>102.750206</course><hAcc>1.775111</hAcc><vAcc>0.756743</vAcc></extensions></trkpt>
      <trkpt lon="-117.329030" lat="33.979311"><ele>323.318675</ele><time>2025-04-22T02:55:17Z</time><extensions><speed>1.179357</speed><course>99.418065</course><hAcc>1.773074</hAcc><vAcc>0.756743</vAcc></extensions></trkpt>
      <trkpt lon="-117.329017" lat="33.979310"><ele>323.327370</ele><time>2025-04-22T02:55:18Z</time><extensions><speed>1.142160</speed><course>95.783735</course><hAcc>1.763713</hAcc><vAcc>0.756743</vAcc></extensions></trkpt>
      <trkpt lon="-117.329005" lat="33.979309"><ele>323.348785</ele><time>2025-04-22T02:55:19Z</time><extensions><speed>1.078371</speed><course>87.629535</course><hAcc>1.762003</hAcc><vAcc>0.756743</vAcc></extensions></trkpt>
      <trkpt lon="-117.328994" lat="33.979311"><ele>323.375464</ele><time>2025-04-22T02:55:20Z</time><extensions><speed>1.057746</speed><course>78.860667</course><hAcc>1.766354</hAcc><vAcc>0.756742</vAcc></extensions></trkpt>
      <trkpt lon="-117.328983" lat="33.979313"><ele>323.408232</ele><time>2025-04-22T02:55:21Z</time><extensions><speed>1.052747</speed><course>73.232164</course><hAcc>1.758398</hAcc><vAcc>0.756742</vAcc></extensions></trkpt>
      <trkpt lon="-117.328972" lat="33.979315"><ele>323.442588</ele><time>2025-04-22T02:55:22Z</time><extensions><speed>1.061741</speed><course>74.029095</course><hAcc>1.752206</hAcc><vAcc>0.756742</vAcc></extensions></trkpt>
      <trkpt lon="-117.328961" lat="33.979318"><ele>323.480267</ele><time>2025-04-22T02:55:23Z</time><extensions><speed>1.068084</speed><course>75.527187</course><hAcc>1.747572</hAcc><vAcc>0.756742</vAcc></extensions></trkpt>
      <trkpt lon="-117.328949" lat="33.979320"><ele>323.519362</ele><time>2025-04-22T02:55:24Z</time><extensions><speed>1.076407</speed><course>74.334818</course><hAcc>1.742307</hAcc><vAcc>0.756742</vAcc></extensions></trkpt>
      <trkpt lon="-117.328938" lat="33.979323"><ele>323.559289</ele><time>2025-04-22T02:55:25Z</time><extensions><speed>1.097605</speed><course>76.186389</course><hAcc>1.736899</hAcc><vAcc>0.756742</vAcc></extensions></trkpt>
      <trkpt lon="-117.328926" lat="33.979325"><ele>323.601405</ele><time>2025-04-22T02:55:26Z</time><extensions><speed>1.138346</speed><course>79.288326</course><hAcc>1.732888</hAcc><vAcc>0.756742</vAcc></extensions></trkpt>
      <trkpt lon="-117.328914" lat="33.979326"><ele>323.645919</ele><time>2025-04-22T02:55:27Z</time><extensions><speed>1.138834</speed><course>82.357868</course><hAcc>1.729474</hAcc><vAcc>0.756742</vAcc></extensions></trkpt>
      <trkpt lon="-117.328902" lat="33.979327"><ele>323.692803</ele><time>2025-04-22T02:55:28Z</time><extensions><speed>1.148648</speed><course>87.494898</course><hAcc>1.725451</hAcc><vAcc>0.756742</vAcc></extensions></trkpt>
      <trkpt lon="-117.328889" lat="33.979327"><ele>323.743641</ele><time>2025-04-22T02:55:29Z</time><extensions><speed>1.186974</speed><course>93.055455</course><hAcc>1.721190</hAcc><vAcc>0.756742</vAcc></extensions></trkpt>
      <trkpt lon="-117.328877" lat="33.979326"><ele>323.799832</ele><time>2025-04-22T02:55:30Z</time><extensions><speed>1.180849</speed><course>97.503927</course><hAcc>1.718312</hAcc><vAcc>0.756742</vAcc></extensions></trkpt>
      <trkpt lon="-117.328864" lat="33.979325"><ele>323.857823</ele><time>2025-04-22T02:55:31Z</time><extensions><speed>1.159210</speed><course>98.634421</course><hAcc>1.717473</hAcc><vAcc>0.756742</vAcc></extensions></trkpt>
      <trkpt lon="-117.328852" lat="33.979324"><ele>323.916234</ele><time>2025-04-22T02:55:32Z</time><extensions><speed>1.129762</speed><course>98.641787</course><hAcc>1.719647</hAcc><vAcc>0.756742</vAcc></extensions></trkpt>
      <trkpt lon="-117.328840" lat="33.979322"><ele>323.974431</ele><time>2025-04-22T02:55:33Z</time><extensions><speed>1.107713</speed><course>99.263909</course><hAcc>1.725972</hAcc><vAcc>0.756742</vAcc></extensions></trkpt>
      <trkpt lon="-117.328828" lat="33.979321"><ele>324.035409</ele><time>2025-04-22T02:55:34Z</time><extensions><speed>1.079936</speed><course>98.192846</course><hAcc>1.736185</hAcc><vAcc>0.756742</vAcc></extensions></trkpt>
      <trkpt lon="-117.328817" lat="33.979320"><ele>324.095370</ele><time>2025-04-22T02:55:35Z</time><extensions><speed>1.044325</speed><course>95.204439</course><hAcc>1.748263</hAcc><vAcc>0.756741</vAcc></extensions></trkpt>
      <trkpt lon="-117.328806" lat="33.979319"><ele>324.155759</ele><time>2025-04-22T02:55:36Z</time><extensions><speed>1.034690</speed><course>90.263971</course><hAcc>1.760624</hAcc><vAcc>0.756741</vAcc></extensions></trkpt>
      <trkpt lon="-117.328795" lat="33.979319"><ele>324.215287</ele><time>2025-04-22T02:55:37Z</time><extensions><speed>1.021589</speed><course>88.486310</course><hAcc>1.772185</hAcc><vAcc>0.756741</vAcc></extensions></trkpt>
      <trkpt lon="-117.328784" lat="33.979320"><ele>324.277031</ele><time>2025-04-22T02:55:38Z</time><extensions><speed>0.996229</speed><course>81.525980</course><hAcc>1.781386</hAcc><vAcc>0.756741</vAcc></extensions></trkpt>
      <trkpt lon="-117.328773" lat="33.979322"><ele>324.334824</ele><time>2025-04-22T02:55:39Z</time><extensions><speed>1.013399</speed><course>75.704655</course><hAcc>1.787869</hAcc><vAcc>0.756741</vAcc></extensions></trkpt>
      <trkpt lon="-117.328762" lat="33.979324"><ele>324.386747</ele><time>2025-04-22T02:55:40Z</time><extensions><speed>1.020861</speed><course>74.726372</course><hAcc>1.792004</hAcc><vAcc>0.756741</vAcc></extensions></trkpt>
      <trkpt lon="-117.328752" lat="33.979326"><ele>324.436293</ele><time>2025-04-22T02:55:41Z</time><extensions><speed>0.994187</speed><course>79.182590</course><hAcc>1.793838</hAcc><vAcc>0.756741</vAcc></extensions></trkpt>
      <trkpt lon="-117.328741" lat="33.979328"><ele>324.480950</ele><time>2025-04-22T02:55:42Z</time><extensions><speed>0.991696</speed><course>82.025475</course><hAcc>1.794206</hAcc><vAcc>0.756741</vAcc></extensions></trkpt>
      <trkpt lon="-117.328731" lat="33.979329"><ele>324.523063</ele><time>2025-04-22T02:55:43Z</time><extensions><speed>1.004976</speed><course>84.341034</course><hAcc>1.794513</hAcc><vAcc>0.756741</vAcc></extensions></trkpt>
      <trkpt lon="-117.328720" lat="33.979330"><ele>324.562029</ele><time>2025-04-22T02:55:44Z</time><extensions><speed>1.029357</speed><course>85.702022</course><hAcc>1.795609</hAcc><vAcc>0.756741</vAcc></extensions></trkpt>
      <trkpt lon="-117.328708" lat="33.979330"><ele>324.600321</ele><time>2025-04-22T02:55:45Z</time><extensions><speed>1.058549</speed><course>87.292161</course><hAcc>1.797425</hAcc><vAcc>0.756741</vAcc></extensions></trkpt>
      <trkpt lon="-117.328697" lat="33.979331"><ele>324.630664</ele><time>2025-04-22T02:55:46Z</time><extensions><speed>1.078163</speed><course>88.638032</course><hAcc>1.799435</hAcc><vAcc>0.756741</vAcc></extensions></trkpt>
      <trkpt lon="-117.328685" lat="33.979331"><ele>324.655808</ele><time>2025-04-22T02:55:47Z</time><extensions><speed>1.092714</speed><course>90.304657</course><hAcc>1.800304</hAcc><vAcc>0.756741</vAcc></extensions></trkpt>
      <trkpt lon="-117.328673" lat="33.979331"><ele>324.677228</ele><time>2025-04-22T02:55:48Z</time><extensions><speed>1.113646</speed><course>91.019530</course><hAcc>1.799869</hAcc><vAcc>0.756741</vAcc></extensions></trkpt>
      <trkpt lon="-117.328661" lat="33.979331"><ele>324.696992</ele><time>2025-04-22T02:55:49Z</time><extensions><speed>1.130322</speed><course>92.443650</course><hAcc>1.799216</hAcc><vAcc>0.756741</vAcc></extensions></trkpt>
      <trkpt lon="-117.328648" lat="33.979330"><ele>324.711741</ele><time>2025-04-22T02:55:50Z</time><extensions><speed>1.159084</speed><course>91.648764</course><hAcc>1.798056</hAcc><vAcc>0.756741</vAcc></extensions></trkpt>
      <trkpt lon="-117.328636" lat="33.979330"><ele>324.728628</ele><time>2025-04-22T02:55:51Z</time><extensions><speed>1.175952</speed><course>89.485758</course><hAcc>1.796764</hAcc><vAcc>0.756741</vAcc></extensions></trkpt>
      <trkpt lon="-117.328623" lat="33.979331"><ele>324.746183</ele><time>2025-04-22T02:55:52Z</time><extensions><speed>1.195699</speed><course>86.251615</course><hAcc>1.796828</hAcc><vAcc>0.756741</vAcc></extensions></trkpt>
      <trkpt lon="-117.328610" lat="33.979332"><ele>324.760953</ele><time>2025-04-22T02:55:53Z</time><extensions><speed>1.202774</speed><course>83.632909</course><hAcc>1.799554</hAcc><vAcc>0.756741</vAcc></extensions></trkpt>
      <trkpt lon="-117.328597" lat="33.979333"><ele>324.775378</ele><time>2025-04-22T02:55:54Z</time><extensions><speed>1.204917</speed><course>82.387472</course><hAcc>1.805434</hAcc><vAcc>0.756741</vAcc></extensions></trkpt>
      <trkpt lon="-117.328584" lat="33.979334"><ele>324.784070</ele><time>2025-04-22T02:55:55Z</time><extensions><speed>1.220180</speed><course>80.724293</course><hAcc>1.813746</hAcc><vAcc>0.756741</vAcc></extensions></trkpt>
      <trkpt lon="-117.328571" lat="33.979336"><ele>324.789696</ele><time>2025-04-22T02:55:56Z</time><extensions><speed>1.241248</speed><course>80.568938</course><hAcc>1.824354</hAcc><vAcc>0.756741</vAcc></extensions></trkpt>
      <trkpt lon="-117.328558" lat="33.979337"><ele>324.799652</ele><time>2025-04-22T02:55:57Z</time><extensions><speed>1.226936</speed><course>83.655133</course><hAcc>1.836128</hAcc><vAcc>0.756741</vAcc></extensions></trkpt>
      <trkpt lon="-117.328545" lat="33.979338"><ele>324.818487</ele><time>2025-04-22T02:55:58Z</time><extensions><speed>1.193832</speed><course>86.244330</course><hAcc>1.847703</hAcc><vAcc>0.756741</vAcc></extensions></trkpt>
      <trkpt lon="-117.328532" lat="33.979338"><ele>324.841420</ele><time>2025-04-22T02:55:59Z</time><extensions><speed>1.161773</speed><course>89.744666</course><hAcc>1.856705</hAcc><vAcc>0.756741</vAcc></extensions></trkpt>
      <trkpt lon="-117.328520" lat="33.979338"><ele>324.869344</ele><time>2025-04-22T02:56:00Z</time><extensions><speed>1.127552</speed><course>93.870548</course><hAcc>1.861069</hAcc><vAcc>0.756741</vAcc></extensions></trkpt>
      <trkpt lon="-117.328508" lat="33.979337"><ele>324.902557</ele><time>2025-04-22T02:56:01Z</time><extensions><speed>1.100850</speed><course>97.676893</course><hAcc>1.860617</hAcc><vAcc>0.756741</vAcc></extensions></trkpt>
      <trkpt lon="-117.328496" lat="33.979335"><ele>324.936876</ele><time>2025-04-22T02:56:02Z</time><extensions><speed>1.101364</speed><course>100.839977</course><hAcc>1.857165</hAcc><vAcc>0.756741</vAcc></extensions></trkpt>
      <trkpt lon="-117.328484" lat="33.979333"><ele>324.975427</ele><time>2025-04-22T02:56:03Z</time><extensions><speed>1.120864</speed><course>103.518302</course><hAcc>1.853385</hAcc><vAcc>0.756741</vAcc></extensions></trkpt>
      <trkpt lon="-117.328472" lat="33.979330"><ele>325.016211</ele><time>2025-04-22T02:56:04Z</time><extensions><speed>1.142174</speed><course>105.238891</course><hAcc>1.849797</hAcc><vAcc>0.756741</vAcc></extensions></trkpt>
      <trkpt lon="-117.328460" lat="33.979328"><ele>325.059962</ele><time>2025-04-22T02:56:05Z</time><extensions><speed>1.155887</speed><course>105.096963</course><hAcc>1.845815</hAcc><vAcc>0.756741</vAcc></extensions></trkpt>
      <trkpt lon="-117.328448" lat="33.979325"><ele>325.112604</ele><time>2025-04-22T02:56:06Z</time><extensions><speed>1.209949</speed><course>107.769854</course><hAcc>1.840492</hAcc><vAcc>0.756741</vAcc></extensions></trkpt>
      <trkpt lon="-117.328435" lat="33.979321"><ele>325.175632</ele><time>2025-04-22T02:56:07Z</time><extensions><speed>1.237269</speed><course>107.604107</course><hAcc>1.834874</hAcc><vAcc>0.756741</vAcc></extensions></trkpt>
      <trkpt lon="-117.328422" lat="33.979318"><ele>325.245720</ele><time>2025-04-22T02:56:08Z</time><extensions><speed>1.214999</speed><course>106.500406</course><hAcc>1.831314</hAcc><vAcc>0.756741</vAcc></extensions></trkpt>
      <trkpt lon="-117.328410" lat="33.979315"><ele>325.316626</ele><time>2025-04-22T02:56:09Z</time><extensions><speed>1.194720</speed><course>103.625027</course><hAcc>1.830926</hAcc><vAcc>0.756741</vAcc></extensions></trkpt>
      <trkpt lon="-117.328397" lat="33.979313"><ele>325.395985</ele><time>2025-04-22T02:56:10Z</time><extensions><speed>1.214648</speed><course>99.025579</course><hAcc>1.834234</hAcc><vAcc>0.756741</vAcc></extensions></trkpt>
      <trkpt lon="-117.328384" lat="33.979311"><ele>325.476519</ele><time>2025-04-22T02:56:11Z</time><extensions><speed>1.230323</speed><course>97.207318</course><hAcc>1.842645</hAcc><vAcc>0.756741</vAcc></extensions></trkpt>
      <trkpt lon="-117.328370" lat="33.979310"><ele>325.562956</ele><time>2025-04-22T02:56:12Z</time><extensions><speed>1.222535</speed><course>96.454696</course><hAcc>1.854460</hAcc><vAcc>0.756741</vAcc></extensions></trkpt>
      <trkpt lon="-117.328357" lat="33.979309"><ele>325.657490</ele><time>2025-04-22T02:56:13Z</time><extensions><speed>1.235818</speed><course>95.529851</course><hAcc>1.865528</hAcc><vAcc>0.756741</vAcc></extensions></trkpt>
      <trkpt lon="-117.328344" lat="33.979308"><ele>325.758278</ele><time>2025-04-22T02:56:14Z</time><extensions><speed>1.243290</speed><course>94.489988</course><hAcc>1.874590</hAcc><vAcc>0.756741</vAcc></extensions></trkpt>
      <trkpt lon="-117.328331" lat="33.979307"><ele>325.862972</ele><time>2025-04-22T02:56:15Z</time><extensions><speed>1.242362</speed><course>94.548195</course><hAcc>1.885790</hAcc><vAcc>0.756741</vAcc></extensions></trkpt>
      <trkpt lon="-117.328317" lat="33.979307"><ele>325.969277</ele><time>2025-04-22T02:56:16Z</time><extensions><speed>1.235227</speed><course>92.906411</course><hAcc>1.902678</hAcc><vAcc>0.756741</vAcc></extensions></trkpt>
      <trkpt lon="-117.328304" lat="33.979307"><ele>326.074311</ele><time>2025-04-22T02:56:17Z</time><extensions><speed>1.217535</speed><course>91.269371</course><hAcc>1.910010</hAcc><vAcc>0.759079</vAcc></extensions></trkpt>
      <trkpt lon="-117.328291" lat="33.979306"><ele>326.179808</ele><time>2025-04-22T02:56:18Z</time><extensions><speed>1.188710</speed><course>90.616565</course><hAcc>1.908581</hAcc><vAcc>0.763005</vAcc></extensions></trkpt>
      <trkpt lon="-117.328278" lat="33.979307"><ele>326.283035</ele><time>2025-04-22T02:56:19Z</time><extensions><speed>1.146831</speed><course>87.996980</course><hAcc>1.911686</hAcc><vAcc>0.768548</vAcc></extensions></trkpt>
      <trkpt lon="-117.328266" lat="33.979307"><ele>326.382292</ele><time>2025-04-22T02:56:20Z</time><extensions><speed>1.115752</speed><course>85.044103</course><hAcc>1.915461</hAcc><vAcc>0.775936</vAcc></extensions></trkpt>
      <trkpt lon="-117.328255" lat="33.979308"><ele>326.478082</ele><time>2025-04-22T02:56:21Z</time><extensions><speed>1.077947</speed><course>83.134981</course><hAcc>1.914438</hAcc><vAcc>0.785254</vAcc></extensions></trkpt>
      <trkpt lon="-117.328243" lat="33.979310"><ele>326.569908</ele><time>2025-04-22T02:56:22Z</time><extensions><speed>1.047932</speed><course>81.300461</course><hAcc>1.905736</hAcc><vAcc>0.796493</vAcc></extensions></trkpt>
      <trkpt lon="-117.328232" lat="33.979311"><ele>326.653898</ele><time>2025-04-22T02:56:23Z</time><extensions><speed>1.043266</speed><course>81.498755</course><hAcc>1.888321</hAcc><vAcc>0.810151</vAcc></extensions></trkpt>
      <trkpt lon="-117.328221" lat="33.979313"><ele>326.732724</ele><time>2025-04-22T02:56:24Z</time><extensions><speed>1.050329</speed><course>81.558892</course><hAcc>1.863089</hAcc><vAcc>0.826569</vAcc></extensions></trkpt>
      <trkpt lon="-117.328210" lat="33.979314"><ele>326.804470</ele><time>2025-04-22T02:56:25Z</time><extensions><speed>1.043578</speed><course>82.891293</course><hAcc>1.833636</hAcc><vAcc>0.843939</vAcc></extensions></trkpt>
      <trkpt lon="-117.328198" lat="33.979315"><ele>326.863726</ele><time>2025-04-22T02:56:26Z</time><extensions><speed>1.040193</speed><course>84.673537</course><hAcc>1.812479</hAcc><vAcc>0.862291</vAcc></extensions></trkpt>
      <trkpt lon="-117.328187" lat="33.979315"><ele>326.910478</ele><time>2025-04-22T02:56:27Z</time><extensions><speed>1.083797</speed><course>86.888562</course><hAcc>1.807481</hAcc><vAcc>0.880930</vAcc></extensions></trkpt>
      <trkpt lon="-117.328175" lat="33.979316"><ele>326.949019</ele><time>2025-04-22T02:56:28Z</time><extensions><speed>1.060171</speed><course>88.260877</course><hAcc>1.782641</hAcc><vAcc>0.898858</vAcc></extensions></trkpt>
      <trkpt lon="-117.328164" lat="33.979316"><ele>326.978512</ele><time>2025-04-22T02:56:29Z</time><extensions><speed>1.004986</speed><course>89.674302</course><hAcc>1.749363</hAcc><vAcc>0.915067</vAcc></extensions></trkpt>
      <trkpt lon="-117.328153" lat="33.979316"><ele>326.999234</ele><time>2025-04-22T02:56:30Z</time><extensions><speed>1.021419</speed><course>89.813847</course><hAcc>1.719407</hAcc><vAcc>0.929753</vAcc></extensions></trkpt>
      <trkpt lon="-117.328142" lat="33.979316"><ele>327.007287</ele><time>2025-04-22T02:56:31Z</time><extensions><speed>1.078731</speed><course>91.011217</course><hAcc>1.694848</hAcc><vAcc>0.942114</vAcc></extensions></trkpt>
      <trkpt lon="-117.328130" lat="33.979316"><ele>327.007253</ele><time>2025-04-22T02:56:32Z</time><extensions><speed>1.106728</speed><course>91.963405</course><hAcc>1.675774</hAcc><vAcc>0.952239</vAcc></extensions></trkpt>
      <trkpt lon="-117.328118" lat="33.979315"><ele>326.998513</ele><time>2025-04-22T02:56:33Z</time><extensions><speed>1.108845</speed><course>93.010851</course><hAcc>1.662186</hAcc><vAcc>0.960777</vAcc></extensions></trkpt>
      <trkpt lon="-117.328106" lat="33.979315"><ele>326.988656</ele><time>2025-04-22T02:56:34Z</time><extensions><speed>1.078638</speed><course>92.547449</course><hAcc>1.652364</hAcc><vAcc>0.967527</vAcc></extensions></trkpt>
      <trkpt lon="-117.328095" lat="33.979314"><ele>326.975547</ele><time>2025-04-22T02:56:35Z</time><extensions><speed>1.066840</speed><course>93.706357</course><hAcc>1.646255</hAcc><vAcc>0.973156</vAcc></extensions></trkpt>
      <trkpt lon="-117.328083" lat="33.979314"><ele>326.954461</ele><time>2025-04-22T02:56:36Z</time><extensions><speed>1.070752</speed><course>95.614959</course><hAcc>1.643865</hAcc><vAcc>0.977632</vAcc></extensions></trkpt>
      <trkpt lon="-117.328071" lat="33.979313"><ele>326.928535</ele><time>2025-04-22T02:56:37Z</time><extensions><speed>1.086696</speed><course>95.055437</course><hAcc>1.643454</hAcc><vAcc>0.981152</vAcc></extensions></trkpt>
      <trkpt lon="-117.328059" lat="33.979312"><ele>326.896892</ele><time>2025-04-22T02:56:38Z</time><extensions><speed>1.105973</speed><course>91.784251</course><hAcc>1.645178</hAcc><vAcc>0.983618</vAcc></extensions></trkpt>
      <trkpt lon="-117.328047" lat="33.979312"><ele>326.867573</ele><time>2025-04-22T02:56:39Z</time><extensions><speed>1.126398</speed><course>88.296586</course><hAcc>1.648057</hAcc><vAcc>0.985158</vAcc></extensions></trkpt>
      <trkpt lon="-117.328035" lat="33.979313"><ele>326.828741</ele><time>2025-04-22T02:56:40Z</time><extensions><speed>1.132822</speed><course>85.898938</course><hAcc>1.652729</hAcc><vAcc>0.986760</vAcc></extensions></trkpt>
      <trkpt lon="-117.328023" lat="33.979314"><ele>326.777865</ele><time>2025-04-22T02:56:41Z</time><extensions><speed>1.075276</speed><course>84.851712</course><hAcc>1.658157</hAcc><vAcc>0.989936</vAcc></extensions></trkpt>
      <trkpt lon="-117.328012" lat="33.979315"><ele>326.726982</ele><time>2025-04-22T02:56:42Z</time><extensions><speed>1.064264</speed><course>85.058086</course><hAcc>1.664942</hAcc><vAcc>0.994747</vAcc></extensions></trkpt>
      <trkpt lon="-117.328000" lat="33.979315"><ele>326.674934</ele><time>2025-04-22T02:56:43Z</time><extensions><speed>1.088759</speed><course>85.778140</course><hAcc>1.672799</hAcc><vAcc>0.999297</vAcc></extensions></trkpt>
      <trkpt lon="-117.327988" lat="33.979316"><ele>326.623921</ele><time>2025-04-22T02:56:44Z</time><extensions><speed>1.154626</speed><course>87.287823</course><hAcc>1.682353</hAcc><vAcc>1.002974</vAcc></extensions></trkpt>
      <trkpt lon="-117.327975" lat="33.979316"><ele>326.575746</ele><time>2025-04-22T02:56:45Z</time><extensions><speed>1.179400</speed><course>89.920894</course><hAcc>1.693342</hAcc><vAcc>1.006340</vAcc></extensions></trkpt>
      <trkpt lon="-117.327963" lat="33.979316"><ele>326.529050</ele><time>2025-04-22T02:56:46Z</time><extensions><speed>1.168624</speed><course>90.975754</course><hAcc>1.704948</hAcc><vAcc>1.009874</vAcc></extensions></trkpt>
      <trkpt lon="-117.327950" lat="33.979316"><ele>326.483150</ele><time>2025-04-22T02:56:47Z</time><extensions><speed>1.136393</speed><course>92.042205</course><hAcc>1.715619</hAcc><vAcc>1.013535</vAcc></extensions></trkpt>
      <trkpt lon="-117.327938" lat="33.979316"><ele>326.444648</ele><time>2025-04-22T02:56:48Z</time><extensions><speed>1.086611</speed><course>91.768468</course><hAcc>1.723810</hAcc><vAcc>1.016687</vAcc></extensions></trkpt>
      <trkpt lon="-117.327926" lat="33.979315"><ele>326.408080</ele><time>2025-04-22T02:56:49Z</time><extensions><speed>1.097469</speed><course>91.007668</course><hAcc>1.730120</hAcc><vAcc>1.018733</vAcc></extensions></trkpt>
      <trkpt lon="-117.327915" lat="33.979315"><ele>326.364235</ele><time>2025-04-22T02:56:50Z</time><extensions><speed>1.095280</speed><course>91.101931</course><hAcc>1.735349</hAcc><vAcc>1.019710</vAcc></extensions></trkpt>
      <trkpt lon="-117.327903" lat="33.979315"><ele>326.333589</ele><time>2025-04-22T02:56:51Z</time><extensions><speed>1.113752</speed><course>89.852952</course><hAcc>1.735639</hAcc><vAcc>1.021314</vAcc></extensions></trkpt>
      <trkpt lon="-117.327890" lat="33.979315"><ele>326.308223</ele><time>2025-04-22T02:56:52Z</time><extensions><speed>1.138168</speed><course>88.478743</course><hAcc>1.740798</hAcc><vAcc>1.022825</vAcc></extensions></trkpt>
      <trkpt lon="-117.327878" lat="33.979316"><ele>326.282700</ele><time>2025-04-22T02:56:53Z</time><extensions><speed>1.114101</speed><course>88.210301</course><hAcc>1.741267</hAcc><vAcc>1.023655</vAcc></extensions></trkpt>
      <trkpt lon="-117.327866" lat="33.979316"><ele>326.264388</ele><time>2025-04-22T02:56:54Z</time><extensions><speed>1.069191</speed><course>88.883861</course><hAcc>1.738172</hAcc><vAcc>1.023183</vAcc></extensions></trkpt>
      <trkpt lon="-117.327855" lat="33.979316"><ele>326.247100</ele><time>2025-04-22T02:56:55Z</time><extensions><speed>1.018265</speed><course>90.269884</course><hAcc>1.735068</hAcc><vAcc>1.022022</vAcc></extensions></trkpt>
      <trkpt lon="-117.327844" lat="33.979316"><ele>326.236357</ele><time>2025-04-22T02:56:56Z</time><extensions><speed>1.026091</speed><course>90.214219</course><hAcc>1.733198</hAcc><vAcc>1.019726</vAcc></extensions></trkpt>
      <trkpt lon="-117.327833" lat="33.979317"><ele>326.225406</ele><time>2025-04-22T02:56:57Z</time><extensions><speed>1.071169</speed><course>87.444693</course><hAcc>1.731902</hAcc><vAcc>1.016835</vAcc></extensions></trkpt>
      <trkpt lon="-117.327821" lat="33.979317"><ele>326.217499</ele><time>2025-04-22T02:56:58Z</time><extensions><speed>1.105118</speed><course>84.947825</course><hAcc>1.730386</hAcc><vAcc>1.013734</vAcc></extensions></trkpt>
      <trkpt lon="-117.327809" lat="33.979319"><ele>326.206072</ele><time>2025-04-22T02:56:59Z</time><extensions><speed>1.115487</speed><course>83.588491</course><hAcc>1.727245</hAcc><vAcc>1.011018</vAcc></extensions></trkpt>
      <trkpt lon="-117.327797" lat="33.979320"><ele>326.202222</ele><time>2025-04-22T02:57:00Z</time><extensions><speed>1.118869</speed><course>82.949424</course><hAcc>1.723370</hAcc><vAcc>1.008948</vAcc></extensions></trkpt>
      <trkpt lon="-117.327785" lat="33.979321"><ele>326.201151</ele><time>2025-04-22T02:57:01Z</time><extensions><speed>1.128775</speed><course>83.720788</course><hAcc>1.724689</hAcc><vAcc>1.006991</vAcc></extensions></trkpt>
      <trkpt lon="-117.327773" lat="33.979322"><ele>326.201727</ele><time>2025-04-22T02:57:02Z</time><extensions><speed>1.108641</speed><course>84.488525</course><hAcc>1.723811</hAcc><vAcc>1.005634</vAcc></extensions></trkpt>
      <trkpt lon="-117.327761" lat="33.979324"><ele>326.208655</ele><time>2025-04-22T02:57:03Z</time><extensions><speed>1.122954</speed><course>82.172922</course><hAcc>1.721228</hAcc><vAcc>1.004457</vAcc></extensions></trkpt>
      <trkpt lon="-117.327748" lat="33.979325"><ele>326.218946</ele><time>2025-04-22T02:57:04Z</time><extensions><speed>1.151623</speed><course>82.313765</course><hAcc>1.714990</hAcc><vAcc>1.003254</vAcc></extensions></trkpt>
      <trkpt lon="-117.327736" lat="33.979326"><ele>326.227379</ele><time>2025-04-22T02:57:05Z</time><extensions><speed>1.138095</speed><course>83.364953</course><hAcc>1.707586</hAcc><vAcc>1.002546</vAcc></extensions></trkpt>
      <trkpt lon="-117.327724" lat="33.979328"><ele>326.238021</ele><time>2025-04-22T02:57:06Z</time><extensions><speed>1.117144</speed><course>84.212313</course><hAcc>1.700443</hAcc><vAcc>1.002185</vAcc></extensions></trkpt>
      <trkpt lon="-117.327712" lat="33.979329"><ele>326.251400</ele><time>2025-04-22T02:57:07Z</time><extensions><speed>1.070610</speed><course>84.414181</course><hAcc>1.696871</hAcc><vAcc>1.003631</vAcc></extensions></trkpt>
      <trkpt lon="-117.327701" lat="33.979330"><ele>326.264783</ele><time>2025-04-22T02:57:08Z</time><extensions><speed>1.036585</speed><course>84.062992</course><hAcc>1.695506</hAcc><vAcc>1.006301</vAcc></extensions></trkpt>
      <trkpt lon="-117.327689" lat="33.979331"><ele>326.282060</ele><time>2025-04-22T02:57:09Z</time><extensions><speed>1.072683</speed><course>84.150574</course><hAcc>1.696638</hAcc><vAcc>1.009833</vAcc></extensions></trkpt>
      <trkpt lon="-117.327678" lat="33.979332"><ele>326.306022</ele><time>2025-04-22T02:57:10Z</time><extensions><speed>1.104487</speed><course>84.888385</course><hAcc>1.700510</hAcc><vAcc>1.013967</vAcc></extensions></trkpt>
      <trkpt lon="-117.327666" lat="33.979333"><ele>326.336737</ele><time>2025-04-22T02:57:11Z</time><extensions><speed>1.111338</speed><course>85.049829</course><hAcc>1.706127</hAcc><vAcc>1.018487</vAcc></extensions></trkpt>
      <trkpt lon="-117.327654" lat="33.979334"><ele>326.366462</ele><time>2025-04-22T02:57:12Z</time><extensions><speed>1.107613</speed><course>82.729781</course><hAcc>1.711597</hAcc><vAcc>1.023071</vAcc></extensions></trkpt>
      <trkpt lon="-117.327642" lat="33.979336"><ele>326.402947</ele><time>2025-04-22T02:57:13Z</time><extensions><speed>1.079135</speed><course>82.430107</course><hAcc>1.715405</hAcc><vAcc>1.027502</vAcc></extensions></trkpt>
      <trkpt lon="-117.327630" lat="33.979337"><ele>326.440050</ele><time>2025-04-22T02:57:14Z</time><extensions><speed>1.063260</speed><course>83.246593</course><hAcc>1.719215</hAcc><vAcc>1.031194</vAcc></extensions></trkpt>
      <trkpt lon="-117.327619" lat="33.979338"><ele>326.470757</ele><time>2025-04-22T02:57:15Z</time><extensions><speed>1.077121</speed><course>82.279643</course><hAcc>1.724264</hAcc><vAcc>1.034910</vAcc></extensions></trkpt>
      <trkpt lon="-117.327607" lat="33.979340"><ele>326.499421</ele><time>2025-04-22T02:57:16Z</time><extensions><speed>1.096526</speed><course>82.311919</course><hAcc>1.730261</hAcc><vAcc>1.037813</vAcc></extensions></trkpt>
      <trkpt lon="-117.327595" lat="33.979341"><ele>326.537346</ele><time>2025-04-22T02:57:17Z</time><extensions><speed>1.100016</speed><course>81.619557</course><hAcc>1.738049</hAcc><vAcc>1.040125</vAcc></extensions></trkpt>
      <trkpt lon="-117.327583" lat="33.979343"><ele>326.588442</ele><time>2025-04-22T02:57:18Z</time><extensions><speed>1.130148</speed><course>81.685283</course><hAcc>1.746768</hAcc><vAcc>1.043907</vAcc></extensions></trkpt>
      <trkpt lon="-117.327571" lat="33.979344"><ele>326.662022</ele><time>2025-04-22T02:57:19Z</time><extensions><speed>1.118614</speed><course>80.703699</course><hAcc>1.753806</hAcc><vAcc>1.048031</vAcc></extensions></trkpt>
      <trkpt lon="-117.327560" lat="33.979346"><ele>326.728307</ele><time>2025-04-22T02:57:20Z</time><extensions><speed>1.062317</speed><course>80.667763</course><hAcc>1.758444</hAcc><vAcc>1.053106</vAcc></extensions></trkpt>
      <trkpt lon="-117.327548" lat="33.979347"><ele>326.802121</ele><time>2025-04-22T02:57:21Z</time><extensions><speed>1.057176</speed><course>80.945975</course><hAcc>1.762190</hAcc><vAcc>1.057975</vAcc></extensions></trkpt>
      <trkpt lon="-117.327537" lat="33.979349"><ele>326.883566</ele><time>2025-04-22T02:57:22Z</time><extensions><speed>1.086641</speed><course>83.546974</course><hAcc>1.764570</hAcc><vAcc>1.061750</vAcc></extensions></trkpt>
      <trkpt lon="-117.327525" lat="33.979350"><ele>326.968483</ele><time>2025-04-22T02:57:23Z</time><extensions><speed>1.090423</speed><course>86.069427</course><hAcc>1.763887</hAcc><vAcc>1.065685</vAcc></extensions></trkpt>
      <trkpt lon="-117.327513" lat="33.979350"><ele>327.053043</ele><time>2025-04-22T02:57:24Z</time><extensions><speed>1.129977</speed><course>89.028752</course><hAcc>1.761697</hAcc><vAcc>1.069016</vAcc></extensions></trkpt>
      <trkpt lon="-117.327501" lat="33.979350"><ele>327.142783</ele><time>2025-04-22T02:57:25Z</time><extensions><speed>1.150400</speed><course>90.660412</course><hAcc>1.758188</hAcc><vAcc>1.071719</vAcc></extensions></trkpt>
      <trkpt lon="-117.327489" lat="33.979350"><ele>327.224877</ele><time>2025-04-22T02:57:26Z</time><extensions><speed>1.060146</speed><course>88.274974</course><hAcc>1.755226</hAcc><vAcc>1.074431</vAcc></extensions></trkpt>
      <trkpt lon="-117.327478" lat="33.979351"><ele>327.311108</ele><time>2025-04-22T02:57:27Z</time><extensions><speed>1.048310</speed><course>86.928899</course><hAcc>1.756036</hAcc><vAcc>1.076651</vAcc></extensions></trkpt>
      <trkpt lon="-117.327465" lat="33.979351"><ele>327.401368</ele><time>2025-04-22T02:57:28Z</time><extensions><speed>1.174618</speed><course>89.252118</course><hAcc>1.753260</hAcc><vAcc>1.078042</vAcc></extensions></trkpt>
      <trkpt lon="-117.327453" lat="33.979351"><ele>327.493516</ele><time>2025-04-22T02:57:29Z</time><extensions><speed>1.193774</speed><course>92.335023</course><hAcc>1.748052</hAcc><vAcc>1.078738</vAcc></extensions></trkpt>
      <trkpt lon="-117.327440" lat="33.979350"><ele>327.585782</ele><time>2025-04-22T02:57:30Z</time><extensions><speed>1.192443</speed><course>93.008557</course><hAcc>1.755988</hAcc><vAcc>1.078165</vAcc></extensions></trkpt>
      <trkpt lon="-117.327427" lat="33.979350"><ele>327.671628</ele><time>2025-04-22T02:57:31Z</time><extensions><speed>1.152936</speed><course>92.340643</course><hAcc>1.760221</hAcc><vAcc>1.076709</vAcc></extensions></trkpt>
      <trkpt lon="-117.327415" lat="33.979350"><ele>327.756526</ele><time>2025-04-22T02:57:32Z</time><extensions><speed>1.092246</speed><course>91.117170</course><hAcc>1.762856</hAcc><vAcc>1.074906</vAcc></extensions></trkpt>
      <trkpt lon="-117.327403" lat="33.979350"><ele>327.836929</ele><time>2025-04-22T02:57:33Z</time><extensions><speed>1.080290</speed><course>89.643842</course><hAcc>1.762685</hAcc><vAcc>1.072287</vAcc></extensions></trkpt>
      <trkpt lon="-117.327391" lat="33.979350"><ele>327.925320</ele><time>2025-04-22T02:57:34Z</time><extensions><speed>1.077731</speed><course>88.098720</course><hAcc>1.762246</hAcc><vAcc>1.070153</vAcc></extensions></trkpt>
      <trkpt lon="-117.327380" lat="33.979351"><ele>328.017774</ele><time>2025-04-22T02:57:35Z</time><extensions><speed>1.107088</speed><course>87.408637</course><hAcc>1.761289</hAcc><vAcc>1.069077</vAcc></extensions></trkpt>
      <trkpt lon="-117.327367" lat="33.979352"><ele>328.105399</ele><time>2025-04-22T02:57:36Z</time><extensions><speed>1.126828</speed><course>87.543167</course><hAcc>1.761583</hAcc><vAcc>1.068780</vAcc></extensions></trkpt>
      <trkpt lon="-117.327355" lat="33.979352"><ele>328.202170</ele><time>2025-04-22T02:57:37Z</time><extensions><speed>1.122336</speed><course>89.973763</course><hAcc>1.761377</hAcc><vAcc>1.069391</vAcc></extensions></trkpt>
      <trkpt lon="-117.327343" lat="33.979352"><ele>328.292779</ele><time>2025-04-22T02:57:38Z</time><extensions><speed>1.144636</speed><course>89.367892</course><hAcc>1.759634</hAcc><vAcc>1.071521</vAcc></extensions></trkpt>
      <trkpt lon="-117.327330" lat="33.979353"><ele>328.390681</ele><time>2025-04-22T02:57:39Z</time><extensions><speed>1.152857</speed><course>87.440764</course><hAcc>1.759301</hAcc><vAcc>1.073041</vAcc></extensions></trkpt>
      <trkpt lon="-117.327318" lat="33.979354"><ele>328.488089</ele><time>2025-04-22T02:57:40Z</time><extensions><speed>1.137523</speed><course>86.270356</course><hAcc>1.760918</hAcc><vAcc>1.075167</vAcc></extensions></trkpt>
      <trkpt lon="-117.327306" lat="33.979355"><ele>328.576947</ele><time>2025-04-22T02:57:41Z</time><extensions><speed>1.124870</speed><course>84.163213</course><hAcc>1.764449</hAcc><vAcc>1.079224</vAcc></extensions></trkpt>
      <trkpt lon="-117.327293" lat="33.979357"><ele>328.661581</ele><time>2025-04-22T02:57:42Z</time><extensions><speed>1.162946</speed><course>79.598680</course><hAcc>1.767942</hAcc><vAcc>1.085032</vAcc></extensions></trkpt>
      <trkpt lon="-117.327281" lat="33.979360"><ele>328.746387</ele><time>2025-04-22T02:57:43Z</time><extensions><speed>1.201934</speed><course>76.010977</course><hAcc>1.771684</hAcc><vAcc>1.092404</vAcc></extensions></trkpt>
      <trkpt lon="-117.327268" lat="33.979363"><ele>328.832119</ele><time>2025-04-22T02:57:44Z</time><extensions><speed>1.203638</speed><course>72.275543</course><hAcc>1.771729</hAcc><vAcc>1.100490</vAcc></extensions></trkpt>
      <trkpt lon="-117.327256" lat="33.979367"><ele>328.915144</ele><time>2025-04-22T02:57:45Z</time><extensions><speed>1.205371</speed><course>68.851589</course><hAcc>1.778825</hAcc><vAcc>1.108692</vAcc></extensions></trkpt>
      <trkpt lon="-117.327244" lat="33.979371"><ele>328.976119</ele><time>2025-04-22T02:57:46Z</time><extensions><speed>1.192933</speed><course>66.628644</course><hAcc>1.788671</hAcc><vAcc>1.115487</vAcc></extensions></trkpt>
      <trkpt lon="-117.327232" lat="33.979376"><ele>329.050261</ele><time>2025-04-22T02:57:47Z</time><extensions><speed>1.209231</speed><course>66.322992</course><hAcc>1.789973</hAcc><vAcc>1.121292</vAcc></extensions></trkpt>
      <trkpt lon="-117.327220" lat="33.979380"><ele>329.123410</ele><time>2025-04-22T02:57:48Z</time><extensions><speed>1.214172</speed><course>68.415609</course><hAcc>1.797825</hAcc><vAcc>1.125860</vAcc></extensions></trkpt>
      <trkpt lon="-117.327208" lat="33.979384"><ele>329.213672</ele><time>2025-04-22T02:57:49Z</time><extensions><speed>1.174229</speed><course>68.970018</course><hAcc>1.801412</hAcc><vAcc>1.130530</vAcc></extensions></trkpt>
      <trkpt lon="-117.327196" lat="33.979388"><ele>329.292978</ele><time>2025-04-22T02:57:50Z</time><extensions><speed>1.113579</speed><course>69.417572</course><hAcc>1.799874</hAcc><vAcc>1.133395</vAcc></extensions></trkpt>
      <trkpt lon="-117.327185" lat="33.979392"><ele>329.365628</ele><time>2025-04-22T02:57:51Z</time><extensions><speed>1.132850</speed><course>69.170248</course><hAcc>1.795754</hAcc><vAcc>1.135203</vAcc></extensions></trkpt>
      <trkpt lon="-117.327173" lat="33.979395"><ele>329.431897</ele><time>2025-04-22T02:57:52Z</time><extensions><speed>1.161450</speed><course>70.318264</course><hAcc>1.793589</hAcc><vAcc>1.136733</vAcc></extensions></trkpt>
      <trkpt lon="-117.327161" lat="33.979398"><ele>329.496432</ele><time>2025-04-22T02:57:53Z</time><extensions><speed>1.123201</speed><course>73.059804</course><hAcc>1.788458</hAcc><vAcc>1.138482</vAcc></extensions></trkpt>
      <trkpt lon="-117.327150" lat="33.979400"><ele>329.569733</ele><time>2025-04-22T02:57:54Z</time><extensions><speed>1.051506</speed><course>78.437382</course><hAcc>1.784803</hAcc><vAcc>1.140416</vAcc></extensions></trkpt>
      <trkpt lon="-117.327139" lat="33.979401"><ele>329.627369</ele><time>2025-04-22T02:57:55Z</time><extensions><speed>1.071715</speed><course>83.076000</course><hAcc>1.784623</hAcc><vAcc>1.142104</vAcc></extensions></trkpt>
      <trkpt lon="-117.327127" lat="33.979402"><ele>329.662066</ele><time>2025-04-22T02:57:56Z</time><extensions><speed>1.050145</speed><course>89.913482</course><hAcc>1.782073</hAcc><vAcc>1.145159</vAcc></extensions></trkpt>
      <trkpt lon="-117.327116" lat="33.979400"><ele>329.684195</ele><time>2025-04-22T02:57:57Z</time><extensions><speed>0.998385</speed><course>99.203662</course><hAcc>1.780079</hAcc><vAcc>1.148616</vAcc></extensions></trkpt>
      <trkpt lon="-117.327106" lat="33.979398"><ele>329.698385</ele><time>2025-04-22T02:57:58Z</time><extensions><speed>1.026532</speed><course>106.665653</course><hAcc>1.782897</hAcc><vAcc>1.153919</vAcc></extensions></trkpt>
      <trkpt lon="-117.327095" lat="33.979394"><ele>329.700048</ele><time>2025-04-22T02:57:59Z</time><extensions><speed>1.105962</speed><course>112.777445</course><hAcc>1.787158</hAcc><vAcc>1.159595</vAcc></extensions></trkpt>
      <trkpt lon="-117.327084" lat="33.979389"><ele>329.703966</ele><time>2025-04-22T02:58:00Z</time><extensions><speed>1.142539</speed><course>122.537567</course><hAcc>1.804208</hAcc><vAcc>1.166277</vAcc></extensions></trkpt>
      <trkpt lon="-117.327073" lat="33.979382"><ele>329.719573</ele><time>2025-04-22T02:58:01Z</time><extensions><speed>1.207666</speed><course>133.773335</course><hAcc>1.821413</hAcc><vAcc>1.175303</vAcc></extensions></trkpt>
      <trkpt lon="-117.327064" lat="33.979373"><ele>329.738985</ele><time>2025-04-22T02:58:02Z</time><extensions><speed>1.285384</speed><course>144.061253</course><hAcc>1.843377</hAcc><vAcc>1.187482</vAcc></extensions></trkpt>
      <trkpt lon="-117.327056" lat="33.979362"><ele>329.758099</ele><time>2025-04-22T02:58:03Z</time><extensions><speed>1.444521</speed><course>154.116624</course><hAcc>1.867081</hAcc><vAcc>1.202939</vAcc></extensions></trkpt>
      <trkpt lon="-117.327050" lat="33.979349"><ele>329.762019</ele><time>2025-04-22T02:58:04Z</time><extensions><speed>1.557832</speed><course>163.710913</course><hAcc>1.877009</hAcc><vAcc>1.221315</vAcc></extensions></trkpt>
      <trkpt lon="-117.327046" lat="33.979334"><ele>329.765817</ele><time>2025-04-22T02:58:05Z</time><extensions><speed>1.642998</speed><course>170.053829</course><hAcc>1.904687</hAcc><vAcc>1.241527</vAcc></extensions></trkpt>
      <trkpt lon="-117.327043" lat="33.979318"><ele>329.760341</ele><time>2025-04-22T02:58:06Z</time><extensions><speed>1.705038</speed><course>172.122399</course><hAcc>1.947136</hAcc><vAcc>1.263433</vAcc></extensions></trkpt>
      <trkpt lon="-117.327040" lat="33.979302"><ele>329.738916</ele><time>2025-04-22T02:58:07Z</time><extensions><speed>1.766485</speed><course>171.106451</course><hAcc>1.985424</hAcc><vAcc>1.286106</vAcc></extensions></trkpt>
      <trkpt lon="-117.327036" lat="33.979285"><ele>329.723680</ele><time>2025-04-22T02:58:08Z</time><extensions><speed>1.745950</speed><course>170.849063</course><hAcc>2.024004</hAcc><vAcc>1.310489</vAcc></extensions></trkpt>
      <trkpt lon="-117.327033" lat="33.979269"><ele>329.695980</ele><time>2025-04-22T02:58:09Z</time><extensions><speed>1.715540</speed><course>171.267108</course><hAcc>2.062714</hAcc><vAcc>1.336305</vAcc></extensions></trkpt>
      <trkpt lon="-117.327030" lat="33.979253"><ele>329.671297</ele><time>2025-04-22T02:58:10Z</time><extensions><speed>1.736356</speed><course>171.956346</course><hAcc>2.102260</hAcc><vAcc>1.362507</vAcc></extensions></trkpt>
      <trkpt lon="-117.327026" lat="33.979236"><ele>329.645445</ele><time>2025-04-22T02:58:11Z</time><extensions><speed>1.757001</speed><course>171.153495</course><hAcc>2.140597</hAcc><vAcc>1.389829</vAcc></extensions></trkpt>
      <trkpt lon="-117.327023" lat="33.979220"><ele>329.609735</ele><time>2025-04-22T02:58:12Z</time><extensions><speed>1.688246</speed><course>170.840806</course><hAcc>2.181725</hAcc><vAcc>1.416300</vAcc></extensions></trkpt>
      <trkpt lon="-117.327020" lat="33.979204"><ele>329.574512</ele><time>2025-04-22T02:58:13Z</time><extensions><speed>1.635055</speed><course>174.786476</course><hAcc>2.221424</hAcc><vAcc>1.443181</vAcc></extensions></trkpt>
      <trkpt lon="-117.327018" lat="33.979188"><ele>329.526620</ele><time>2025-04-22T02:58:14Z</time><extensions><speed>1.551590</speed><course>178.484124</course><hAcc>2.257049</hAcc><vAcc>1.469627</vAcc></extensions></trkpt>
      <trkpt lon="-117.327018" lat="33.979173"><ele>329.483733</ele><time>2025-04-22T02:58:15Z</time><extensions><speed>1.537366</speed><course>179.697874</course><hAcc>2.284628</hAcc><vAcc>1.495613</vAcc></extensions></trkpt>
      <trkpt lon="-117.327017" lat="33.979158"><ele>329.430837</ele><time>2025-04-22T02:58:16Z</time><extensions><speed>1.535909</speed><course>180.079385</course><hAcc>2.306122</hAcc><vAcc>1.518985</vAcc></extensions></trkpt>
      <trkpt lon="-117.327016" lat="33.979143"><ele>329.386646</ele><time>2025-04-22T02:58:17Z</time><extensions><speed>1.555709</speed><course>177.050955</course><hAcc>2.327619</hAcc><vAcc>1.540485</vAcc></extensions></trkpt>
      <trkpt lon="-117.327014" lat="33.979128"><ele>329.337639</ele><time>2025-04-22T02:58:18Z</time><extensions><speed>1.553896</speed><course>176.372335</course><hAcc>2.354912</hAcc><vAcc>1.556721</vAcc></extensions></trkpt>
      <trkpt lon="-117.327012" lat="33.979113"><ele>329.302471</ele><time>2025-04-22T02:58:19Z</time><extensions><speed>1.560998</speed><course>176.409315</course><hAcc>2.375527</hAcc><vAcc>1.570720</vAcc></extensions></trkpt>
      <trkpt lon="-117.327011" lat="33.979098"><ele>329.259875</ele><time>2025-04-22T02:58:20Z</time><extensions><speed>1.517460</speed><course>177.997033</course><hAcc>2.396760</hAcc><vAcc>1.582887</vAcc></extensions></trkpt>
      <trkpt lon="-117.327010" lat="33.979083"><ele>329.228528</ele><time>2025-04-22T02:58:21Z</time><extensions><speed>1.509020</speed><course>177.313551</course><hAcc>2.409261</hAcc><vAcc>1.592249</vAcc></extensions></trkpt>
      <trkpt lon="-117.327008" lat="33.979069"><ele>329.201574</ele><time>2025-04-22T02:58:22Z</time><extensions><speed>1.498315</speed><course>176.614118</course><hAcc>2.411243</hAcc><vAcc>1.599101</vAcc></extensions></trkpt>
      <trkpt lon="-117.327007" lat="33.979054"><ele>329.156623</ele><time>2025-04-22T02:58:23Z</time><extensions><speed>1.464958</speed><course>177.244079</course><hAcc>2.411430</hAcc><vAcc>1.601034</vAcc></extensions></trkpt>
      <trkpt lon="-117.327006" lat="33.979040"><ele>329.107219</ele><time>2025-04-22T02:58:24Z</time><extensions><speed>1.458422</speed><course>177.288522</course><hAcc>2.410297</hAcc><vAcc>1.603294</vAcc></extensions></trkpt>
      <trkpt lon="-117.327005" lat="33.979027"><ele>329.048087</ele><time>2025-04-22T02:58:25Z</time><extensions><speed>1.394485</speed><course>177.694520</course><hAcc>2.414250</hAcc><vAcc>1.600434</vAcc></extensions></trkpt>
      <trkpt lon="-117.327004" lat="33.979013"><ele>329.003220</ele><time>2025-04-22T02:58:26Z</time><extensions><speed>1.380000</speed><course>177.647395</course><hAcc>2.407741</hAcc><vAcc>1.590304</vAcc></extensions></trkpt>
      <trkpt lon="-117.327003" lat="33.979000"><ele>328.948987</ele><time>2025-04-22T02:58:27Z</time><extensions><speed>1.416735</speed><course>177.728157</course><hAcc>2.399038</hAcc><vAcc>1.579725</vAcc></extensions></trkpt>
      <trkpt lon="-117.327002" lat="33.978987"><ele>328.920943</ele><time>2025-04-22T02:58:28Z</time><extensions><speed>1.376661</speed><course>177.650514</course><hAcc>2.381996</hAcc><vAcc>1.569438</vAcc></extensions></trkpt>
      <trkpt lon="-117.327001" lat="33.978974"><ele>328.896653</ele><time>2025-04-22T02:58:29Z</time><extensions><speed>1.281063</speed><course>178.723037</course><hAcc>2.365836</hAcc><vAcc>1.558299</vAcc></extensions></trkpt>
      <trkpt lon="-117.327001" lat="33.978962"><ele>328.838387</ele><time>2025-04-22T02:58:30Z</time><extensions><speed>1.218845</speed><course>181.163264</course><hAcc>2.350389</hAcc><vAcc>1.545985</vAcc></extensions></trkpt>
      <trkpt lon="-117.327001" lat="33.978951"><ele>328.767584</ele><time>2025-04-22T02:58:31Z</time><extensions><speed>1.226203</speed><course>181.295797</course><hAcc>2.333916</hAcc><vAcc>1.532949</vAcc></extensions></trkpt>
      <trkpt lon="-117.327001" lat="33.978939"><ele>328.701738</ele><time>2025-04-22T02:58:32Z</time><extensions><speed>1.196911</speed><course>179.184182</course><hAcc>2.312092</hAcc><vAcc>1.520883</vAcc></extensions></trkpt>
      <trkpt lon="-117.327000" lat="33.978928"><ele>328.627063</ele><time>2025-04-22T02:58:33Z</time><extensions><speed>1.248855</speed><course>179.295950</course><hAcc>2.287898</hAcc><vAcc>1.508484</vAcc></extensions></trkpt>
      <trkpt lon="-117.327000" lat="33.978916"><ele>328.556885</ele><time>2025-04-22T02:58:34Z</time><extensions><speed>1.312883</speed><course>181.242080</course><hAcc>2.274202</hAcc><vAcc>1.497067</vAcc></extensions></trkpt>
      <trkpt lon="-117.327000" lat="33.978903"><ele>328.497439</ele><time>2025-04-22T02:58:35Z</time><extensions><speed>1.278979</speed><course>182.357521</course><hAcc>2.259054</hAcc><vAcc>1.485820</vAcc></extensions></trkpt>
      <trkpt lon="-117.327000" lat="33.978892"><ele>328.424492</ele><time>2025-04-22T02:58:36Z</time><extensions><speed>1.229735</speed><course>180.317916</course><hAcc>2.249619</hAcc><vAcc>1.477653</vAcc></extensions></trkpt>
      <trkpt lon="-117.327000" lat="33.978880"><ele>328.356136</ele><time>2025-04-22T02:58:37Z</time><extensions><speed>1.242310</speed><course>176.598548</course><hAcc>2.240281</hAcc><vAcc>1.469580</vAcc></extensions></trkpt>
      <trkpt lon="-117.326999" lat="33.978868"><ele>328.299518</ele><time>2025-04-22T02:58:38Z</time><extensions><speed>1.293540</speed><course>174.807445</course><hAcc>2.232288</hAcc><vAcc>1.460326</vAcc></extensions></trkpt>
      <trkpt lon="-117.326998" lat="33.978856"><ele>328.231118</ele><time>2025-04-22T02:58:39Z</time><extensions><speed>1.295888</speed><course>175.836935</course><hAcc>2.223960</hAcc><vAcc>1.450888</vAcc></extensions></trkpt>
      <trkpt lon="-117.326997" lat="33.978844"><ele>328.176146</ele><time>2025-04-22T02:58:40Z</time><extensions><speed>1.271957</speed><course>178.376473</course><hAcc>2.213285</hAcc><vAcc>1.443054</vAcc></extensions></trkpt>
      <trkpt lon="-117.326997" lat="33.978833"><ele>328.118969</ele><time>2025-04-22T02:58:41Z</time><extensions><speed>1.224998</speed><course>179.042917</course><hAcc>2.204346</hAcc><vAcc>1.435347</vAcc></extensions></trkpt>
      <trkpt lon="-117.326996" lat="33.978821"><ele>328.078227</ele><time>2025-04-22T02:58:42Z</time><extensions><speed>1.230331</speed><course>178.769654</course><hAcc>2.203369</hAcc><vAcc>1.428173</vAcc></extensions></trkpt>
      <trkpt lon="-117.326995" lat="33.978810"><ele>328.048014</ele><time>2025-04-22T02:58:43Z</time><extensions><speed>1.275053</speed><course>177.839995</course><hAcc>2.197545</hAcc><vAcc>1.420851</vAcc></extensions></trkpt>
      <trkpt lon="-117.326994" lat="33.978798"><ele>328.026026</ele><time>2025-04-22T02:58:44Z</time><extensions><speed>1.317956</speed><course>177.104722</course><hAcc>2.195372</hAcc><vAcc>1.412470</vAcc></extensions></trkpt>
      <trkpt lon="-117.326993" lat="33.978786"><ele>328.005440</ele><time>2025-04-22T02:58:45Z</time><extensions><speed>1.292824</speed><course>177.860584</course><hAcc>2.192476</hAcc><vAcc>1.405266</vAcc></extensions></trkpt>
      <trkpt lon="-117.326992" lat="33.978774"><ele>328.006072</ele><time>2025-04-22T02:58:46Z</time><extensions><speed>1.279045</speed><course>180.190718</course><hAcc>2.185500</hAcc><vAcc>1.399693</vAcc></extensions></trkpt>
      <trkpt lon="-117.326992" lat="33.978762"><ele>328.003536</ele><time>2025-04-22T02:58:47Z</time><extensions><speed>1.234842</speed><course>182.111555</course><hAcc>2.182899</hAcc><vAcc>1.396431</vAcc></extensions></trkpt>
      <trkpt lon="-117.326992" lat="33.978751"><ele>327.988993</ele><time>2025-04-22T02:58:48Z</time><extensions><speed>1.150061</speed><course>182.863295</course><hAcc>2.180328</hAcc><vAcc>1.393188</vAcc></extensions></trkpt>
      <trkpt lon="-117.326993" lat="33.978741"><ele>327.966865</ele><time>2025-04-22T02:58:49Z</time><extensions><speed>1.116087</speed><course>182.561950</course><hAcc>2.178170</hAcc><vAcc>1.392039</vAcc></extensions></trkpt>
      <trkpt lon="-117.326993" lat="33.978730"><ele>327.967028</ele><time>2025-04-22T02:58:50Z</time><extensions><speed>1.130423</speed><course>180.596399</course><hAcc>2.176641</hAcc><vAcc>1.394476</vAcc></extensions></trkpt>
      <trkpt lon="-117.326993" lat="33.978720"><ele>327.978610</ele><time>2025-04-22T02:58:51Z</time><extensions><speed>1.146532</speed><course>178.879533</course><hAcc>2.175126</hAcc><vAcc>1.397211</vAcc></extensions></trkpt>
      <trkpt lon="-117.326992" lat="33.978709"><ele>327.999703</ele><time>2025-04-22T02:58:52Z</time><extensions><speed>1.166237</speed><course>176.880752</course><hAcc>2.176000</hAcc><vAcc>1.401051</vAcc></extensions></trkpt>
      <trkpt lon="-117.326991" lat="33.978698"><ele>328.021027</ele><time>2025-04-22T02:58:53Z</time><extensions><speed>1.183450</speed><course>175.007779</course><hAcc>2.173826</hAcc><vAcc>1.405036</vAcc></extensions></trkpt>
      <trkpt lon="-117.326989" lat="33.978688"><ele>328.042589</ele><time>2025-04-22T02:58:54Z</time><extensions><speed>1.161237</speed><course>174.597017</course><hAcc>2.171993</hAcc><vAcc>1.409647</vAcc></extensions></trkpt>
      <trkpt lon="-117.326988" lat="33.978677"><ele>328.067164</ele><time>2025-04-22T02:58:55Z</time><extensions><speed>1.127902</speed><course>175.114331</course><hAcc>2.168943</hAcc><vAcc>1.413828</vAcc></extensions></trkpt>
      <trkpt lon="-117.326987" lat="33.978667"><ele>328.098262</ele><time>2025-04-22T02:58:56Z</time><extensions><speed>1.097691</speed><course>176.715166</course><hAcc>2.167021</hAcc><vAcc>1.418724</vAcc></extensions></trkpt>
      <trkpt lon="-117.326986" lat="33.978657"><ele>328.123268</ele><time>2025-04-22T02:58:57Z</time><extensions><speed>1.115715</speed><course>179.551950</course><hAcc>2.162878</hAcc><vAcc>1.422795</vAcc></extensions></trkpt>
      <trkpt lon="-117.326987" lat="33.978647"><ele>328.149027</ele><time>2025-04-22T02:58:58Z</time><extensions><speed>1.125440</speed><course>182.682385</course><hAcc>2.156774</hAcc><vAcc>1.427390</vAcc></extensions></trkpt>
      <trkpt lon="-117.326988" lat="33.978637"><ele>328.160358</ele><time>2025-04-22T02:58:59Z</time><extensions><speed>1.120424</speed><course>183.164706</course><hAcc>2.150849</hAcc><vAcc>1.431467</vAcc></extensions></trkpt>
      <trkpt lon="-117.326988" lat="33.978626"><ele>328.164106</ele><time>2025-04-22T02:59:00Z</time><extensions><speed>1.087191</speed><course>181.718238</course><hAcc>2.149055</hAcc><vAcc>1.434703</vAcc></extensions></trkpt>
      <trkpt lon="-117.326989" lat="33.978617"><ele>328.160179</ele><time>2025-04-22T02:59:01Z</time><extensions><speed>1.094029</speed><course>181.981933</course><hAcc>2.141951</hAcc><vAcc>1.436941</vAcc></extensions></trkpt>
      <trkpt lon="-117.326990" lat="33.978607"><ele>328.133929</ele><time>2025-04-22T02:59:02Z</time><extensions><speed>1.086769</speed><course>184.984507</course><hAcc>2.135642</hAcc><vAcc>1.439465</vAcc></extensions></trkpt>
      <trkpt lon="-117.326992" lat="33.978597"><ele>328.068498</ele><time>2025-04-22T02:59:03Z</time><extensions><speed>1.086552</speed><course>188.744141</course><hAcc>2.131935</hAcc><vAcc>1.440915</vAcc></extensions></trkpt>
      <trkpt lon="-117.326995" lat="33.978588"><ele>327.998017</ele><time>2025-04-22T02:59:04Z</time><extensions><speed>1.102755</speed><course>194.340189</course><hAcc>2.126218</hAcc><vAcc>1.442470</vAcc></extensions></trkpt>
      <trkpt lon="-117.327000" lat="33.978578"><ele>327.897976</ele><time>2025-04-22T02:59:05Z</time><extensions><speed>1.195833</speed><course>199.561807</course><hAcc>2.118555</hAcc><vAcc>1.441396</vAcc></extensions></trkpt>
      <trkpt lon="-117.327006" lat="33.978569"><ele>327.793361</ele><time>2025-04-22T02:59:06Z</time><extensions><speed>1.270528</speed><course>205.557346</course><hAcc>2.110011</hAcc><vAcc>1.436164</vAcc></extensions></trkpt>
      <trkpt lon="-117.327014" lat="33.978560"><ele>327.673204</ele><time>2025-04-22T02:59:07Z</time><extensions><speed>1.206545</speed><course>213.351589</course><hAcc>2.102621</hAcc><vAcc>1.427769</vAcc></extensions></trkpt>
      <trkpt lon="-117.327023" lat="33.978551"><ele>327.539726</ele><time>2025-04-22T02:59:08Z</time><extensions><speed>1.159712</speed><course>219.736714</course><hAcc>2.096918</hAcc><vAcc>1.419225</vAcc></extensions></trkpt>
      <trkpt lon="-117.327033" lat="33.978543"><ele>327.382036</ele><time>2025-04-22T02:59:09Z</time><extensions><speed>1.242266</speed><course>220.391678</course><hAcc>2.093294</hAcc><vAcc>1.407792</vAcc></extensions></trkpt>
      <trkpt lon="-117.327043" lat="33.978535"><ele>327.227329</ele><time>2025-04-22T02:59:10Z</time><extensions><speed>1.309663</speed><course>222.712787</course><hAcc>2.088341</hAcc><vAcc>1.397528</vAcc></extensions></trkpt>
      <trkpt lon="-117.327054" lat="33.978527"><ele>327.075331</ele><time>2025-04-22T02:59:11Z</time><extensions><speed>1.372612</speed><course>227.872969</course><hAcc>2.082473</hAcc><vAcc>1.387826</vAcc></extensions></trkpt>
      <trkpt lon="-117.327068" lat="33.978519"><ele>326.925795</ele><time>2025-04-22T02:59:12Z</time><extensions><speed>1.473744</speed><course>238.148455</course><hAcc>2.074282</hAcc><vAcc>1.377053</vAcc></extensions></trkpt>
      <trkpt lon="-117.327084" lat="33.978514"><ele>326.782436</ele><time>2025-04-22T02:59:13Z</time><extensions><speed>1.591722</speed><course>255.547230</course><hAcc>2.064516</hAcc><vAcc>1.364845</vAcc></extensions></trkpt>
      <trkpt lon="-117.327102" lat="33.978512"><ele>326.644080</ele><time>2025-04-22T02:59:14Z</time><extensions><speed>1.675238</speed><course>271.148237</course><hAcc>2.060677</hAcc><vAcc>1.353300</vAcc></extensions></trkpt>
      <trkpt lon="-117.327122" lat="33.978513"><ele>326.489007</ele><time>2025-04-22T02:59:15Z</time><extensions><speed>1.762599</speed><course>281.538065</course><hAcc>2.054641</hAcc><vAcc>1.343029</vAcc></extensions></trkpt>
      <trkpt lon="-117.327140" lat="33.978516"><ele>326.338521</ele><time>2025-04-22T02:59:16Z</time><extensions><speed>1.648330</speed><course>284.695445</course><hAcc>2.050364</hAcc><vAcc>1.334108</vAcc></extensions></trkpt>
      <trkpt lon="-117.327158" lat="33.978520"><ele>326.190389</ele><time>2025-04-22T02:59:17Z</time><extensions><speed>1.544062</speed><course>282.872857</course><hAcc>2.040209</hAcc><vAcc>1.327581</vAcc></extensions></trkpt>
      <trkpt lon="-117.327175" lat="33.978522"><ele>326.062035</ele><time>2025-04-22T02:59:18Z</time><extensions><speed>1.527446</speed><course>278.777334</course><hAcc>2.019595</hAcc><vAcc>1.321865</vAcc></extensions></trkpt>
      <trkpt lon="-117.327191" lat="33.978523"><ele>325.923504</ele><time>2025-04-22T02:59:19Z</time><extensions><speed>1.483316</speed><course>277.365865</course><hAcc>1.998399</hAcc><vAcc>1.316090</vAcc></extensions></trkpt>
      <trkpt lon="-117.327207" lat="33.978525"><ele>325.789227</ele><time>2025-04-22T02:59:20Z</time><extensions><speed>1.345767</speed><course>279.675962</course><hAcc>1.991491</hAcc><vAcc>1.308572</vAcc></extensions></trkpt>
      <trkpt lon="-117.327222" lat="33.978526"><ele>325.678456</ele><time>2025-04-22T02:59:21Z</time><extensions><speed>1.411042</speed><course>278.065225</course><hAcc>1.981187</hAcc><vAcc>1.303134</vAcc></extensions></trkpt>
      <trkpt lon="-117.327238" lat="33.978528"><ele>325.569429</ele><time>2025-04-22T02:59:22Z</time><extensions><speed>1.419574</speed><course>274.178024</course><hAcc>1.968613</hAcc><vAcc>1.296325</vAcc></extensions></trkpt>
      <trkpt lon="-117.327253" lat="33.978528"><ele>325.461801</ele><time>2025-04-22T02:59:23Z</time><extensions><speed>1.388948</speed><course>269.307143</course><hAcc>1.956419</hAcc><vAcc>1.291705</vAcc></extensions></trkpt>
      <trkpt lon="-117.327269" lat="33.978527"><ele>325.373149</ele><time>2025-04-22T02:59:24Z</time><extensions><speed>1.366707</speed><course>267.278459</course><hAcc>1.939744</hAcc><vAcc>1.287159</vAcc></extensions></trkpt>
      <trkpt lon="-117.327284" lat="33.978526"><ele>325.285098</ele><time>2025-04-22T02:59:25Z</time><extensions><speed>1.373876</speed><course>268.004214</course><hAcc>1.921300</hAcc><vAcc>1.283259</vAcc></extensions></trkpt>
      <trkpt lon="-117.327299" lat="33.978526"><ele>325.199783</ele><time>2025-04-22T02:59:26Z</time><extensions><speed>1.366263</speed><course>269.391232</course><hAcc>1.923831</hAcc><vAcc>1.279541</vAcc></extensions></trkpt>
      <trkpt lon="-117.327314" lat="33.978526"><ele>325.143467</ele><time>2025-04-22T02:59:27Z</time><extensions><speed>1.322419</speed><course>273.301668</course><hAcc>1.936535</hAcc><vAcc>1.275737</vAcc></extensions></trkpt>
      <trkpt lon="-117.327328" lat="33.978526"><ele>325.066441</ele><time>2025-04-22T02:59:28Z</time><extensions><speed>1.213916</speed><course>268.089548</course><hAcc>1.921261</hAcc><vAcc>1.273006</vAcc></extensions></trkpt>
      <trkpt lon="-117.327341" lat="33.978525"><ele>324.982597</ele><time>2025-04-22T02:59:29Z</time><extensions><speed>1.193154</speed><course>264.797517</course><hAcc>1.899990</hAcc><vAcc>1.271357</vAcc></extensions></trkpt>
      <trkpt lon="-117.327354" lat="33.978524"><ele>324.918976</ele><time>2025-04-22T02:59:30Z</time><extensions><speed>1.185440</speed><course>265.276159</course><hAcc>1.900480</hAcc><vAcc>1.293525</vAcc></extensions></trkpt>
      <trkpt lon="-117.327366" lat="33.978524"><ele>324.859254</ele><time>2025-04-22T02:59:31Z</time><extensions><speed>1.135272</speed><course>268.901415</course><hAcc>1.908370</hAcc><vAcc>1.323441</vAcc></extensions></trkpt>
      <trkpt lon="-117.327378" lat="33.978524"><ele>324.802938</ele><time>2025-04-22T02:59:32Z</time><extensions><speed>1.099504</speed><course>267.991378</course><hAcc>1.904011</hAcc><vAcc>1.362984</vAcc></extensions></trkpt>
      <trkpt lon="-117.327390" lat="33.978523"><ele>324.749533</ele><time>2025-04-22T02:59:33Z</time><extensions><speed>1.049968</speed><course>264.149047</course><hAcc>1.923353</hAcc><vAcc>1.414185</vAcc></extensions></trkpt>
      <trkpt lon="-117.327402" lat="33.978522"><ele>324.698547</ele><time>2025-04-22T02:59:34Z</time><extensions><speed>1.254105</speed><course>264.225853</course><hAcc>1.975846</hAcc><vAcc>1.479125</vAcc></extensions></trkpt>
      <trkpt lon="-117.327416" lat="33.978521"><ele>324.649496</ele><time>2025-04-22T02:59:35Z</time><extensions><speed>1.208494</speed><course>265.562769</course><hAcc>2.040281</hAcc><vAcc>1.559834</vAcc></extensions></trkpt>
      <trkpt lon="-117.327428" lat="33.978520"><ele>324.601931</ele><time>2025-04-22T02:59:36Z</time><extensions><speed>1.054134</speed><course>269.641109</course><hAcc>2.087925</hAcc><vAcc>1.658185</vAcc></extensions></trkpt>
      <trkpt lon="-117.327439" lat="33.978521"><ele>324.555434</ele><time>2025-04-22T02:59:37Z</time><extensions><speed>0.966509</speed><course>275.947466</course><hAcc>2.192825</hAcc><vAcc>1.775802</vAcc></extensions></trkpt>
      <trkpt lon="-117.327449" lat="33.978522"><ele>324.509641</ele><time>2025-04-22T02:59:38Z</time><extensions><speed>0.944662</speed><course>277.551209</course><hAcc>2.370857</hAcc><vAcc>1.914001</vAcc></extensions></trkpt>
      <trkpt lon="-117.327459" lat="33.978523"><ele>324.464273</ele><time>2025-04-22T02:59:39Z</time><extensions><speed>0.922308</speed><course>277.495145</course><hAcc>2.702987</hAcc><vAcc>2.073763</vAcc></extensions></trkpt>
    </trkseg>
  </trk>
</gpx>