<?xml version="1.0" encoding="UTF-8"?>
<gpx version="1.1" creator="Apple Health Export" xmlns="http://www.topografix.com/GPX/1/1" xmlns:xsi="http://www.w3.org/2001/XMLSchema-instance" xsi:schemaLocation="http://www.topografix.com/GPX/1/1 http://www.topografix.com/GPX/1/1/gpx.xsd">
  <metadata>
    <time>2026-01-11T08:02:42Z</time>
  </metadata>
  <trk>
    <name>Route 2025-09-25 10:24am</name>
    <trkseg>
      <trkpt lon="-117.331318" lat="33.970263"><ele>316.928146</ele><time>2025-09-25T17:17:24Z</time><extensions><speed>0.010944</speed><course>95.099004</course><hAcc>0.760707</hAcc><vAcc>1.003204</vAcc></extensions></trkpt>
      <trkpt lon="-117.331317" lat="33.970263"><ele>316.665012</ele><time>2025-09-25T17:17:25Z</time><extensions><speed>0.020211</speed><course>95.839917</course><hAcc>0.665327</hAcc><vAcc>0.816105</vAcc></extensions></trkpt>
      <trkpt lon="-117.331317" lat="33.970263"><ele>316.440780</ele><time>2025-09-25T17:17:26Z</time><extensions><speed>0.017932</speed><course>96.395514</course><hAcc>0.606895</hAcc><vAcc>0.655484</vAcc></extensions></trkpt>
      <trkpt lon="-117.331317" lat="33.970263"><ele>316.243727</ele><time>2025-09-25T17:17:27Z</time><extensions><speed>0.023630</speed><course>96.436247</course><hAcc>0.574433</hAcc><vAcc>0.513672</vAcc></extensions></trkpt>
      <trkpt lon="-117.331316" lat="33.970263"><ele>316.072370</ele><time>2025-09-25T17:17:28Z</time><extensions><speed>0.031455</speed><course>96.481868</course><hAcc>0.544877</hAcc><vAcc>0.388480</vAcc></extensions></trkpt>
      <trkpt lon="-117.331316" lat="33.970263"><ele>315.927941</ele><time>2025-09-25T17:17:29Z</time><extensions><speed>0.038138</speed><course>95.710912</course><hAcc>0.519470</hAcc><vAcc>0.281547</vAcc></extensions></trkpt>
      <trkpt lon="-117.331315" lat="33.970263"><ele>315.812847</ele><time>2025-09-25T17:17:30Z</time><extensions><speed>0.082724</speed><course>79.441170</course><hAcc>0.491228</hAcc><vAcc>0.200111</vAcc></extensions></trkpt>
      <trkpt lon="-117.331310" lat="33.970266"><ele>315.728090</ele><time>2025-09-25T17:17:31Z</time><extensions><speed>1.142951</speed><course>46.347576</course><hAcc>0.489922</hAcc><vAcc>0.153064</vAcc></extensions></trkpt>
      <trkpt lon="-117.331301" lat="33.970273"><ele>315.669976</ele><time>2025-09-25T17:17:32Z</time><extensions><speed>1.143231</speed><course>54.600694</course><hAcc>0.488064</hAcc><vAcc>0.135944</vAcc></extensions></trkpt>
      <trkpt lon="-117.331290" lat="33.970279"><ele>315.630782</ele><time>2025-09-25T17:17:33Z</time><extensions><speed>1.248116</speed><course>55.854291</course><hAcc>0.486541</hAcc><vAcc>0.132607</vAcc></extensions></trkpt>
      <trkpt lon="-117.331279" lat="33.970285"><ele>315.602484</ele><time>2025-09-25T17:17:34Z</time><extensions><speed>1.290349</speed><course>57.383882</course><hAcc>0.485408</hAcc><vAcc>0.132285</vAcc></extensions></trkpt>
      <trkpt lon="-117.331266" lat="33.970291"><ele>315.579374</ele><time>2025-09-25T17:17:35Z</time><extensions><speed>1.372367</speed><course>64.118686</course><hAcc>0.486132</hAcc><vAcc>0.131906</vAcc></extensions></trkpt>
      <trkpt lon="-117.331253" lat="33.970297"><ele>315.558327</ele><time>2025-09-25T17:17:36Z</time><extensions><speed>1.411255</speed><course>55.543241</course><hAcc>0.510969</hAcc><vAcc>0.131367</vAcc></extensions></trkpt>
      <trkpt lon="-117.331240" lat="33.970305"><ele>315.537733</ele><time>2025-09-25T17:17:37Z</time><extensions><speed>1.418725</speed><course>54.758463</course><hAcc>0.539760</hAcc><vAcc>0.130947</vAcc></extensions></trkpt>
      <trkpt lon="-117.331229" lat="33.970313"><ele>315.516572</ele><time>2025-09-25T17:17:38Z</time><extensions><speed>1.381029</speed><course>46.618379</course><hAcc>0.676640</hAcc><vAcc>0.130718</vAcc></extensions></trkpt>
      <trkpt lon="-117.331218" lat="33.970321"><ele>315.493967</ele><time>2025-09-25T17:17:39Z</time><extensions><speed>1.406227</speed><course>44.939092</course><hAcc>0.784623</hAcc><vAcc>0.130623</vAcc></extensions></trkpt>
      <trkpt lon="-117.331207" lat="33.970331"><ele>315.468982</ele><time>2025-09-25T17:17:40Z</time><extensions><speed>1.418419</speed><course>44.618353</course><hAcc>0.863605</hAcc><vAcc>0.130585</vAcc></extensions></trkpt>
      <trkpt lon="-117.331196" lat="33.970340"><ele>315.440835</ele><time>2025-09-25T17:17:41Z</time><extensions><speed>1.537690</speed><course>46.575489</course><hAcc>0.922493</hAcc><vAcc>0.130563</vAcc></extensions></trkpt>
      <trkpt lon="-117.331184" lat="33.970349"><ele>315.409237</ele><time>2025-09-25T17:17:42Z</time><extensions><speed>1.545029</speed><course>47.339297</course><hAcc>0.967288</hAcc><vAcc>0.130539</vAcc></extensions></trkpt>
      <trkpt lon="-117.331171" lat="33.970359"><ele>315.374463</ele><time>2025-09-25T17:17:43Z</time><extensions><speed>1.528489</speed><course>50.593096</course><hAcc>1.001886</hAcc><vAcc>0.130508</vAcc></extensions></trkpt>
      <trkpt lon="-117.331158" lat="33.970367"><ele>315.336867</ele><time>2025-09-25T17:17:44Z</time><extensions><speed>1.529204</speed><course>54.287854</course><hAcc>1.028948</hAcc><vAcc>0.130469</vAcc></extensions></trkpt>
      <trkpt lon="-117.331144" lat="33.970375"><ele>315.296489</ele><time>2025-09-25T17:17:45Z</time><extensions><speed>1.565458</speed><course>56.921675</course><hAcc>1.050308</hAcc><vAcc>0.130427</vAcc></extensions></trkpt>
      <trkpt lon="-117.331130" lat="33.970383"><ele>315.253164</ele><time>2025-09-25T17:17:46Z</time><extensions><speed>1.507705</speed><course>55.864433</course><hAcc>1.067202</hAcc><vAcc>0.130387</vAcc></extensions></trkpt>
      <trkpt lon="-117.331118" lat="33.970390"><ele>315.206947</ele><time>2025-09-25T17:17:47Z</time><extensions><speed>1.494224</speed><course>52.983744</course><hAcc>1.050630</hAcc><vAcc>0.130348</vAcc></extensions></trkpt>
      <trkpt lon="-117.331105" lat="33.970398"><ele>315.158445</ele><time>2025-09-25T17:17:48Z</time><extensions><speed>1.487713</speed><course>50.160141</course><hAcc>1.047107</hAcc><vAcc>0.130304</vAcc></extensions></trkpt>
      <trkpt lon="-117.331093" lat="33.970407"><ele>315.108674</ele><time>2025-09-25T17:17:49Z</time><extensions><speed>1.459299</speed><course>50.547101</course><hAcc>1.049578</hAcc><vAcc>0.130248</vAcc></extensions></trkpt>
      <trkpt lon="-117.331081" lat="33.970415"><ele>315.058806</ele><time>2025-09-25T17:17:50Z</time><extensions><speed>1.482610</speed><course>50.964937</course><hAcc>1.052810</hAcc><vAcc>0.130186</vAcc></extensions></trkpt>
      <trkpt lon="-117.331068" lat="33.970423"><ele>315.009794</ele><time>2025-09-25T17:17:51Z</time><extensions><speed>1.474694</speed><course>52.048158</course><hAcc>1.055810</hAcc><vAcc>0.130128</vAcc></extensions></trkpt>
      <trkpt lon="-117.331055" lat="33.970431"><ele>314.961869</ele><time>2025-09-25T17:17:52Z</time><extensions><speed>1.498395</speed><course>53.223745</course><hAcc>1.057858</hAcc><vAcc>0.130081</vAcc></extensions></trkpt>
      <trkpt lon="-117.331042" lat="33.970439"><ele>314.914398</ele><time>2025-09-25T17:17:53Z</time><extensions><speed>1.482652</speed><course>53.829322</course><hAcc>1.058700</hAcc><vAcc>0.130042</vAcc></extensions></trkpt>
      <trkpt lon="-117.331030" lat="33.970447"><ele>314.866589</ele><time>2025-09-25T17:17:54Z</time><extensions><speed>1.477948</speed><course>53.792624</course><hAcc>1.058057</hAcc><vAcc>0.130004</vAcc></extensions></trkpt>
      <trkpt lon="-117.331017" lat="33.970455"><ele>314.818300</ele><time>2025-09-25T17:17:55Z</time><extensions><speed>1.462086</speed><course>53.212757</course><hAcc>1.054302</hAcc><vAcc>0.129964</vAcc></extensions></trkpt>
      <trkpt lon="-117.331004" lat="33.970463"><ele>314.770117</ele><time>2025-09-25T17:17:56Z</time><extensions><speed>1.418862</speed><course>51.935385</course><hAcc>1.033797</hAcc><vAcc>0.129916</vAcc></extensions></trkpt>
      <trkpt lon="-117.330993" lat="33.970471"><ele>314.722853</ele><time>2025-09-25T17:17:57Z</time><extensions><speed>1.279515</speed><course>51.850295</course><hAcc>0.928679</hAcc><vAcc>0.129856</vAcc></extensions></trkpt>
      <trkpt lon="-117.330982" lat="33.970478"><ele>314.677020</ele><time>2025-09-25T17:17:58Z</time><extensions><speed>1.299705</speed><course>49.186169</course><hAcc>0.912628</hAcc><vAcc>0.129793</vAcc></extensions></trkpt>
      <trkpt lon="-117.330972" lat="33.970486"><ele>314.632644</ele><time>2025-09-25T17:17:59Z</time><extensions><speed>1.283381</speed><course>45.596497</course><hAcc>0.888923</hAcc><vAcc>0.129735</vAcc></extensions></trkpt>
      <trkpt lon="-117.330962" lat="33.970494"><ele>314.589210</ele><time>2025-09-25T17:18:00Z</time><extensions><speed>1.307870</speed><course>47.370157</course><hAcc>0.902947</hAcc><vAcc>0.129688</vAcc></extensions></trkpt>
      <trkpt lon="-117.330951" lat="33.970502"><ele>314.545847</ele><time>2025-09-25T17:18:01Z</time><extensions><speed>1.339472</speed><course>50.691079</course><hAcc>0.905634</hAcc><vAcc>0.129647</vAcc></extensions></trkpt>
      <trkpt lon="-117.330939" lat="33.970509"><ele>314.501670</ele><time>2025-09-25T17:18:02Z</time><extensions><speed>1.398811</speed><course>54.915759</course><hAcc>0.900171</hAcc><vAcc>0.129604</vAcc></extensions></trkpt>
      <trkpt lon="-117.330926" lat="33.970516"><ele>314.456080</ele><time>2025-09-25T17:18:03Z</time><extensions><speed>1.441378</speed><course>57.716478</course><hAcc>0.896355</hAcc><vAcc>0.129558</vAcc></extensions></trkpt>
      <trkpt lon="-117.330913" lat="33.970523"><ele>314.408813</ele><time>2025-09-25T17:18:04Z</time><extensions><speed>1.470391</speed><course>58.904240</course><hAcc>0.896352</hAcc><vAcc>0.129512</vAcc></extensions></trkpt>
      <trkpt lon="-117.330900" lat="33.970530"><ele>314.359808</ele><time>2025-09-25T17:18:05Z</time><extensions><speed>1.415383</speed><course>58.153771</course><hAcc>0.904899</hAcc><vAcc>0.129469</vAcc></extensions></trkpt>
      <trkpt lon="-117.330887" lat="33.970537"><ele>314.309393</ele><time>2025-09-25T17:18:06Z</time><extensions><speed>1.418998</speed><course>56.995745</course><hAcc>0.899074</hAcc><vAcc>0.129424</vAcc></extensions></trkpt>
      <trkpt lon="-117.330874" lat="33.970544"><ele>314.258145</ele><time>2025-09-25T17:18:07Z</time><extensions><speed>1.456811</speed><course>55.715118</course><hAcc>0.898935</hAcc><vAcc>0.129371</vAcc></extensions></trkpt>
      <trkpt lon="-117.330861" lat="33.970552"><ele>314.206795</ele><time>2025-09-25T17:18:08Z</time><extensions><speed>1.500336</speed><course>54.972434</course><hAcc>0.900767</hAcc><vAcc>0.129313</vAcc></extensions></trkpt>
      <trkpt lon="-117.330848" lat="33.970559"><ele>314.156051</ele><time>2025-09-25T17:18:09Z</time><extensions><speed>1.443321</speed><course>53.191928</course><hAcc>0.906388</hAcc><vAcc>0.129259</vAcc></extensions></trkpt>
      <trkpt lon="-117.330835" lat="33.970567"><ele>314.106228</ele><time>2025-09-25T17:18:10Z</time><extensions><speed>1.454365</speed><course>50.769139</course><hAcc>0.893473</hAcc><vAcc>0.129214</vAcc></extensions></trkpt>
      <trkpt lon="-117.330823" lat="33.970576"><ele>314.057387</ele><time>2025-09-25T17:18:11Z</time><extensions><speed>1.440959</speed><course>48.758686</course><hAcc>0.880148</hAcc><vAcc>0.129176</vAcc></extensions></trkpt>
      <trkpt lon="-117.330811" lat="33.970584"><ele>314.009838</ele><time>2025-09-25T17:18:12Z</time><extensions><speed>1.511675</speed><course>50.340160</course><hAcc>0.867339</hAcc><vAcc>0.129138</vAcc></extensions></trkpt>
      <trkpt lon="-117.330799" lat="33.970593"><ele>313.964634</ele><time>2025-09-25T17:18:13Z</time><extensions><speed>1.437335</speed><course>51.802338</course><hAcc>0.884251</hAcc><vAcc>0.129101</vAcc></extensions></trkpt>
      <trkpt lon="-117.330787" lat="33.970601"><ele>313.923469</ele><time>2025-09-25T17:18:14Z</time><extensions><speed>1.411977</speed><course>52.201161</course><hAcc>0.881496</hAcc><vAcc>0.129060</vAcc></extensions></trkpt>
      <trkpt lon="-117.330775" lat="33.970609"><ele>313.887763</ele><time>2025-09-25T17:18:15Z</time><extensions><speed>1.434777</speed><course>51.087377</course><hAcc>0.861783</hAcc><vAcc>0.129015</vAcc></extensions></trkpt>
      <trkpt lon="-117.330763" lat="33.970617"><ele>313.857936</ele><time>2025-09-25T17:18:16Z</time><extensions><speed>1.422113</speed><course>47.968874</course><hAcc>0.876704</hAcc><vAcc>0.128974</vAcc></extensions></trkpt>
      <trkpt lon="-117.330752" lat="33.970626"><ele>313.833878</ele><time>2025-09-25T17:18:17Z</time><extensions><speed>1.345408</speed><course>45.810735</course><hAcc>0.902810</hAcc><vAcc>0.128944</vAcc></extensions></trkpt>
      <trkpt lon="-117.330742" lat="33.970634"><ele>313.815680</ele><time>2025-09-25T17:18:18Z</time><extensions><speed>1.227643</speed><course>47.047408</course><hAcc>0.899736</hAcc><vAcc>0.128922</vAcc></extensions></trkpt>
      <trkpt lon="-117.330732" lat="33.970641"><ele>313.803788</ele><time>2025-09-25T17:18:19Z</time><extensions><speed>1.169923</speed><course>51.555918</course><hAcc>0.910352</hAcc><vAcc>0.128903</vAcc></extensions></trkpt>
      <trkpt lon="-117.330722" lat="33.970647"><ele>313.798437</ele><time>2025-09-25T17:18:20Z</time><extensions><speed>1.141819</speed><course>52.973046</course><hAcc>0.925725</hAcc><vAcc>0.128885</vAcc></extensions></trkpt>
      <trkpt lon="-117.330712" lat="33.970653"><ele>313.799026</ele><time>2025-09-25T17:18:21Z</time><extensions><speed>1.135068</speed><course>51.267960</course><hAcc>0.942090</hAcc><vAcc>0.128869</vAcc></extensions></trkpt>
      <trkpt lon="-117.330702" lat="33.970660"><ele>313.804155</ele><time>2025-09-25T17:18:22Z</time><extensions><speed>1.318790</speed><course>51.109541</course><hAcc>0.955956</hAcc><vAcc>0.128857</vAcc></extensions></trkpt>
      <trkpt lon="-117.330690" lat="33.970668"><ele>313.811958</ele><time>2025-09-25T17:18:23Z</time><extensions><speed>1.443546</speed><course>52.515149</course><hAcc>0.970903</hAcc><vAcc>0.128846</vAcc></extensions></trkpt>
      <trkpt lon="-117.330677" lat="33.970676"><ele>313.820464</ele><time>2025-09-25T17:18:24Z</time><extensions><speed>1.636685</speed><course>54.741227</course><hAcc>0.995894</hAcc><vAcc>0.128835</vAcc></extensions></trkpt>
      <trkpt lon="-117.330663" lat="33.970684"><ele>313.828219</ele><time>2025-09-25T17:18:25Z</time><extensions><speed>1.498637</speed><course>55.089781</course><hAcc>1.028794</hAcc><vAcc>0.128822</vAcc></extensions></trkpt>
      <trkpt lon="-117.330650" lat="33.970692"><ele>313.834805</ele><time>2025-09-25T17:18:26Z</time><extensions><speed>1.418089</speed><course>53.886090</course><hAcc>1.050730</hAcc><vAcc>0.128811</vAcc></extensions></trkpt>
      <trkpt lon="-117.330638" lat="33.970699"><ele>313.840747</ele><time>2025-09-25T17:18:27Z</time><extensions><speed>1.257529</speed><course>52.750913</course><hAcc>1.078136</hAcc><vAcc>0.128801</vAcc></extensions></trkpt>
      <trkpt lon="-117.330628" lat="33.970706"><ele>313.846826</ele><time>2025-09-25T17:18:28Z</time><extensions><speed>1.169431</speed><course>49.259044</course><hAcc>1.100460</hAcc><vAcc>0.128794</vAcc></extensions></trkpt>
      <trkpt lon="-117.330619" lat="33.970713"><ele>313.853694</ele><time>2025-09-25T17:18:29Z</time><extensions><speed>1.212214</speed><course>46.828592</course><hAcc>1.113744</hAcc><vAcc>0.128786</vAcc></extensions></trkpt>
      <trkpt lon="-117.330609" lat="33.970721"><ele>313.861779</ele><time>2025-09-25T17:18:30Z</time><extensions><speed>1.258140</speed><course>47.176792</course><hAcc>1.122146</hAcc><vAcc>0.128778</vAcc></extensions></trkpt>
      <trkpt lon="-117.330598" lat="33.970729"><ele>313.871364</ele><time>2025-09-25T17:18:31Z</time><extensions><speed>1.403339</speed><course>50.306143</course><hAcc>1.128935</hAcc><vAcc>0.128769</vAcc></extensions></trkpt>
      <trkpt lon="-117.330586" lat="33.970737"><ele>313.882790</ele><time>2025-09-25T17:18:32Z</time><extensions><speed>1.464288</speed><course>47.115066</course><hAcc>1.127409</hAcc><vAcc>0.128759</vAcc></extensions></trkpt>
      <trkpt lon="-117.330574" lat="33.970746"><ele>313.896674</ele><time>2025-09-25T17:18:33Z</time><extensions><speed>1.498856</speed><course>47.140533</course><hAcc>1.118574</hAcc><vAcc>0.128748</vAcc></extensions></trkpt>
      <trkpt lon="-117.330563" lat="33.970755"><ele>313.914054</ele><time>2025-09-25T17:18:34Z</time><extensions><speed>1.420151</speed><course>47.943394</course><hAcc>1.109072</hAcc><vAcc>0.128736</vAcc></extensions></trkpt>
      <trkpt lon="-117.330552" lat="33.970763"><ele>313.936125</ele><time>2025-09-25T17:18:35Z</time><extensions><speed>1.325692</speed><course>50.614866</course><hAcc>1.108021</hAcc><vAcc>0.128725</vAcc></extensions></trkpt>
      <trkpt lon="-117.330540" lat="33.970771"><ele>313.963778</ele><time>2025-09-25T17:18:36Z</time><extensions><speed>1.323754</speed><course>51.547119</course><hAcc>1.110054</hAcc><vAcc>0.128712</vAcc></extensions></trkpt>
      <trkpt lon="-117.330530" lat="33.970778"><ele>313.997246</ele><time>2025-09-25T17:18:37Z</time><extensions><speed>1.143291</speed><course>50.903103</course><hAcc>1.126824</hAcc><vAcc>0.128693</vAcc></extensions></trkpt>
      <trkpt lon="-117.330520" lat="33.970785"><ele>314.036132</ele><time>2025-09-25T17:18:38Z</time><extensions><speed>1.221087</speed><course>49.975315</course><hAcc>1.141914</hAcc><vAcc>0.128667</vAcc></extensions></trkpt>
      <trkpt lon="-117.330509" lat="33.970792"><ele>314.079582</ele><time>2025-09-25T17:18:39Z</time><extensions><speed>1.395056</speed><course>47.894185</course><hAcc>1.145949</hAcc><vAcc>0.128635</vAcc></extensions></trkpt>
      <trkpt lon="-117.330499" lat="33.970800"><ele>314.126700</ele><time>2025-09-25T17:18:40Z</time><extensions><speed>1.178067</speed><course>50.132969</course><hAcc>1.152642</hAcc><vAcc>0.128602</vAcc></extensions></trkpt>
      <trkpt lon="-117.330489" lat="33.970806"><ele>314.176950</ele><time>2025-09-25T17:18:41Z</time><extensions><speed>1.032830</speed><course>53.484210</course><hAcc>1.164811</hAcc><vAcc>0.128570</vAcc></extensions></trkpt>
      <trkpt lon="-117.330480" lat="33.970812"><ele>314.230069</ele><time>2025-09-25T17:18:42Z</time><extensions><speed>1.090167</speed><course>53.690760</course><hAcc>1.184406</hAcc><vAcc>0.128536</vAcc></extensions></trkpt>
      <trkpt lon="-117.330470" lat="33.970818"><ele>314.285700</ele><time>2025-09-25T17:18:43Z</time><extensions><speed>1.146257</speed><course>54.433231</course><hAcc>1.214555</hAcc><vAcc>0.128495</vAcc></extensions></trkpt>
      <trkpt lon="-117.330459" lat="33.970824"><ele>314.343072</ele><time>2025-09-25T17:18:44Z</time><extensions><speed>1.196214</speed><course>57.264600</course><hAcc>1.228799</hAcc><vAcc>0.128447</vAcc></extensions></trkpt>
      <trkpt lon="-117.330448" lat="33.970830"><ele>314.401331</ele><time>2025-09-25T17:18:45Z</time><extensions><speed>1.325760</speed><course>58.898887</course><hAcc>1.239869</hAcc><vAcc>0.128400</vAcc></extensions></trkpt>
      <trkpt lon="-117.330435" lat="33.970836"><ele>314.460667</ele><time>2025-09-25T17:18:46Z</time><extensions><speed>1.342864</speed><course>61.254909</course><hAcc>1.263280</hAcc><vAcc>0.128360</vAcc></extensions></trkpt>
      <trkpt lon="-117.330422" lat="33.970842"><ele>314.522247</ele><time>2025-09-25T17:18:47Z</time><extensions><speed>1.470704</speed><course>66.217874</course><hAcc>1.263042</hAcc><vAcc>0.128325</vAcc></extensions></trkpt>
      <trkpt lon="-117.330407" lat="33.970847"><ele>314.587058</ele><time>2025-09-25T17:18:48Z</time><extensions><speed>1.536172</speed><course>65.189715</course><hAcc>1.269958</hAcc><vAcc>0.128291</vAcc></extensions></trkpt>
      <trkpt lon="-117.330392" lat="33.970853"><ele>314.654291</ele><time>2025-09-25T17:18:49Z</time><extensions><speed>1.556308</speed><course>65.179757</course><hAcc>1.278061</hAcc><vAcc>0.128253</vAcc></extensions></trkpt>
      <trkpt lon="-117.330377" lat="33.970860"><ele>314.721922</ele><time>2025-09-25T17:18:50Z</time><extensions><speed>1.538087</speed><course>62.877641</course><hAcc>1.281148</hAcc><vAcc>0.128205</vAcc></extensions></trkpt>
      <trkpt lon="-117.330362" lat="33.970867"><ele>314.787423</ele><time>2025-09-25T17:18:51Z</time><extensions><speed>1.544651</speed><course>57.911042</course><hAcc>1.272493</hAcc><vAcc>0.128145</vAcc></extensions></trkpt>
      <trkpt lon="-117.330348" lat="33.970875"><ele>314.848643</ele><time>2025-09-25T17:18:52Z</time><extensions><speed>1.646220</speed><course>52.831962</course><hAcc>1.263014</hAcc><vAcc>0.128083</vAcc></extensions></trkpt>
      <trkpt lon="-117.330334" lat="33.970884"><ele>314.904065</ele><time>2025-09-25T17:18:53Z</time><extensions><speed>1.687322</speed><course>49.644485</course><hAcc>1.254440</hAcc><vAcc>0.128028</vAcc></extensions></trkpt>
      <trkpt lon="-117.330320" lat="33.970895"><ele>314.953788</ele><time>2025-09-25T17:18:54Z</time><extensions><speed>1.770149</speed><course>48.004178</course><hAcc>1.235480</hAcc><vAcc>0.127983</vAcc></extensions></trkpt>
      <trkpt lon="-117.330306" lat="33.970905"><ele>314.999571</ele><time>2025-09-25T17:18:55Z</time><extensions><speed>1.704444</speed><course>43.779240</course><hAcc>1.222429</hAcc><vAcc>0.127940</vAcc></extensions></trkpt>
      <trkpt lon="-117.330295" lat="33.970917"><ele>315.046852</ele><time>2025-09-25T17:18:56Z</time><extensions><speed>1.559625</speed><course>34.656790</course><hAcc>1.215052</hAcc><vAcc>0.127898</vAcc></extensions></trkpt>
      <trkpt lon="-117.330287" lat="33.970929"><ele>315.105294</ele><time>2025-09-25T17:18:57Z</time><extensions><speed>1.512346</speed><course>21.101915</course><hAcc>1.206065</hAcc><vAcc>0.127860</vAcc></extensions></trkpt>
      <trkpt lon="-117.330282" lat="33.970943"><ele>315.184816</ele><time>2025-09-25T17:18:58Z</time><extensions><speed>1.669538</speed><course>14.889257</course><hAcc>1.184626</hAcc><vAcc>0.127821</vAcc></extensions></trkpt>
      <trkpt lon="-117.330277" lat="33.970956"><ele>315.288297</ele><time>2025-09-25T17:18:59Z</time><extensions><speed>1.565640</speed><course>18.570494</course><hAcc>1.196433</hAcc><vAcc>0.127755</vAcc></extensions></trkpt>
      <trkpt lon="-117.330270" lat="33.970970"><ele>315.408297</ele><time>2025-09-25T17:19:00Z</time><extensions><speed>1.640212</speed><course>27.244394</course><hAcc>1.183503</hAcc><vAcc>0.127631</vAcc></extensions></trkpt>
      <trkpt lon="-117.330261" lat="33.970982"><ele>315.530527</ele><time>2025-09-25T17:19:01Z</time><extensions><speed>1.588207</speed><course>36.117255</course><hAcc>1.186255</hAcc><vAcc>0.127451</vAcc></extensions></trkpt>
      <trkpt lon="-117.330250" lat="33.970993"><ele>315.639438</ele><time>2025-09-25T17:19:02Z</time><extensions><speed>1.542173</speed><course>41.632398</course><hAcc>1.173155</hAcc><vAcc>0.127257</vAcc></extensions></trkpt>
      <trkpt lon="-117.330238" lat="33.971003"><ele>315.723003</ele><time>2025-09-25T17:19:03Z</time><extensions><speed>1.475026</speed><course>46.848375</course><hAcc>1.168967</hAcc><vAcc>0.127088</vAcc></extensions></trkpt>
      <trkpt lon="-117.330226" lat="33.971011"><ele>315.778188</ele><time>2025-09-25T17:19:04Z</time><extensions><speed>1.420381</speed><course>53.576049</course><hAcc>1.162419</hAcc><vAcc>0.126976</vAcc></extensions></trkpt>
      <trkpt lon="-117.330213" lat="33.971018"><ele>315.812936</ele><time>2025-09-25T17:19:05Z</time><extensions><speed>1.479678</speed><course>60.799693</course><hAcc>1.146589</hAcc><vAcc>0.126916</vAcc></extensions></trkpt>
      <trkpt lon="-117.330199" lat="33.971025"><ele>315.840386</ele><time>2025-09-25T17:19:06Z</time><extensions><speed>1.521181</speed><course>62.492532</course><hAcc>1.152669</hAcc><vAcc>0.126885</vAcc></extensions></trkpt>
      <trkpt lon="-117.330185" lat="33.971031"><ele>315.871467</ele><time>2025-09-25T17:19:07Z</time><extensions><speed>1.439769</speed><course>61.186617</course><hAcc>1.173624</hAcc><vAcc>0.126863</vAcc></extensions></trkpt>
      <trkpt lon="-117.330171" lat="33.971037"><ele>315.912224</ele><time>2025-09-25T17:19:08Z</time><extensions><speed>1.414623</speed><course>62.138184</course><hAcc>1.147856</hAcc><vAcc>0.126838</vAcc></extensions></trkpt>
      <trkpt lon="-117.330158" lat="33.971043"><ele>315.964511</ele><time>2025-09-25T17:19:09Z</time><extensions><speed>1.378946</speed><course>59.556085</course><hAcc>1.130605</hAcc><vAcc>0.126805</vAcc></extensions></trkpt>
      <trkpt lon="-117.330145" lat="33.971049"><ele>316.027354</ele><time>2025-09-25T17:19:10Z</time><extensions><speed>1.396004</speed><course>58.971095</course><hAcc>1.117499</hAcc><vAcc>0.126764</vAcc></extensions></trkpt>
      <trkpt lon="-117.330132" lat="33.971056"><ele>316.098104</ele><time>2025-09-25T17:19:11Z</time><extensions><speed>1.414526</speed><course>61.224566</course><hAcc>1.103697</hAcc><vAcc>0.126719</vAcc></extensions></trkpt>
      <trkpt lon="-117.330118" lat="33.971062"><ele>316.173139</ele><time>2025-09-25T17:19:12Z</time><extensions><speed>1.447085</speed><course>60.410405</course><hAcc>1.095313</hAcc><vAcc>0.126673</vAcc></extensions></trkpt>
      <trkpt lon="-117.330105" lat="33.971069"><ele>316.248551</ele><time>2025-09-25T17:19:13Z</time><extensions><speed>1.396030</speed><course>56.636777</course><hAcc>1.109331</hAcc><vAcc>0.126622</vAcc></extensions></trkpt>
      <trkpt lon="-117.330093" lat="33.971076"><ele>316.321302</ele><time>2025-09-25T17:19:14Z</time><extensions><speed>1.416579</speed><course>53.326836</course><hAcc>1.067988</hAcc><vAcc>0.126562</vAcc></extensions></trkpt>
      <trkpt lon="-117.330080" lat="33.971084"><ele>316.390102</ele><time>2025-09-25T17:19:15Z</time><extensions><speed>1.496103</speed><course>49.430112</course><hAcc>1.052334</hAcc><vAcc>0.126504</vAcc></extensions></trkpt>
      <trkpt lon="-117.330069" lat="33.971093"><ele>316.455200</ele><time>2025-09-25T17:19:16Z</time><extensions><speed>1.407799</speed><course>49.011505</course><hAcc>1.060251</hAcc><vAcc>0.126455</vAcc></extensions></trkpt>
      <trkpt lon="-117.330057" lat="33.971101"><ele>316.517692</ele><time>2025-09-25T17:19:17Z</time><extensions><speed>1.413043</speed><course>50.253182</course><hAcc>1.043371</hAcc><vAcc>0.126415</vAcc></extensions></trkpt>
      <trkpt lon="-117.330045" lat="33.971109"><ele>316.579019</ele><time>2025-09-25T17:19:18Z</time><extensions><speed>1.465881</speed><course>49.407627</course><hAcc>1.019111</hAcc><vAcc>0.126379</vAcc></extensions></trkpt>
      <trkpt lon="-117.330033" lat="33.971118"><ele>316.640487</ele><time>2025-09-25T17:19:19Z</time><extensions><speed>1.416925</speed><course>47.109177</course><hAcc>1.014152</hAcc><vAcc>0.126338</vAcc></extensions></trkpt>
      <trkpt lon="-117.330022" lat="33.971127"><ele>316.702928</ele><time>2025-09-25T17:19:20Z</time><extensions><speed>1.487369</speed><course>48.574969</course><hAcc>0.990685</hAcc><vAcc>0.126294</vAcc></extensions></trkpt>
      <trkpt lon="-117.330010" lat="33.971135"><ele>316.766626</ele><time>2025-09-25T17:19:21Z</time><extensions><speed>1.378888</speed><course>49.357850</course><hAcc>1.008020</hAcc><vAcc>0.126250</vAcc></extensions></trkpt>
      <trkpt lon="-117.329998" lat="33.971144"><ele>316.831335</ele><time>2025-09-25T17:19:22Z</time><extensions><speed>1.448417</speed><course>49.356765</course><hAcc>0.993266</hAcc><vAcc>0.126212</vAcc></extensions></trkpt>
      <trkpt lon="-117.329987" lat="33.971152"><ele>316.896383</ele><time>2025-09-25T17:19:23Z</time><extensions><speed>1.408168</speed><course>47.478625</course><hAcc>0.990172</hAcc><vAcc>0.126174</vAcc></extensions></trkpt>
      <trkpt lon="-117.329976" lat="33.971161"><ele>316.961155</ele><time>2025-09-25T17:19:24Z</time><extensions><speed>1.456929</speed><course>45.262528</course><hAcc>0.980261</hAcc><vAcc>0.126135</vAcc></extensions></trkpt>
      <trkpt lon="-117.329964" lat="33.971170"><ele>317.025611</ele><time>2025-09-25T17:19:25Z</time><extensions><speed>1.392976</speed><course>48.443806</course><hAcc>0.986391</hAcc><vAcc>0.126099</vAcc></extensions></trkpt>
      <trkpt lon="-117.329953" lat="33.971178"><ele>317.090314</ele><time>2025-09-25T17:19:26Z</time><extensions><speed>1.384473</speed><course>51.404636</course><hAcc>0.975437</hAcc><vAcc>0.126064</vAcc></extensions></trkpt>
      <trkpt lon="-117.329941" lat="33.971186"><ele>317.155946</ele><time>2025-09-25T17:19:27Z</time><extensions><speed>1.454997</speed><course>48.618447</course><hAcc>0.965925</hAcc><vAcc>0.126026</vAcc></extensions></trkpt>
      <trkpt lon="-117.329930" lat="33.971195"><ele>317.222831</ele><time>2025-09-25T17:19:28Z</time><extensions><speed>1.383954</speed><course>48.456535</course><hAcc>0.973103</hAcc><vAcc>0.125984</vAcc></extensions></trkpt>
      <trkpt lon="-117.329918" lat="33.971203"><ele>317.290751</ele><time>2025-09-25T17:19:29Z</time><extensions><speed>1.433114</speed><course>47.539723</course><hAcc>0.936764</hAcc><vAcc>0.125943</vAcc></extensions></trkpt>
      <trkpt lon="-117.329907" lat="33.971212"><ele>317.358890</ele><time>2025-09-25T17:19:30Z</time><extensions><speed>1.371142</speed><course>48.763195</course><hAcc>0.944931</hAcc><vAcc>0.125906</vAcc></extensions></trkpt>
      <trkpt lon="-117.329896" lat="33.971220"><ele>317.426084</ele><time>2025-09-25T17:19:31Z</time><extensions><speed>1.383342</speed><course>48.840573</course><hAcc>0.927075</hAcc><vAcc>0.125868</vAcc></extensions></trkpt>
      <trkpt lon="-117.329885" lat="33.971228"><ele>317.491518</ele><time>2025-09-25T17:19:32Z</time><extensions><speed>1.376901</speed><course>48.387366</course><hAcc>0.934125</hAcc><vAcc>0.125825</vAcc></extensions></trkpt>
      <trkpt lon="-117.329873" lat="33.971236"><ele>317.555311</ele><time>2025-09-25T17:19:33Z</time><extensions><speed>1.444679</speed><course>49.147735</course><hAcc>0.918952</hAcc><vAcc>0.125782</vAcc></extensions></trkpt>
      <trkpt lon="-117.329862" lat="33.971245"><ele>317.618381</ele><time>2025-09-25T17:19:34Z</time><extensions><speed>1.359388</speed><course>48.451540</course><hAcc>0.937230</hAcc><vAcc>0.125745</vAcc></extensions></trkpt>
      <trkpt lon="-117.329851" lat="33.971253"><ele>317.681828</ele><time>2025-09-25T17:19:35Z</time><extensions><speed>1.349358</speed><course>45.746525</course><hAcc>0.933589</hAcc><vAcc>0.125714</vAcc></extensions></trkpt>
      <trkpt lon="-117.329840" lat="33.971262"><ele>317.746605</ele><time>2025-09-25T17:19:36Z</time><extensions><speed>1.371894</speed><course>45.368243</course><hAcc>0.930189</hAcc><vAcc>0.125683</vAcc></extensions></trkpt>
      <trkpt lon="-117.329830" lat="33.971270"><ele>317.813240</ele><time>2025-09-25T17:19:37Z</time><extensions><speed>1.366660</speed><course>47.137934</course><hAcc>0.934445</hAcc><vAcc>0.125647</vAcc></extensions></trkpt>
      <trkpt lon="-117.329819" lat="33.971278"><ele>317.881692</ele><time>2025-09-25T17:19:38Z</time><extensions><speed>1.323505</speed><course>49.238870</course><hAcc>0.938982</hAcc><vAcc>0.125606</vAcc></extensions></trkpt>
      <trkpt lon="-117.329808" lat="33.971286"><ele>317.951525</ele><time>2025-09-25T17:19:39Z</time><extensions><speed>1.367734</speed><course>48.803359</course><hAcc>0.937578</hAcc><vAcc>0.125566</vAcc></extensions></trkpt>
      <trkpt lon="-117.329797" lat="33.971295"><ele>318.022251</ele><time>2025-09-25T17:19:40Z</time><extensions><speed>1.444674</speed><course>47.114155</course><hAcc>0.928372</hAcc><vAcc>0.125531</vAcc></extensions></trkpt>
      <trkpt lon="-117.329786" lat="33.971303"><ele>318.093646</ele><time>2025-09-25T17:19:41Z</time><extensions><speed>1.369719</speed><course>44.671144</course><hAcc>0.951312</hAcc><vAcc>0.125498</vAcc></extensions></trkpt>
      <trkpt lon="-117.329775" lat="33.971312"><ele>318.166078</ele><time>2025-09-25T17:19:42Z</time><extensions><speed>1.366809</speed><course>47.821214</course><hAcc>0.926302</hAcc><vAcc>0.125465</vAcc></extensions></trkpt>
      <trkpt lon="-117.329764" lat="33.971320"><ele>318.240754</ele><time>2025-09-25T17:19:43Z</time><extensions><speed>1.355233</speed><course>48.832879</course><hAcc>0.923821</hAcc><vAcc>0.125433</vAcc></extensions></trkpt>
      <trkpt lon="-117.329753" lat="33.971328"><ele>318.319346</ele><time>2025-09-25T17:19:44Z</time><extensions><speed>1.366778</speed><course>47.125238</course><hAcc>0.935389</hAcc><vAcc>0.125400</vAcc></extensions></trkpt>
      <trkpt lon="-117.329742" lat="33.971337"><ele>318.403304</ele><time>2025-09-25T17:19:45Z</time><extensions><speed>1.316505</speed><course>46.269807</course><hAcc>0.918584</hAcc><vAcc>0.125360</vAcc></extensions></trkpt>
      <trkpt lon="-117.329732" lat="33.971345"><ele>318.493006</ele><time>2025-09-25T17:19:46Z</time><extensions><speed>1.328035</speed><course>45.914970</course><hAcc>0.924696</hAcc><vAcc>0.125314</vAcc></extensions></trkpt>
      <trkpt lon="-117.329722" lat="33.971353"><ele>318.587641</ele><time>2025-09-25T17:19:47Z</time><extensions><speed>1.215984</speed><course>47.080268</course><hAcc>0.925755</hAcc><vAcc>0.125266</vAcc></extensions></trkpt>
      <trkpt lon="-117.329712" lat="33.971360"><ele>318.685226</ele><time>2025-09-25T17:19:48Z</time><extensions><speed>1.291503</speed><course>47.335085</course><hAcc>0.912801</hAcc><vAcc>0.125221</vAcc></extensions></trkpt>
      <trkpt lon="-117.329702" lat="33.971369"><ele>318.782915</ele><time>2025-09-25T17:19:49Z</time><extensions><speed>1.336707</speed><course>42.267914</course><hAcc>0.928163</hAcc><vAcc>0.125173</vAcc></extensions></trkpt>
      <trkpt lon="-117.329693" lat="33.971378"><ele>318.877283</ele><time>2025-09-25T17:19:50Z</time><extensions><speed>1.316431</speed><course>38.192592</course><hAcc>0.920250</hAcc><vAcc>0.125116</vAcc></extensions></trkpt>
      <trkpt lon="-117.329684" lat="33.971387"><ele>318.964742</ele><time>2025-09-25T17:19:51Z</time><extensions><speed>1.299258</speed><course>41.008822</course><hAcc>0.915549</hAcc><vAcc>0.125059</vAcc></extensions></trkpt>
      <trkpt lon="-117.329674" lat="33.971395"><ele>319.042003</ele><time>2025-09-25T17:19:52Z</time><extensions><speed>1.305825</speed><course>51.057038</course><hAcc>0.904229</hAcc><vAcc>0.125008</vAcc></extensions></trkpt>
      <trkpt lon="-117.329662" lat="33.971402"><ele>319.106907</ele><time>2025-09-25T17:19:53Z</time><extensions><speed>1.354111</speed><course>63.931930</course><hAcc>0.901072</hAcc><vAcc>0.124969</vAcc></extensions></trkpt>
      <trkpt lon="-117.329648" lat="33.971405"><ele>319.159235</ele><time>2025-09-25T17:19:54Z</time><extensions><speed>1.387120</speed><course>81.169756</course><hAcc>0.895488</hAcc><vAcc>0.124940</vAcc></extensions></trkpt>
      <trkpt lon="-117.329634" lat="33.971406"><ele>319.201364</ele><time>2025-09-25T17:19:55Z</time><extensions><speed>1.290884</speed><course>91.156547</course><hAcc>0.888061</hAcc><vAcc>0.124916</vAcc></extensions></trkpt>
      <trkpt lon="-117.329619" lat="33.971406"><ele>319.238628</ele><time>2025-09-25T17:19:56Z</time><extensions><speed>1.363049</speed><course>89.442525</course><hAcc>0.862984</hAcc><vAcc>0.124897</vAcc></extensions></trkpt>
      <trkpt lon="-117.329605" lat="33.971407"><ele>319.277914</ele><time>2025-09-25T17:19:57Z</time><extensions><speed>1.361165</speed><course>81.582723</course><hAcc>0.881338</hAcc><vAcc>0.124884</vAcc></extensions></trkpt>
      <trkpt lon="-117.329591" lat="33.971409"><ele>319.324926</ele><time>2025-09-25T17:19:58Z</time><extensions><speed>1.260361</speed><course>74.270872</course><hAcc>0.884112</hAcc><vAcc>0.124873</vAcc></extensions></trkpt>
      <trkpt lon="-117.329579" lat="33.971413"><ele>319.382086</ele><time>2025-09-25T17:19:59Z</time><extensions><speed>1.057983</speed><course>69.910173</course><hAcc>0.876021</hAcc><vAcc>0.124859</vAcc></extensions></trkpt>
      <trkpt lon="-117.329569" lat="33.971416"><ele>319.448587</ele><time>2025-09-25T17:20:00Z</time><extensions><speed>0.953404</speed><course>68.166621</course><hAcc>0.920837</hAcc><vAcc>0.124840</vAcc></extensions></trkpt>
      <trkpt lon="-117.329564" lat="33.971417"><ele>319.521020</ele><time>2025-09-25T17:20:01Z</time><extensions><speed>0.098162</speed><course>247.354886</course><hAcc>0.905503</hAcc><vAcc>0.124818</vAcc></extensions></trkpt>
      <trkpt lon="-117.329566" lat="33.971416"><ele>319.593986</ele><time>2025-09-25T17:20:02Z</time><extensions><speed>0.366901</speed><course>238.143239</course><hAcc>0.929677</hAcc><vAcc>0.124792</vAcc></extensions></trkpt>
      <trkpt lon="-117.329570" lat="33.971415"><ele>319.661035</ele><time>2025-09-25T17:20:03Z</time><extensions><speed>0.439384</speed><course>245.715233</course><hAcc>0.950340</hAcc><vAcc>0.124760</vAcc></extensions></trkpt>
      <trkpt lon="-117.329574" lat="33.971413"><ele>319.715771</ele><time>2025-09-25T17:20:04Z</time><extensions><speed>0.371497</speed><course>229.320443</course><hAcc>0.972265</hAcc><vAcc>0.124727</vAcc></extensions></trkpt>
      <trkpt lon="-117.329576" lat="33.971411"><ele>319.753277</ele><time>2025-09-25T17:20:05Z</time><extensions><speed>0.176174</speed><course>225.348863</course><hAcc>0.976134</hAcc><vAcc>0.124699</vAcc></extensions></trkpt>
      <trkpt lon="-117.329577" lat="33.971410"><ele>319.771949</ele><time>2025-09-25T17:20:06Z</time><extensions><speed>0.098490</speed><course>139.130801</course><hAcc>0.983655</hAcc><vAcc>0.124680</vAcc></extensions></trkpt>
      <trkpt lon="-117.329576" lat="33.971410"><ele>319.774023</ele><time>2025-09-25T17:20:07Z</time><extensions><speed>0.043394</speed><course>30.659872</course><hAcc>0.990743</hAcc><vAcc>0.124669</vAcc></extensions></trkpt>
      <trkpt lon="-117.329576" lat="33.971410"><ele>319.764037</ele><time>2025-09-25T17:20:08Z</time><extensions><speed>0.055938</speed><course>349.109370</course><hAcc>1.000030</hAcc><vAcc>0.124662</vAcc></extensions></trkpt>
      <trkpt lon="-117.329576" lat="33.971411"><ele>319.747234</ele><time>2025-09-25T17:20:09Z</time><extensions><speed>0.032884</speed><course>337.420884</course><hAcc>1.010890</hAcc><vAcc>0.124656</vAcc></extensions></trkpt>
      <trkpt lon="-117.329576" lat="33.971411"><ele>319.728475</ele><time>2025-09-25T17:20:10Z</time><extensions><speed>0.019064</speed><course>132.673917</course><hAcc>1.018836</hAcc><vAcc>0.124650</vAcc></extensions></trkpt>
      <trkpt lon="-117.329576" lat="33.971410"><ele>319.711452</ele><time>2025-09-25T17:20:11Z</time><extensions><speed>0.064877</speed><course>141.024349</course><hAcc>1.022954</hAcc><vAcc>0.124645</vAcc></extensions></trkpt>
      <trkpt lon="-117.329575" lat="33.971410"><ele>319.698356</ele><time>2025-09-25T17:20:12Z</time><extensions><speed>0.076848</speed><course>149.630859</course><hAcc>1.027471</hAcc><vAcc>0.124641</vAcc></extensions></trkpt>
      <trkpt lon="-117.329575" lat="33.971409"><ele>319.690013</ele><time>2025-09-25T17:20:13Z</time><extensions><speed>0.102832</speed><course>145.127411</course><hAcc>1.029910</hAcc><vAcc>0.124637</vAcc></extensions></trkpt>
      <trkpt lon="-117.329574" lat="33.971408"><ele>319.686094</ele><time>2025-09-25T17:20:14Z</time><extensions><speed>0.114947</speed><course>139.719627</course><hAcc>1.033065</hAcc><vAcc>0.124634</vAcc></extensions></trkpt>
      <trkpt lon="-117.329573" lat="33.971408"><ele>319.685665</ele><time>2025-09-25T17:20:15Z</time><extensions><speed>0.174339</speed><course>122.157750</course><hAcc>1.038252</hAcc><vAcc>0.124631</vAcc></extensions></trkpt>
      <trkpt lon="-117.329572" lat="33.971407"><ele>319.687488</ele><time>2025-09-25T17:20:16Z</time><extensions><speed>0.102121</speed><course>72.499540</course><hAcc>1.036001</hAcc><vAcc>0.124629</vAcc></extensions></trkpt>
      <trkpt lon="-117.329570" lat="33.971408"><ele>319.690358</ele><time>2025-09-25T17:20:17Z</time><extensions><speed>0.250658</speed><course>66.342762</course><hAcc>1.027833</hAcc><vAcc>0.124627</vAcc></extensions></trkpt>
      <trkpt lon="-117.329566" lat="33.971409"><ele>319.693386</ele><time>2025-09-25T17:20:18Z</time><extensions><speed>0.537640</speed><course>70.544670</course><hAcc>1.021200</hAcc><vAcc>0.124625</vAcc></extensions></trkpt>
      <trkpt lon="-117.329559" lat="33.971412"><ele>319.696359</ele><time>2025-09-25T17:20:19Z</time><extensions><speed>0.925479</speed><course>60.439268</course><hAcc>1.009883</hAcc><vAcc>0.124623</vAcc></extensions></trkpt>
      <trkpt lon="-117.329547" lat="33.971418"><ele>319.700069</ele><time>2025-09-25T17:20:20Z</time><extensions><speed>1.585596</speed><course>61.332734</course><hAcc>0.996237</hAcc><vAcc>0.124620</vAcc></extensions></trkpt>
      <trkpt lon="-117.329531" lat="33.971426"><ele>319.706924</ele><time>2025-09-25T17:20:21Z</time><extensions><speed>1.832837</speed><course>53.708141</course><hAcc>0.977262</hAcc><vAcc>0.124618</vAcc></extensions></trkpt>
      <trkpt lon="-117.329517" lat="33.971436"><ele>319.721048</ele><time>2025-09-25T17:20:22Z</time><extensions><speed>1.643929</speed><course>46.499835</course><hAcc>0.968012</hAcc><vAcc>0.124615</vAcc></extensions></trkpt>
      <trkpt lon="-117.329505" lat="33.971446"><ele>319.746910</ele><time>2025-09-25T17:20:23Z</time><extensions><speed>1.484432</speed><course>43.193463</course><hAcc>0.956265</hAcc><vAcc>0.124612</vAcc></extensions></trkpt>
      <trkpt lon="-117.329494" lat="33.971456"><ele>319.787068</ele><time>2025-09-25T17:20:24Z</time><extensions><speed>1.489563</speed><course>43.662355</course><hAcc>0.945060</hAcc><vAcc>0.124607</vAcc></extensions></trkpt>
      <trkpt lon="-117.329483" lat="33.971465"><ele>319.840971</ele><time>2025-09-25T17:20:25Z</time><extensions><speed>1.439974</speed><course>43.057855</course><hAcc>0.936373</hAcc><vAcc>0.124599</vAcc></extensions></trkpt>
      <trkpt lon="-117.329473" lat="33.971474"><ele>319.905622</ele><time>2025-09-25T17:20:26Z</time><extensions><speed>1.362142</speed><course>43.012178</course><hAcc>0.935977</hAcc><vAcc>0.124588</vAcc></extensions></trkpt>
      <trkpt lon="-117.329463" lat="33.971483"><ele>319.976590</ele><time>2025-09-25T17:20:27Z</time><extensions><speed>1.309116</speed><course>40.641347</course><hAcc>0.932335</hAcc><vAcc>0.124573</vAcc></extensions></trkpt>
      <trkpt lon="-117.329454" lat="33.971492"><ele>320.049337</ele><time>2025-09-25T17:20:28Z</time><extensions><speed>1.271575</speed><course>38.216716</course><hAcc>0.927941</hAcc><vAcc>0.124558</vAcc></extensions></trkpt>
      <trkpt lon="-117.329446" lat="33.971501"><ele>320.121070</ele><time>2025-09-25T17:20:29Z</time><extensions><speed>1.158717</speed><course>34.271630</course><hAcc>0.917957</hAcc><vAcc>0.124546</vAcc></extensions></trkpt>
      <trkpt lon="-117.329440" lat="33.971509"><ele>320.191116</ele><time>2025-09-25T17:20:30Z</time><extensions><speed>0.935832</speed><course>28.957150</course><hAcc>0.917030</hAcc><vAcc>0.124536</vAcc></extensions></trkpt>
      <trkpt lon="-117.329438" lat="33.971517"><ele>320.259576</ele><time>2025-09-25T17:20:31Z</time><extensions><speed>0.802383</speed><course>5.129938</course><hAcc>0.914337</hAcc><vAcc>0.124526</vAcc></extensions></trkpt>
      <trkpt lon="-117.329440" lat="33.971524"><ele>320.325649</ele><time>2025-09-25T17:20:32Z</time><extensions><speed>1.049515</speed><course>328.530264</course><hAcc>0.899418</hAcc><vAcc>0.124515</vAcc></extensions></trkpt>
      <trkpt lon="-117.329448" lat="33.971532"><ele>320.387146</ele><time>2025-09-25T17:20:33Z</time><extensions><speed>1.304249</speed><course>310.759113</course><hAcc>0.894222</hAcc><vAcc>0.124505</vAcc></extensions></trkpt>
      <trkpt lon="-117.329460" lat="33.971539"><ele>320.441011</ele><time>2025-09-25T17:20:34Z</time><extensions><speed>1.395552</speed><course>302.393703</course><hAcc>0.914206</hAcc><vAcc>0.124497</vAcc></extensions></trkpt>
      <trkpt lon="-117.329473" lat="33.971545"><ele>320.484166</ele><time>2025-09-25T17:20:35Z</time><extensions><speed>1.307432</speed><course>299.195349</course><hAcc>0.894379</hAcc><vAcc>0.124491</vAcc></extensions></trkpt>
      <trkpt lon="-117.329484" lat="33.971552"><ele>320.514234</ele><time>2025-09-25T17:20:36Z</time><extensions><speed>1.228927</speed><course>308.045995</course><hAcc>0.898818</hAcc><vAcc>0.124486</vAcc></extensions></trkpt>
      <trkpt lon="-117.329493" lat="33.971559"><ele>320.530399</ele><time>2025-09-25T17:20:37Z</time><extensions><speed>1.075759</speed><course>318.532502</course><hAcc>0.921599</hAcc><vAcc>0.124482</vAcc></extensions></trkpt>
      <trkpt lon="-117.329501" lat="33.971566"><ele>320.533772</ele><time>2025-09-25T17:20:38Z</time><extensions><speed>1.118889</speed><course>315.097758</course><hAcc>0.918402</hAcc><vAcc>0.124479</vAcc></extensions></trkpt>
      <trkpt lon="-117.329510" lat="33.971573"><ele>320.527160</ele><time>2025-09-25T17:20:39Z</time><extensions><speed>1.149387</speed><course>312.402565</course><hAcc>0.917236</hAcc><vAcc>0.124477</vAcc></extensions></trkpt>
      <trkpt lon="-117.329520" lat="33.971580"><ele>320.514695</ele><time>2025-09-25T17:20:40Z</time><extensions><speed>1.275426</speed><course>311.206157</course><hAcc>0.923741</hAcc><vAcc>0.124476</vAcc></extensions></trkpt>
      <trkpt lon="-117.329530" lat="33.971588"><ele>320.500739</ele><time>2025-09-25T17:20:41Z</time><extensions><speed>1.301227</speed><course>311.477770</course><hAcc>0.959488</hAcc><vAcc>0.124474</vAcc></extensions></trkpt>
      <trkpt lon="-117.329540" lat="33.971595"><ele>320.488593</ele><time>2025-09-25T17:20:42Z</time><extensions><speed>1.050700</speed><course>315.169128</course><hAcc>0.936537</hAcc><vAcc>0.124473</vAcc></extensions></trkpt>
      <trkpt lon="-117.329547" lat="33.971601"><ele>320.479998</ele><time>2025-09-25T17:20:43Z</time><extensions><speed>0.825500</speed><course>308.077445</course><hAcc>0.940573</hAcc><vAcc>0.124472</vAcc></extensions></trkpt>
      <trkpt lon="-117.329554" lat="33.971605"><ele>320.475388</ele><time>2025-09-25T17:20:44Z</time><extensions><speed>0.694901</speed><course>301.859031</course><hAcc>0.957850</hAcc><vAcc>0.124472</vAcc></extensions></trkpt>
      <trkpt lon="-117.329559" lat="33.971608"><ele>320.474290</ele><time>2025-09-25T17:20:45Z</time><extensions><speed>0.492505</speed><course>307.959701</course><hAcc>0.973504</hAcc><vAcc>0.124471</vAcc></extensions></trkpt>
      <trkpt lon="-117.329562" lat="33.971610"><ele>320.475636</ele><time>2025-09-25T17:20:46Z</time><extensions><speed>0.155378</speed><course>329.451727</course><hAcc>0.979847</hAcc><vAcc>0.124471</vAcc></extensions></trkpt>
      <trkpt lon="-117.329561" lat="33.971610"><ele>320.477901</ele><time>2025-09-25T17:20:47Z</time><extensions><speed>0.177589</speed><course>112.410032</course><hAcc>0.981250</hAcc><vAcc>0.124470</vAcc></extensions></trkpt>
      <trkpt lon="-117.329559" lat="33.971609"><ele>320.479327</ele><time>2025-09-25T17:20:48Z</time><extensions><speed>0.235975</speed><course>124.160561</course><hAcc>0.994064</hAcc><vAcc>0.124470</vAcc></extensions></trkpt>
      <trkpt lon="-117.329557" lat="33.971608"><ele>320.478476</ele><time>2025-09-25T17:20:49Z</time><extensions><speed>0.219356</speed><course>122.564509</course><hAcc>1.005905</hAcc><vAcc>0.124470</vAcc></extensions></trkpt>
      <trkpt lon="-117.329555" lat="33.971607"><ele>320.474809</ele><time>2025-09-25T17:20:50Z</time><extensions><speed>0.208516</speed><course>109.362647</course><hAcc>1.014148</hAcc><vAcc>0.124470</vAcc></extensions></trkpt>
      <trkpt lon="-117.329553" lat="33.971607"><ele>320.468816</ele><time>2025-09-25T17:20:51Z</time><extensions><speed>0.130059</speed><course>66.573010</course><hAcc>1.025989</hAcc><vAcc>0.124470</vAcc></extensions></trkpt>
      <trkpt lon="-117.329552" lat="33.971608"><ele>320.461803</ele><time>2025-09-25T17:20:52Z</time><extensions><speed>0.104002</speed><course>41.755699</course><hAcc>1.037835</hAcc><vAcc>0.124470</vAcc></extensions></trkpt>
      <trkpt lon="-117.329552" lat="33.971608"><ele>320.455517</ele><time>2025-09-25T17:20:53Z</time><extensions><speed>0.037641</speed><course>358.807798</course><hAcc>1.054167</hAcc><vAcc>0.124471</vAcc></extensions></trkpt>
      <trkpt lon="-117.329552" lat="33.971609"><ele>320.451662</ele><time>2025-09-25T17:20:54Z</time><extensions><speed>0.146861</speed><course>39.437138</course><hAcc>1.056375</hAcc><vAcc>0.124471</vAcc></extensions></trkpt>
      <trkpt lon="-117.329551" lat="33.971610"><ele>320.451402</ele><time>2025-09-25T17:20:55Z</time><extensions><speed>0.132198</speed><course>21.084527</course><hAcc>1.059881</hAcc><vAcc>0.124471</vAcc></extensions></trkpt>
      <trkpt lon="-117.329551" lat="33.971611"><ele>320.455232</ele><time>2025-09-25T17:20:56Z</time><extensions><speed>0.147033</speed><course>296.285491</course><hAcc>1.063763</hAcc><vAcc>0.124472</vAcc></extensions></trkpt>
      <trkpt lon="-117.329553" lat="33.971612"><ele>320.463090</ele><time>2025-09-25T17:20:57Z</time><extensions><speed>0.236209</speed><course>292.883064</course><hAcc>1.054229</hAcc><vAcc>0.124473</vAcc></extensions></trkpt>
      <trkpt lon="-117.329557" lat="33.971612"><ele>320.474468</ele><time>2025-09-25T17:20:58Z</time><extensions><speed>0.518243</speed><course>271.878118</course><hAcc>1.032764</hAcc><vAcc>0.124474</vAcc></extensions></trkpt>
      <trkpt lon="-117.329564" lat="33.971613"><ele>320.488386</ele><time>2025-09-25T17:20:59Z</time><extensions><speed>0.829634</speed><course>279.692661</course><hAcc>1.025895</hAcc><vAcc>0.124475</vAcc></extensions></trkpt>
      <trkpt lon="-117.329575" lat="33.971614"><ele>320.503213</ele><time>2025-09-25T17:21:00Z</time><extensions><speed>1.078174</speed><course>280.682179</course><hAcc>1.024024</hAcc><vAcc>0.124476</vAcc></extensions></trkpt>
      <trkpt lon="-117.329586" lat="33.971617"><ele>320.516875</ele><time>2025-09-25T17:21:01Z</time><extensions><speed>1.221128</speed><course>293.234396</course><hAcc>1.006056</hAcc><vAcc>0.124477</vAcc></extensions></trkpt>
      <trkpt lon="-117.329599" lat="33.971623"><ele>320.527733</ele><time>2025-09-25T17:21:02Z</time><extensions><speed>1.372012</speed><course>301.846820</course><hAcc>0.995571</hAcc><vAcc>0.124478</vAcc></extensions></trkpt>
      <trkpt lon="-117.329611" lat="33.971631"><ele>320.535465</ele><time>2025-09-25T17:21:03Z</time><extensions><speed>1.491442</speed><course>313.189001</course><hAcc>0.996061</hAcc><vAcc>0.124479</vAcc></extensions></trkpt>
      <trkpt lon="-117.329621" lat="33.971641"><ele>320.541146</ele><time>2025-09-25T17:21:04Z</time><extensions><speed>1.535763</speed><course>325.544397</course><hAcc>0.996578</hAcc><vAcc>0.124479</vAcc></extensions></trkpt>
      <trkpt lon="-117.329629" lat="33.971653"><ele>320.546806</ele><time>2025-09-25T17:21:05Z</time><extensions><speed>1.547744</speed><course>340.427757</course><hAcc>0.996865</hAcc><vAcc>0.124481</vAcc></extensions></trkpt>
      <trkpt lon="-117.329632" lat="33.971667"><ele>320.554880</ele><time>2025-09-25T17:21:06Z</time><extensions><speed>1.498086</speed><course>355.946995</course><hAcc>0.994808</hAcc><vAcc>0.124483</vAcc></extensions></trkpt>
      <trkpt lon="-117.329632" lat="33.971680"><ele>320.567440</ele><time>2025-09-25T17:21:07Z</time><extensions><speed>1.399914</speed><course>9.393836</course><hAcc>0.984101</hAcc><vAcc>0.124486</vAcc></extensions></trkpt>
      <trkpt lon="-117.329628" lat="33.971691"><ele>320.585488</ele><time>2025-09-25T17:21:08Z</time><extensions><speed>1.312045</speed><course>21.949923</course><hAcc>0.971663</hAcc><vAcc>0.124490</vAcc></extensions></trkpt>
      <trkpt lon="-117.329621" lat="33.971703"><ele>320.608945</ele><time>2025-09-25T17:21:09Z</time><extensions><speed>1.623073</speed><course>29.429735</course><hAcc>0.963699</hAcc><vAcc>0.124494</vAcc></extensions></trkpt>
      <trkpt lon="-117.329612" lat="33.971714"><ele>320.637041</ele><time>2025-09-25T17:21:10Z</time><extensions><speed>1.331391</speed><course>35.437208</course><hAcc>0.994388</hAcc><vAcc>0.124498</vAcc></extensions></trkpt>
      <trkpt lon="-117.329604" lat="33.971725"><ele>320.668742</ele><time>2025-09-25T17:21:11Z</time><extensions><speed>1.377622</speed><course>30.850389</course><hAcc>0.964525</hAcc><vAcc>0.124503</vAcc></extensions></trkpt>
      <trkpt lon="-117.329597" lat="33.971735"><ele>320.702955</ele><time>2025-09-25T17:21:12Z</time><extensions><speed>1.372563</speed><course>28.034455</course><hAcc>0.963391</hAcc><vAcc>0.124508</vAcc></extensions></trkpt>
      <trkpt lon="-117.329590" lat="33.971746"><ele>320.738592</ele><time>2025-09-25T17:21:13Z</time><extensions><speed>1.380641</speed><course>27.625596</course><hAcc>0.969896</hAcc><vAcc>0.124513</vAcc></extensions></trkpt>
      <trkpt lon="-117.329584" lat="33.971757"><ele>320.774577</ele><time>2025-09-25T17:21:14Z</time><extensions><speed>1.356184</speed><course>24.379106</course><hAcc>0.969835</hAcc><vAcc>0.124519</vAcc></extensions></trkpt>
      <trkpt lon="-117.329578" lat="33.971768"><ele>320.810224</ele><time>2025-09-25T17:21:15Z</time><extensions><speed>1.251679</speed><course>23.862578</course><hAcc>0.962831</hAcc><vAcc>0.124525</vAcc></extensions></trkpt>
      <trkpt lon="-117.329571" lat="33.971778"><ele>320.845541</ele><time>2025-09-25T17:21:16Z</time><extensions><speed>1.314890</speed><course>33.858263</course><hAcc>0.957745</hAcc><vAcc>0.124532</vAcc></extensions></trkpt>
      <trkpt lon="-117.329562" lat="33.971788"><ele>320.881324</ele><time>2025-09-25T17:21:17Z</time><extensions><speed>1.366843</speed><course>39.775471</course><hAcc>0.965186</hAcc><vAcc>0.124538</vAcc></extensions></trkpt>
      <trkpt lon="-117.329552" lat="33.971798"><ele>320.919086</ele><time>2025-09-25T17:21:18Z</time><extensions><speed>1.473102</speed><course>42.627624</course><hAcc>0.939171</hAcc><vAcc>0.124546</vAcc></extensions></trkpt>
      <trkpt lon="-117.329542" lat="33.971807"><ele>320.960547</ele><time>2025-09-25T17:21:19Z</time><extensions><speed>1.472513</speed><course>41.778886</course><hAcc>0.940528</hAcc><vAcc>0.124556</vAcc></extensions></trkpt>
      <trkpt lon="-117.329531" lat="33.971817"><ele>321.006400</ele><time>2025-09-25T17:21:20Z</time><extensions><speed>1.329207</speed><course>41.208783</course><hAcc>0.973504</hAcc><vAcc>0.124569</vAcc></extensions></trkpt>
      <trkpt lon="-117.329523" lat="33.971826"><ele>321.055271</ele><time>2025-09-25T17:21:21Z</time><extensions><speed>1.365677</speed><course>34.266432</course><hAcc>0.955330</hAcc><vAcc>0.124582</vAcc></extensions></trkpt>
      <trkpt lon="-117.329515" lat="33.971837"><ele>321.104198</ele><time>2025-09-25T17:21:22Z</time><extensions><speed>1.324639</speed><course>30.428403</course><hAcc>0.959460</hAcc><vAcc>0.124594</vAcc></extensions></trkpt>
      <trkpt lon="-117.329508" lat="33.971847"><ele>321.150190</ele><time>2025-09-25T17:21:23Z</time><extensions><speed>1.225318</speed><course>27.729246</course><hAcc>0.969035</hAcc><vAcc>0.124602</vAcc></extensions></trkpt>
      <trkpt lon="-117.329502" lat="33.971856"><ele>321.191325</ele><time>2025-09-25T17:21:24Z</time><extensions><speed>1.115477</speed><course>29.196157</course><hAcc>0.973396</hAcc><vAcc>0.124608</vAcc></extensions></trkpt>
      <trkpt lon="-117.329495" lat="33.971865"><ele>321.226971</ele><time>2025-09-25T17:21:25Z</time><extensions><speed>1.330215</speed><course>33.233834</course><hAcc>0.973548</hAcc><vAcc>0.124614</vAcc></extensions></trkpt>
      <trkpt lon="-117.329488" lat="33.971876"><ele>321.257673</ele><time>2025-09-25T17:21:26Z</time><extensions><speed>1.397671</speed><course>28.988120</course><hAcc>0.994343</hAcc><vAcc>0.124619</vAcc></extensions></trkpt>
      <trkpt lon="-117.329481" lat="33.971887"><ele>321.284779</ele><time>2025-09-25T17:21:27Z</time><extensions><speed>1.384251</speed><course>24.626714</course><hAcc>0.983015</hAcc><vAcc>0.124624</vAcc></extensions></trkpt>
      <trkpt lon="-117.329475" lat="33.971899"><ele>321.309856</ele><time>2025-09-25T17:21:28Z</time><extensions><speed>1.383412</speed><course>21.860140</course><hAcc>0.980151</hAcc><vAcc>0.124631</vAcc></extensions></trkpt>
      <trkpt lon="-117.329470" lat="33.971910"><ele>321.334235</ele><time>2025-09-25T17:21:29Z</time><extensions><speed>1.426707</speed><course>19.706485</course><hAcc>0.985323</hAcc><vAcc>0.124639</vAcc></extensions></trkpt>
      <trkpt lon="-117.329465" lat="33.971923"><ele>321.358767</ele><time>2025-09-25T17:21:30Z</time><extensions><speed>1.416411</speed><course>16.103461</course><hAcc>0.985736</hAcc><vAcc>0.124646</vAcc></extensions></trkpt>
      <trkpt lon="-117.329461" lat="33.971935"><ele>321.383741</ele><time>2025-09-25T17:21:31Z</time><extensions><speed>1.374097</speed><course>10.223919</course><hAcc>0.980981</hAcc><vAcc>0.124653</vAcc></extensions></trkpt>
      <trkpt lon="-117.329459" lat="33.971947"><ele>321.408889</ele><time>2025-09-25T17:21:32Z</time><extensions><speed>1.354954</speed><course>6.744762</course><hAcc>0.979155</hAcc><vAcc>0.124660</vAcc></extensions></trkpt>
      <trkpt lon="-117.329459" lat="33.971959"><ele>321.433622</ele><time>2025-09-25T17:21:33Z</time><extensions><speed>1.287577</speed><course>355.535868</course><hAcc>0.980301</hAcc><vAcc>0.124667</vAcc></extensions></trkpt>
      <trkpt lon="-117.329461" lat="33.971970"><ele>321.457230</ele><time>2025-09-25T17:21:34Z</time><extensions><speed>1.261515</speed><course>348.391592</course><hAcc>0.972597</hAcc><vAcc>0.124674</vAcc></extensions></trkpt>
      <trkpt lon="-117.329464" lat="33.971981"><ele>321.478945</ele><time>2025-09-25T17:21:35Z</time><extensions><speed>1.231426</speed><course>342.304084</course><hAcc>0.964051</hAcc><vAcc>0.124680</vAcc></extensions></trkpt>
      <trkpt lon="-117.329469" lat="33.971991"><ele>321.497986</ele><time>2025-09-25T17:21:36Z</time><extensions><speed>1.144119</speed><course>335.226826</course><hAcc>0.955548</hAcc><vAcc>0.124686</vAcc></extensions></trkpt>
      <trkpt lon="-117.329475" lat="33.972000"><ele>321.513587</ele><time>2025-09-25T17:21:37Z</time><extensions><speed>1.101734</speed><course>323.964554</course><hAcc>0.943272</hAcc><vAcc>0.124690</vAcc></extensions></trkpt>
      <trkpt lon="-117.329483" lat="33.972007"><ele>321.525065</ele><time>2025-09-25T17:21:38Z</time><extensions><speed>1.108027</speed><course>309.857027</course><hAcc>0.933975</hAcc><vAcc>0.124695</vAcc></extensions></trkpt>
      <trkpt lon="-117.329493" lat="33.972012"><ele>321.531962</ele><time>2025-09-25T17:21:39Z</time><extensions><speed>1.020372</speed><course>292.357657</course><hAcc>0.943481</hAcc><vAcc>0.124699</vAcc></extensions></trkpt>
      <trkpt lon="-117.329505" lat="33.972015"><ele>321.534102</ele><time>2025-09-25T17:21:40Z</time><extensions><speed>1.243230</speed><course>281.426564</course><hAcc>0.929609</hAcc><vAcc>0.124704</vAcc></extensions></trkpt>
      <trkpt lon="-117.329519" lat="33.972017"><ele>321.531714</ele><time>2025-09-25T17:21:41Z</time><extensions><speed>1.432993</speed><course>276.550051</course><hAcc>0.932492</hAcc><vAcc>0.124708</vAcc></extensions></trkpt>
      <trkpt lon="-117.329535" lat="33.972018"><ele>321.525568</ele><time>2025-09-25T17:21:42Z</time><extensions><speed>1.547931</speed><course>273.514434</course><hAcc>0.927392</hAcc><vAcc>0.124713</vAcc></extensions></trkpt>
      <trkpt lon="-117.329551" lat="33.972019"><ele>321.516655</ele><time>2025-09-25T17:21:43Z</time><extensions><speed>1.500804</speed><course>274.919097</course><hAcc>0.929851</hAcc><vAcc>0.124717</vAcc></extensions></trkpt>
      <trkpt lon="-117.329567" lat="33.972020"><ele>321.505846</ele><time>2025-09-25T17:21:44Z</time><extensions><speed>1.484810</speed><course>275.960179</course><hAcc>0.931112</hAcc><vAcc>0.124722</vAcc></extensions></trkpt>
      <trkpt lon="-117.329583" lat="33.972021"><ele>321.493742</ele><time>2025-09-25T17:21:45Z</time><extensions><speed>1.361952</speed><course>275.289368</course><hAcc>0.948432</hAcc><vAcc>0.124727</vAcc></extensions></trkpt>
      <trkpt lon="-117.329597" lat="33.972023"><ele>321.480700</ele><time>2025-09-25T17:21:46Z</time><extensions><speed>1.371135</speed><course>276.631949</course><hAcc>0.925919</hAcc><vAcc>0.124734</vAcc></extensions></trkpt>
      <trkpt lon="-117.329612" lat="33.972024"><ele>321.467009</ele><time>2025-09-25T17:21:47Z</time><extensions><speed>1.337424</speed><course>276.826844</course><hAcc>0.927444</hAcc><vAcc>0.124742</vAcc></extensions></trkpt>
      <trkpt lon="-117.329626" lat="33.972025"><ele>321.453127</ele><time>2025-09-25T17:21:48Z</time><extensions><speed>1.308851</speed><course>277.129800</course><hAcc>0.925066</hAcc><vAcc>0.124749</vAcc></extensions></trkpt>
      <trkpt lon="-117.329640" lat="33.972027"><ele>321.439864</ele><time>2025-09-25T17:21:49Z</time><extensions><speed>1.260192</speed><course>273.856768</course><hAcc>0.955334</hAcc><vAcc>0.124755</vAcc></extensions></trkpt>
      <trkpt lon="-117.329653" lat="33.972027"><ele>321.428168</ele><time>2025-09-25T17:21:50Z</time><extensions><speed>1.095380</speed><course>272.361565</course><hAcc>0.935440</hAcc><vAcc>0.124760</vAcc></extensions></trkpt>
      <trkpt lon="-117.329665" lat="33.972027"><ele>321.418434</ele><time>2025-09-25T17:21:51Z</time><extensions><speed>1.083891</speed><course>271.756205</course><hAcc>0.939597</hAcc><vAcc>0.124765</vAcc></extensions></trkpt>
      <trkpt lon="-117.329677" lat="33.972028"><ele>321.410003</ele><time>2025-09-25T17:21:52Z</time><extensions><speed>1.181065</speed><course>272.167570</course><hAcc>0.949059</hAcc><vAcc>0.124772</vAcc></extensions></trkpt>
      <trkpt lon="-117.329690" lat="33.972028"><ele>321.401633</ele><time>2025-09-25T17:21:53Z</time><extensions><speed>1.197255</speed><course>273.646482</course><hAcc>0.952390</hAcc><vAcc>0.124779</vAcc></extensions></trkpt>
      <trkpt lon="-117.329702" lat="33.972029"><ele>321.392506</ele><time>2025-09-25T17:21:54Z</time><extensions><speed>1.170453</speed><course>273.658357</course><hAcc>0.955245</hAcc><vAcc>0.124785</vAcc></extensions></trkpt>
      <trkpt lon="-117.329715" lat="33.972030"><ele>321.382560</ele><time>2025-09-25T17:21:55Z</time><extensions><speed>1.186271</speed><course>273.796252</course><hAcc>0.969895</hAcc><vAcc>0.124791</vAcc></extensions></trkpt>
      <trkpt lon="-117.329728" lat="33.972030"><ele>321.372017</ele><time>2025-09-25T17:21:56Z</time><extensions><speed>1.273255</speed><course>271.809251</course><hAcc>0.965807</hAcc><vAcc>0.124798</vAcc></extensions></trkpt>
      <trkpt lon="-117.329742" lat="33.972030"><ele>321.360793</ele><time>2025-09-25T17:21:57Z</time><extensions><speed>1.202216</speed><course>270.173075</course><hAcc>0.981524</hAcc><vAcc>0.124806</vAcc></extensions></trkpt>
      <trkpt lon="-117.329755" lat="33.972030"><ele>321.348447</ele><time>2025-09-25T17:21:58Z</time><extensions><speed>1.163632</speed><course>266.924525</course><hAcc>0.983837</hAcc><vAcc>0.124814</vAcc></extensions></trkpt>
      <trkpt lon="-117.329767" lat="33.972029"><ele>321.334420</ele><time>2025-09-25T17:21:59Z</time><extensions><speed>1.040323</speed><course>262.868722</course><hAcc>0.990363</hAcc><vAcc>0.124822</vAcc></extensions></trkpt>
      <trkpt lon="-117.329778" lat="33.972028"><ele>321.318267</ele><time>2025-09-25T17:22:00Z</time><extensions><speed>1.106433</speed><course>263.165379</course><hAcc>0.997035</hAcc><vAcc>0.124830</vAcc></extensions></trkpt>
      <trkpt lon="-117.329790" lat="33.972027"><ele>321.299745</ele><time>2025-09-25T17:22:01Z</time><extensions><speed>1.161685</speed><course>262.711880</course><hAcc>1.006314</hAcc><vAcc>0.124839</vAcc></extensions></trkpt>
      <trkpt lon="-117.329804" lat="33.972026"><ele>321.278901</ele><time>2025-09-25T17:22:02Z</time><extensions><speed>1.325358</speed><course>265.768264</course><hAcc>1.004755</hAcc><vAcc>0.124850</vAcc></extensions></trkpt>
      <trkpt lon="-117.329819" lat="33.972025"><ele>321.256290</ele><time>2025-09-25T17:22:03Z</time><extensions><speed>1.426098</speed><course>267.678682</course><hAcc>1.002230</hAcc><vAcc>0.124862</vAcc></extensions></trkpt>
      <trkpt lon="-117.329834" lat="33.972025"><ele>321.233192</ele><time>2025-09-25T17:22:04Z</time><extensions><speed>1.450280</speed><course>269.312031</course><hAcc>0.996053</hAcc><vAcc>0.124875</vAcc></extensions></trkpt>
      <trkpt lon="-117.329850" lat="33.972025"><ele>321.211585</ele><time>2025-09-25T17:22:05Z</time><extensions><speed>1.499464</speed><course>270.221232</course><hAcc>0.996532</hAcc><vAcc>0.124887</vAcc></extensions></trkpt>
      <trkpt lon="-117.329866" lat="33.972025"><ele>321.193426</ele><time>2025-09-25T17:22:06Z</time><extensions><speed>1.365797</speed><course>274.796152</course><hAcc>1.026720</hAcc><vAcc>0.124896</vAcc></extensions></trkpt>
      <trkpt lon="-117.329880" lat="33.972025"><ele>321.179767</ele><time>2025-09-25T17:22:07Z</time><extensions><speed>1.313221</speed><course>260.939256</course><hAcc>1.002203</hAcc><vAcc>0.124902</vAcc></extensions></trkpt>
      <trkpt lon="-117.329894" lat="33.972023"><ele>321.170469</ele><time>2025-09-25T17:22:08Z</time><extensions><speed>1.272038</speed><course>261.179287</course><hAcc>1.002936</hAcc><vAcc>0.124908</vAcc></extensions></trkpt>
      <trkpt lon="-117.329908" lat="33.972022"><ele>321.164940</ele><time>2025-09-25T17:22:09Z</time><extensions><speed>1.310111</speed><course>265.473458</course><hAcc>1.015387</hAcc><vAcc>0.124916</vAcc></extensions></trkpt>
      <trkpt lon="-117.329922" lat="33.972021"><ele>321.162756</ele><time>2025-09-25T17:22:10Z</time><extensions><speed>1.419241</speed><course>269.967547</course><hAcc>1.029840</hAcc><vAcc>0.124924</vAcc></extensions></trkpt>
      <trkpt lon="-117.329937" lat="33.972021"><ele>321.163579</ele><time>2025-09-25T17:22:11Z</time><extensions><speed>1.340761</speed><course>271.924644</course><hAcc>1.064738</hAcc><vAcc>0.124931</vAcc></extensions></trkpt>
      <trkpt lon="-117.329952" lat="33.972022"><ele>321.166656</ele><time>2025-09-25T17:22:12Z</time><extensions><speed>1.304985</speed><course>271.188565</course><hAcc>1.056016</hAcc><vAcc>0.124937</vAcc></extensions></trkpt>
      <trkpt lon="-117.329966" lat="33.972022"><ele>321.170412</ele><time>2025-09-25T17:22:13Z</time><extensions><speed>1.308266</speed><course>274.241068</course><hAcc>1.072793</hAcc><vAcc>0.124944</vAcc></extensions></trkpt>
      <trkpt lon="-117.329980" lat="33.972024"><ele>321.172697</ele><time>2025-09-25T17:22:14Z</time><extensions><speed>1.357393</speed><course>276.651984</course><hAcc>1.095076</hAcc><vAcc>0.124954</vAcc></extensions></trkpt>
      <trkpt lon="-117.329994" lat="33.972025"><ele>321.171249</ele><time>2025-09-25T17:22:15Z</time><extensions><speed>1.314672</speed><course>276.727639</course><hAcc>1.111278</hAcc><vAcc>0.124966</vAcc></extensions></trkpt>
      <trkpt lon="-117.330008" lat="33.972026"><ele>321.164181</ele><time>2025-09-25T17:22:16Z</time><extensions><speed>1.281270</speed><course>276.441878</course><hAcc>1.121867</hAcc><vAcc>0.124981</vAcc></extensions></trkpt>
      <trkpt lon="-117.330022" lat="33.972028"><ele>321.150679</ele><time>2025-09-25T17:22:17Z</time><extensions><speed>1.216755</speed><course>277.214716</course><hAcc>1.125822</hAcc><vAcc>0.124995</vAcc></extensions></trkpt>
      <trkpt lon="-117.330034" lat="33.972029"><ele>321.131435</ele><time>2025-09-25T17:22:18Z</time><extensions><speed>1.113656</speed><course>280.178614</course><hAcc>1.123600</hAcc><vAcc>0.125008</vAcc></extensions></trkpt>
      <trkpt lon="-117.330046" lat="33.972031"><ele>321.107708</ele><time>2025-09-25T17:22:19Z</time><extensions><speed>1.061333</speed><course>280.537075</course><hAcc>1.114966</hAcc><vAcc>0.125022</vAcc></extensions></trkpt>
      <trkpt lon="-117.330057" lat="33.972033"><ele>321.080215</ele><time>2025-09-25T17:22:20Z</time><extensions><speed>1.036202</speed><course>284.866871</course><hAcc>1.116890</hAcc><vAcc>0.125038</vAcc></extensions></trkpt>
      <trkpt lon="-117.330067" lat="33.972036"><ele>321.049018</ele><time>2025-09-25T17:22:21Z</time><extensions><speed>1.048103</speed><course>293.663410</course><hAcc>1.135013</hAcc><vAcc>0.125058</vAcc></extensions></trkpt>
      <trkpt lon="-117.330076" lat="33.972042"><ele>321.013928</ele><time>2025-09-25T17:22:22Z</time><extensions><speed>1.084434</speed><course>320.760089</course><hAcc>1.106254</hAcc><vAcc>0.125085</vAcc></extensions></trkpt>
      <trkpt lon="-117.330081" lat="33.972052"><ele>320.975269</ele><time>2025-09-25T17:22:23Z</time><extensions><speed>1.273596</speed><course>347.859968</course><hAcc>1.106346</hAcc><vAcc>0.125118</vAcc></extensions></trkpt>
      <trkpt lon="-117.330083" lat="33.972064"><ele>320.934407</ele><time>2025-09-25T17:22:24Z</time><extensions><speed>1.518658</speed><course>1.254343</course><hAcc>1.125691</hAcc><vAcc>0.125150</vAcc></extensions></trkpt>
      <trkpt lon="-117.330082" lat="33.972077"><ele>320.894174</ele><time>2025-09-25T17:22:25Z</time><extensions><speed>1.396150</speed><course>3.078619</course><hAcc>1.154131</hAcc><vAcc>0.125175</vAcc></extensions></trkpt>
      <trkpt lon="-117.330081" lat="33.972090"><ele>320.858531</ele><time>2025-09-25T17:22:26Z</time><extensions><speed>1.416556</speed><course>5.805935</course><hAcc>1.127587</hAcc><vAcc>0.125192</vAcc></extensions></trkpt>
      <trkpt lon="-117.330080" lat="33.972102"><ele>320.831389</ele><time>2025-09-25T17:22:27Z</time><extensions><speed>1.332779</speed><course>5.385545</course><hAcc>1.132987</hAcc><vAcc>0.125206</vAcc></extensions></trkpt>
      <trkpt lon="-117.330079" lat="33.972114"><ele>320.815434</ele><time>2025-09-25T17:22:28Z</time><extensions><speed>1.272859</speed><course>3.567406</course><hAcc>1.140729</hAcc><vAcc>0.125221</vAcc></extensions></trkpt>
      <trkpt lon="-117.330078" lat="33.972126"><ele>320.811965</ele><time>2025-09-25T17:22:29Z</time><extensions><speed>1.300023</speed><course>0.759694</course><hAcc>1.135548</hAcc><vAcc>0.125236</vAcc></extensions></trkpt>
      <trkpt lon="-117.330078" lat="33.972138"><ele>320.820977</ele><time>2025-09-25T17:22:30Z</time><extensions><speed>1.394569</speed><course>359.380380</course><hAcc>1.134580</hAcc><vAcc>0.125253</vAcc></extensions></trkpt>
      <trkpt lon="-117.330079" lat="33.972150"><ele>320.840940</ele><time>2025-09-25T17:22:31Z</time><extensions><speed>1.334996</speed><course>357.437769</course><hAcc>1.159537</hAcc><vAcc>0.125276</vAcc></extensions></trkpt>
      <trkpt lon="-117.330079" lat="33.972162"><ele>320.868979</ele><time>2025-09-25T17:22:32Z</time><extensions><speed>1.329218</speed><course>357.296252</course><hAcc>1.116931</hAcc><vAcc>0.125304</vAcc></extensions></trkpt>
      <trkpt lon="-117.330080" lat="33.972174"><ele>320.901105</ele><time>2025-09-25T17:22:33Z</time><extensions><speed>1.209314</speed><course>352.274418</course><hAcc>1.099510</hAcc><vAcc>0.125329</vAcc></extensions></trkpt>
      <trkpt lon="-117.330082" lat="33.972184"><ele>320.933092</ele><time>2025-09-25T17:22:34Z</time><extensions><speed>1.049086</speed><course>355.208969</course><hAcc>1.106163</hAcc><vAcc>0.125347</vAcc></extensions></trkpt>
      <trkpt lon="-117.330083" lat="33.972193"><ele>320.962081</ele><time>2025-09-25T17:22:35Z</time><extensions><speed>1.031838</speed><course>356.725262</course><hAcc>1.104120</hAcc><vAcc>0.125361</vAcc></extensions></trkpt>
      <trkpt lon="-117.330083" lat="33.972203"><ele>320.987359</ele><time>2025-09-25T17:22:36Z</time><extensions><speed>1.158124</speed><course>355.358327</course><hAcc>1.096229</hAcc><vAcc>0.125375</vAcc></extensions></trkpt>
      <trkpt lon="-117.330085" lat="33.972214"><ele>321.009230</ele><time>2025-09-25T17:22:37Z</time><extensions><speed>1.292890</speed><course>352.648636</course><hAcc>1.088098</hAcc><vAcc>0.125390</vAcc></extensions></trkpt>
      <trkpt lon="-117.330087" lat="33.972226"><ele>321.027575</ele><time>2025-09-25T17:22:38Z</time><extensions><speed>1.408458</speed><course>349.117486</course><hAcc>1.070767</hAcc><vAcc>0.125402</vAcc></extensions></trkpt>
      <trkpt lon="-117.330091" lat="33.972239"><ele>321.041424</ele><time>2025-09-25T17:22:39Z</time><extensions><speed>1.539736</speed><course>346.752590</course><hAcc>1.064028</hAcc><vAcc>0.125412</vAcc></extensions></trkpt>
      <trkpt lon="-117.330095" lat="33.972252"><ele>321.049986</ele><time>2025-09-25T17:22:40Z</time><extensions><speed>1.504853</speed><course>345.567627</course><hAcc>1.071227</hAcc><vAcc>0.125421</vAcc></extensions></trkpt>
      <trkpt lon="-117.330099" lat="33.972265"><ele>321.053547</ele><time>2025-09-25T17:22:41Z</time><extensions><speed>1.405413</speed><course>344.492273</course><hAcc>1.082890</hAcc><vAcc>0.125431</vAcc></extensions></trkpt>
      <trkpt lon="-117.330103" lat="33.972277"><ele>321.053313</ele><time>2025-09-25T17:22:42Z</time><extensions><speed>1.324869</speed><course>342.687488</course><hAcc>1.059341</hAcc><vAcc>0.125442</vAcc></extensions></trkpt>
      <trkpt lon="-117.330108" lat="33.972288"><ele>321.050675</ele><time>2025-09-25T17:22:43Z</time><extensions><speed>1.347484</speed><course>340.909751</course><hAcc>1.037590</hAcc><vAcc>0.125452</vAcc></extensions></trkpt>
      <trkpt lon="-117.330113" lat="33.972300"><ele>321.046766</ele><time>2025-09-25T17:22:44Z</time><extensions><speed>1.485485</speed><course>338.641500</course><hAcc>1.037531</hAcc><vAcc>0.125463</vAcc></extensions></trkpt>
      <trkpt lon="-117.330119" lat="33.972311"><ele>321.041401</ele><time>2025-09-25T17:22:45Z</time><extensions><speed>1.202238</speed><course>330.310369</course><hAcc>1.072251</hAcc><vAcc>0.125478</vAcc></extensions></trkpt>
      <trkpt lon="-117.330126" lat="33.972321"><ele>321.032575</ele><time>2025-09-25T17:22:46Z</time><extensions><speed>1.263737</speed><course>329.590382</course><hAcc>1.038590</hAcc><vAcc>0.125498</vAcc></extensions></trkpt>
      <trkpt lon="-117.330133" lat="33.972330"><ele>321.017407</ele><time>2025-09-25T17:22:47Z</time><extensions><speed>1.250904</speed><course>321.780380</course><hAcc>1.063199</hAcc><vAcc>0.125522</vAcc></extensions></trkpt>
      <trkpt lon="-117.330142" lat="33.972338"><ele>320.994042</ele><time>2025-09-25T17:22:48Z</time><extensions><speed>1.180436</speed><course>309.300306</course><hAcc>1.030173</hAcc><vAcc>0.125550</vAcc></extensions></trkpt>
      <trkpt lon="-117.330154" lat="33.972345"><ele>320.962977</ele><time>2025-09-25T17:22:49Z</time><extensions><speed>1.453604</speed><course>306.257146</course><hAcc>1.041483</hAcc><vAcc>0.125583</vAcc></extensions></trkpt>
      <trkpt lon="-117.330166" lat="33.972353"><ele>320.927070</ele><time>2025-09-25T17:22:50Z</time><extensions><speed>1.439928</speed><course>303.914090</course><hAcc>1.062416</hAcc><vAcc>0.125621</vAcc></extensions></trkpt>
      <trkpt lon="-117.330178" lat="33.972361"><ele>320.891001</ele><time>2025-09-25T17:22:51Z</time><extensions><speed>1.428279</speed><course>315.541999</course><hAcc>1.043772</hAcc><vAcc>0.125653</vAcc></extensions></trkpt>
      <trkpt lon="-117.330187" lat="33.972370"><ele>320.860055</ele><time>2025-09-25T17:22:52Z</time><extensions><speed>1.278485</speed><course>327.668795</course><hAcc>1.062653</hAcc><vAcc>0.125673</vAcc></extensions></trkpt>
      <trkpt lon="-117.330193" lat="33.972381"><ele>320.837931</ele><time>2025-09-25T17:22:53Z</time><extensions><speed>1.312971</speed><course>341.827687</course><hAcc>1.036674</hAcc><vAcc>0.125684</vAcc></extensions></trkpt>
      <trkpt lon="-117.330197" lat="33.972392"><ele>320.825501</ele><time>2025-09-25T17:22:54Z</time><extensions><speed>1.189001</speed><course>343.463466</course><hAcc>1.052982</hAcc><vAcc>0.125693</vAcc></extensions></trkpt>
      <trkpt lon="-117.330201" lat="33.972402"><ele>320.821611</ele><time>2025-09-25T17:22:55Z</time><extensions><speed>1.197483</speed><course>347.920861</course><hAcc>1.042264</hAcc><vAcc>0.125703</vAcc></extensions></trkpt>
      <trkpt lon="-117.330203" lat="33.972413"><ele>320.824374</ele><time>2025-09-25T17:22:56Z</time><extensions><speed>1.178867</speed><course>353.686685</course><hAcc>1.054421</hAcc><vAcc>0.125712</vAcc></extensions></trkpt>
      <trkpt lon="-117.330203" lat="33.972424"><ele>320.831856</ele><time>2025-09-25T17:22:57Z</time><extensions><speed>1.313124</speed><course>0.154215</course><hAcc>1.049653</hAcc><vAcc>0.125724</vAcc></extensions></trkpt>
      <trkpt lon="-117.330202" lat="33.972436"><ele>320.842508</ele><time>2025-09-25T17:22:58Z</time><extensions><speed>1.441233</speed><course>10.396757</course><hAcc>1.051067</hAcc><vAcc>0.125737</vAcc></extensions></trkpt>
      <trkpt lon="-117.330198" lat="33.972449"><ele>320.855312</ele><time>2025-09-25T17:22:59Z</time><extensions><speed>1.396626</speed><course>16.928354</course><hAcc>1.063466</hAcc><vAcc>0.125752</vAcc></extensions></trkpt>
      <trkpt lon="-117.330193" lat="33.972460"><ele>320.869816</ele><time>2025-09-25T17:23:00Z</time><extensions><speed>1.386067</speed><course>21.952864</course><hAcc>1.044855</hAcc><vAcc>0.125767</vAcc></extensions></trkpt>
      <trkpt lon="-117.330188" lat="33.972471"><ele>320.886124</ele><time>2025-09-25T17:23:01Z</time><extensions><speed>1.168289</speed><course>24.244836</course><hAcc>1.058808</hAcc><vAcc>0.125783</vAcc></extensions></trkpt>
      <trkpt lon="-117.330182" lat="33.972481"><ele>320.904495</ele><time>2025-09-25T17:23:02Z</time><extensions><speed>1.266422</speed><course>24.282583</course><hAcc>1.035575</hAcc><vAcc>0.125802</vAcc></extensions></trkpt>
      <trkpt lon="-117.330177" lat="33.972492"><ele>320.924844</ele><time>2025-09-25T17:23:03Z</time><extensions><speed>1.287579</speed><course>18.806377</course><hAcc>1.026978</hAcc><vAcc>0.125825</vAcc></extensions></trkpt>
      <trkpt lon="-117.330174" lat="33.972503"><ele>320.946330</ele><time>2025-09-25T17:23:04Z</time><extensions><speed>1.339314</speed><course>12.769572</course><hAcc>1.030076</hAcc><vAcc>0.125848</vAcc></extensions></trkpt>
      <trkpt lon="-117.330171" lat="33.972515"><ele>320.967601</ele><time>2025-09-25T17:23:05Z</time><extensions><speed>1.277149</speed><course>4.678290</course><hAcc>1.044035</hAcc><vAcc>0.125868</vAcc></extensions></trkpt>
      <trkpt lon="-117.330171" lat="33.972526"><ele>320.987423</ele><time>2025-09-25T17:23:06Z</time><extensions><speed>1.303584</speed><course>1.137755</course><hAcc>1.018515</hAcc><vAcc>0.125883</vAcc></extensions></trkpt>
      <trkpt lon="-117.330170" lat="33.972538"><ele>321.005012</ele><time>2025-09-25T17:23:07Z</time><extensions><speed>1.346005</speed><course>1.311866</course><hAcc>1.006409</hAcc><vAcc>0.125898</vAcc></extensions></trkpt>
      <trkpt lon="-117.330170" lat="33.972550"><ele>321.019752</ele><time>2025-09-25T17:23:08Z</time><extensions><speed>1.355094</speed><course>0.916601</course><hAcc>1.006636</hAcc><vAcc>0.125914</vAcc></extensions></trkpt>
      <trkpt lon="-117.330170" lat="33.972562"><ele>321.030874</ele><time>2025-09-25T17:23:09Z</time><extensions><speed>1.269687</speed><course>1.690023</course><hAcc>1.024288</hAcc><vAcc>0.125929</vAcc></extensions></trkpt>
      <trkpt lon="-117.330169" lat="33.972574"><ele>321.037535</ele><time>2025-09-25T17:23:10Z</time><extensions><speed>1.325637</speed><course>0.892906</course><hAcc>0.999486</hAcc><vAcc>0.125941</vAcc></extensions></trkpt>
      <trkpt lon="-117.330170" lat="33.972586"><ele>321.039299</ele><time>2025-09-25T17:23:11Z</time><extensions><speed>1.351395</speed><course>358.306816</course><hAcc>0.991398</hAcc><vAcc>0.125952</vAcc></extensions></trkpt>
      <trkpt lon="-117.330170" lat="33.972599"><ele>321.036594</ele><time>2025-09-25T17:23:12Z</time><extensions><speed>1.411931</speed><course>358.292971</course><hAcc>0.984883</hAcc><vAcc>0.125963</vAcc></extensions></trkpt>
      <trkpt lon="-117.330170" lat="33.972611"><ele>321.030559</ele><time>2025-09-25T17:23:13Z</time><extensions><speed>1.463977</speed><course>0.212681</course><hAcc>0.980302</hAcc><vAcc>0.125975</vAcc></extensions></trkpt>
      <trkpt lon="-117.330171" lat="33.972624"><ele>321.022746</ele><time>2025-09-25T17:23:14Z</time><extensions><speed>1.277206</speed><course>354.190051</course><hAcc>0.986899</hAcc><vAcc>0.125986</vAcc></extensions></trkpt>
      <trkpt lon="-117.330172" lat="33.972635"><ele>321.014807</ele><time>2025-09-25T17:23:15Z</time><extensions><speed>1.236579</speed><course>352.514518</course><hAcc>0.961430</hAcc><vAcc>0.125996</vAcc></extensions></trkpt>
      <trkpt lon="-117.330174" lat="33.972647"><ele>321.008139</ele><time>2025-09-25T17:23:16Z</time><extensions><speed>1.374793</speed><course>351.668909</course><hAcc>0.956498</hAcc><vAcc>0.126006</vAcc></extensions></trkpt>
      <trkpt lon="-117.330177" lat="33.972658"><ele>321.003613</ele><time>2025-09-25T17:23:17Z</time><extensions><speed>1.230160</speed><course>346.880510</course><hAcc>0.982547</hAcc><vAcc>0.126017</vAcc></extensions></trkpt>
      <trkpt lon="-117.330180" lat="33.972669"><ele>321.001625</ele><time>2025-09-25T17:23:18Z</time><extensions><speed>1.252510</speed><course>348.384812</course><hAcc>0.960045</hAcc><vAcc>0.126027</vAcc></extensions></trkpt>
      <trkpt lon="-117.330182" lat="33.972680"><ele>321.002089</ele><time>2025-09-25T17:23:19Z</time><extensions><speed>1.165070</speed><course>352.900592</course><hAcc>0.955578</hAcc><vAcc>0.126036</vAcc></extensions></trkpt>
      <trkpt lon="-117.330183" lat="33.972691"><ele>321.004565</ele><time>2025-09-25T17:23:20Z</time><extensions><speed>1.271238</speed><course>359.549875</course><hAcc>0.961252</hAcc><vAcc>0.126048</vAcc></extensions></trkpt>
      <trkpt lon="-117.330182" lat="33.972702"><ele>321.008052</ele><time>2025-09-25T17:23:21Z</time><extensions><speed>1.259895</speed><course>5.471055</course><hAcc>0.982619</hAcc><vAcc>0.126063</vAcc></extensions></trkpt>
      <trkpt lon="-117.330181" lat="33.972714"><ele>321.010932</ele><time>2025-09-25T17:23:22Z</time><extensions><speed>1.282531</speed><course>4.433144</course><hAcc>0.958550</hAcc><vAcc>0.126078</vAcc></extensions></trkpt>
      <trkpt lon="-117.330180" lat="33.972725"><ele>321.011464</ele><time>2025-09-25T17:23:23Z</time><extensions><speed>1.342265</speed><course>0.748842</course><hAcc>0.947996</hAcc><vAcc>0.126093</vAcc></extensions></trkpt>
      <trkpt lon="-117.330181" lat="33.972738"><ele>321.009074</ele><time>2025-09-25T17:23:24Z</time><extensions><speed>1.368082</speed><course>357.687761</course><hAcc>0.950939</hAcc><vAcc>0.126118</vAcc></extensions></trkpt>
      <trkpt lon="-117.330181" lat="33.972750"><ele>321.004304</ele><time>2025-09-25T17:23:25Z</time><extensions><speed>1.270594</speed><course>356.595051</course><hAcc>0.982148</hAcc><vAcc>0.126201</vAcc></extensions></trkpt>
      <trkpt lon="-117.330183" lat="33.972761"><ele>320.998829</ele><time>2025-09-25T17:23:26Z</time><extensions><speed>1.312984</speed><course>353.565003</course><hAcc>0.958735</hAcc><vAcc>0.126432</vAcc></extensions></trkpt>
      <trkpt lon="-117.330184" lat="33.972773"><ele>320.995155</ele><time>2025-09-25T17:23:27Z</time><extensions><speed>1.286583</speed><course>355.627458</course><hAcc>0.962167</hAcc><vAcc>0.126880</vAcc></extensions></trkpt>
      <trkpt lon="-117.330185" lat="33.972784"><ele>320.995089</ele><time>2025-09-25T17:23:28Z</time><extensions><speed>1.287831</speed><course>358.764225</course><hAcc>0.969336</hAcc><vAcc>0.127433</vAcc></extensions></trkpt>
      <trkpt lon="-117.330184" lat="33.972796"><ele>321.000785</ele><time>2025-09-25T17:23:29Z</time><extensions><speed>1.357792</speed><course>2.577670</course><hAcc>0.976846</hAcc><vAcc>0.127714</vAcc></extensions></trkpt>
      <trkpt lon="-117.330183" lat="33.972808"><ele>321.012073</ele><time>2025-09-25T17:23:30Z</time><extensions><speed>1.305253</speed><course>4.771279</course><hAcc>1.000603</hAcc><vAcc>0.127789</vAcc></extensions></trkpt>
      <trkpt lon="-117.330183" lat="33.972820"><ele>321.031651</ele><time>2025-09-25T17:23:31Z</time><extensions><speed>1.341963</speed><course>2.183355</course><hAcc>0.984283</hAcc><vAcc>0.130728</vAcc></extensions></trkpt>
      <trkpt lon="-117.330182" lat="33.972832"><ele>321.064666</ele><time>2025-09-25T17:23:32Z</time><extensions><speed>1.309493</speed><course>359.654684</course><hAcc>0.985299</hAcc><vAcc>0.146214</vAcc></extensions></trkpt>
      <trkpt lon="-117.330182" lat="33.972845"><ele>321.116910</ele><time>2025-09-25T17:23:33Z</time><extensions><speed>1.444318</speed><course>0.238383</course><hAcc>0.989924</hAcc><vAcc>0.186304</vAcc></extensions></trkpt>
      <trkpt lon="-117.330182" lat="33.972857"><ele>321.191969</ele><time>2025-09-25T17:23:34Z</time><extensions><speed>1.336012</speed><course>359.310465</course><hAcc>1.007932</hAcc><vAcc>0.249909</vAcc></extensions></trkpt>
      <trkpt lon="-117.330183" lat="33.972869"><ele>321.288242</ele><time>2025-09-25T17:23:35Z</time><extensions><speed>1.339724</speed><course>357.198202</course><hAcc>0.994873</hAcc><vAcc>0.323530</vAcc></extensions></trkpt>
      <trkpt lon="-117.330184" lat="33.972881"><ele>321.404242</ele><time>2025-09-25T17:23:36Z</time><extensions><speed>1.266650</speed><course>355.100348</course><hAcc>0.996434</hAcc><vAcc>0.396200</vAcc></extensions></trkpt>
      <trkpt lon="-117.330185" lat="33.972891"><ele>321.528922</ele><time>2025-09-25T17:23:37Z</time><extensions><speed>1.092503</speed><course>352.008219</course><hAcc>1.001447</hAcc><vAcc>0.462910</vAcc></extensions></trkpt>
      <trkpt lon="-117.330187" lat="33.972902"><ele>321.661698</ele><time>2025-09-25T17:23:38Z</time><extensions><speed>1.189793</speed><course>352.735598</course><hAcc>0.999158</hAcc><vAcc>0.521608</vAcc></extensions></trkpt>
      <trkpt lon="-117.330188" lat="33.972913"><ele>321.786559</ele><time>2025-09-25T17:23:39Z</time><extensions><speed>1.311434</speed><course>354.992839</course><hAcc>0.990817</hAcc><vAcc>0.571727</vAcc></extensions></trkpt>
      <trkpt lon="-117.330189" lat="33.972925"><ele>321.898494</ele><time>2025-09-25T17:23:40Z</time><extensions><speed>1.373850</speed><course>359.913715</course><hAcc>0.990588</hAcc><vAcc>0.613488</vAcc></extensions></trkpt>
      <trkpt lon="-117.330189" lat="33.972937"><ele>322.005826</ele><time>2025-09-25T17:23:41Z</time><extensions><speed>1.303898</speed><course>357.597834</course><hAcc>0.997980</hAcc><vAcc>0.647538</vAcc></extensions></trkpt>
      <trkpt lon="-117.330190" lat="33.972949"><ele>322.104966</ele><time>2025-09-25T17:23:42Z</time><extensions><speed>1.295601</speed><course>356.117554</course><hAcc>0.982247</hAcc><vAcc>0.674733</vAcc></extensions></trkpt>
      <trkpt lon="-117.330191" lat="33.972960"><ele>322.189377</ele><time>2025-09-25T17:23:43Z</time><extensions><speed>1.274250</speed><course>357.664456</course><hAcc>0.983789</hAcc><vAcc>0.696010</vAcc></extensions></trkpt>
      <trkpt lon="-117.330191" lat="33.972972"><ele>322.280508</ele><time>2025-09-25T17:23:44Z</time><extensions><speed>1.239161</speed><course>0.269330</course><hAcc>0.988036</hAcc><vAcc>0.712313</vAcc></extensions></trkpt>
      <trkpt lon="-117.330191" lat="33.972983"><ele>322.374150</ele><time>2025-09-25T17:23:45Z</time><extensions><speed>1.347137</speed><course>1.852468</course><hAcc>0.987347</hAcc><vAcc>0.724532</vAcc></extensions></trkpt>
      <trkpt lon="-117.330190" lat="33.972995"><ele>322.440894</ele><time>2025-09-25T17:23:46Z</time><extensions><speed>1.348478</speed><course>2.348723</course><hAcc>0.983751</hAcc><vAcc>0.733478</vAcc></extensions></trkpt>
      <trkpt lon="-117.330190" lat="33.973007"><ele>322.469050</ele><time>2025-09-25T17:23:47Z</time><extensions><speed>1.290483</speed><course>2.367303</course><hAcc>0.980847</hAcc><vAcc>0.739866</vAcc></extensions></trkpt>
      <trkpt lon="-117.330189" lat="33.973019"><ele>322.499828</ele><time>2025-09-25T17:23:48Z</time><extensions><speed>1.191711</speed><course>0.994316</course><hAcc>0.981505</hAcc><vAcc>0.744301</vAcc></extensions></trkpt>
      <trkpt lon="-117.330189" lat="33.973029"><ele>322.531111</ele><time>2025-09-25T17:23:49Z</time><extensions><speed>1.229142</speed><course>4.003279</course><hAcc>0.975593</hAcc><vAcc>0.747285</vAcc></extensions></trkpt>
      <trkpt lon="-117.330188" lat="33.973040"><ele>322.547648</ele><time>2025-09-25T17:23:50Z</time><extensions><speed>1.199567</speed><course>4.625969</course><hAcc>0.974140</hAcc><vAcc>0.749222</vAcc></extensions></trkpt>
      <trkpt lon="-117.330187" lat="33.973052"><ele>322.552979</ele><time>2025-09-25T17:23:51Z</time><extensions><speed>1.283986</speed><course>3.910778</course><hAcc>0.970158</hAcc><vAcc>0.750427</vAcc></extensions></trkpt>
      <trkpt lon="-117.330186" lat="33.973063"><ele>322.553932</ele><time>2025-09-25T17:23:52Z</time><extensions><speed>1.353910</speed><course>3.253258</course><hAcc>0.961103</hAcc><vAcc>0.751138</vAcc></extensions></trkpt>
      <trkpt lon="-117.330185" lat="33.973076"><ele>322.550834</ele><time>2025-09-25T17:23:53Z</time><extensions><speed>1.405586</speed><course>3.254542</course><hAcc>0.958344</hAcc><vAcc>0.751530</vAcc></extensions></trkpt>
      <trkpt lon="-117.330183" lat="33.973088"><ele>322.543134</ele><time>2025-09-25T17:23:54Z</time><extensions><speed>1.297509</speed><course>9.350819</course><hAcc>0.984875</hAcc><vAcc>0.751726</vAcc></extensions></trkpt>
      <trkpt lon="-117.330181" lat="33.973099"><ele>322.524698</ele><time>2025-09-25T17:23:55Z</time><extensions><speed>1.151261</speed><course>8.082000</course><hAcc>0.959074</hAcc><vAcc>0.751811</vAcc></extensions></trkpt>
      <trkpt lon="-117.330180" lat="33.973108"><ele>322.494917</ele><time>2025-09-25T17:23:56Z</time><extensions><speed>0.939393</speed><course>4.817247</course><hAcc>0.958537</hAcc><vAcc>0.751840</vAcc></extensions></trkpt>
      <trkpt lon="-117.330179" lat="33.973118"><ele>322.471531</ele><time>2025-09-25T17:23:57Z</time><extensions><speed>1.154494</speed><course>2.170772</course><hAcc>0.975393</hAcc><vAcc>0.751844</vAcc></extensions></trkpt>
      <trkpt lon="-117.330179" lat="33.973129"><ele>322.436703</ele><time>2025-09-25T17:23:58Z</time><extensions><speed>1.412697</speed><course>2.517910</course><hAcc>0.978405</hAcc><vAcc>0.751845</vAcc></extensions></trkpt>
      <trkpt lon="-117.330178" lat="33.973142"><ele>322.405564</ele><time>2025-09-25T17:23:59Z</time><extensions><speed>1.422635</speed><course>4.933789</course><hAcc>0.999650</hAcc><vAcc>0.751849</vAcc></extensions></trkpt>
      <trkpt lon="-117.330176" lat="33.973155"><ele>322.370019</ele><time>2025-09-25T17:24:00Z</time><extensions><speed>1.382779</speed><course>5.431335</course><hAcc>0.996064</hAcc><vAcc>0.751860</vAcc></extensions></trkpt>
      <trkpt lon="-117.330175" lat="33.973167"><ele>322.332393</ele><time>2025-09-25T17:24:01Z</time><extensions><speed>1.323598</speed><course>6.036614</course><hAcc>1.005316</hAcc><vAcc>0.751879</vAcc></extensions></trkpt>
      <trkpt lon="-117.330174" lat="33.973178"><ele>322.294825</ele><time>2025-09-25T17:24:02Z</time><extensions><speed>1.254217</speed><course>3.906924</course><hAcc>1.018524</hAcc><vAcc>0.751902</vAcc></extensions></trkpt>
      <trkpt lon="-117.330173" lat="33.973190"><ele>322.260968</ele><time>2025-09-25T17:24:03Z</time><extensions><speed>1.301551</speed><course>0.615750</course><hAcc>1.028541</hAcc><vAcc>0.751929</vAcc></extensions></trkpt>
      <trkpt lon="-117.330173" lat="33.973202"><ele>322.218620</ele><time>2025-09-25T17:24:04Z</time><extensions><speed>1.339532</speed><course>0.139100</course><hAcc>1.034813</hAcc><vAcc>0.751956</vAcc></extensions></trkpt>
      <trkpt lon="-117.330173" lat="33.973214"><ele>322.178309</ele><time>2025-09-25T17:24:05Z</time><extensions><speed>1.359970</speed><course>357.590877</course><hAcc>1.038778</hAcc><vAcc>0.751982</vAcc></extensions></trkpt>
      <trkpt lon="-117.330174" lat="33.973226"><ele>322.144930</ele><time>2025-09-25T17:24:06Z</time><extensions><speed>1.330001</speed><course>356.208106</course><hAcc>1.035044</hAcc><vAcc>0.752006</vAcc></extensions></trkpt>
      <trkpt lon="-117.330175" lat="33.973238"><ele>322.106515</ele><time>2025-09-25T17:24:07Z</time><extensions><speed>1.323321</speed><course>355.418622</course><hAcc>1.023617</hAcc><vAcc>0.752027</vAcc></extensions></trkpt>
      <trkpt lon="-117.330176" lat="33.973250"><ele>322.076608</ele><time>2025-09-25T17:24:08Z</time><extensions><speed>1.403458</speed><course>355.864213</course><hAcc>1.011807</hAcc><vAcc>0.752045</vAcc></extensions></trkpt>
      <trkpt lon="-117.330178" lat="33.973263"><ele>322.043834</ele><time>2025-09-25T17:24:09Z</time><extensions><speed>1.457515</speed><course>355.296331</course><hAcc>1.015892</hAcc><vAcc>0.752059</vAcc></extensions></trkpt>
      <trkpt lon="-117.330180" lat="33.973275"><ele>322.024476</ele><time>2025-09-25T17:24:10Z</time><extensions><speed>1.345468</speed><course>348.618318</course><hAcc>1.031749</hAcc><vAcc>0.752071</vAcc></extensions></trkpt>
      <trkpt lon="-117.330184" lat="33.973287"><ele>322.010504</ele><time>2025-09-25T17:24:11Z</time><extensions><speed>1.279943</speed><course>338.929516</course><hAcc>1.013011</hAcc><vAcc>0.752079</vAcc></extensions></trkpt>
      <trkpt lon="-117.330189" lat="33.973297"><ele>321.999950</ele><time>2025-09-25T17:24:12Z</time><extensions><speed>1.219557</speed><course>329.056731</course><hAcc>1.016637</hAcc><vAcc>0.752086</vAcc></extensions></trkpt>
      <trkpt lon="-117.330197" lat="33.973306"><ele>321.993176</ele><time>2025-09-25T17:24:13Z</time><extensions><speed>1.199239</speed><course>321.559012</course><hAcc>1.029800</hAcc><vAcc>0.752091</vAcc></extensions></trkpt>
      <trkpt lon="-117.330205" lat="33.973314"><ele>321.983770</ele><time>2025-09-25T17:24:14Z</time><extensions><speed>1.099060</speed><course>317.687330</course><hAcc>1.037575</hAcc><vAcc>0.752094</vAcc></extensions></trkpt>
      <trkpt lon="-117.330213" lat="33.973321"><ele>321.978958</ele><time>2025-09-25T17:24:15Z</time><extensions><speed>1.069794</speed><course>317.075131</course><hAcc>1.038103</hAcc><vAcc>0.752097</vAcc></extensions></trkpt>
      <trkpt lon="-117.330221" lat="33.973328"><ele>321.985533</ele><time>2025-09-25T17:24:16Z</time><extensions><speed>1.064006</speed><course>317.032182</course><hAcc>1.034291</hAcc><vAcc>0.752098</vAcc></extensions></trkpt>
      <trkpt lon="-117.330228" lat="33.973335"><ele>321.997468</ele><time>2025-09-25T17:24:17Z</time><extensions><speed>1.070980</speed><course>321.917925</course><hAcc>1.028792</hAcc><vAcc>0.752099</vAcc></extensions></trkpt>
      <trkpt lon="-117.330236" lat="33.973343"><ele>322.007400</ele><time>2025-09-25T17:24:18Z</time><extensions><speed>1.139583</speed><course>323.480215</course><hAcc>1.028294</hAcc><vAcc>0.752100</vAcc></extensions></trkpt>
      <trkpt lon="-117.330243" lat="33.973351"><ele>322.008066</ele><time>2025-09-25T17:24:19Z</time><extensions><speed>1.082974</speed><course>324.018566</course><hAcc>1.040002</hAcc><vAcc>0.752581</vAcc></extensions></trkpt>
      <trkpt lon="-117.330250" lat="33.973358"><ele>322.018503</ele><time>2025-09-25T17:24:20Z</time><extensions><speed>0.971017</speed><course>312.727645</course><hAcc>1.032372</hAcc><vAcc>0.752803</vAcc></extensions></trkpt>
      <trkpt lon="-117.330258" lat="33.973364"><ele>322.032341</ele><time>2025-09-25T17:24:21Z</time><extensions><speed>1.014030</speed><course>310.546125</course><hAcc>1.037280</hAcc><vAcc>0.753043</vAcc></extensions></trkpt>
      <trkpt lon="-117.330267" lat="33.973370"><ele>322.033776</ele><time>2025-09-25T17:24:22Z</time><extensions><speed>1.152777</speed><course>307.980515</course><hAcc>1.041300</hAcc><vAcc>0.753319</vAcc></extensions></trkpt>
      <trkpt lon="-117.330277" lat="33.973376"><ele>321.956950</ele><time>2025-09-25T17:24:23Z</time><extensions><speed>1.136756</speed><course>302.398214</course><hAcc>1.057149</hAcc><vAcc>0.759461</vAcc></extensions></trkpt>
      <trkpt lon="-117.330288" lat="33.973381"><ele>321.863101</ele><time>2025-09-25T17:24:24Z</time><extensions><speed>1.162379</speed><course>296.965197</course><hAcc>1.053214</hAcc><vAcc>0.769371</vAcc></extensions></trkpt>
      <trkpt lon="-117.330299" lat="33.973386"><ele>321.750894</ele><time>2025-09-25T17:24:25Z</time><extensions><speed>1.095018</speed><course>294.367257</course><hAcc>1.056874</hAcc><vAcc>0.785061</vAcc></extensions></trkpt>
      <trkpt lon="-117.330309" lat="33.973390"><ele>321.619244</ele><time>2025-09-25T17:24:26Z</time><extensions><speed>1.001088</speed><course>295.055238</course><hAcc>1.073169</hAcc><vAcc>0.809165</vAcc></extensions></trkpt>
      <trkpt lon="-117.330319" lat="33.973393"><ele>321.467486</ele><time>2025-09-25T17:24:27Z</time><extensions><speed>0.875746</speed><course>293.582267</course><hAcc>1.090314</hAcc><vAcc>0.844870</vAcc></extensions></trkpt>
      <trkpt lon="-117.330327" lat="33.973396"><ele>321.295725</ele><time>2025-09-25T17:24:28Z</time><extensions><speed>0.787335</speed><course>296.021729</course><hAcc>1.118739</hAcc><vAcc>0.895701</vAcc></extensions></trkpt>
      <trkpt lon="-117.330334" lat="33.973399"><ele>321.105051</ele><time>2025-09-25T17:24:29Z</time><extensions><speed>0.701043</speed><course>298.028391</course><hAcc>1.172478</hAcc><vAcc>0.965157</vAcc></extensions></trkpt>
      <trkpt lon="-117.330339" lat="33.973402"><ele>320.897512</ele><time>2025-09-25T17:24:30Z</time><extensions><speed>0.372799</speed><course>314.714726</course><hAcc>1.212040</hAcc><vAcc>1.056334</vAcc></extensions></trkpt>
      <trkpt lon="-117.330341" lat="33.973404"><ele>320.676147</ele><time>2025-09-25T17:24:31Z</time><extensions><speed>0.301935</speed><course>316.700006</course><hAcc>1.379002</hAcc><vAcc>1.171618</vAcc></extensions></trkpt>
      <trkpt lon="-117.330344" lat="33.973406"><ele>320.445338</ele><time>2025-09-25T17:24:32Z</time><extensions><speed>0.313353</speed><course>297.305288</course><hAcc>1.799367</hAcc><vAcc>1.312467</vAcc></extensions></trkpt>
    </trkseg>
  </trk>
</gpx>