<?xml version="1.0" encoding="UTF-8"?>
<gpx version="1.1" creator="Apple Health Export" xmlns="http://www.topografix.com/GPX/1/1" xmlns:xsi="http://www.w3.org/2001/XMLSchema-instance" xsi:schemaLocation="http://www.topografix.com/GPX/1/1 http://www.topografix.com/GPX/1/1/gpx.xsd">
  <metadata>
    <time>2026-01-11T07:57:29Z</time>
  </metadata>
  <trk>
    <name>Route 2024-02-08 11:12am</name>
    <trkseg>
      <trkpt lon="-117.328957" lat="33.972893"><ele>324.577297</ele><time>2024-02-08T19:09:04Z</time><extensions><speed>0.000000</speed><course>0.000000</course><hAcc>5.930754</hAcc><vAcc>1.217036</vAcc></extensions></trkpt>
      <trkpt lon="-117.328957" lat="33.972893"><ele>324.577297</ele><time>2024-02-08T19:09:05Z</time><extensions><speed>0.000000</speed><course>0.000000</course><hAcc>5.594243</hAcc><vAcc>1.044922</vAcc></extensions></trkpt>
      <trkpt lon="-117.328957" lat="33.972893"><ele>324.577297</ele><time>2024-02-08T19:09:06Z</time><extensions><speed>0.000000</speed><course>0.000000</course><hAcc>5.316543</hAcc><vAcc>0.914290</vAcc></extensions></trkpt>
      <trkpt lon="-117.328957" lat="33.972893"><ele>324.577297</ele><time>2024-02-08T19:09:07Z</time><extensions><speed>0.000000</speed><course>0.544996</course><hAcc>5.086467</hAcc><vAcc>0.819056</vAcc></extensions></trkpt>
      <trkpt lon="-117.328957" lat="33.972893"><ele>324.577297</ele><time>2024-02-08T19:09:08Z</time><extensions><speed>0.000000</speed><course>0.454644</course><hAcc>4.905430</hAcc><vAcc>0.752996</vAcc></extensions></trkpt>
      <trkpt lon="-117.328957" lat="33.972893"><ele>324.577297</ele><time>2024-02-08T19:09:09Z</time><extensions><speed>0.000000</speed><course>0.386726</course><hAcc>4.759813</hAcc><vAcc>0.709703</vAcc></extensions></trkpt>
      <trkpt lon="-117.328957" lat="33.972893"><ele>324.577297</ele><time>2024-02-08T19:09:10Z</time><extensions><speed>0.000000</speed><course>0.316189</course><hAcc>4.631807</hAcc><vAcc>0.683018</vAcc></extensions></trkpt>
      <trkpt lon="-117.328957" lat="33.972893"><ele>324.577297</ele><time>2024-02-08T19:09:11Z</time><extensions><speed>0.000000</speed><course>0.241485</course><hAcc>4.519130</hAcc><vAcc>0.667582</vAcc></extensions></trkpt>
      <trkpt lon="-117.328957" lat="33.972893"><ele>324.577297</ele><time>2024-02-08T19:09:12Z</time><extensions><speed>0.000000</speed><course>0.179995</course><hAcc>4.422887</hAcc><vAcc>0.659196</vAcc></extensions></trkpt>
      <trkpt lon="-117.328957" lat="33.972893"><ele>324.577297</ele><time>2024-02-08T19:09:13Z</time><extensions><speed>0.000000</speed><course>0.123933</course><hAcc>4.340946</hAcc><vAcc>0.654870</vAcc></extensions></trkpt>
      <trkpt lon="-117.328957" lat="33.972893"><ele>324.577297</ele><time>2024-02-08T19:09:14Z</time><extensions><speed>0.000000</speed><course>0.077168</course><hAcc>4.274109</hAcc><vAcc>0.652650</vAcc></extensions></trkpt>
      <trkpt lon="-117.328957" lat="33.972893"><ele>324.577297</ele><time>2024-02-08T19:09:15Z</time><extensions><speed>0.000000</speed><course>0.032220</course><hAcc>4.216326</hAcc><vAcc>0.651367</vAcc></extensions></trkpt>
      <trkpt lon="-117.328957" lat="33.972893"><ele>324.577297</ele><time>2024-02-08T19:09:16Z</time><extensions><speed>0.000000</speed><course>359.978719</course><hAcc>4.163210</hAcc><vAcc>0.650391</vAcc></extensions></trkpt>
      <trkpt lon="-117.328957" lat="33.972893"><ele>324.577297</ele><time>2024-02-08T19:09:17Z</time><extensions><speed>0.000000</speed><course>359.894061</course><hAcc>4.114250</hAcc><vAcc>0.649434</vAcc></extensions></trkpt>
      <trkpt lon="-117.328957" lat="33.972893"><ele>324.577297</ele><time>2024-02-08T19:09:18Z</time><extensions><speed>0.000000</speed><course>359.785119</course><hAcc>4.077270</hAcc><vAcc>0.648405</vAcc></extensions></trkpt>
      <trkpt lon="-117.328957" lat="33.972893"><ele>324.577297</ele><time>2024-02-08T19:09:19Z</time><extensions><speed>0.000000</speed><course>359.675804</course><hAcc>4.056715</hAcc><vAcc>0.647315</vAcc></extensions></trkpt>
      <trkpt lon="-117.328957" lat="33.972893"><ele>324.577297</ele><time>2024-02-08T19:09:20Z</time><extensions><speed>0.000000</speed><course>359.828896</course><hAcc>4.043875</hAcc><vAcc>0.646216</vAcc></extensions></trkpt>
      <trkpt lon="-117.328957" lat="33.972893"><ele>324.577297</ele><time>2024-02-08T19:09:21Z</time><extensions><speed>0.000000</speed><course>0.063213</course><hAcc>4.045002</hAcc><vAcc>0.645166</vAcc></extensions></trkpt>
      <trkpt lon="-117.328957" lat="33.972893"><ele>324.577297</ele><time>2024-02-08T19:09:22Z</time><extensions><speed>0.000000</speed><course>0.392412</course><hAcc>4.052824</hAcc><vAcc>0.644212</vAcc></extensions></trkpt>
      <trkpt lon="-117.328957" lat="33.972893"><ele>324.577297</ele><time>2024-02-08T19:09:23Z</time><extensions><speed>0.000000</speed><course>0.548412</course><hAcc>4.053697</hAcc><vAcc>0.643383</vAcc></extensions></trkpt>
      <trkpt lon="-117.328957" lat="33.972893"><ele>324.577297</ele><time>2024-02-08T19:09:24Z</time><extensions><speed>0.000000</speed><course>0.766301</course><hAcc>4.048724</hAcc><vAcc>0.642692</vAcc></extensions></trkpt>
      <trkpt lon="-117.328957" lat="33.972893"><ele>324.577297</ele><time>2024-02-08T19:09:25Z</time><extensions><speed>0.000000</speed><course>1.052340</course><hAcc>4.048288</hAcc><vAcc>0.642138</vAcc></extensions></trkpt>
      <trkpt lon="-117.328957" lat="33.972893"><ele>324.577297</ele><time>2024-02-08T19:09:26Z</time><extensions><speed>0.000000</speed><course>1.427225</course><hAcc>4.049682</hAcc><vAcc>0.641708</vAcc></extensions></trkpt>
      <trkpt lon="-117.328943" lat="33.972913"><ele>324.576773</ele><time>2024-02-08T19:09:27Z</time><extensions><speed>0.206791</speed><course>30.680593</course><hAcc>3.697956</hAcc><vAcc>0.641225</vAcc></extensions></trkpt>
      <trkpt lon="-117.328937" lat="33.972919"><ele>324.578084</ele><time>2024-02-08T19:09:28Z</time><extensions><speed>0.301358</speed><course>33.172453</course><hAcc>3.542739</hAcc><vAcc>0.640663</vAcc></extensions></trkpt>
      <trkpt lon="-117.328932" lat="33.972924"><ele>324.580025</ele><time>2024-02-08T19:09:29Z</time><extensions><speed>0.358802</speed><course>34.047215</course><hAcc>3.434834</hAcc><vAcc>0.639951</vAcc></extensions></trkpt>
      <trkpt lon="-117.328929" lat="33.972928"><ele>324.582553</ele><time>2024-02-08T19:09:30Z</time><extensions><speed>0.339983</speed><course>34.465344</course><hAcc>3.362680</hAcc><vAcc>0.639102</vAcc></extensions></trkpt>
      <trkpt lon="-117.328926" lat="33.972931"><ele>324.585716</ele><time>2024-02-08T19:09:31Z</time><extensions><speed>0.392714</speed><course>34.701538</course><hAcc>3.270208</hAcc><vAcc>0.638155</vAcc></extensions></trkpt>
      <trkpt lon="-117.328922" lat="33.972935"><ele>324.589549</ele><time>2024-02-08T19:09:32Z</time><extensions><speed>0.533747</speed><course>34.870086</course><hAcc>3.134344</hAcc><vAcc>0.637205</vAcc></extensions></trkpt>
      <trkpt lon="-117.328919" lat="33.972939"><ele>324.594066</ele><time>2024-02-08T19:09:33Z</time><extensions><speed>0.512006</speed><course>35.032201</course><hAcc>3.002825</hAcc><vAcc>0.636366</vAcc></extensions></trkpt>
      <trkpt lon="-117.328915" lat="33.972943"><ele>324.599235</ele><time>2024-02-08T19:09:34Z</time><extensions><speed>0.570421</speed><course>35.261708</course><hAcc>2.834081</hAcc><vAcc>0.635832</vAcc></extensions></trkpt>
      <trkpt lon="-117.328911" lat="33.972948"><ele>324.605004</ele><time>2024-02-08T19:09:35Z</time><extensions><speed>0.670489</speed><course>35.638781</course><hAcc>2.602266</hAcc><vAcc>0.635817</vAcc></extensions></trkpt>
      <trkpt lon="-117.328907" lat="33.972953"><ele>324.611282</ele><time>2024-02-08T19:09:36Z</time><extensions><speed>0.577175</speed><course>36.536914</course><hAcc>2.353445</hAcc><vAcc>0.636622</vAcc></extensions></trkpt>
      <trkpt lon="-117.328903" lat="33.972957"><ele>324.617936</ele><time>2024-02-08T19:09:37Z</time><extensions><speed>0.615247</speed><course>38.792949</course><hAcc>2.034345</hAcc><vAcc>0.638527</vAcc></extensions></trkpt>
      <trkpt lon="-117.328899" lat="33.972961"><ele>324.624765</ele><time>2024-02-08T19:09:38Z</time><extensions><speed>0.488416</speed><course>41.314796</course><hAcc>1.724888</hAcc><vAcc>0.641824</vAcc></extensions></trkpt>
      <trkpt lon="-117.328896" lat="33.972964"><ele>324.631507</ele><time>2024-02-08T19:09:39Z</time><extensions><speed>0.230098</speed><course>42.806771</course><hAcc>1.560318</hAcc><vAcc>0.646581</vAcc></extensions></trkpt>
      <trkpt lon="-117.328895" lat="33.972965"><ele>324.637934</ele><time>2024-02-08T19:09:40Z</time><extensions><speed>0.057001</speed><course>44.065911</course><hAcc>1.499899</hAcc><vAcc>0.652608</vAcc></extensions></trkpt>
      <trkpt lon="-117.328894" lat="33.972965"><ele>324.639412</ele><time>2024-02-08T19:09:41Z</time><extensions><speed>0.023545</speed><course>47.860717</course><hAcc>1.450221</hAcc><vAcc>0.659455</vAcc></extensions></trkpt>
      <trkpt lon="-117.328894" lat="33.972964"><ele>324.639323</ele><time>2024-02-08T19:09:42Z</time><extensions><speed>0.018162</speed><course>53.545914</course><hAcc>1.403270</hAcc><vAcc>0.666711</vAcc></extensions></trkpt>
      <trkpt lon="-117.328894" lat="33.972964"><ele>324.637434</ele><time>2024-02-08T19:09:43Z</time><extensions><speed>0.015300</speed><course>62.125891</course><hAcc>1.362808</hAcc><vAcc>0.673942</vAcc></extensions></trkpt>
      <trkpt lon="-117.328893" lat="33.972964"><ele>324.633763</ele><time>2024-02-08T19:09:44Z</time><extensions><speed>0.016018</speed><course>74.752142</course><hAcc>1.323948</hAcc><vAcc>0.680877</vAcc></extensions></trkpt>
      <trkpt lon="-117.328893" lat="33.972964"><ele>324.628339</ele><time>2024-02-08T19:09:45Z</time><extensions><speed>0.012725</speed><course>91.971471</course><hAcc>1.296915</hAcc><vAcc>0.687398</vAcc></extensions></trkpt>
      <trkpt lon="-117.328891" lat="33.972964"><ele>324.616132</ele><time>2024-02-08T19:09:46Z</time><extensions><speed>0.018786</speed><course>105.791516</course><hAcc>1.276483</hAcc><vAcc>0.693342</vAcc></extensions></trkpt>
      <trkpt lon="-117.328890" lat="33.972963"><ele>324.598721</ele><time>2024-02-08T19:09:47Z</time><extensions><speed>0.026424</speed><course>112.049067</course><hAcc>1.260325</hAcc><vAcc>0.698656</vAcc></extensions></trkpt>
      <trkpt lon="-117.328889" lat="33.972963"><ele>324.577885</ele><time>2024-02-08T19:09:48Z</time><extensions><speed>0.033540</speed><course>115.420104</course><hAcc>1.250503</hAcc><vAcc>0.703403</vAcc></extensions></trkpt>
      <trkpt lon="-117.328888" lat="33.972963"><ele>324.554024</ele><time>2024-02-08T19:09:49Z</time><extensions><speed>0.031345</speed><course>117.693720</course><hAcc>1.249365</hAcc><vAcc>0.707796</vAcc></extensions></trkpt>
      <trkpt lon="-117.328887" lat="33.972962"><ele>324.527314</ele><time>2024-02-08T19:09:50Z</time><extensions><speed>0.046072</speed><course>118.905875</course><hAcc>1.244000</hAcc><vAcc>0.711859</vAcc></extensions></trkpt>
      <trkpt lon="-117.328885" lat="33.972962"><ele>324.498250</ele><time>2024-02-08T19:09:51Z</time><extensions><speed>0.170879</speed><course>117.101816</course><hAcc>1.217928</hAcc><vAcc>0.715694</vAcc></extensions></trkpt>
      <trkpt lon="-117.328883" lat="33.972961"><ele>324.467413</ele><time>2024-02-08T19:09:52Z</time><extensions><speed>0.145649</speed><course>113.685616</course><hAcc>1.246572</hAcc><vAcc>0.719355</vAcc></extensions></trkpt>
      <trkpt lon="-117.328881" lat="33.972961"><ele>324.435384</ele><time>2024-02-08T19:09:53Z</time><extensions><speed>0.138575</speed><course>110.219805</course><hAcc>1.266814</hAcc><vAcc>0.722850</vAcc></extensions></trkpt>
      <trkpt lon="-117.328880" lat="33.972960"><ele>324.402708</ele><time>2024-02-08T19:09:54Z</time><extensions><speed>0.125431</speed><course>107.313361</course><hAcc>1.283433</hAcc><vAcc>0.726176</vAcc></extensions></trkpt>
      <trkpt lon="-117.328878" lat="33.972960"><ele>324.369955</ele><time>2024-02-08T19:09:55Z</time><extensions><speed>0.125468</speed><course>104.876806</course><hAcc>1.289212</hAcc><vAcc>0.729270</vAcc></extensions></trkpt>
      <trkpt lon="-117.328874" lat="33.972959"><ele>324.337770</ele><time>2024-02-08T19:09:56Z</time><extensions><speed>0.536210</speed><course>104.233367</course><hAcc>1.221254</hAcc><vAcc>0.732066</vAcc></extensions></trkpt>
      <trkpt lon="-117.328869" lat="33.972958"><ele>324.306848</ele><time>2024-02-08T19:09:57Z</time><extensions><speed>0.326763</speed><course>104.292485</course><hAcc>1.251903</hAcc><vAcc>0.734513</vAcc></extensions></trkpt>
      <trkpt lon="-117.328866" lat="33.972957"><ele>324.277771</ele><time>2024-02-08T19:09:58Z</time><extensions><speed>0.166544</speed><course>104.316902</course><hAcc>1.266012</hAcc><vAcc>0.736630</vAcc></extensions></trkpt>
      <trkpt lon="-117.328865" lat="33.972956"><ele>324.260059</ele><time>2024-02-08T19:09:59Z</time><extensions><speed>0.069450</speed><course>107.784700</course><hAcc>1.262575</hAcc><vAcc>0.738295</vAcc></extensions></trkpt>
      <trkpt lon="-117.328864" lat="33.972955"><ele>324.246425</ele><time>2024-02-08T19:10:00Z</time><extensions><speed>0.058649</speed><course>116.484472</course><hAcc>1.245013</hAcc><vAcc>0.739499</vAcc></extensions></trkpt>
      <trkpt lon="-117.328864" lat="33.972954"><ele>324.234995</ele><time>2024-02-08T19:10:01Z</time><extensions><speed>0.055780</speed><course>123.789390</course><hAcc>1.234187</hAcc><vAcc>0.740048</vAcc></extensions></trkpt>
      <trkpt lon="-117.328863" lat="33.972953"><ele>324.229406</ele><time>2024-02-08T19:10:02Z</time><extensions><speed>0.053355</speed><course>129.072580</course><hAcc>1.230930</hAcc><vAcc>0.739821</vAcc></extensions></trkpt>
      <trkpt lon="-117.328862" lat="33.972953"><ele>324.227516</ele><time>2024-02-08T19:10:03Z</time><extensions><speed>0.051653</speed><course>134.552997</course><hAcc>1.233225</hAcc><vAcc>0.739064</vAcc></extensions></trkpt>
      <trkpt lon="-117.328862" lat="33.972952"><ele>324.229535</ele><time>2024-02-08T19:10:04Z</time><extensions><speed>0.050048</speed><course>140.114018</course><hAcc>1.242696</hAcc><vAcc>0.737724</vAcc></extensions></trkpt>
      <trkpt lon="-117.328861" lat="33.972952"><ele>324.234955</ele><time>2024-02-08T19:10:05Z</time><extensions><speed>0.048192</speed><course>145.428432</course><hAcc>1.257515</hAcc><vAcc>0.735876</vAcc></extensions></trkpt>
      <trkpt lon="-117.328861" lat="33.972952"><ele>324.244827</ele><time>2024-02-08T19:10:06Z</time><extensions><speed>0.053560</speed><course>151.658086</course><hAcc>1.277134</hAcc><vAcc>0.733460</vAcc></extensions></trkpt>
      <trkpt lon="-117.328861" lat="33.972951"><ele>324.257766</ele><time>2024-02-08T19:10:07Z</time><extensions><speed>0.056804</speed><course>158.166985</course><hAcc>1.305810</hAcc><vAcc>0.730595</vAcc></extensions></trkpt>
      <trkpt lon="-117.328861" lat="33.972951"><ele>324.273203</ele><time>2024-02-08T19:10:08Z</time><extensions><speed>0.094387</speed><course>163.112344</course><hAcc>1.330397</hAcc><vAcc>0.727327</vAcc></extensions></trkpt>
      <trkpt lon="-117.328860" lat="33.972948"><ele>324.290375</ele><time>2024-02-08T19:10:09Z</time><extensions><speed>0.492593</speed><course>162.528209</course><hAcc>1.312058</hAcc><vAcc>0.723843</vAcc></extensions></trkpt>
      <trkpt lon="-117.328858" lat="33.972944"><ele>324.308456</ele><time>2024-02-08T19:10:10Z</time><extensions><speed>0.598297</speed><course>159.645468</course><hAcc>1.397777</hAcc><vAcc>0.720319</vAcc></extensions></trkpt>
      <trkpt lon="-117.328856" lat="33.972940"><ele>324.326748</ele><time>2024-02-08T19:10:11Z</time><extensions><speed>0.369860</speed><course>150.561104</course><hAcc>1.489569</hAcc><vAcc>0.717020</vAcc></extensions></trkpt>
      <trkpt lon="-117.328854" lat="33.972938"><ele>324.344750</ele><time>2024-02-08T19:10:12Z</time><extensions><speed>0.149642</speed><course>132.380413</course><hAcc>1.527474</hAcc><vAcc>0.714275</vAcc></extensions></trkpt>
      <trkpt lon="-117.328854" lat="33.972938"><ele>324.362051</ele><time>2024-02-08T19:10:13Z</time><extensions><speed>0.031404</speed><course>61.607228</course><hAcc>1.556623</hAcc><vAcc>0.712266</vAcc></extensions></trkpt>
      <trkpt lon="-117.328853" lat="33.972938"><ele>324.378362</ele><time>2024-02-08T19:10:14Z</time><extensions><speed>0.034578</speed><course>359.199600</course><hAcc>1.548882</hAcc><vAcc>0.711104</vAcc></extensions></trkpt>
      <trkpt lon="-117.328854" lat="33.972939"><ele>324.393491</ele><time>2024-02-08T19:10:15Z</time><extensions><speed>0.033130</speed><course>347.389189</course><hAcc>1.520081</hAcc><vAcc>0.710779</vAcc></extensions></trkpt>
      <trkpt lon="-117.328854" lat="33.972939"><ele>324.407306</ele><time>2024-02-08T19:10:16Z</time><extensions><speed>0.103937</speed><course>344.205717</course><hAcc>1.409231</hAcc><vAcc>0.711210</vAcc></extensions></trkpt>
      <trkpt lon="-117.328854" lat="33.972940"><ele>324.419711</ele><time>2024-02-08T19:10:17Z</time><extensions><speed>0.056671</speed><course>343.898015</course><hAcc>1.381599</hAcc><vAcc>0.712255</vAcc></extensions></trkpt>
      <trkpt lon="-117.328854" lat="33.972940"><ele>324.430665</ele><time>2024-02-08T19:10:18Z</time><extensions><speed>0.031545</speed><course>343.771358</course><hAcc>1.362733</hAcc><vAcc>0.713730</vAcc></extensions></trkpt>
      <trkpt lon="-117.328855" lat="33.972942"><ele>324.435786</ele><time>2024-02-08T19:10:19Z</time><extensions><speed>0.034752</speed><course>346.618784</course><hAcc>1.335919</hAcc><vAcc>0.715456</vAcc></extensions></trkpt>
      <trkpt lon="-117.328855" lat="33.972944"><ele>324.438002</ele><time>2024-02-08T19:10:20Z</time><extensions><speed>0.038853</speed><course>348.377014</course><hAcc>1.312428</hAcc><vAcc>0.717281</vAcc></extensions></trkpt>
      <trkpt lon="-117.328855" lat="33.972945"><ele>324.437634</ele><time>2024-02-08T19:10:21Z</time><extensions><speed>0.055661</speed><course>349.377684</course><hAcc>1.286786</hAcc><vAcc>0.719054</vAcc></extensions></trkpt>
      <trkpt lon="-117.328855" lat="33.972947"><ele>324.434850</ele><time>2024-02-08T19:10:22Z</time><extensions><speed>0.060432</speed><course>349.997175</course><hAcc>1.271943</hAcc><vAcc>0.720715</vAcc></extensions></trkpt>
      <trkpt lon="-117.328856" lat="33.972948"><ele>324.429770</ele><time>2024-02-08T19:10:23Z</time><extensions><speed>0.068446</speed><course>350.421254</course><hAcc>1.260475</hAcc><vAcc>0.722170</vAcc></extensions></trkpt>
      <trkpt lon="-117.328856" lat="33.972950"><ele>324.422571</ele><time>2024-02-08T19:10:24Z</time><extensions><speed>0.082038</speed><course>350.717363</course><hAcc>1.251571</hAcc><vAcc>0.723384</vAcc></extensions></trkpt>
      <trkpt lon="-117.328856" lat="33.972951"><ele>324.413453</ele><time>2024-02-08T19:10:25Z</time><extensions><speed>0.093469</speed><course>350.932347</course><hAcc>1.247803</hAcc><vAcc>0.724364</vAcc></extensions></trkpt>
      <trkpt lon="-117.328856" lat="33.972952"><ele>324.402640</ele><time>2024-02-08T19:10:26Z</time><extensions><speed>0.104219</speed><course>351.095603</course><hAcc>1.248321</hAcc><vAcc>0.725085</vAcc></extensions></trkpt>
      <trkpt lon="-117.328857" lat="33.972953"><ele>324.389602</ele><time>2024-02-08T19:10:27Z</time><extensions><speed>0.122720</speed><course>348.459686</course><hAcc>1.251788</hAcc><vAcc>0.725482</vAcc></extensions></trkpt>
      <trkpt lon="-117.328858" lat="33.972955"><ele>324.375327</ele><time>2024-02-08T19:10:28Z</time><extensions><speed>0.133881</speed><course>346.232670</course><hAcc>1.257131</hAcc><vAcc>0.725564</vAcc></extensions></trkpt>
      <trkpt lon="-117.328860" lat="33.972957"><ele>324.360259</ele><time>2024-02-08T19:10:29Z</time><extensions><speed>0.450349</speed><course>343.722369</course><hAcc>1.223831</hAcc><vAcc>0.725300</vAcc></extensions></trkpt>
      <trkpt lon="-117.328862" lat="33.972961"><ele>324.344902</ele><time>2024-02-08T19:10:30Z</time><extensions><speed>0.331515</speed><course>340.398967</course><hAcc>1.260180</hAcc><vAcc>0.724677</vAcc></extensions></trkpt>
      <trkpt lon="-117.328864" lat="33.972964"><ele>324.333783</ele><time>2024-02-08T19:10:31Z</time><extensions><speed>0.211628</speed><course>333.936440</course><hAcc>1.288118</hAcc><vAcc>0.723797</vAcc></extensions></trkpt>
      <trkpt lon="-117.328866" lat="33.972965"><ele>324.324321</ele><time>2024-02-08T19:10:32Z</time><extensions><speed>0.176438</speed><course>325.652909</course><hAcc>1.290758</hAcc><vAcc>0.722758</vAcc></extensions></trkpt>
      <trkpt lon="-117.328868" lat="33.972967"><ele>324.316710</ele><time>2024-02-08T19:10:33Z</time><extensions><speed>0.184686</speed><course>316.961735</course><hAcc>1.284519</hAcc><vAcc>0.721634</vAcc></extensions></trkpt>
      <trkpt lon="-117.328870" lat="33.972968"><ele>324.311161</ele><time>2024-02-08T19:10:34Z</time><extensions><speed>0.145452</speed><course>308.203585</course><hAcc>1.290943</hAcc><vAcc>0.720476</vAcc></extensions></trkpt>
      <trkpt lon="-117.328871" lat="33.972969"><ele>324.307763</ele><time>2024-02-08T19:10:35Z</time><extensions><speed>0.129738</speed><course>299.387589</course><hAcc>1.294272</hAcc><vAcc>0.719344</vAcc></extensions></trkpt>
      <trkpt lon="-117.328873" lat="33.972970"><ele>324.298093</ele><time>2024-02-08T19:10:36Z</time><extensions><speed>0.138088</speed><course>292.614009</course><hAcc>1.292998</hAcc><vAcc>0.718187</vAcc></extensions></trkpt>
      <trkpt lon="-117.328876" lat="33.972971"><ele>324.286925</ele><time>2024-02-08T19:10:37Z</time><extensions><speed>0.306546</speed><course>290.426448</course><hAcc>1.269830</hAcc><vAcc>0.716954</vAcc></extensions></trkpt>
      <trkpt lon="-117.328878" lat="33.972971"><ele>324.278248</ele><time>2024-02-08T19:10:38Z</time><extensions><speed>0.153431</speed><course>289.942279</course><hAcc>1.308731</hAcc><vAcc>0.715790</vAcc></extensions></trkpt>
      <trkpt lon="-117.328880" lat="33.972972"><ele>324.272795</ele><time>2024-02-08T19:10:39Z</time><extensions><speed>0.144664</speed><course>290.229368</course><hAcc>1.320689</hAcc><vAcc>0.714558</vAcc></extensions></trkpt>
      <trkpt lon="-117.328882" lat="33.972973"><ele>324.269624</ele><time>2024-02-08T19:10:40Z</time><extensions><speed>0.157612</speed><course>291.410882</course><hAcc>1.326921</hAcc><vAcc>0.713280</vAcc></extensions></trkpt>
      <trkpt lon="-117.328884" lat="33.972974"><ele>324.267182</ele><time>2024-02-08T19:10:41Z</time><extensions><speed>0.358032</speed><course>293.144628</course><hAcc>1.311619</hAcc><vAcc>0.711939</vAcc></extensions></trkpt>
      <trkpt lon="-117.328887" lat="33.972975"><ele>324.265230</ele><time>2024-02-08T19:10:42Z</time><extensions><speed>0.169116</speed><course>295.887553</course><hAcc>1.385674</hAcc><vAcc>0.710416</vAcc></extensions></trkpt>
      <trkpt lon="-117.328888" lat="33.972976"><ele>324.263517</ele><time>2024-02-08T19:10:43Z</time><extensions><speed>0.100361</speed><course>300.695932</course><hAcc>1.426355</hAcc><vAcc>0.708689</vAcc></extensions></trkpt>
      <trkpt lon="-117.328889" lat="33.972976"><ele>324.262074</ele><time>2024-02-08T19:10:44Z</time><extensions><speed>0.088234</speed><course>307.266757</course><hAcc>1.452451</hAcc><vAcc>0.706624</vAcc></extensions></trkpt>
      <trkpt lon="-117.328890" lat="33.972977"><ele>324.260978</ele><time>2024-02-08T19:10:45Z</time><extensions><speed>0.099261</speed><course>316.714543</course><hAcc>1.474111</hAcc><vAcc>0.704341</vAcc></extensions></trkpt>
      <trkpt lon="-117.328892" lat="33.972979"><ele>324.260648</ele><time>2024-02-08T19:10:46Z</time><extensions><speed>0.410954</speed><course>322.467514</course><hAcc>1.436939</hAcc><vAcc>0.701757</vAcc></extensions></trkpt>
      <trkpt lon="-117.328895" lat="33.972982"><ele>324.261495</ele><time>2024-02-08T19:10:47Z</time><extensions><speed>0.530389</speed><course>324.662290</course><hAcc>1.465637</hAcc><vAcc>0.698949</vAcc></extensions></trkpt>
      <trkpt lon="-117.328899" lat="33.972987"><ele>324.259714</ele><time>2024-02-08T19:10:48Z</time><extensions><speed>0.559408</speed><course>324.203419</course><hAcc>1.492944</hAcc><vAcc>0.696131</vAcc></extensions></trkpt>
      <trkpt lon="-117.328903" lat="33.972991"><ele>324.257596</ele><time>2024-02-08T19:10:49Z</time><extensions><speed>0.484065</speed><course>327.581873</course><hAcc>1.499319</hAcc><vAcc>0.693362</vAcc></extensions></trkpt>
      <trkpt lon="-117.328906" lat="33.972994"><ele>324.254868</ele><time>2024-02-08T19:10:50Z</time><extensions><speed>0.221304</speed><course>327.547480</course><hAcc>1.506514</hAcc><vAcc>0.690662</vAcc></extensions></trkpt>
      <trkpt lon="-117.328907" lat="33.972995"><ele>324.251171</ele><time>2024-02-08T19:10:51Z</time><extensions><speed>0.093982</speed><course>324.954165</course><hAcc>1.483664</hAcc><vAcc>0.688152</vAcc></extensions></trkpt>
      <trkpt lon="-117.328908" lat="33.972996"><ele>324.246176</ele><time>2024-02-08T19:10:52Z</time><extensions><speed>0.063423</speed><course>319.702653</course><hAcc>1.447735</hAcc><vAcc>0.686007</vAcc></extensions></trkpt>
      <trkpt lon="-117.328909" lat="33.972996"><ele>324.239629</ele><time>2024-02-08T19:10:53Z</time><extensions><speed>0.057603</speed><course>313.842635</course><hAcc>1.414826</hAcc><vAcc>0.684446</vAcc></extensions></trkpt>
      <trkpt lon="-117.328910" lat="33.972997"><ele>324.231402</ele><time>2024-02-08T19:10:54Z</time><extensions><speed>0.062563</speed><course>308.436796</course><hAcc>1.386891</hAcc><vAcc>0.683724</vAcc></extensions></trkpt>
      <trkpt lon="-117.328910" lat="33.972997"><ele>324.234538</ele><time>2024-02-08T19:10:55Z</time><extensions><speed>0.049840</speed><course>308.881762</course><hAcc>1.373729</hAcc><vAcc>0.684107</vAcc></extensions></trkpt>
      <trkpt lon="-117.328910" lat="33.972997"><ele>324.244032</ele><time>2024-02-08T19:10:56Z</time><extensions><speed>0.052588</speed><course>304.441448</course><hAcc>1.360443</hAcc><vAcc>0.685730</vAcc></extensions></trkpt>
      <trkpt lon="-117.328911" lat="33.972997"><ele>324.258578</ele><time>2024-02-08T19:10:57Z</time><extensions><speed>0.070571</speed><course>298.662266</course><hAcc>1.342507</hAcc><vAcc>0.688660</vAcc></extensions></trkpt>
      <trkpt lon="-117.328912" lat="33.972998"><ele>324.277462</ele><time>2024-02-08T19:10:58Z</time><extensions><speed>0.172445</speed><course>292.607664</course><hAcc>1.290033</hAcc><vAcc>0.692652</vAcc></extensions></trkpt>
      <trkpt lon="-117.328913" lat="33.972998"><ele>324.301866</ele><time>2024-02-08T19:10:59Z</time><extensions><speed>0.077322</speed><course>286.598147</course><hAcc>1.324529</hAcc><vAcc>0.697169</vAcc></extensions></trkpt>
      <trkpt lon="-117.328913" lat="33.972998"><ele>324.325907</ele><time>2024-02-08T19:11:00Z</time><extensions><speed>0.029636</speed><course>277.608542</course><hAcc>1.342448</hAcc><vAcc>0.702165</vAcc></extensions></trkpt>
      <trkpt lon="-117.328913" lat="33.972997"><ele>324.357221</ele><time>2024-02-08T19:11:01Z</time><extensions><speed>0.011956</speed><course>241.574952</course><hAcc>1.344842</hAcc><vAcc>0.707363</vAcc></extensions></trkpt>
      <trkpt lon="-117.328913" lat="33.972997"><ele>324.388676</ele><time>2024-02-08T19:11:02Z</time><extensions><speed>0.011229</speed><course>149.243684</course><hAcc>1.361408</hAcc><vAcc>0.712311</vAcc></extensions></trkpt>
      <trkpt lon="-117.328913" lat="33.972997"><ele>324.422024</ele><time>2024-02-08T19:11:03Z</time><extensions><speed>0.019752</speed><course>123.926202</course><hAcc>1.380089</hAcc><vAcc>0.716806</vAcc></extensions></trkpt>
      <trkpt lon="-117.328912" lat="33.972997"><ele>324.458908</ele><time>2024-02-08T19:11:04Z</time><extensions><speed>0.039812</speed><course>122.952939</course><hAcc>1.394388</hAcc><vAcc>0.720627</vAcc></extensions></trkpt>
      <trkpt lon="-117.328911" lat="33.972996"><ele>324.503102</ele><time>2024-02-08T19:11:05Z</time><extensions><speed>0.211577</speed><course>131.403486</course><hAcc>1.378595</hAcc><vAcc>0.723617</vAcc></extensions></trkpt>
      <trkpt lon="-117.328909" lat="33.972994"><ele>324.547309</ele><time>2024-02-08T19:11:06Z</time><extensions><speed>0.346662</speed><course>137.274492</course><hAcc>1.445856</hAcc><vAcc>0.725831</vAcc></extensions></trkpt>
      <trkpt lon="-117.328907" lat="33.972992"><ele>324.590626</ele><time>2024-02-08T19:11:07Z</time><extensions><speed>0.260175</speed><course>140.803014</course><hAcc>1.580917</hAcc><vAcc>0.727473</vAcc></extensions></trkpt>
      <trkpt lon="-117.328905" lat="33.972989"><ele>324.632072</ele><time>2024-02-08T19:11:08Z</time><extensions><speed>0.434956</speed><course>144.996609</course><hAcc>1.618669</hAcc><vAcc>0.728735</vAcc></extensions></trkpt>
      <trkpt lon="-117.328902" lat="33.972986"><ele>324.671066</ele><time>2024-02-08T19:11:09Z</time><extensions><speed>0.545261</speed><course>148.278828</course><hAcc>1.667619</hAcc><vAcc>0.729934</vAcc></extensions></trkpt>
      <trkpt lon="-117.328899" lat="33.972981"><ele>324.707411</ele><time>2024-02-08T19:11:10Z</time><extensions><speed>0.555676</speed><course>150.601940</course><hAcc>1.724280</hAcc><vAcc>0.731320</vAcc></extensions></trkpt>
      <trkpt lon="-117.328896" lat="33.972977"><ele>324.741154</ele><time>2024-02-08T19:11:11Z</time><extensions><speed>0.481421</speed><course>151.971116</course><hAcc>1.764552</hAcc><vAcc>0.732993</vAcc></extensions></trkpt>
      <trkpt lon="-117.328894" lat="33.972973"><ele>324.772456</ele><time>2024-02-08T19:11:12Z</time><extensions><speed>0.436694</speed><course>153.909689</course><hAcc>1.769244</hAcc><vAcc>0.734945</vAcc></extensions></trkpt>
      <trkpt lon="-117.328891" lat="33.972969"><ele>324.801507</ele><time>2024-02-08T19:11:13Z</time><extensions><speed>0.497962</speed><course>158.285790</course><hAcc>1.731644</hAcc><vAcc>0.737114</vAcc></extensions></trkpt>
      <trkpt lon="-117.328889" lat="33.972964"><ele>324.828418</ele><time>2024-02-08T19:11:14Z</time><extensions><speed>0.630682</speed><course>161.735968</course><hAcc>1.646521</hAcc><vAcc>0.739453</vAcc></extensions></trkpt>
      <trkpt lon="-117.328887" lat="33.972958"><ele>324.853111</ele><time>2024-02-08T19:11:15Z</time><extensions><speed>0.712383</speed><course>163.691779</course><hAcc>1.539590</hAcc><vAcc>0.741929</vAcc></extensions></trkpt>
      <trkpt lon="-117.328885" lat="33.972954"><ele>324.875423</ele><time>2024-02-08T19:11:16Z</time><extensions><speed>0.332554</speed><course>162.194191</course><hAcc>1.501834</hAcc><vAcc>0.744543</vAcc></extensions></trkpt>
      <trkpt lon="-117.328884" lat="33.972951"><ele>324.895237</ele><time>2024-02-08T19:11:17Z</time><extensions><speed>0.155344</speed><course>161.063771</course><hAcc>1.454571</hAcc><vAcc>0.747233</vAcc></extensions></trkpt>
      <trkpt lon="-117.328884" lat="33.972950"><ele>324.912572</ele><time>2024-02-08T19:11:18Z</time><extensions><speed>0.086890</speed><course>160.480353</course><hAcc>1.401047</hAcc><vAcc>0.749971</vAcc></extensions></trkpt>
      <trkpt lon="-117.328884" lat="33.972949"><ele>324.927515</ele><time>2024-02-08T19:11:19Z</time><extensions><speed>0.057562</speed><course>160.300275</course><hAcc>1.353543</hAcc><vAcc>0.752683</vAcc></extensions></trkpt>
      <trkpt lon="-117.328883" lat="33.972949"><ele>324.940200</ele><time>2024-02-08T19:11:20Z</time><extensions><speed>0.039465</speed><course>160.262971</course><hAcc>1.315778</hAcc><vAcc>0.755254</vAcc></extensions></trkpt>
      <trkpt lon="-117.328883" lat="33.972948"><ele>324.950822</ele><time>2024-02-08T19:11:21Z</time><extensions><speed>0.029950</speed><course>160.257013</course><hAcc>1.283658</hAcc><vAcc>0.757665</vAcc></extensions></trkpt>
      <trkpt lon="-117.328883" lat="33.972948"><ele>324.959563</ele><time>2024-02-08T19:11:22Z</time><extensions><speed>0.024743</speed><course>160.256274</course><hAcc>1.255765</hAcc><vAcc>0.759806</vAcc></extensions></trkpt>
      <trkpt lon="-117.328883" lat="33.972948"><ele>324.966609</ele><time>2024-02-08T19:11:23Z</time><extensions><speed>0.021271</speed><course>160.256196</course><hAcc>1.231994</hAcc><vAcc>0.761558</vAcc></extensions></trkpt>
      <trkpt lon="-117.328881" lat="33.972946"><ele>324.966744</ele><time>2024-02-08T19:11:24Z</time><extensions><speed>0.030452</speed><course>147.753478</course><hAcc>1.211590</hAcc><vAcc>0.762905</vAcc></extensions></trkpt>
      <trkpt lon="-117.328880" lat="33.972945"><ele>324.964728</ele><time>2024-02-08T19:11:25Z</time><extensions><speed>0.042423</speed><course>141.172398</course><hAcc>1.194254</hAcc><vAcc>0.764003</vAcc></extensions></trkpt>
      <trkpt lon="-117.328878" lat="33.972943"><ele>324.962165</ele><time>2024-02-08T19:11:26Z</time><extensions><speed>0.058475</speed><course>141.630719</course><hAcc>1.181572</hAcc><vAcc>0.764809</vAcc></extensions></trkpt>
      <trkpt lon="-117.328876" lat="33.972941"><ele>324.962367</ele><time>2024-02-08T19:11:27Z</time><extensions><speed>0.083317</speed><course>143.012635</course><hAcc>1.171704</hAcc><vAcc>0.765279</vAcc></extensions></trkpt>
      <trkpt lon="-117.328874" lat="33.972938"><ele>324.959123</ele><time>2024-02-08T19:11:28Z</time><extensions><speed>0.112707</speed><course>143.866529</course><hAcc>1.166061</hAcc><vAcc>0.765347</vAcc></extensions></trkpt>
      <trkpt lon="-117.328873" lat="33.972936"><ele>324.954835</ele><time>2024-02-08T19:11:29Z</time><extensions><speed>0.135801</speed><course>144.328243</course><hAcc>1.165721</hAcc><vAcc>0.765316</vAcc></extensions></trkpt>
      <trkpt lon="-117.328871" lat="33.972934"><ele>324.949731</ele><time>2024-02-08T19:11:30Z</time><extensions><speed>0.148987</speed><course>144.564762</course><hAcc>1.170558</hAcc><vAcc>0.765253</vAcc></extensions></trkpt>
      <trkpt lon="-117.328870" lat="33.972932"><ele>324.944008</ele><time>2024-02-08T19:11:31Z</time><extensions><speed>0.150711</speed><course>144.684261</course><hAcc>1.179377</hAcc><vAcc>0.765215</vAcc></extensions></trkpt>
      <trkpt lon="-117.328868" lat="33.972930"><ele>324.927203</ele><time>2024-02-08T19:11:32Z</time><extensions><speed>0.191171</speed><course>145.601466</course><hAcc>1.187991</hAcc><vAcc>0.765233</vAcc></extensions></trkpt>
      <trkpt lon="-117.328867" lat="33.972927"><ele>324.905369</ele><time>2024-02-08T19:11:33Z</time><extensions><speed>0.259778</speed><course>146.355885</course><hAcc>1.198151</hAcc><vAcc>0.765163</vAcc></extensions></trkpt>
      <trkpt lon="-117.328863" lat="33.972923"><ele>324.883297</ele><time>2024-02-08T19:11:34Z</time><extensions><speed>0.842228</speed><course>147.694786</course><hAcc>1.196555</hAcc><vAcc>0.765075</vAcc></extensions></trkpt>
      <trkpt lon="-117.328860" lat="33.972918"><ele>324.859400</ele><time>2024-02-08T19:11:35Z</time><extensions><speed>0.310214</speed><course>150.551817</course><hAcc>1.280672</hAcc><vAcc>0.764899</vAcc></extensions></trkpt>
      <trkpt lon="-117.328857" lat="33.972914"><ele>324.833971</ele><time>2024-02-08T19:11:36Z</time><extensions><speed>0.877166</speed><course>152.932803</course><hAcc>1.275112</hAcc><vAcc>0.764744</vAcc></extensions></trkpt>
      <trkpt lon="-117.328854" lat="33.972908"><ele>324.807013</ele><time>2024-02-08T19:11:37Z</time><extensions><speed>0.597397</speed><course>154.052228</course><hAcc>1.332359</hAcc><vAcc>0.764619</vAcc></extensions></trkpt>
      <trkpt lon="-117.328850" lat="33.972901"><ele>324.778577</ele><time>2024-02-08T19:11:38Z</time><extensions><speed>1.078646</speed><course>155.088528</course><hAcc>1.324626</hAcc><vAcc>0.764559</vAcc></extensions></trkpt>
      <trkpt lon="-117.328846" lat="33.972894"><ele>324.748864</ele><time>2024-02-08T19:11:39Z</time><extensions><speed>0.577935</speed><course>156.239511</course><hAcc>1.405748</hAcc><vAcc>0.764639</vAcc></extensions></trkpt>
      <trkpt lon="-117.328844" lat="33.972890"><ele>324.718220</ele><time>2024-02-08T19:11:40Z</time><extensions><speed>0.262346</speed><course>158.600918</course><hAcc>1.457480</hAcc><vAcc>0.764942</vAcc></extensions></trkpt>
      <trkpt lon="-117.328843" lat="33.972888"><ele>324.687160</ele><time>2024-02-08T19:11:41Z</time><extensions><speed>0.178571</speed><course>162.945074</course><hAcc>1.463769</hAcc><vAcc>0.765455</vAcc></extensions></trkpt>
      <trkpt lon="-117.328843" lat="33.972886"><ele>324.656375</ele><time>2024-02-08T19:11:42Z</time><extensions><speed>0.362560</speed><course>166.363105</course><hAcc>1.390279</hAcc><vAcc>0.766214</vAcc></extensions></trkpt>
      <trkpt lon="-117.328842" lat="33.972883"><ele>324.626655</ele><time>2024-02-08T19:11:43Z</time><extensions><speed>0.288260</speed><course>168.665913</course><hAcc>1.352772</hAcc><vAcc>0.767255</vAcc></extensions></trkpt>
      <trkpt lon="-117.328842" lat="33.972881"><ele>324.598662</ele><time>2024-02-08T19:11:44Z</time><extensions><speed>0.119808</speed><course>171.583008</course><hAcc>1.365904</hAcc><vAcc>0.768627</vAcc></extensions></trkpt>
      <trkpt lon="-117.328841" lat="33.972880"><ele>324.572810</ele><time>2024-02-08T19:11:45Z</time><extensions><speed>0.047243</speed><course>174.423438</course><hAcc>1.353550</hAcc><vAcc>0.770375</vAcc></extensions></trkpt>
      <trkpt lon="-117.328841" lat="33.972880"><ele>324.549347</ele><time>2024-02-08T19:11:46Z</time><extensions><speed>0.020792</speed><course>176.283980</course><hAcc>1.326850</hAcc><vAcc>0.772461</vAcc></extensions></trkpt>
      <trkpt lon="-117.328841" lat="33.972880"><ele>324.528374</ele><time>2024-02-08T19:11:47Z</time><extensions><speed>0.012770</speed><course>176.929702</course><hAcc>1.294991</hAcc><vAcc>0.774834</vAcc></extensions></trkpt>
      <trkpt lon="-117.328841" lat="33.972880"><ele>324.509886</ele><time>2024-02-08T19:11:48Z</time><extensions><speed>0.010922</speed><course>177.045358</course><hAcc>1.260947</hAcc><vAcc>0.777442</vAcc></extensions></trkpt>
      <trkpt lon="-117.328841" lat="33.972880"><ele>324.493819</ele><time>2024-02-08T19:11:49Z</time><extensions><speed>0.008971</speed><course>177.059612</course><hAcc>1.232684</hAcc><vAcc>0.780173</vAcc></extensions></trkpt>
      <trkpt lon="-117.328841" lat="33.972880"><ele>324.480053</ele><time>2024-02-08T19:11:50Z</time><extensions><speed>0.006718</speed><course>177.061308</course><hAcc>1.210918</hAcc><vAcc>0.782923</vAcc></extensions></trkpt>
      <trkpt lon="-117.328841" lat="33.972879"><ele>324.468425</ele><time>2024-02-08T19:11:51Z</time><extensions><speed>0.006002</speed><course>177.061494</course><hAcc>1.189458</hAcc><vAcc>0.785621</vAcc></extensions></trkpt>
      <trkpt lon="-117.328841" lat="33.972879"><ele>324.458753</ele><time>2024-02-08T19:11:52Z</time><extensions><speed>0.005463</speed><course>177.061510</course><hAcc>1.170669</hAcc><vAcc>0.788202</vAcc></extensions></trkpt>
      <trkpt lon="-117.328841" lat="33.972879"><ele>324.450847</ele><time>2024-02-08T19:11:53Z</time><extensions><speed>0.004984</speed><course>177.061512</course><hAcc>1.154563</hAcc><vAcc>0.790623</vAcc></extensions></trkpt>
      <trkpt lon="-117.328841" lat="33.972879"><ele>324.444511</ele><time>2024-02-08T19:11:54Z</time><extensions><speed>0.004547</speed><course>177.061512</course><hAcc>1.140783</hAcc><vAcc>0.792862</vAcc></extensions></trkpt>
      <trkpt lon="-117.328841" lat="33.972879"><ele>324.439552</ele><time>2024-02-08T19:11:55Z</time><extensions><speed>0.004098</speed><course>177.061512</course><hAcc>1.129468</hAcc><vAcc>0.794912</vAcc></extensions></trkpt>
      <trkpt lon="-117.328841" lat="33.972879"><ele>324.435787</ele><time>2024-02-08T19:11:56Z</time><extensions><speed>0.003011</speed><course>177.061512</course><hAcc>1.122917</hAcc><vAcc>0.796766</vAcc></extensions></trkpt>
      <trkpt lon="-117.328842" lat="33.972882"><ele>324.439635</ele><time>2024-02-08T19:11:57Z</time><extensions><speed>0.022769</speed><course>351.521093</course><hAcc>1.111100</hAcc><vAcc>0.798319</vAcc></extensions></trkpt>
      <trkpt lon="-117.328842" lat="33.972885"><ele>324.445329</ele><time>2024-02-08T19:11:58Z</time><extensions><speed>0.049404</speed><course>351.976423</course><hAcc>1.105643</hAcc><vAcc>0.799534</vAcc></extensions></trkpt>
      <trkpt lon="-117.328843" lat="33.972887"><ele>324.452793</ele><time>2024-02-08T19:11:59Z</time><extensions><speed>0.075063</speed><course>352.112443</course><hAcc>1.102962</hAcc><vAcc>0.800400</vAcc></extensions></trkpt>
      <trkpt lon="-117.328843" lat="33.972890"><ele>324.461858</ele><time>2024-02-08T19:12:00Z</time><extensions><speed>0.100471</speed><course>352.177863</course><hAcc>1.102268</hAcc><vAcc>0.800904</vAcc></extensions></trkpt>
      <trkpt lon="-117.328843" lat="33.972892"><ele>324.472393</ele><time>2024-02-08T19:12:01Z</time><extensions><speed>0.126007</speed><course>352.216163</course><hAcc>1.103492</hAcc><vAcc>0.801005</vAcc></extensions></trkpt>
      <trkpt lon="-117.328844" lat="33.972895"><ele>324.479801</ele><time>2024-02-08T19:12:02Z</time><extensions><speed>0.153249</speed><course>351.292117</course><hAcc>1.107018</hAcc><vAcc>0.800509</vAcc></extensions></trkpt>
      <trkpt lon="-117.328845" lat="33.972898"><ele>324.487872</ele><time>2024-02-08T19:12:03Z</time><extensions><speed>0.182747</speed><course>350.688853</course><hAcc>1.112764</hAcc><vAcc>0.799648</vAcc></extensions></trkpt>
      <trkpt lon="-117.328845" lat="33.972901"><ele>324.493878</ele><time>2024-02-08T19:12:04Z</time><extensions><speed>0.215127</speed><course>350.996181</course><hAcc>1.121936</hAcc><vAcc>0.798497</vAcc></extensions></trkpt>
      <trkpt lon="-117.328846" lat="33.972904"><ele>324.499555</ele><time>2024-02-08T19:12:05Z</time><extensions><speed>0.252525</speed><course>351.183952</course><hAcc>1.134255</hAcc><vAcc>0.796932</vAcc></extensions></trkpt>
      <trkpt lon="-117.328847" lat="33.972908"><ele>324.503728</ele><time>2024-02-08T19:12:06Z</time><extensions><speed>0.361152</speed><course>351.210861</course><hAcc>1.144021</hAcc><vAcc>0.794872</vAcc></extensions></trkpt>
      <trkpt lon="-117.328848" lat="33.972916"><ele>324.508480</ele><time>2024-02-08T19:12:07Z</time><extensions><speed>1.331505</speed><course>351.100406</course><hAcc>1.131454</hAcc><vAcc>0.792303</vAcc></extensions></trkpt>
      <trkpt lon="-117.328850" lat="33.972924"><ele>324.514758</ele><time>2024-02-08T19:12:08Z</time><extensions><speed>0.433402</speed><course>350.764810</course><hAcc>1.231772</hAcc><vAcc>0.789112</vAcc></extensions></trkpt>
      <trkpt lon="-117.328851" lat="33.972928"><ele>324.520575</ele><time>2024-02-08T19:12:09Z</time><extensions><speed>0.388305</speed><course>350.193567</course><hAcc>1.257771</hAcc><vAcc>0.785445</vAcc></extensions></trkpt>
      <trkpt lon="-117.328851" lat="33.972931"><ele>324.522480</ele><time>2024-02-08T19:12:10Z</time><extensions><speed>0.259346</speed><course>349.594318</course><hAcc>1.289395</hAcc><vAcc>0.781411</vAcc></extensions></trkpt>
      <trkpt lon="-117.328852" lat="33.972934"><ele>324.524760</ele><time>2024-02-08T19:12:11Z</time><extensions><speed>0.267094</speed><course>349.193513</course><hAcc>1.308852</hAcc><vAcc>0.777115</vAcc></extensions></trkpt>
      <trkpt lon="-117.328853" lat="33.972939"><ele>324.522092</ele><time>2024-02-08T19:12:12Z</time><extensions><speed>1.025022</speed><course>349.712194</course><hAcc>1.303263</hAcc><vAcc>0.772213</vAcc></extensions></trkpt>
      <trkpt lon="-117.328855" lat="33.972947"><ele>324.517885</ele><time>2024-02-08T19:12:13Z</time><extensions><speed>0.661025</speed><course>350.961452</course><hAcc>1.421394</hAcc><vAcc>0.767087</vAcc></extensions></trkpt>
      <trkpt lon="-117.328856" lat="33.972953"><ele>324.514143</ele><time>2024-02-08T19:12:14Z</time><extensions><speed>0.851092</speed><course>351.514045</course><hAcc>1.489526</hAcc><vAcc>0.761198</vAcc></extensions></trkpt>
      <trkpt lon="-117.328857" lat="33.972960"><ele>324.512130</ele><time>2024-02-08T19:12:15Z</time><extensions><speed>0.552568</speed><course>350.393423</course><hAcc>1.589526</hAcc><vAcc>0.754817</vAcc></extensions></trkpt>
      <trkpt lon="-117.328858" lat="33.972966"><ele>324.506955</ele><time>2024-02-08T19:12:16Z</time><extensions><speed>0.824024</speed><course>348.701012</course><hAcc>1.605934</hAcc><vAcc>0.748175</vAcc></extensions></trkpt>
      <trkpt lon="-117.328860" lat="33.972972"><ele>324.501839</ele><time>2024-02-08T19:12:17Z</time><extensions><speed>0.706395</speed><course>347.435462</course><hAcc>1.671237</hAcc><vAcc>0.741297</vAcc></extensions></trkpt>
      <trkpt lon="-117.328861" lat="33.972978"><ele>324.497054</ele><time>2024-02-08T19:12:18Z</time><extensions><speed>0.454089</speed><course>347.874942</course><hAcc>1.747254</hAcc><vAcc>0.734410</vAcc></extensions></trkpt>
      <trkpt lon="-117.328862" lat="33.972980"><ele>324.498658</ele><time>2024-02-08T19:12:19Z</time><extensions><speed>0.186653</speed><course>356.765318</course><hAcc>1.796393</hAcc><vAcc>0.727821</vAcc></extensions></trkpt>
      <trkpt lon="-117.328861" lat="33.972981"><ele>324.500640</ele><time>2024-02-08T19:12:20Z</time><extensions><speed>0.075746</speed><course>114.199207</course><hAcc>1.811216</hAcc><vAcc>0.721776</vAcc></extensions></trkpt>
      <trkpt lon="-117.328860" lat="33.972980"><ele>324.504310</ele><time>2024-02-08T19:12:21Z</time><extensions><speed>0.221192</speed><course>146.124106</course><hAcc>1.801198</hAcc><vAcc>0.716639</vAcc></extensions></trkpt>
      <trkpt lon="-117.328859" lat="33.972978"><ele>324.509898</ele><time>2024-02-08T19:12:22Z</time><extensions><speed>0.277666</speed><course>149.213617</course><hAcc>1.817544</hAcc><vAcc>0.712632</vAcc></extensions></trkpt>
      <trkpt lon="-117.328857" lat="33.972976"><ele>324.516909</ele><time>2024-02-08T19:12:23Z</time><extensions><speed>0.196699</speed><course>146.633944</course><hAcc>1.862652</hAcc><vAcc>0.709929</vAcc></extensions></trkpt>
      <trkpt lon="-117.328856" lat="33.972974"><ele>324.529777</ele><time>2024-02-08T19:12:24Z</time><extensions><speed>0.362658</speed><course>142.530081</course><hAcc>1.792274</hAcc><vAcc>0.708395</vAcc></extensions></trkpt>
      <trkpt lon="-117.328853" lat="33.972971"><ele>324.546560</ele><time>2024-02-08T19:12:25Z</time><extensions><speed>0.347489</speed><course>138.899539</course><hAcc>1.774138</hAcc><vAcc>0.707376</vAcc></extensions></trkpt>
      <trkpt lon="-117.328851" lat="33.972969"><ele>324.568722</ele><time>2024-02-08T19:12:26Z</time><extensions><speed>0.229778</speed><course>135.050207</course><hAcc>1.803341</hAcc><vAcc>0.707338</vAcc></extensions></trkpt>
      <trkpt lon="-117.328849" lat="33.972967"><ele>324.597022</ele><time>2024-02-08T19:12:27Z</time><extensions><speed>0.297167</speed><course>136.144113</course><hAcc>1.751493</hAcc><vAcc>0.707585</vAcc></extensions></trkpt>
      <trkpt lon="-117.328847" lat="33.972965"><ele>324.628758</ele><time>2024-02-08T19:12:28Z</time><extensions><speed>0.314965</speed><course>145.322227</course><hAcc>1.707040</hAcc><vAcc>0.707533</vAcc></extensions></trkpt>
      <trkpt lon="-117.328845" lat="33.972963"><ele>324.663454</ele><time>2024-02-08T19:12:29Z</time><extensions><speed>0.315912</speed><course>158.670570</course><hAcc>1.692358</hAcc><vAcc>0.706704</vAcc></extensions></trkpt>
      <trkpt lon="-117.328845" lat="33.972960"><ele>324.700479</ele><time>2024-02-08T19:12:30Z</time><extensions><speed>0.298354</speed><course>168.291104</course><hAcc>1.716264</hAcc><vAcc>0.704806</vAcc></extensions></trkpt>
      <trkpt lon="-117.328844" lat="33.972958"><ele>324.739315</ele><time>2024-02-08T19:12:31Z</time><extensions><speed>0.184634</speed><course>173.796817</course><hAcc>1.780721</hAcc><vAcc>0.701689</vAcc></extensions></trkpt>
      <trkpt lon="-117.328844" lat="33.972956"><ele>324.779473</ele><time>2024-02-08T19:12:32Z</time><extensions><speed>0.178295</speed><course>177.232832</course><hAcc>1.792894</hAcc><vAcc>0.697416</vAcc></extensions></trkpt>
      <trkpt lon="-117.328844" lat="33.972954"><ele>324.820407</ele><time>2024-02-08T19:12:33Z</time><extensions><speed>0.315552</speed><course>179.545654</course><hAcc>1.724127</hAcc><vAcc>0.692205</vAcc></extensions></trkpt>
      <trkpt lon="-117.328844" lat="33.972952"><ele>324.861489</ele><time>2024-02-08T19:12:34Z</time><extensions><speed>0.248070</speed><course>181.814504</course><hAcc>1.658028</hAcc><vAcc>0.686478</vAcc></extensions></trkpt>
      <trkpt lon="-117.328844" lat="33.972950"><ele>324.902002</ele><time>2024-02-08T19:12:35Z</time><extensions><speed>0.069176</speed><course>195.119418</course><hAcc>1.604000</hAcc><vAcc>0.680811</vAcc></extensions></trkpt>
      <trkpt lon="-117.328844" lat="33.972950"><ele>324.941163</ele><time>2024-02-08T19:12:36Z</time><extensions><speed>0.084112</speed><course>338.836849</course><hAcc>1.555915</hAcc><vAcc>0.675766</vAcc></extensions></trkpt>
      <trkpt lon="-117.328845" lat="33.972953"><ele>324.975703</ele><time>2024-02-08T19:12:37Z</time><extensions><speed>0.066235</speed><course>341.356476</course><hAcc>1.566374</hAcc><vAcc>0.671713</vAcc></extensions></trkpt>
      <trkpt lon="-117.328846" lat="33.972955"><ele>325.005252</ele><time>2024-02-08T19:12:38Z</time><extensions><speed>0.054378</speed><course>343.236417</course><hAcc>1.531136</hAcc><vAcc>0.668791</vAcc></extensions></trkpt>
      <trkpt lon="-117.328846" lat="33.972957"><ele>325.029813</ele><time>2024-02-08T19:12:39Z</time><extensions><speed>0.067122</speed><course>344.175898</course><hAcc>1.475351</hAcc><vAcc>0.667043</vAcc></extensions></trkpt>
      <trkpt lon="-117.328847" lat="33.972958"><ele>325.049042</ele><time>2024-02-08T19:12:40Z</time><extensions><speed>0.068467</speed><course>344.691085</course><hAcc>1.435457</hAcc><vAcc>0.666291</vAcc></extensions></trkpt>
      <trkpt lon="-117.328847" lat="33.972959"><ele>325.057772</ele><time>2024-02-08T19:12:41Z</time><extensions><speed>0.070746</speed><course>345.871270</course><hAcc>1.407156</hAcc><vAcc>0.666350</vAcc></extensions></trkpt>
      <trkpt lon="-117.328847" lat="33.972960"><ele>325.060972</ele><time>2024-02-08T19:12:42Z</time><extensions><speed>0.076226</speed><course>346.411193</course><hAcc>1.386508</hAcc><vAcc>0.666822</vAcc></extensions></trkpt>
      <trkpt lon="-117.328848" lat="33.972961"><ele>325.062250</ele><time>2024-02-08T19:12:43Z</time><extensions><speed>0.080600</speed><course>346.526897</course><hAcc>1.384233</hAcc><vAcc>0.670661</vAcc></extensions></trkpt>
      <trkpt lon="-117.328848" lat="33.972962"><ele>325.058599</ele><time>2024-02-08T19:12:44Z</time><extensions><speed>0.087364</speed><course>346.618712</course><hAcc>1.388901</hAcc><vAcc>0.676948</vAcc></extensions></trkpt>
      <trkpt lon="-117.328848" lat="33.972963"><ele>325.050392</ele><time>2024-02-08T19:12:45Z</time><extensions><speed>0.084621</speed><course>346.718162</course><hAcc>1.402705</hAcc><vAcc>0.687145</vAcc></extensions></trkpt>
      <trkpt lon="-117.328848" lat="33.972963"><ele>325.038137</ele><time>2024-02-08T19:12:46Z</time><extensions><speed>0.093693</speed><course>347.042769</course><hAcc>1.416734</hAcc><vAcc>0.703538</vAcc></extensions></trkpt>
      <trkpt lon="-117.328849" lat="33.972965"><ele>325.022486</ele><time>2024-02-08T19:12:47Z</time><extensions><speed>0.286288</speed><course>347.967745</course><hAcc>1.413269</hAcc><vAcc>0.729372</vAcc></extensions></trkpt>
      <trkpt lon="-117.328849" lat="33.972967"><ele>325.004193</ele><time>2024-02-08T19:12:48Z</time><extensions><speed>0.248195</speed><course>349.154771</course><hAcc>1.490441</hAcc><vAcc>0.768797</vAcc></extensions></trkpt>
      <trkpt lon="-117.328850" lat="33.972969"><ele>324.983997</ele><time>2024-02-08T19:12:49Z</time><extensions><speed>0.144779</speed><course>350.660625</course><hAcc>1.596219</hAcc><vAcc>0.826470</vAcc></extensions></trkpt>
      <trkpt lon="-117.328850" lat="33.972970"><ele>324.962566</ele><time>2024-02-08T19:12:50Z</time><extensions><speed>0.094161</speed><course>353.628984</course><hAcc>1.684751</hAcc><vAcc>0.906849</vAcc></extensions></trkpt>
      <trkpt lon="-117.328850" lat="33.972971"><ele>324.940506</ele><time>2024-02-08T19:12:51Z</time><extensions><speed>0.107045</speed><course>356.490360</course><hAcc>1.811645</hAcc><vAcc>1.013419</vAcc></extensions></trkpt>
      <trkpt lon="-117.328850" lat="33.972972"><ele>324.918287</ele><time>2024-02-08T19:12:52Z</time><extensions><speed>0.102295</speed><course>357.264187</course><hAcc>2.235953</hAcc><vAcc>1.148128</vAcc></extensions></trkpt>
    </trkseg>
  </trk>
</gpx>