<?xml version="1.0" encoding="UTF-8"?>
<gpx version="1.1" creator="Apple Health Export" xmlns="http://www.topografix.com/GPX/1/1" xmlns:xsi="http://www.w3.org/2001/XMLSchema-instance" xsi:schemaLocation="http://www.topografix.com/GPX/1/1 http://www.topografix.com/GPX/1/1/gpx.xsd">
  <metadata>
    <time>2026-01-11T07:58:10Z</time>
  </metadata>
  <trk>
    <name>Route 2025-04-08 7:05pm</name>
    <trkseg>
      <trkpt lon="-117.332651" lat="33.979567"><ele>316.385651</ele><time>2025-04-09T02:01:33Z</time><extensions><speed>1.026477</speed><course>80.556374</course><hAcc>2.381369</hAcc><vAcc>1.420724</vAcc></extensions></trkpt>
      <trkpt lon="-117.332641" lat="33.979568"><ele>316.363598</ele><time>2025-04-09T02:01:34Z</time><extensions><speed>0.950111</speed><course>92.152130</course><hAcc>2.225985</hAcc><vAcc>1.236917</vAcc></extensions></trkpt>
      <trkpt lon="-117.332633" lat="33.979568"><ele>316.348446</ele><time>2025-04-09T02:01:35Z</time><extensions><speed>0.953702</speed><course>95.282053</course><hAcc>2.095790</hAcc><vAcc>1.114146</vAcc></extensions></trkpt>
      <trkpt lon="-117.332623" lat="33.979568"><ele>316.328983</ele><time>2025-04-09T02:01:36Z</time><extensions><speed>0.962062</speed><course>97.685197</course><hAcc>1.980764</hAcc><vAcc>1.002522</vAcc></extensions></trkpt>
      <trkpt lon="-117.332613" lat="33.979567"><ele>316.310473</ele><time>2025-04-09T02:01:37Z</time><extensions><speed>1.056137</speed><course>96.067491</course><hAcc>1.878296</hAcc><vAcc>0.921171</vAcc></extensions></trkpt>
      <trkpt lon="-117.332602" lat="33.979566"><ele>316.294658</ele><time>2025-04-09T02:01:38Z</time><extensions><speed>1.114361</speed><course>95.068006</course><hAcc>1.784524</hAcc><vAcc>0.864251</vAcc></extensions></trkpt>
      <trkpt lon="-117.332590" lat="33.979565"><ele>316.275548</ele><time>2025-04-09T02:01:39Z</time><extensions><speed>1.173599</speed><course>99.179159</course><hAcc>1.703890</hAcc><vAcc>0.826155</vAcc></extensions></trkpt>
      <trkpt lon="-117.332578" lat="33.979564"><ele>316.275706</ele><time>2025-04-09T02:01:40Z</time><extensions><speed>1.156001</speed><course>100.803598</course><hAcc>1.617857</hAcc><vAcc>0.801799</vAcc></extensions></trkpt>
      <trkpt lon="-117.332567" lat="33.979563"><ele>316.281896</ele><time>2025-04-09T02:01:41Z</time><extensions><speed>1.040249</speed><course>109.494774</course><hAcc>1.548383</hAcc><vAcc>0.786923</vAcc></extensions></trkpt>
      <trkpt lon="-117.332556" lat="33.979560"><ele>316.291669</ele><time>2025-04-09T02:01:42Z</time><extensions><speed>1.052486</speed><course>110.779027</course><hAcc>1.508648</hAcc><vAcc>0.778220</vAcc></extensions></trkpt>
      <trkpt lon="-117.332544" lat="33.979557"><ele>316.304066</ele><time>2025-04-09T02:01:43Z</time><extensions><speed>1.251186</speed><course>106.907291</course><hAcc>1.469234</hAcc><vAcc>0.773295</vAcc></extensions></trkpt>
      <trkpt lon="-117.332530" lat="33.979555"><ele>316.318541</ele><time>2025-04-09T02:01:44Z</time><extensions><speed>1.384131</speed><course>99.815686</course><hAcc>1.433064</hAcc><vAcc>0.770518</vAcc></extensions></trkpt>
      <trkpt lon="-117.332516" lat="33.979553"><ele>316.334985</ele><time>2025-04-09T02:01:45Z</time><extensions><speed>1.380123</speed><course>93.271706</course><hAcc>1.399765</hAcc><vAcc>0.768849</vAcc></extensions></trkpt>
      <trkpt lon="-117.332502" lat="33.979553"><ele>316.352815</ele><time>2025-04-09T02:01:46Z</time><extensions><speed>1.140442</speed><course>90.582396</course><hAcc>1.380446</hAcc><vAcc>0.767673</vAcc></extensions></trkpt>
      <trkpt lon="-117.332490" lat="33.979553"><ele>316.371058</ele><time>2025-04-09T02:01:47Z</time><extensions><speed>1.094901</speed><course>89.411518</course><hAcc>1.363427</hAcc><vAcc>0.766658</vAcc></extensions></trkpt>
      <trkpt lon="-117.332480" lat="33.979553"><ele>316.388524</ele><time>2025-04-09T02:01:48Z</time><extensions><speed>0.881820</speed><course>87.683854</course><hAcc>1.347275</hAcc><vAcc>0.765654</vAcc></extensions></trkpt>
      <trkpt lon="-117.332472" lat="33.979553"><ele>316.405094</ele><time>2025-04-09T02:01:49Z</time><extensions><speed>0.870466</speed><course>89.631032</course><hAcc>1.348532</hAcc><vAcc>0.764616</vAcc></extensions></trkpt>
      <trkpt lon="-117.332462" lat="33.979553"><ele>316.419251</ele><time>2025-04-09T02:01:50Z</time><extensions><speed>1.051418</speed><course>76.963143</course><hAcc>1.352798</hAcc><vAcc>0.763555</vAcc></extensions></trkpt>
      <trkpt lon="-117.332452" lat="33.979554"><ele>316.431764</ele><time>2025-04-09T02:01:51Z</time><extensions><speed>1.096443</speed><course>79.324367</course><hAcc>1.343287</hAcc><vAcc>0.762508</vAcc></extensions></trkpt>
      <trkpt lon="-117.332442" lat="33.979554"><ele>316.442265</ele><time>2025-04-09T02:01:52Z</time><extensions><speed>1.073881</speed><course>84.694528</course><hAcc>1.348750</hAcc><vAcc>0.761510</vAcc></extensions></trkpt>
      <trkpt lon="-117.332432" lat="33.979553"><ele>316.448971</ele><time>2025-04-09T02:01:53Z</time><extensions><speed>1.037366</speed><course>91.536204</course><hAcc>1.359719</hAcc><vAcc>0.760596</vAcc></extensions></trkpt>
      <trkpt lon="-117.332423" lat="33.979551"><ele>316.452150</ele><time>2025-04-09T02:01:54Z</time><extensions><speed>0.998615</speed><course>97.583819</course><hAcc>1.375765</hAcc><vAcc>0.759787</vAcc></extensions></trkpt>
      <trkpt lon="-117.332414" lat="33.979548"><ele>316.452658</ele><time>2025-04-09T02:01:55Z</time><extensions><speed>0.908448</speed><course>105.307005</course><hAcc>1.386677</hAcc><vAcc>0.759092</vAcc></extensions></trkpt>
      <trkpt lon="-117.332407" lat="33.979544"><ele>316.450804</ele><time>2025-04-09T02:01:56Z</time><extensions><speed>0.788886</speed><course>109.986368</course><hAcc>1.404911</hAcc><vAcc>0.758514</vAcc></extensions></trkpt>
      <trkpt lon="-117.332401" lat="33.979539"><ele>316.454525</ele><time>2025-04-09T02:01:57Z</time><extensions><speed>0.731600</speed><course>117.464160</course><hAcc>1.420614</hAcc><vAcc>0.759645</vAcc></extensions></trkpt>
      <trkpt lon="-117.332395" lat="33.979532"><ele>316.463612</ele><time>2025-04-09T02:01:58Z</time><extensions><speed>0.865178</speed><course>127.394662</course><hAcc>1.419632</hAcc><vAcc>0.760803</vAcc></extensions></trkpt>
      <trkpt lon="-117.332389" lat="33.979525"><ele>316.470617</ele><time>2025-04-09T02:01:59Z</time><extensions><speed>0.807229</speed><course>124.675603</course><hAcc>1.428899</hAcc><vAcc>0.763465</vAcc></extensions></trkpt>
      <trkpt lon="-117.332384" lat="33.979521"><ele>316.467072</ele><time>2025-04-09T02:02:00Z</time><extensions><speed>0.575285</speed><course>132.511173</course><hAcc>1.434279</hAcc><vAcc>0.769783</vAcc></extensions></trkpt>
      <trkpt lon="-117.332381" lat="33.979516"><ele>316.461251</ele><time>2025-04-09T02:02:01Z</time><extensions><speed>0.518113</speed><course>141.352129</course><hAcc>1.443813</hAcc><vAcc>0.779320</vAcc></extensions></trkpt>
      <trkpt lon="-117.332383" lat="33.979509"><ele>316.453894</ele><time>2025-04-09T02:02:02Z</time><extensions><speed>1.174757</speed><course>208.276687</course><hAcc>1.445727</hAcc><vAcc>0.792427</vAcc></extensions></trkpt>
      <trkpt lon="-117.332391" lat="33.979498"><ele>316.431124</ele><time>2025-04-09T02:02:03Z</time><extensions><speed>1.506251</speed><course>212.975437</course><hAcc>1.456451</hAcc><vAcc>0.808274</vAcc></extensions></trkpt>
      <trkpt lon="-117.332401" lat="33.979486"><ele>316.404483</ele><time>2025-04-09T02:02:04Z</time><extensions><speed>1.615280</speed><course>214.489404</course><hAcc>1.492737</hAcc><vAcc>0.827497</vAcc></extensions></trkpt>
      <trkpt lon="-117.332412" lat="33.979474"><ele>316.373705</ele><time>2025-04-09T02:02:05Z</time><extensions><speed>1.752007</speed><course>222.611163</course><hAcc>1.524274</hAcc><vAcc>0.850294</vAcc></extensions></trkpt>
      <trkpt lon="-117.332427" lat="33.979463"><ele>316.335183</ele><time>2025-04-09T02:02:06Z</time><extensions><speed>1.849752</speed><course>233.221737</course><hAcc>1.535283</hAcc><vAcc>0.875802</vAcc></extensions></trkpt>
      <trkpt lon="-117.332445" lat="33.979452"><ele>316.285528</ele><time>2025-04-09T02:02:07Z</time><extensions><speed>2.361881</speed><course>234.969391</course><hAcc>1.509691</hAcc><vAcc>0.902249</vAcc></extensions></trkpt>
      <trkpt lon="-117.332467" lat="33.979441"><ele>316.231507</ele><time>2025-04-09T02:02:08Z</time><extensions><speed>2.280746</speed><course>240.254994</course><hAcc>1.564100</hAcc><vAcc>0.930879</vAcc></extensions></trkpt>
      <trkpt lon="-117.332488" lat="33.979431"><ele>316.205548</ele><time>2025-04-09T02:02:09Z</time><extensions><speed>2.029439</speed><course>244.721058</course><hAcc>1.647561</hAcc><vAcc>0.959774</vAcc></extensions></trkpt>
      <trkpt lon="-117.332506" lat="33.979424"><ele>316.189697</ele><time>2025-04-09T02:02:10Z</time><extensions><speed>1.759010</speed><course>247.927194</course><hAcc>1.726896</hAcc><vAcc>0.988898</vAcc></extensions></trkpt>
      <trkpt lon="-117.332523" lat="33.979419"><ele>316.157816</ele><time>2025-04-09T02:02:11Z</time><extensions><speed>1.516190</speed><course>252.114851</course><hAcc>1.779387</hAcc><vAcc>1.015433</vAcc></extensions></trkpt>
      <trkpt lon="-117.332539" lat="33.979415"><ele>316.127473</ele><time>2025-04-09T02:02:12Z</time><extensions><speed>1.459580</speed><course>250.979648</course><hAcc>1.790154</hAcc><vAcc>1.039394</vAcc></extensions></trkpt>
      <trkpt lon="-117.332554" lat="33.979410"><ele>316.095392</ele><time>2025-04-09T02:02:13Z</time><extensions><speed>1.495086</speed><course>250.268528</course><hAcc>1.787710</hAcc><vAcc>1.059768</vAcc></extensions></trkpt>
      <trkpt lon="-117.332569" lat="33.979406"><ele>316.079143</ele><time>2025-04-09T02:02:14Z</time><extensions><speed>1.397658</speed><course>251.719296</course><hAcc>1.804313</hAcc><vAcc>1.077146</vAcc></extensions></trkpt>
      <trkpt lon="-117.332583" lat="33.979403"><ele>316.046302</ele><time>2025-04-09T02:02:15Z</time><extensions><speed>1.275607</speed><course>255.428468</course><hAcc>1.817307</hAcc><vAcc>1.091908</vAcc></extensions></trkpt>
      <trkpt lon="-117.332597" lat="33.979401"><ele>316.045025</ele><time>2025-04-09T02:02:16Z</time><extensions><speed>1.271133</speed><course>262.810659</course><hAcc>1.826879</hAcc><vAcc>1.103694</vAcc></extensions></trkpt>
      <trkpt lon="-117.332611" lat="33.979399"><ele>316.049947</ele><time>2025-04-09T02:02:17Z</time><extensions><speed>1.374136</speed><course>263.488450</course><hAcc>1.820845</hAcc><vAcc>1.112867</vAcc></extensions></trkpt>
      <trkpt lon="-117.332626" lat="33.979398"><ele>316.056878</ele><time>2025-04-09T02:02:18Z</time><extensions><speed>1.367746</speed><course>261.310190</course><hAcc>1.818877</hAcc><vAcc>1.119198</vAcc></extensions></trkpt>
      <trkpt lon="-117.332641" lat="33.979396"><ele>316.054457</ele><time>2025-04-09T02:02:19Z</time><extensions><speed>1.309372</speed><course>263.342643</course><hAcc>1.823754</hAcc><vAcc>1.123733</vAcc></extensions></trkpt>
      <trkpt lon="-117.332655" lat="33.979395"><ele>316.065700</ele><time>2025-04-09T02:02:20Z</time><extensions><speed>1.313332</speed><course>266.522675</course><hAcc>1.828089</hAcc><vAcc>1.127179</vAcc></extensions></trkpt>
      <trkpt lon="-117.332669" lat="33.979395"><ele>316.071215</ele><time>2025-04-09T02:02:21Z</time><extensions><speed>1.310076</speed><course>269.928923</course><hAcc>1.824799</hAcc><vAcc>1.129776</vAcc></extensions></trkpt>
      <trkpt lon="-117.332683" lat="33.979395"><ele>316.054399</ele><time>2025-04-09T02:02:22Z</time><extensions><speed>1.230864</speed><course>273.880565</course><hAcc>1.816047</hAcc><vAcc>1.129282</vAcc></extensions></trkpt>
      <trkpt lon="-117.332696" lat="33.979396"><ele>316.025068</ele><time>2025-04-09T02:02:23Z</time><extensions><speed>1.207494</speed><course>278.363332</course><hAcc>1.800148</hAcc><vAcc>1.127017</vAcc></extensions></trkpt>
      <trkpt lon="-117.332709" lat="33.979397"><ele>316.003174</ele><time>2025-04-09T02:02:24Z</time><extensions><speed>1.205642</speed><course>276.281431</course><hAcc>1.779672</hAcc><vAcc>1.125677</vAcc></extensions></trkpt>
      <trkpt lon="-117.332722" lat="33.979398"><ele>315.959670</ele><time>2025-04-09T02:02:25Z</time><extensions><speed>1.174899</speed><course>274.504930</course><hAcc>1.754870</hAcc><vAcc>1.122215</vAcc></extensions></trkpt>
      <trkpt lon="-117.332734" lat="33.979399"><ele>315.921139</ele><time>2025-04-09T02:02:26Z</time><extensions><speed>1.125820</speed><course>275.029107</course><hAcc>1.750130</hAcc><vAcc>1.118573</vAcc></extensions></trkpt>
      <trkpt lon="-117.332747" lat="33.979400"><ele>315.878385</ele><time>2025-04-09T02:02:27Z</time><extensions><speed>1.198938</speed><course>274.052543</course><hAcc>1.737508</hAcc><vAcc>1.114396</vAcc></extensions></trkpt>
      <trkpt lon="-117.332760" lat="33.979400"><ele>315.839232</ele><time>2025-04-09T02:02:28Z</time><extensions><speed>1.202239</speed><course>270.927648</course><hAcc>1.720442</hAcc><vAcc>1.109559</vAcc></extensions></trkpt>
      <trkpt lon="-117.332772" lat="33.979400"><ele>315.815557</ele><time>2025-04-09T02:02:29Z</time><extensions><speed>1.158853</speed><course>267.019068</course><hAcc>1.710064</hAcc><vAcc>1.104777</vAcc></extensions></trkpt>
      <trkpt lon="-117.332785" lat="33.979399"><ele>315.786969</ele><time>2025-04-09T02:02:30Z</time><extensions><speed>1.123021</speed><course>265.078740</course><hAcc>1.706732</hAcc><vAcc>1.102837</vAcc></extensions></trkpt>
      <trkpt lon="-117.332797" lat="33.979399"><ele>315.765290</ele><time>2025-04-09T02:02:31Z</time><extensions><speed>1.054538</speed><course>265.128372</course><hAcc>1.698487</hAcc><vAcc>1.099957</vAcc></extensions></trkpt>
      <trkpt lon="-117.332808" lat="33.979398"><ele>315.742460</ele><time>2025-04-09T02:02:32Z</time><extensions><speed>1.048718</speed><course>265.207197</course><hAcc>1.681531</hAcc><vAcc>1.097343</vAcc></extensions></trkpt>
      <trkpt lon="-117.332819" lat="33.979397"><ele>315.718039</ele><time>2025-04-09T02:02:33Z</time><extensions><speed>1.049879</speed><course>267.258445</course><hAcc>1.678055</hAcc><vAcc>1.095606</vAcc></extensions></trkpt>
      <trkpt lon="-117.332831" lat="33.979397"><ele>315.692496</ele><time>2025-04-09T02:02:34Z</time><extensions><speed>1.059285</speed><course>267.858587</course><hAcc>1.683100</hAcc><vAcc>1.094422</vAcc></extensions></trkpt>
      <trkpt lon="-117.332842" lat="33.979396"><ele>315.663885</ele><time>2025-04-09T02:02:35Z</time><extensions><speed>1.006713</speed><course>266.354280</course><hAcc>1.672849</hAcc><vAcc>1.093538</vAcc></extensions></trkpt>
      <trkpt lon="-117.332853" lat="33.979396"><ele>315.635019</ele><time>2025-04-09T02:02:36Z</time><extensions><speed>1.069458</speed><course>266.911784</course><hAcc>1.678372</hAcc><vAcc>1.092387</vAcc></extensions></trkpt>
      <trkpt lon="-117.332865" lat="33.979395"><ele>315.605989</ele><time>2025-04-09T02:02:37Z</time><extensions><speed>1.138908</speed><course>267.915285</course><hAcc>1.678259</hAcc><vAcc>1.094948</vAcc></extensions></trkpt>
      <trkpt lon="-117.332878" lat="33.979395"><ele>315.569768</ele><time>2025-04-09T02:02:38Z</time><extensions><speed>1.101292</speed><course>269.126039</course><hAcc>1.678926</hAcc><vAcc>1.099240</vAcc></extensions></trkpt>
      <trkpt lon="-117.332890" lat="33.979395"><ele>315.542270</ele><time>2025-04-09T02:02:39Z</time><extensions><speed>1.110379</speed><course>270.455724</course><hAcc>1.682926</hAcc><vAcc>1.102341</vAcc></extensions></trkpt>
      <trkpt lon="-117.332902" lat="33.979395"><ele>315.509519</ele><time>2025-04-09T02:02:40Z</time><extensions><speed>1.196189</speed><course>270.080588</course><hAcc>1.687371</hAcc><vAcc>1.105205</vAcc></extensions></trkpt>
      <trkpt lon="-117.332915" lat="33.979395"><ele>315.482377</ele><time>2025-04-09T02:02:41Z</time><extensions><speed>1.157072</speed><course>269.590596</course><hAcc>1.680279</hAcc><vAcc>1.108986</vAcc></extensions></trkpt>
      <trkpt lon="-117.332927" lat="33.979395"><ele>315.444528</ele><time>2025-04-09T02:02:42Z</time><extensions><speed>1.056641</speed><course>269.949409</course><hAcc>1.669248</hAcc><vAcc>1.111109</vAcc></extensions></trkpt>
      <trkpt lon="-117.332938" lat="33.979395"><ele>315.407491</ele><time>2025-04-09T02:02:43Z</time><extensions><speed>1.057680</speed><course>269.897658</course><hAcc>1.663367</hAcc><vAcc>1.113899</vAcc></extensions></trkpt>
      <trkpt lon="-117.332950" lat="33.979395"><ele>315.366653</ele><time>2025-04-09T02:02:44Z</time><extensions><speed>1.154230</speed><course>268.727415</course><hAcc>1.652498</hAcc><vAcc>1.117250</vAcc></extensions></trkpt>
      <trkpt lon="-117.332963" lat="33.979395"><ele>315.311657</ele><time>2025-04-09T02:02:45Z</time><extensions><speed>1.190209</speed><course>269.847346</course><hAcc>1.626319</hAcc><vAcc>1.120812</vAcc></extensions></trkpt>
      <trkpt lon="-117.332976" lat="33.979395"><ele>315.254656</ele><time>2025-04-09T02:02:46Z</time><extensions><speed>1.111573</speed><course>272.514231</course><hAcc>1.614440</hAcc><vAcc>1.124254</vAcc></extensions></trkpt>
      <trkpt lon="-117.332987" lat="33.979396"><ele>315.220953</ele><time>2025-04-09T02:02:47Z</time><extensions><speed>1.055682</speed><course>273.411877</course><hAcc>1.633023</hAcc><vAcc>1.124036</vAcc></extensions></trkpt>
      <trkpt lon="-117.332999" lat="33.979396"><ele>315.192983</ele><time>2025-04-09T02:02:48Z</time><extensions><speed>1.150875</speed><course>271.330267</course><hAcc>1.628731</hAcc><vAcc>1.122978</vAcc></extensions></trkpt>
      <trkpt lon="-117.333011" lat="33.979396"><ele>315.143539</ele><time>2025-04-09T02:02:49Z</time><extensions><speed>1.083260</speed><course>268.651588</course><hAcc>1.585875</hAcc><vAcc>1.122176</vAcc></extensions></trkpt>
      <trkpt lon="-117.333023" lat="33.979396"><ele>315.082816</ele><time>2025-04-09T02:02:50Z</time><extensions><speed>1.090041</speed><course>268.586538</course><hAcc>1.560924</hAcc><vAcc>1.120248</vAcc></extensions></trkpt>
      <trkpt lon="-117.333035" lat="33.979396"><ele>315.022714</ele><time>2025-04-09T02:02:51Z</time><extensions><speed>1.144609</speed><course>269.232195</course><hAcc>1.545418</hAcc><vAcc>1.116987</vAcc></extensions></trkpt>
      <trkpt lon="-117.333048" lat="33.979396"><ele>314.974309</ele><time>2025-04-09T02:02:52Z</time><extensions><speed>1.125441</speed><course>271.693501</course><hAcc>1.520667</hAcc><vAcc>1.113266</vAcc></extensions></trkpt>
      <trkpt lon="-117.333060" lat="33.979397"><ele>314.917478</ele><time>2025-04-09T02:02:53Z</time><extensions><speed>1.081389</speed><course>274.358747</course><hAcc>1.507599</hAcc><vAcc>1.109516</vAcc></extensions></trkpt>
      <trkpt lon="-117.333072" lat="33.979397"><ele>314.873127</ele><time>2025-04-09T02:02:54Z</time><extensions><speed>1.039610</speed><course>274.448547</course><hAcc>1.500443</hAcc><vAcc>1.103701</vAcc></extensions></trkpt>
      <trkpt lon="-117.333083" lat="33.979398"><ele>314.841241</ele><time>2025-04-09T02:02:55Z</time><extensions><speed>1.089077</speed><course>274.806653</course><hAcc>1.498121</hAcc><vAcc>1.097534</vAcc></extensions></trkpt>
      <trkpt lon="-117.333095" lat="33.979399"><ele>314.817999</ele><time>2025-04-09T02:02:56Z</time><extensions><speed>1.157016</speed><course>275.274223</course><hAcc>1.477101</hAcc><vAcc>1.092167</vAcc></extensions></trkpt>
      <trkpt lon="-117.333108" lat="33.979400"><ele>314.816403</ele><time>2025-04-09T02:02:57Z</time><extensions><speed>1.172594</speed><course>274.123324</course><hAcc>1.429384</hAcc><vAcc>1.083515</vAcc></extensions></trkpt>
      <trkpt lon="-117.333121" lat="33.979400"><ele>314.810054</ele><time>2025-04-09T02:02:58Z</time><extensions><speed>1.216578</speed><course>271.314538</course><hAcc>1.416753</hAcc><vAcc>1.077201</vAcc></extensions></trkpt>
      <trkpt lon="-117.333134" lat="33.979400"><ele>314.818980</ele><time>2025-04-09T02:02:59Z</time><extensions><speed>1.207954</speed><course>268.505877</course><hAcc>1.437692</hAcc><vAcc>1.073603</vAcc></extensions></trkpt>
      <trkpt lon="-117.333148" lat="33.979400"><ele>314.839148</ele><time>2025-04-09T02:03:00Z</time><extensions><speed>1.234870</speed><course>269.159709</course><hAcc>1.412730</hAcc><vAcc>1.070304</vAcc></extensions></trkpt>
      <trkpt lon="-117.333161" lat="33.979400"><ele>314.878109</ele><time>2025-04-09T02:03:01Z</time><extensions><speed>1.221360</speed><course>269.666393</course><hAcc>1.408560</hAcc><vAcc>1.069748</vAcc></extensions></trkpt>
      <trkpt lon="-117.333174" lat="33.979399"><ele>314.933287</ele><time>2025-04-09T02:03:02Z</time><extensions><speed>1.201304</speed><course>267.210505</course><hAcc>1.429811</hAcc><vAcc>1.069377</vAcc></extensions></trkpt>
      <trkpt lon="-117.333188" lat="33.979399"><ele>315.011403</ele><time>2025-04-09T02:03:03Z</time><extensions><speed>1.238139</speed><course>267.185681</course><hAcc>1.441475</hAcc><vAcc>1.069783</vAcc></extensions></trkpt>
      <trkpt lon="-117.333202" lat="33.979398"><ele>315.086722</ele><time>2025-04-09T02:03:04Z</time><extensions><speed>1.343335</speed><course>268.920800</course><hAcc>1.420075</hAcc><vAcc>1.074461</vAcc></extensions></trkpt>
      <trkpt lon="-117.333217" lat="33.979398"><ele>315.173959</ele><time>2025-04-09T02:03:05Z</time><extensions><speed>1.380598</speed><course>269.392982</course><hAcc>1.432917</hAcc><vAcc>1.081586</vAcc></extensions></trkpt>
      <trkpt lon="-117.333232" lat="33.979398"><ele>315.269119</ele><time>2025-04-09T02:03:06Z</time><extensions><speed>1.385741</speed><course>269.123473</course><hAcc>1.460410</hAcc><vAcc>1.087378</vAcc></extensions></trkpt>
      <trkpt lon="-117.333247" lat="33.979398"><ele>315.355717</ele><time>2025-04-09T02:03:07Z</time><extensions><speed>1.400985</speed><course>268.949945</course><hAcc>1.484040</hAcc><vAcc>1.095270</vAcc></extensions></trkpt>
      <trkpt lon="-117.333262" lat="33.979397"><ele>315.443479</ele><time>2025-04-09T02:03:08Z</time><extensions><speed>1.381832</speed><course>267.384683</course><hAcc>1.519394</hAcc><vAcc>1.104980</vAcc></extensions></trkpt>
      <trkpt lon="-117.333277" lat="33.979397"><ele>315.533436</ele><time>2025-04-09T02:03:09Z</time><extensions><speed>1.347325</speed><course>269.301032</course><hAcc>1.554282</hAcc><vAcc>1.117060</vAcc></extensions></trkpt>
      <trkpt lon="-117.333292" lat="33.979397"><ele>315.627884</ele><time>2025-04-09T02:03:10Z</time><extensions><speed>1.397994</speed><course>270.578937</course><hAcc>1.571561</hAcc><vAcc>1.128771</vAcc></extensions></trkpt>
      <trkpt lon="-117.333307" lat="33.979397"><ele>315.721854</ele><time>2025-04-09T02:03:11Z</time><extensions><speed>1.344622</speed><course>271.467652</course><hAcc>1.604108</hAcc><vAcc>1.141672</vAcc></extensions></trkpt>
      <trkpt lon="-117.333321" lat="33.979397"><ele>315.820677</ele><time>2025-04-09T02:03:12Z</time><extensions><speed>1.316711</speed><course>272.677641</course><hAcc>1.609552</hAcc><vAcc>1.151684</vAcc></extensions></trkpt>
      <trkpt lon="-117.333335" lat="33.979398"><ele>315.902374</ele><time>2025-04-09T02:03:13Z</time><extensions><speed>1.288733</speed><course>272.928338</course><hAcc>1.625139</hAcc><vAcc>1.163151</vAcc></extensions></trkpt>
      <trkpt lon="-117.333349" lat="33.979398"><ele>315.975097</ele><time>2025-04-09T02:03:14Z</time><extensions><speed>1.298129</speed><course>272.763927</course><hAcc>1.642721</hAcc><vAcc>1.171223</vAcc></extensions></trkpt>
      <trkpt lon="-117.333363" lat="33.979399"><ele>316.032429</ele><time>2025-04-09T02:03:15Z</time><extensions><speed>1.304703</speed><course>274.291647</course><hAcc>1.653239</hAcc><vAcc>1.178083</vAcc></extensions></trkpt>
      <trkpt lon="-117.333377" lat="33.979399"><ele>316.082477</ele><time>2025-04-09T02:03:16Z</time><extensions><speed>1.308845</speed><course>275.917321</course><hAcc>1.651956</hAcc><vAcc>1.185209</vAcc></extensions></trkpt>
      <trkpt lon="-117.333391" lat="33.979401"><ele>316.110772</ele><time>2025-04-09T02:03:17Z</time><extensions><speed>1.306462</speed><course>276.727522</course><hAcc>1.665598</hAcc><vAcc>1.192263</vAcc></extensions></trkpt>
      <trkpt lon="-117.333405" lat="33.979402"><ele>316.129005</ele><time>2025-04-09T02:03:18Z</time><extensions><speed>1.193214</speed><course>274.425883</course><hAcc>1.686872</hAcc><vAcc>1.198315</vAcc></extensions></trkpt>
      <trkpt lon="-117.333417" lat="33.979402"><ele>316.133944</ele><time>2025-04-09T02:03:19Z</time><extensions><speed>1.180146</speed><course>271.660915</course><hAcc>1.707250</hAcc><vAcc>1.203570</vAcc></extensions></trkpt>
      <trkpt lon="-117.333430" lat="33.979403"><ele>316.117613</ele><time>2025-04-09T02:03:20Z</time><extensions><speed>1.171474</speed><course>270.750553</course><hAcc>1.692495</hAcc><vAcc>1.205717</vAcc></extensions></trkpt>
      <trkpt lon="-117.333443" lat="33.979403"><ele>316.098814</ele><time>2025-04-09T02:03:21Z</time><extensions><speed>1.150916</speed><course>272.702855</course><hAcc>1.709883</hAcc><vAcc>1.207928</vAcc></extensions></trkpt>
      <trkpt lon="-117.333455" lat="33.979403"><ele>316.070582</ele><time>2025-04-09T02:03:22Z</time><extensions><speed>1.131078</speed><course>272.549960</course><hAcc>1.728171</hAcc><vAcc>1.209342</vAcc></extensions></trkpt>
      <trkpt lon="-117.333467" lat="33.979404"><ele>316.033372</ele><time>2025-04-09T02:03:23Z</time><extensions><speed>1.165249</speed><course>272.934964</course><hAcc>1.759929</hAcc><vAcc>1.209789</vAcc></extensions></trkpt>
      <trkpt lon="-117.333479" lat="33.979404"><ele>315.979177</ele><time>2025-04-09T02:03:24Z</time><extensions><speed>1.026496</speed><course>271.042044</course><hAcc>1.750095</hAcc><vAcc>1.207910</vAcc></extensions></trkpt>
      <trkpt lon="-117.333490" lat="33.979404"><ele>315.914719</ele><time>2025-04-09T02:03:25Z</time><extensions><speed>0.988900</speed><course>271.504261</course><hAcc>1.747785</hAcc><vAcc>1.205617</vAcc></extensions></trkpt>
      <trkpt lon="-117.333501" lat="33.979405"><ele>315.836405</ele><time>2025-04-09T02:03:26Z</time><extensions><speed>1.019994</speed><course>272.906432</course><hAcc>1.759877</hAcc><vAcc>1.202811</vAcc></extensions></trkpt>
      <trkpt lon="-117.333512" lat="33.979405"><ele>315.758389</ele><time>2025-04-09T02:03:27Z</time><extensions><speed>1.072625</speed><course>273.658598</course><hAcc>1.768447</hAcc><vAcc>1.198812</vAcc></extensions></trkpt>
      <trkpt lon="-117.333524" lat="33.979406"><ele>315.684396</ele><time>2025-04-09T02:03:28Z</time><extensions><speed>1.074803</speed><course>274.771170</course><hAcc>1.753304</hAcc><vAcc>1.193816</vAcc></extensions></trkpt>
      <trkpt lon="-117.333536" lat="33.979406"><ele>315.595280</ele><time>2025-04-09T02:03:29Z</time><extensions><speed>1.088607</speed><course>274.286429</course><hAcc>1.722969</hAcc><vAcc>1.188855</vAcc></extensions></trkpt>
      <trkpt lon="-117.333548" lat="33.979407"><ele>315.509940</ele><time>2025-04-09T02:03:30Z</time><extensions><speed>1.094185</speed><course>271.457131</course><hAcc>1.694438</hAcc><vAcc>1.182499</vAcc></extensions></trkpt>
      <trkpt lon="-117.333560" lat="33.979407"><ele>315.425712</ele><time>2025-04-09T02:03:31Z</time><extensions><speed>1.097155</speed><course>271.829854</course><hAcc>1.685914</hAcc><vAcc>1.175327</vAcc></extensions></trkpt>
      <trkpt lon="-117.333572" lat="33.979408"><ele>315.336884</ele><time>2025-04-09T02:03:32Z</time><extensions><speed>1.111473</speed><course>272.607116</course><hAcc>1.683448</hAcc><vAcc>1.166832</vAcc></extensions></trkpt>
      <trkpt lon="-117.333583" lat="33.979408"><ele>315.248745</ele><time>2025-04-09T02:03:33Z</time><extensions><speed>1.092277</speed><course>273.745182</course><hAcc>1.674935</hAcc><vAcc>1.159175</vAcc></extensions></trkpt>
      <trkpt lon="-117.333595" lat="33.979409"><ele>315.169558</ele><time>2025-04-09T02:03:34Z</time><extensions><speed>1.098345</speed><course>274.246086</course><hAcc>1.624531</hAcc><vAcc>1.153122</vAcc></extensions></trkpt>
      <trkpt lon="-117.333607" lat="33.979409"><ele>315.102485</ele><time>2025-04-09T02:03:35Z</time><extensions><speed>1.086481</speed><course>271.807653</course><hAcc>1.594369</hAcc><vAcc>1.146028</vAcc></extensions></trkpt>
      <trkpt lon="-117.333619" lat="33.979409"><ele>315.032960</ele><time>2025-04-09T02:03:36Z</time><extensions><speed>1.121347</speed><course>268.749099</course><hAcc>1.578265</hAcc><vAcc>1.137875</vAcc></extensions></trkpt>
      <trkpt lon="-117.333631" lat="33.979409"><ele>314.960505</ele><time>2025-04-09T02:03:37Z</time><extensions><speed>1.131513</speed><course>268.742764</course><hAcc>1.562232</hAcc><vAcc>1.131336</vAcc></extensions></trkpt>
      <trkpt lon="-117.333643" lat="33.979409"><ele>314.882054</ele><time>2025-04-09T02:03:38Z</time><extensions><speed>1.125339</speed><course>270.534291</course><hAcc>1.546123</hAcc><vAcc>1.127048</vAcc></extensions></trkpt>
      <trkpt lon="-117.333656" lat="33.979409"><ele>314.794258</ele><time>2025-04-09T02:03:39Z</time><extensions><speed>1.110979</speed><course>271.051246</course><hAcc>1.534881</hAcc><vAcc>1.122474</vAcc></extensions></trkpt>
      <trkpt lon="-117.333668" lat="33.979409"><ele>314.711532</ele><time>2025-04-09T02:03:40Z</time><extensions><speed>1.158887</speed><course>272.355454</course><hAcc>1.535901</hAcc><vAcc>1.119043</vAcc></extensions></trkpt>
      <trkpt lon="-117.333680" lat="33.979410"><ele>314.636035</ele><time>2025-04-09T02:03:41Z</time><extensions><speed>1.166420</speed><course>272.924622</course><hAcc>1.529320</hAcc><vAcc>1.113282</vAcc></extensions></trkpt>
      <trkpt lon="-117.333693" lat="33.979410"><ele>314.561926</ele><time>2025-04-09T02:03:42Z</time><extensions><speed>1.110435</speed><course>272.518753</course><hAcc>1.491963</hAcc><vAcc>1.109071</vAcc></extensions></trkpt>
      <trkpt lon="-117.333705" lat="33.979410"><ele>314.490133</ele><time>2025-04-09T02:03:43Z</time><extensions><speed>1.110356</speed><course>271.694996</course><hAcc>1.494830</hAcc><vAcc>1.103546</vAcc></extensions></trkpt>
      <trkpt lon="-117.333717" lat="33.979411"><ele>314.398250</ele><time>2025-04-09T02:03:44Z</time><extensions><speed>1.165105</speed><course>270.111001</course><hAcc>1.525828</hAcc><vAcc>1.098934</vAcc></extensions></trkpt>
      <trkpt lon="-117.333730" lat="33.979411"><ele>314.316792</ele><time>2025-04-09T02:03:45Z</time><extensions><speed>1.135416</speed><course>270.450869</course><hAcc>1.510377</hAcc><vAcc>1.092872</vAcc></extensions></trkpt>
      <trkpt lon="-117.333742" lat="33.979411"><ele>314.273467</ele><time>2025-04-09T02:03:46Z</time><extensions><speed>1.053138</speed><course>269.633259</course><hAcc>1.506529</hAcc><vAcc>1.087382</vAcc></extensions></trkpt>
      <trkpt lon="-117.333752" lat="33.979411"><ele>314.235105</ele><time>2025-04-09T02:03:47Z</time><extensions><speed>0.932805</speed><course>268.268384</course><hAcc>1.514994</hAcc><vAcc>1.082967</vAcc></extensions></trkpt>
      <trkpt lon="-117.333762" lat="33.979410"><ele>314.210179</ele><time>2025-04-09T02:03:48Z</time><extensions><speed>0.896181</speed><course>266.721022</course><hAcc>1.508917</hAcc><vAcc>1.078787</vAcc></extensions></trkpt>
      <trkpt lon="-117.333773" lat="33.979410"><ele>314.187358</ele><time>2025-04-09T02:03:49Z</time><extensions><speed>1.019137</speed><course>266.658178</course><hAcc>1.480407</hAcc><vAcc>1.074715</vAcc></extensions></trkpt>
      <trkpt lon="-117.333784" lat="33.979409"><ele>314.167870</ele><time>2025-04-09T02:03:50Z</time><extensions><speed>1.042738</speed><course>267.812696</course><hAcc>1.482193</hAcc><vAcc>1.068707</vAcc></extensions></trkpt>
      <trkpt lon="-117.333796" lat="33.979409"><ele>314.119567</ele><time>2025-04-09T02:03:51Z</time><extensions><speed>1.116872</speed><course>269.029123</course><hAcc>1.463551</hAcc><vAcc>1.063940</vAcc></extensions></trkpt>
      <trkpt lon="-117.333809" lat="33.979409"><ele>314.084238</ele><time>2025-04-09T02:03:52Z</time><extensions><speed>1.271651</speed><course>270.507731</course><hAcc>1.467936</hAcc><vAcc>1.058448</vAcc></extensions></trkpt>
      <trkpt lon="-117.333823" lat="33.979409"><ele>314.050398</ele><time>2025-04-09T02:03:53Z</time><extensions><speed>1.291121</speed><course>271.641106</course><hAcc>1.462515</hAcc><vAcc>1.052978</vAcc></extensions></trkpt>
      <trkpt lon="-117.333836" lat="33.979410"><ele>314.030041</ele><time>2025-04-09T02:03:54Z</time><extensions><speed>1.244227</speed><course>270.064873</course><hAcc>1.465945</hAcc><vAcc>1.047662</vAcc></extensions></trkpt>
      <trkpt lon="-117.333850" lat="33.979410"><ele>314.003940</ele><time>2025-04-09T02:03:55Z</time><extensions><speed>1.219138</speed><course>270.481881</course><hAcc>1.449335</hAcc><vAcc>1.043600</vAcc></extensions></trkpt>
      <trkpt lon="-117.333863" lat="33.979410"><ele>313.985297</ele><time>2025-04-09T02:03:56Z</time><extensions><speed>1.260730</speed><course>273.600582</course><hAcc>1.456894</hAcc><vAcc>1.039902</vAcc></extensions></trkpt>
      <trkpt lon="-117.333877" lat="33.979411"><ele>313.969667</ele><time>2025-04-09T02:03:57Z</time><extensions><speed>1.329837</speed><course>273.407671</course><hAcc>1.497067</hAcc><vAcc>1.037192</vAcc></extensions></trkpt>
      <trkpt lon="-117.333892" lat="33.979412"><ele>313.964260</ele><time>2025-04-09T02:03:58Z</time><extensions><speed>1.292701</speed><course>273.039210</course><hAcc>1.527845</hAcc><vAcc>1.035020</vAcc></extensions></trkpt>
      <trkpt lon="-117.333906" lat="33.979412"><ele>313.963120</ele><time>2025-04-09T02:03:59Z</time><extensions><speed>1.316312</speed><course>273.823657</course><hAcc>1.515177</hAcc><vAcc>1.030956</vAcc></extensions></trkpt>
      <trkpt lon="-117.333920" lat="33.979413"><ele>313.980681</ele><time>2025-04-09T02:04:00Z</time><extensions><speed>1.326341</speed><course>275.598103</course><hAcc>1.504647</hAcc><vAcc>1.028027</vAcc></extensions></trkpt>
      <trkpt lon="-117.333935" lat="33.979414"><ele>313.988808</ele><time>2025-04-09T02:04:01Z</time><extensions><speed>1.367813</speed><course>276.330453</course><hAcc>1.500758</hAcc><vAcc>1.025182</vAcc></extensions></trkpt>
      <trkpt lon="-117.333950" lat="33.979416"><ele>314.005403</ele><time>2025-04-09T02:04:02Z</time><extensions><speed>1.375062</speed><course>277.206509</course><hAcc>1.496661</hAcc><vAcc>1.021892</vAcc></extensions></trkpt>
      <trkpt lon="-117.333964" lat="33.979417"><ele>314.027943</ele><time>2025-04-09T02:04:03Z</time><extensions><speed>1.324432</speed><course>276.043846</course><hAcc>1.483344</hAcc><vAcc>1.021240</vAcc></extensions></trkpt>
      <trkpt lon="-117.333978" lat="33.979418"><ele>314.060449</ele><time>2025-04-09T02:04:04Z</time><extensions><speed>1.272194</speed><course>275.639018</course><hAcc>1.472379</hAcc><vAcc>1.021135</vAcc></extensions></trkpt>
      <trkpt lon="-117.333992" lat="33.979419"><ele>314.086863</ele><time>2025-04-09T02:04:05Z</time><extensions><speed>1.219568</speed><course>274.122949</course><hAcc>1.480277</hAcc><vAcc>1.022104</vAcc></extensions></trkpt>
      <trkpt lon="-117.334005" lat="33.979420"><ele>314.124768</ele><time>2025-04-09T02:04:06Z</time><extensions><speed>1.212996</speed><course>273.868512</course><hAcc>1.456242</hAcc><vAcc>1.021787</vAcc></extensions></trkpt>
      <trkpt lon="-117.334018" lat="33.979421"><ele>314.167058</ele><time>2025-04-09T02:04:07Z</time><extensions><speed>1.215584</speed><course>272.556691</course><hAcc>1.460213</hAcc><vAcc>1.021021</vAcc></extensions></trkpt>
      <trkpt lon="-117.334031" lat="33.979421"><ele>314.204819</ele><time>2025-04-09T02:04:08Z</time><extensions><speed>1.096330</speed><course>270.651612</course><hAcc>1.469469</hAcc><vAcc>1.022086</vAcc></extensions></trkpt>
      <trkpt lon="-117.334043" lat="33.979421"><ele>314.248377</ele><time>2025-04-09T02:04:09Z</time><extensions><speed>1.149197</speed><course>271.607529</course><hAcc>1.439697</hAcc><vAcc>1.023048</vAcc></extensions></trkpt>
      <trkpt lon="-117.334056" lat="33.979421"><ele>314.290099</ele><time>2025-04-09T02:04:10Z</time><extensions><speed>1.231738</speed><course>269.126089</course><hAcc>1.432497</hAcc><vAcc>1.024978</vAcc></extensions></trkpt>
      <trkpt lon="-117.334069" lat="33.979421"><ele>314.332374</ele><time>2025-04-09T02:04:11Z</time><extensions><speed>1.256748</speed><course>266.894977</course><hAcc>1.438643</hAcc><vAcc>1.027312</vAcc></extensions></trkpt>
      <trkpt lon="-117.334083" lat="33.979420"><ele>314.361590</ele><time>2025-04-09T02:04:12Z</time><extensions><speed>1.252839</speed><course>265.112385</course><hAcc>1.438563</hAcc><vAcc>1.030247</vAcc></extensions></trkpt>
      <trkpt lon="-117.334097" lat="33.979419"><ele>314.382469</ele><time>2025-04-09T02:04:13Z</time><extensions><speed>1.240796</speed><course>262.923382</course><hAcc>1.445286</hAcc><vAcc>1.031406</vAcc></extensions></trkpt>
      <trkpt lon="-117.334110" lat="33.979417"><ele>314.404612</ele><time>2025-04-09T02:04:14Z</time><extensions><speed>1.185757</speed><course>261.445040</course><hAcc>1.454451</hAcc><vAcc>1.032907</vAcc></extensions></trkpt>
      <trkpt lon="-117.334122" lat="33.979416"><ele>314.424076</ele><time>2025-04-09T02:04:15Z</time><extensions><speed>1.194878</speed><course>261.664363</course><hAcc>1.456008</hAcc><vAcc>1.034293</vAcc></extensions></trkpt>
      <trkpt lon="-117.334135" lat="33.979414"><ele>314.429249</ele><time>2025-04-09T02:04:16Z</time><extensions><speed>1.211534</speed><course>264.828815</course><hAcc>1.419755</hAcc><vAcc>1.035886</vAcc></extensions></trkpt>
      <trkpt lon="-117.334148" lat="33.979414"><ele>314.422737</ele><time>2025-04-09T02:04:17Z</time><extensions><speed>1.221532</speed><course>268.131829</course><hAcc>1.413980</hAcc><vAcc>1.037393</vAcc></extensions></trkpt>
      <trkpt lon="-117.334162" lat="33.979414"><ele>314.411750</ele><time>2025-04-09T02:04:18Z</time><extensions><speed>1.223002</speed><course>272.192508</course><hAcc>1.432368</hAcc><vAcc>1.038371</vAcc></extensions></trkpt>
      <trkpt lon="-117.334174" lat="33.979414"><ele>314.394207</ele><time>2025-04-09T02:04:19Z</time><extensions><speed>1.168172</speed><course>273.417053</course><hAcc>1.417371</hAcc><vAcc>1.037550</vAcc></extensions></trkpt>
      <trkpt lon="-117.334187" lat="33.979415"><ele>314.387235</ele><time>2025-04-09T02:04:20Z</time><extensions><speed>1.157040</speed><course>273.865141</course><hAcc>1.419619</hAcc><vAcc>1.037828</vAcc></extensions></trkpt>
      <trkpt lon="-117.334200" lat="33.979416"><ele>314.370663</ele><time>2025-04-09T02:04:21Z</time><extensions><speed>1.181953</speed><course>273.931953</course><hAcc>1.435186</hAcc><vAcc>1.038256</vAcc></extensions></trkpt>
      <trkpt lon="-117.334213" lat="33.979416"><ele>314.345493</ele><time>2025-04-09T02:04:22Z</time><extensions><speed>1.190445</speed><course>272.916900</course><hAcc>1.443810</hAcc><vAcc>1.038924</vAcc></extensions></trkpt>
      <trkpt lon="-117.334225" lat="33.979417"><ele>314.313398</ele><time>2025-04-09T02:04:23Z</time><extensions><speed>1.182278</speed><course>271.353926</course><hAcc>1.416675</hAcc><vAcc>1.039577</vAcc></extensions></trkpt>
      <trkpt lon="-117.334238" lat="33.979417"><ele>314.269270</ele><time>2025-04-09T02:04:24Z</time><extensions><speed>1.203658</speed><course>272.089616</course><hAcc>1.418996</hAcc><vAcc>1.037825</vAcc></extensions></trkpt>
      <trkpt lon="-117.334251" lat="33.979417"><ele>314.212274</ele><time>2025-04-09T02:04:25Z</time><extensions><speed>1.151617</speed><course>270.887896</course><hAcc>1.432764</hAcc><vAcc>1.035159</vAcc></extensions></trkpt>
      <trkpt lon="-117.334263" lat="33.979417"><ele>314.171709</ele><time>2025-04-09T02:04:26Z</time><extensions><speed>1.081491</speed><course>270.768459</course><hAcc>1.444160</hAcc><vAcc>1.032046</vAcc></extensions></trkpt>
      <trkpt lon="-117.334275" lat="33.979418"><ele>314.138386</ele><time>2025-04-09T02:04:27Z</time><extensions><speed>0.997179</speed><course>271.979988</course><hAcc>1.457179</hAcc><vAcc>1.030110</vAcc></extensions></trkpt>
      <trkpt lon="-117.334286" lat="33.979418"><ele>314.109644</ele><time>2025-04-09T02:04:28Z</time><extensions><speed>1.087454</speed><course>273.349017</course><hAcc>1.476030</hAcc><vAcc>1.026239</vAcc></extensions></trkpt>
      <trkpt lon="-117.334298" lat="33.979418"><ele>314.081511</ele><time>2025-04-09T02:04:29Z</time><extensions><speed>1.172605</speed><course>273.337143</course><hAcc>1.458555</hAcc><vAcc>1.023490</vAcc></extensions></trkpt>
      <trkpt lon="-117.334311" lat="33.979419"><ele>314.051250</ele><time>2025-04-09T02:04:30Z</time><extensions><speed>1.234277</speed><course>273.363082</course><hAcc>1.460453</hAcc><vAcc>1.020167</vAcc></extensions></trkpt>
      <trkpt lon="-117.334325" lat="33.979420"><ele>314.026284</ele><time>2025-04-09T02:04:31Z</time><extensions><speed>1.282063</speed><course>272.494494</course><hAcc>1.475802</hAcc><vAcc>1.016559</vAcc></extensions></trkpt>
      <trkpt lon="-117.334338" lat="33.979420"><ele>313.999229</ele><time>2025-04-09T02:04:32Z</time><extensions><speed>1.270824</speed><course>270.631655</course><hAcc>1.490105</hAcc><vAcc>1.011826</vAcc></extensions></trkpt>
      <trkpt lon="-117.334352" lat="33.979420"><ele>313.977662</ele><time>2025-04-09T02:04:33Z</time><extensions><speed>1.219181</speed><course>271.737113</course><hAcc>1.498460</hAcc><vAcc>1.008337</vAcc></extensions></trkpt>
      <trkpt lon="-117.334365" lat="33.979421"><ele>313.954036</ele><time>2025-04-09T02:04:34Z</time><extensions><speed>1.139071</speed><course>272.578704</course><hAcc>1.483559</hAcc><vAcc>1.003811</vAcc></extensions></trkpt>
      <trkpt lon="-117.334377" lat="33.979421"><ele>313.937646</ele><time>2025-04-09T02:04:35Z</time><extensions><speed>1.162129</speed><course>270.740169</course><hAcc>1.472189</hAcc><vAcc>0.999664</vAcc></extensions></trkpt>
      <trkpt lon="-117.334390" lat="33.979421"><ele>313.921166</ele><time>2025-04-09T02:04:36Z</time><extensions><speed>1.250034</speed><course>267.250045</course><hAcc>1.467375</hAcc><vAcc>0.996450</vAcc></extensions></trkpt>
      <trkpt lon="-117.334404" lat="33.979420"><ele>313.888142</ele><time>2025-04-09T02:04:37Z</time><extensions><speed>1.265276</speed><course>264.862867</course><hAcc>1.452080</hAcc><vAcc>0.994174</vAcc></extensions></trkpt>
      <trkpt lon="-117.334417" lat="33.979418"><ele>313.830938</ele><time>2025-04-09T02:04:38Z</time><extensions><speed>1.240021</speed><course>262.546312</course><hAcc>1.429252</hAcc><vAcc>0.991490</vAcc></extensions></trkpt>
      <trkpt lon="-117.334431" lat="33.979417"><ele>313.772497</ele><time>2025-04-09T02:04:39Z</time><extensions><speed>1.236184</speed><course>263.008225</course><hAcc>1.426324</hAcc><vAcc>0.989393</vAcc></extensions></trkpt>
      <trkpt lon="-117.334444" lat="33.979416"><ele>313.713867</ele><time>2025-04-09T02:04:40Z</time><extensions><speed>1.218579</speed><course>267.603081</course><hAcc>1.429002</hAcc><vAcc>0.986810</vAcc></extensions></trkpt>
      <trkpt lon="-117.334456" lat="33.979416"><ele>313.661364</ele><time>2025-04-09T02:04:41Z</time><extensions><speed>1.080922</speed><course>271.751010</course><hAcc>1.436977</hAcc><vAcc>0.984646</vAcc></extensions></trkpt>
      <trkpt lon="-117.334468" lat="33.979416"><ele>313.602349</ele><time>2025-04-09T02:04:42Z</time><extensions><speed>1.100117</speed><course>272.122817</course><hAcc>1.405450</hAcc><vAcc>0.983252</vAcc></extensions></trkpt>
      <trkpt lon="-117.334480" lat="33.979417"><ele>313.546584</ele><time>2025-04-09T02:04:43Z</time><extensions><speed>1.186024</speed><course>271.525397</course><hAcc>1.408620</hAcc><vAcc>0.981525</vAcc></extensions></trkpt>
      <trkpt lon="-117.334493" lat="33.979417"><ele>313.494431</ele><time>2025-04-09T02:04:44Z</time><extensions><speed>1.184609</speed><course>269.619219</course><hAcc>1.425230</hAcc><vAcc>0.979620</vAcc></extensions></trkpt>
      <trkpt lon="-117.334506" lat="33.979417"><ele>313.459728</ele><time>2025-04-09T02:04:45Z</time><extensions><speed>1.110826</speed><course>267.753207</course><hAcc>1.448451</hAcc><vAcc>0.977392</vAcc></extensions></trkpt>
      <trkpt lon="-117.334517" lat="33.979416"><ele>313.422301</ele><time>2025-04-09T02:04:46Z</time><extensions><speed>0.922019</speed><course>267.992618</course><hAcc>1.469135</hAcc><vAcc>0.974470</vAcc></extensions></trkpt>
      <trkpt lon="-117.334527" lat="33.979416"><ele>313.380960</ele><time>2025-04-09T02:04:47Z</time><extensions><speed>0.937431</speed><course>268.889078</course><hAcc>1.471293</hAcc><vAcc>0.971846</vAcc></extensions></trkpt>
      <trkpt lon="-117.334537" lat="33.979416"><ele>313.313105</ele><time>2025-04-09T02:04:48Z</time><extensions><speed>1.014164</speed><course>270.068174</course><hAcc>1.443933</hAcc><vAcc>0.969361</vAcc></extensions></trkpt>
      <trkpt lon="-117.334549" lat="33.979416"><ele>313.260252</ele><time>2025-04-09T02:04:49Z</time><extensions><speed>1.078999</speed><course>269.751422</course><hAcc>1.443159</hAcc><vAcc>0.966679</vAcc></extensions></trkpt>
      <trkpt lon="-117.334561" lat="33.979416"><ele>313.220502</ele><time>2025-04-09T02:04:50Z</time><extensions><speed>1.116192</speed><course>271.499128</course><hAcc>1.440449</hAcc><vAcc>0.963999</vAcc></extensions></trkpt>
      <trkpt lon="-117.334573" lat="33.979416"><ele>313.184084</ele><time>2025-04-09T02:04:51Z</time><extensions><speed>1.185742</speed><course>272.778465</course><hAcc>1.431136</hAcc><vAcc>0.960180</vAcc></extensions></trkpt>
      <trkpt lon="-117.334586" lat="33.979417"><ele>313.151273</ele><time>2025-04-09T02:04:52Z</time><extensions><speed>1.229029</speed><course>273.285402</course><hAcc>1.418358</hAcc><vAcc>0.957684</vAcc></extensions></trkpt>
      <trkpt lon="-117.334600" lat="33.979417"><ele>313.123460</ele><time>2025-04-09T02:04:53Z</time><extensions><speed>1.217856</speed><course>273.731629</course><hAcc>1.409044</hAcc><vAcc>0.954546</vAcc></extensions></trkpt>
      <trkpt lon="-117.334612" lat="33.979418"><ele>313.105629</ele><time>2025-04-09T02:04:54Z</time><extensions><speed>1.166715</speed><course>272.422899</course><hAcc>1.406751</hAcc><vAcc>0.952215</vAcc></extensions></trkpt>
      <trkpt lon="-117.334625" lat="33.979418"><ele>313.093481</ele><time>2025-04-09T02:04:55Z</time><extensions><speed>1.086207</speed><course>268.308413</course><hAcc>1.408438</hAcc><vAcc>0.951030</vAcc></extensions></trkpt>
      <trkpt lon="-117.334636" lat="33.979417"><ele>313.079580</ele><time>2025-04-09T02:04:56Z</time><extensions><speed>1.089450</speed><course>263.475821</course><hAcc>1.394154</hAcc><vAcc>0.949608</vAcc></extensions></trkpt>
      <trkpt lon="-117.334648" lat="33.979416"><ele>313.051821</ele><time>2025-04-09T02:04:57Z</time><extensions><speed>1.133288</speed><course>259.265960</course><hAcc>1.396218</hAcc><vAcc>0.950052</vAcc></extensions></trkpt>
      <trkpt lon="-117.334660" lat="33.979414"><ele>313.019760</ele><time>2025-04-09T02:04:58Z</time><extensions><speed>1.140164</speed><course>256.750277</course><hAcc>1.402917</hAcc><vAcc>0.949811</vAcc></extensions></trkpt>
      <trkpt lon="-117.334672" lat="33.979412"><ele>312.983863</ele><time>2025-04-09T02:04:59Z</time><extensions><speed>1.102705</speed><course>259.967125</course><hAcc>1.426616</hAcc><vAcc>0.950395</vAcc></extensions></trkpt>
      <trkpt lon="-117.334684" lat="33.979410"><ele>312.950898</ele><time>2025-04-09T02:05:00Z</time><extensions><speed>1.113972</speed><course>265.843898</course><hAcc>1.442009</hAcc><vAcc>0.952395</vAcc></extensions></trkpt>
      <trkpt lon="-117.334696" lat="33.979410"><ele>312.914979</ele><time>2025-04-09T02:05:01Z</time><extensions><speed>1.097952</speed><course>268.017240</course><hAcc>1.444791</hAcc><vAcc>0.954896</vAcc></extensions></trkpt>
      <trkpt lon="-117.334708" lat="33.979409"><ele>312.876368</ele><time>2025-04-09T02:05:02Z</time><extensions><speed>1.153233</speed><course>268.907903</course><hAcc>1.470621</hAcc><vAcc>0.956979</vAcc></extensions></trkpt>
      <trkpt lon="-117.334721" lat="33.979409"><ele>312.847848</ele><time>2025-04-09T02:05:03Z</time><extensions><speed>1.178883</speed><course>267.329704</course><hAcc>1.456164</hAcc><vAcc>0.959076</vAcc></extensions></trkpt>
      <trkpt lon="-117.334734" lat="33.979409"><ele>312.812414</ele><time>2025-04-09T02:05:04Z</time><extensions><speed>1.192560</speed><course>267.215160</course><hAcc>1.458901</hAcc><vAcc>0.961589</vAcc></extensions></trkpt>
      <trkpt lon="-117.334746" lat="33.979408"><ele>312.759058</ele><time>2025-04-09T02:05:05Z</time><extensions><speed>1.097026</speed><course>268.512070</course><hAcc>1.468889</hAcc><vAcc>0.963369</vAcc></extensions></trkpt>
      <trkpt lon="-117.334757" lat="33.979408"><ele>312.705606</ele><time>2025-04-09T02:05:06Z</time><extensions><speed>0.974797</speed><course>270.948734</course><hAcc>1.473744</hAcc><vAcc>0.965877</vAcc></extensions></trkpt>
      <trkpt lon="-117.334767" lat="33.979408"><ele>312.646462</ele><time>2025-04-09T02:05:07Z</time><extensions><speed>0.925946</speed><course>270.678477</course><hAcc>1.476947</hAcc><vAcc>0.967170</vAcc></extensions></trkpt>
      <trkpt lon="-117.334778" lat="33.979408"><ele>312.613128</ele><time>2025-04-09T02:05:08Z</time><extensions><speed>0.949961</speed><course>270.133425</course><hAcc>1.457276</hAcc><vAcc>0.968566</vAcc></extensions></trkpt>
      <trkpt lon="-117.334788" lat="33.979408"><ele>312.579785</ele><time>2025-04-09T02:05:09Z</time><extensions><speed>1.026022</speed><course>272.608408</course><hAcc>1.444663</hAcc><vAcc>0.969412</vAcc></extensions></trkpt>
      <trkpt lon="-117.334800" lat="33.979409"><ele>312.547702</ele><time>2025-04-09T02:05:10Z</time><extensions><speed>1.127567</speed><course>273.326683</course><hAcc>1.439594</hAcc><vAcc>0.969000</vAcc></extensions></trkpt>
      <trkpt lon="-117.334812" lat="33.979409"><ele>312.531044</ele><time>2025-04-09T02:05:11Z</time><extensions><speed>1.154411</speed><course>272.153393</course><hAcc>1.435445</hAcc><vAcc>0.967651</vAcc></extensions></trkpt>
      <trkpt lon="-117.334825" lat="33.979410"><ele>312.531783</ele><time>2025-04-09T02:05:12Z</time><extensions><speed>1.111724</speed><course>268.382884</course><hAcc>1.434307</hAcc><vAcc>0.965369</vAcc></extensions></trkpt>
      <trkpt lon="-117.334836" lat="33.979409"><ele>312.532643</ele><time>2025-04-09T02:05:13Z</time><extensions><speed>1.071989</speed><course>269.220428</course><hAcc>1.441642</hAcc><vAcc>0.963819</vAcc></extensions></trkpt>
      <trkpt lon="-117.334848" lat="33.979410"><ele>312.528329</ele><time>2025-04-09T02:05:14Z</time><extensions><speed>1.026694</speed><course>272.943854</course><hAcc>1.451870</hAcc><vAcc>0.962449</vAcc></extensions></trkpt>
      <trkpt lon="-117.334858" lat="33.979410"><ele>312.532484</ele><time>2025-04-09T02:05:15Z</time><extensions><speed>0.969089</speed><course>275.401056</course><hAcc>1.429551</hAcc><vAcc>0.960720</vAcc></extensions></trkpt>
      <trkpt lon="-117.334869" lat="33.979411"><ele>312.540141</ele><time>2025-04-09T02:05:16Z</time><extensions><speed>1.030159</speed><course>277.705079</course><hAcc>1.440734</hAcc><vAcc>0.957881</vAcc></extensions></trkpt>
      <trkpt lon="-117.334881" lat="33.979412"><ele>312.547433</ele><time>2025-04-09T02:05:17Z</time><extensions><speed>1.077133</speed><course>271.597336</course><hAcc>1.458881</hAcc><vAcc>0.967176</vAcc></extensions></trkpt>
      <trkpt lon="-117.334893" lat="33.979412"><ele>312.559258</ele><time>2025-04-09T02:05:18Z</time><extensions><speed>1.217084</speed><course>267.589951</course><hAcc>1.477210</hAcc><vAcc>0.982168</vAcc></extensions></trkpt>
      <trkpt lon="-117.334906" lat="33.979411"><ele>312.574864</ele><time>2025-04-09T02:05:19Z</time><extensions><speed>1.260321</speed><course>266.101687</course><hAcc>1.491646</hAcc><vAcc>1.005195</vAcc></extensions></trkpt>
      <trkpt lon="-117.334920" lat="33.979411"><ele>312.593410</ele><time>2025-04-09T02:05:20Z</time><extensions><speed>1.241627</speed><course>269.725299</course><hAcc>1.501572</hAcc><vAcc>1.039004</vAcc></extensions></trkpt>
      <trkpt lon="-117.334933" lat="33.979411"><ele>312.614036</ele><time>2025-04-09T02:05:21Z</time><extensions><speed>1.240215</speed><course>274.503350</course><hAcc>1.516437</hAcc><vAcc>1.086605</vAcc></extensions></trkpt>
      <trkpt lon="-117.334946" lat="33.979413"><ele>312.635876</ele><time>2025-04-09T02:05:22Z</time><extensions><speed>1.159961</speed><course>278.699893</course><hAcc>1.543009</hAcc><vAcc>1.151005</vAcc></extensions></trkpt>
      <trkpt lon="-117.334958" lat="33.979414"><ele>312.658213</ele><time>2025-04-09T02:05:23Z</time><extensions><speed>1.068909</speed><course>282.215632</course><hAcc>1.599033</hAcc><vAcc>1.234907</vAcc></extensions></trkpt>
      <trkpt lon="-117.334969" lat="33.979416"><ele>312.680617</ele><time>2025-04-09T02:05:24Z</time><extensions><speed>1.033544</speed><course>282.617610</course><hAcc>1.690917</hAcc><vAcc>1.340482</vAcc></extensions></trkpt>
      <trkpt lon="-117.334980" lat="33.979418"><ele>312.702914</ele><time>2025-04-09T02:05:25Z</time><extensions><speed>0.992410</speed><course>280.113070</course><hAcc>1.828689</hAcc><vAcc>1.469286</vAcc></extensions></trkpt>
      <trkpt lon="-117.334990" lat="33.979420"><ele>312.725070</ele><time>2025-04-09T02:05:26Z</time><extensions><speed>0.969874</speed><course>279.864355</course><hAcc>2.075124</hAcc><vAcc>1.622252</vAcc></extensions></trkpt>
    </trkseg>
  </trk>
</gpx>