<?xml version="1.0" encoding="UTF-8"?>
<gpx version="1.1" creator="Apple Health Export" xmlns="http://www.topografix.com/GPX/1/1" xmlns:xsi="http://www.w3.org/2001/XMLSchema-instance" xsi:schemaLocation="http://www.topografix.com/GPX/1/1 http://www.topografix.com/GPX/1/1/gpx.xsd">
  <metadata>
    <time>2026-01-11T07:57:30Z</time>
  </metadata>
  <trk>
    <name>Route 2024-07-10 6:08pm</name>
    <trkseg>
      <trkpt lon="83.297126" lat="17.741508"><ele>44.923737</ele><time>2024-07-11T01:05:04Z</time><extensions><speed>0.171640</speed><course>281.360541</course><hAcc>6.425563</hAcc><vAcc>4.372984</vAcc></extensions></trkpt>
      <trkpt lon="83.297122" lat="17.741510"><ele>44.974901</ele><time>2024-07-11T01:05:05Z</time><extensions><speed>0.197290</speed><course>281.692055</course><hAcc>5.872971</hAcc><vAcc>3.667751</vAcc></extensions></trkpt>
      <trkpt lon="83.297115" lat="17.741514"><ele>45.013409</ele><time>2024-07-11T01:05:06Z</time><extensions><speed>0.232808</speed><course>283.258351</course><hAcc>5.505669</hAcc><vAcc>3.267088</vAcc></extensions></trkpt>
      <trkpt lon="83.297108" lat="17.741517"><ele>45.031699</ele><time>2024-07-11T01:05:07Z</time><extensions><speed>0.259411</speed><course>283.814655</course><hAcc>5.264652</hAcc><vAcc>2.938118</vAcc></extensions></trkpt>
      <trkpt lon="83.297100" lat="17.741521"><ele>45.048818</ele><time>2024-07-11T01:05:08Z</time><extensions><speed>0.264275</speed><course>284.901411</course><hAcc>5.088353</hAcc><vAcc>2.648083</vAcc></extensions></trkpt>
      <trkpt lon="83.297093" lat="17.741525"><ele>45.064015</ele><time>2024-07-11T01:05:09Z</time><extensions><speed>0.391483</speed><course>287.230257</course><hAcc>4.905432</hAcc><vAcc>2.385159</vAcc></extensions></trkpt>
      <trkpt lon="83.297084" lat="17.741528"><ele>45.079469</ele><time>2024-07-11T01:05:10Z</time><extensions><speed>0.510585</speed><course>289.785366</course><hAcc>4.735814</hAcc><vAcc>2.144493</vAcc></extensions></trkpt>
      <trkpt lon="83.297074" lat="17.741533"><ele>45.097439</ele><time>2024-07-11T01:05:11Z</time><extensions><speed>0.622358</speed><course>292.570113</course><hAcc>4.589355</hAcc><vAcc>1.924120</vAcc></extensions></trkpt>
      <trkpt lon="83.297064" lat="17.741537"><ele>45.119986</ele><time>2024-07-11T01:05:12Z</time><extensions><speed>0.750418</speed><course>294.298157</course><hAcc>4.458550</hAcc><vAcc>1.723497</vAcc></extensions></trkpt>
      <trkpt lon="83.297053" lat="17.741540"><ele>45.146086</ele><time>2024-07-11T01:05:13Z</time><extensions><speed>0.821820</speed><course>293.925562</course><hAcc>4.333272</hAcc><vAcc>1.543027</vAcc></extensions></trkpt>
      <trkpt lon="83.297042" lat="17.741543"><ele>45.173612</ele><time>2024-07-11T01:05:14Z</time><extensions><speed>0.804470</speed><course>291.490446</course><hAcc>4.202464</hAcc><vAcc>1.383991</vAcc></extensions></trkpt>
      <trkpt lon="83.297030" lat="17.741545"><ele>45.204499</ele><time>2024-07-11T01:05:15Z</time><extensions><speed>0.948475</speed><course>285.681281</course><hAcc>4.041884</hAcc><vAcc>1.222545</vAcc></extensions></trkpt>
      <trkpt lon="83.297011" lat="17.741547"><ele>45.239459</ele><time>2024-07-11T01:05:17Z</time><extensions><speed>1.456660</speed><course>272.052391</course><hAcc>3.912370</hAcc><vAcc>1.060436</vAcc></extensions></trkpt>
      <trkpt lon="83.296997" lat="17.741548"><ele>45.260606</ele><time>2024-07-11T01:05:18Z</time><extensions><speed>1.535209</speed><course>271.915130</course><hAcc>3.736834</hAcc><vAcc>0.975474</vAcc></extensions></trkpt>
      <trkpt lon="83.296982" lat="17.741550"><ele>45.279850</ele><time>2024-07-11T01:05:19Z</time><extensions><speed>1.785502</speed><course>271.211214</course><hAcc>3.572123</hAcc><vAcc>0.909928</vAcc></extensions></trkpt>
      <trkpt lon="83.296968" lat="17.741552"><ele>45.297551</ele><time>2024-07-11T01:05:20Z</time><extensions><speed>1.767163</speed><course>269.935298</course><hAcc>3.406174</hAcc><vAcc>0.861148</vAcc></extensions></trkpt>
      <trkpt lon="83.296953" lat="17.741553"><ele>45.313653</ele><time>2024-07-11T01:05:21Z</time><extensions><speed>1.829901</speed><course>268.205505</course><hAcc>3.239618</hAcc><vAcc>0.826183</vAcc></extensions></trkpt>
      <trkpt lon="83.296939" lat="17.741554"><ele>45.329150</ele><time>2024-07-11T01:05:22Z</time><extensions><speed>1.753148</speed><course>268.372325</course><hAcc>3.085879</hAcc><vAcc>0.802065</vAcc></extensions></trkpt>
      <trkpt lon="83.296924" lat="17.741555"><ele>45.344776</ele><time>2024-07-11T01:05:23Z</time><extensions><speed>1.747343</speed><course>270.063017</course><hAcc>2.941798</hAcc><vAcc>0.786064</vAcc></extensions></trkpt>
      <trkpt lon="83.296910" lat="17.741556"><ele>45.360438</ele><time>2024-07-11T01:05:24Z</time><extensions><speed>1.785461</speed><course>275.201166</course><hAcc>2.828893</hAcc><vAcc>0.775856</vAcc></extensions></trkpt>
      <trkpt lon="83.296895" lat="17.741559"><ele>45.377217</ele><time>2024-07-11T01:05:25Z</time><extensions><speed>1.757777</speed><course>279.393557</course><hAcc>2.713325</hAcc><vAcc>0.769591</vAcc></extensions></trkpt>
      <trkpt lon="83.296881" lat="17.741562"><ele>45.396163</ele><time>2024-07-11T01:05:26Z</time><extensions><speed>1.658127</speed><course>282.629534</course><hAcc>2.597642</hAcc><vAcc>0.765884</vAcc></extensions></trkpt>
      <trkpt lon="83.296868" lat="17.741566"><ele>45.417466</ele><time>2024-07-11T01:05:27Z</time><extensions><speed>1.502526</speed><course>287.947390</course><hAcc>2.492249</hAcc><vAcc>0.763747</vAcc></extensions></trkpt>
      <trkpt lon="83.296856" lat="17.741571"><ele>45.440474</ele><time>2024-07-11T01:05:28Z</time><extensions><speed>1.361628</speed><course>299.656787</course><hAcc>2.379540</hAcc><vAcc>0.763400</vAcc></extensions></trkpt>
      <trkpt lon="83.296845" lat="17.741579"><ele>45.463940</ele><time>2024-07-11T01:05:29Z</time><extensions><speed>1.397423</speed><course>312.625931</course><hAcc>2.247004</hAcc><vAcc>0.763055</vAcc></extensions></trkpt>
      <trkpt lon="83.296836" lat="17.741588"><ele>45.489708</ele><time>2024-07-11T01:05:30Z</time><extensions><speed>1.405148</speed><course>326.212470</course><hAcc>2.140581</hAcc><vAcc>0.763015</vAcc></extensions></trkpt>
      <trkpt lon="83.296829" lat="17.741599"><ele>45.514111</ele><time>2024-07-11T01:05:31Z</time><extensions><speed>1.419029</speed><course>337.114475</course><hAcc>2.062958</hAcc><vAcc>0.763290</vAcc></extensions></trkpt>
      <trkpt lon="83.296825" lat="17.741611"><ele>45.538179</ele><time>2024-07-11T01:05:32Z</time><extensions><speed>1.421689</speed><course>345.668398</course><hAcc>2.006523</hAcc><vAcc>0.763757</vAcc></extensions></trkpt>
      <trkpt lon="83.296822" lat="17.741624"><ele>45.576032</ele><time>2024-07-11T01:05:33Z</time><extensions><speed>1.417432</speed><course>348.561603</course><hAcc>1.958284</hAcc><vAcc>0.764196</vAcc></extensions></trkpt>
      <trkpt lon="83.296820" lat="17.741636"><ele>45.617753</ele><time>2024-07-11T01:05:34Z</time><extensions><speed>1.384359</speed><course>349.678751</course><hAcc>1.914588</hAcc><vAcc>0.764665</vAcc></extensions></trkpt>
      <trkpt lon="83.296817" lat="17.741648"><ele>45.653887</ele><time>2024-07-11T01:05:35Z</time><extensions><speed>1.366595</speed><course>350.236269</course><hAcc>1.881627</hAcc><vAcc>0.765146</vAcc></extensions></trkpt>
      <trkpt lon="83.296815" lat="17.741660"><ele>45.705152</ele><time>2024-07-11T01:05:36Z</time><extensions><speed>1.324479</speed><course>344.686518</course><hAcc>1.845020</hAcc><vAcc>0.765580</vAcc></extensions></trkpt>
      <trkpt lon="83.296811" lat="17.741672"><ele>45.764563</ele><time>2024-07-11T01:05:37Z</time><extensions><speed>1.300424</speed><course>340.645092</course><hAcc>1.785942</hAcc><vAcc>0.765883</vAcc></extensions></trkpt>
      <trkpt lon="83.296806" lat="17.741682"><ele>45.833037</ele><time>2024-07-11T01:05:38Z</time><extensions><speed>1.203497</speed><course>332.062833</course><hAcc>1.656475</hAcc><vAcc>0.765947</vAcc></extensions></trkpt>
      <trkpt lon="83.296800" lat="17.741691"><ele>45.909259</ele><time>2024-07-11T01:05:39Z</time><extensions><speed>1.208489</speed><course>323.595156</course><hAcc>1.539674</hAcc><vAcc>0.765702</vAcc></extensions></trkpt>
      <trkpt lon="83.296793" lat="17.741700"><ele>45.990899</ele><time>2024-07-11T01:05:40Z</time><extensions><speed>1.220919</speed><course>319.417683</course><hAcc>1.484674</hAcc><vAcc>0.765384</vAcc></extensions></trkpt>
      <trkpt lon="83.296786" lat="17.741708"><ele>46.072366</ele><time>2024-07-11T01:05:41Z</time><extensions><speed>1.171830</speed><course>318.044845</course><hAcc>1.451896</hAcc><vAcc>0.764818</vAcc></extensions></trkpt>
      <trkpt lon="83.296779" lat="17.741716"><ele>46.156209</ele><time>2024-07-11T01:05:42Z</time><extensions><speed>1.096079</speed><course>316.886481</course><hAcc>1.430741</hAcc><vAcc>0.764079</vAcc></extensions></trkpt>
      <trkpt lon="83.296772" lat="17.741723"><ele>46.242236</ele><time>2024-07-11T01:05:43Z</time><extensions><speed>1.103572</speed><course>320.344729</course><hAcc>1.417838</hAcc><vAcc>0.763959</vAcc></extensions></trkpt>
      <trkpt lon="83.296766" lat="17.741731"><ele>46.329280</ele><time>2024-07-11T01:05:44Z</time><extensions><speed>1.039643</speed><course>324.161754</course><hAcc>1.420591</hAcc><vAcc>0.764263</vAcc></extensions></trkpt>
      <trkpt lon="83.296760" lat="17.741738"><ele>46.416112</ele><time>2024-07-11T01:05:45Z</time><extensions><speed>1.015328</speed><course>327.982984</course><hAcc>1.418415</hAcc><vAcc>0.765258</vAcc></extensions></trkpt>
      <trkpt lon="83.296755" lat="17.741746"><ele>46.501546</ele><time>2024-07-11T01:05:46Z</time><extensions><speed>0.942663</speed><course>331.406143</course><hAcc>1.425341</hAcc><vAcc>0.767375</vAcc></extensions></trkpt>
      <trkpt lon="83.296752" lat="17.741753"><ele>46.583761</ele><time>2024-07-11T01:05:47Z</time><extensions><speed>0.784040</speed><course>336.355668</course><hAcc>1.434987</hAcc><vAcc>0.770640</vAcc></extensions></trkpt>
      <trkpt lon="83.296749" lat="17.741759"><ele>46.655645</ele><time>2024-07-11T01:05:48Z</time><extensions><speed>0.713138</speed><course>339.633973</course><hAcc>1.436989</hAcc><vAcc>0.774828</vAcc></extensions></trkpt>
      <trkpt lon="83.296747" lat="17.741765"><ele>46.727861</ele><time>2024-07-11T01:05:49Z</time><extensions><speed>0.590523</speed><course>338.022968</course><hAcc>1.450620</hAcc><vAcc>0.780225</vAcc></extensions></trkpt>
      <trkpt lon="83.296745" lat="17.741769"><ele>46.805490</ele><time>2024-07-11T01:05:50Z</time><extensions><speed>0.521420</speed><course>335.650529</course><hAcc>1.484584</hAcc><vAcc>0.787328</vAcc></extensions></trkpt>
      <trkpt lon="83.296744" lat="17.741773"><ele>46.881586</ele><time>2024-07-11T01:05:51Z</time><extensions><speed>0.252182</speed><course>355.397151</course><hAcc>1.492946</hAcc><vAcc>0.795039</vAcc></extensions></trkpt>
      <trkpt lon="83.296744" lat="17.741774"><ele>46.942208</ele><time>2024-07-11T01:05:52Z</time><extensions><speed>0.127663</speed><course>46.338305</course><hAcc>1.501022</hAcc><vAcc>0.802698</vAcc></extensions></trkpt>
      <trkpt lon="83.296745" lat="17.741775"><ele>46.991552</ele><time>2024-07-11T01:05:53Z</time><extensions><speed>0.106325</speed><course>83.437937</course><hAcc>1.537385</hAcc><vAcc>0.810725</vAcc></extensions></trkpt>
      <trkpt lon="83.296746" lat="17.741775"><ele>47.035828</ele><time>2024-07-11T01:05:54Z</time><extensions><speed>0.104278</speed><course>92.341376</course><hAcc>1.550042</hAcc><vAcc>0.819856</vAcc></extensions></trkpt>
      <trkpt lon="83.296747" lat="17.741775"><ele>47.071649</ele><time>2024-07-11T01:05:55Z</time><extensions><speed>0.103386</speed><course>88.523456</course><hAcc>1.556665</hAcc><vAcc>0.828870</vAcc></extensions></trkpt>
      <trkpt lon="83.296748" lat="17.741775"><ele>47.108763</ele><time>2024-07-11T01:05:56Z</time><extensions><speed>0.088867</speed><course>78.839476</course><hAcc>1.582582</hAcc><vAcc>0.837960</vAcc></extensions></trkpt>
      <trkpt lon="83.296749" lat="17.741775"><ele>47.138843</ele><time>2024-07-11T01:05:57Z</time><extensions><speed>0.071897</speed><course>59.628117</course><hAcc>1.597900</hAcc><vAcc>0.846330</vAcc></extensions></trkpt>
      <trkpt lon="83.296749" lat="17.741776"><ele>47.168135</ele><time>2024-07-11T01:05:58Z</time><extensions><speed>0.059858</speed><course>350.475827</course><hAcc>1.592389</hAcc><vAcc>0.853007</vAcc></extensions></trkpt>
      <trkpt lon="83.296749" lat="17.741776"><ele>47.194910</ele><time>2024-07-11T01:05:59Z</time><extensions><speed>0.146257</speed><course>273.027125</course><hAcc>1.617489</hAcc><vAcc>0.858469</vAcc></extensions></trkpt>
      <trkpt lon="83.296748" lat="17.741775"><ele>47.217696</ele><time>2024-07-11T01:06:00Z</time><extensions><speed>0.152693</speed><course>181.487537</course><hAcc>1.658729</hAcc><vAcc>0.863455</vAcc></extensions></trkpt>
      <trkpt lon="83.296748" lat="17.741774"><ele>47.236710</ele><time>2024-07-11T01:06:01Z</time><extensions><speed>0.120403</speed><course>115.673219</course><hAcc>1.664687</hAcc><vAcc>0.868841</vAcc></extensions></trkpt>
      <trkpt lon="83.296750" lat="17.741774"><ele>47.252987</ele><time>2024-07-11T01:06:02Z</time><extensions><speed>0.164555</speed><course>67.489431</course><hAcc>1.686981</hAcc><vAcc>0.874601</vAcc></extensions></trkpt>
      <trkpt lon="83.296751" lat="17.741775"><ele>47.268553</ele><time>2024-07-11T01:06:03Z</time><extensions><speed>0.183026</speed><course>50.710191</course><hAcc>1.721979</hAcc><vAcc>0.880764</vAcc></extensions></trkpt>
      <trkpt lon="83.296752" lat="17.741776"><ele>47.281378</ele><time>2024-07-11T01:06:04Z</time><extensions><speed>0.181816</speed><course>39.979737</course><hAcc>1.751057</hAcc><vAcc>0.886399</vAcc></extensions></trkpt>
      <trkpt lon="83.296753" lat="17.741778"><ele>47.296561</ele><time>2024-07-11T01:06:05Z</time><extensions><speed>0.146706</speed><course>34.429950</course><hAcc>1.770274</hAcc><vAcc>0.892603</vAcc></extensions></trkpt>
      <trkpt lon="83.296754" lat="17.741779"><ele>47.317048</ele><time>2024-07-11T01:06:06Z</time><extensions><speed>0.108561</speed><course>27.533765</course><hAcc>1.787798</hAcc><vAcc>0.896744</vAcc></extensions></trkpt>
      <trkpt lon="83.296754" lat="17.741779"><ele>47.343595</ele><time>2024-07-11T01:06:07Z</time><extensions><speed>0.088713</speed><course>13.886584</course><hAcc>1.822027</hAcc><vAcc>0.900898</vAcc></extensions></trkpt>
      <trkpt lon="83.296754" lat="17.741780"><ele>47.373893</ele><time>2024-07-11T01:06:08Z</time><extensions><speed>0.055042</speed><course>352.422933</course><hAcc>1.843638</hAcc><vAcc>0.904764</vAcc></extensions></trkpt>
      <trkpt lon="83.296754" lat="17.741780"><ele>47.390831</ele><time>2024-07-11T01:06:09Z</time><extensions><speed>0.038056</speed><course>319.676808</course><hAcc>1.868433</hAcc><vAcc>0.909388</vAcc></extensions></trkpt>
      <trkpt lon="83.296754" lat="17.741781"><ele>47.411764</ele><time>2024-07-11T01:06:10Z</time><extensions><speed>0.036694</speed><course>298.993525</course><hAcc>1.900468</hAcc><vAcc>0.914623</vAcc></extensions></trkpt>
      <trkpt lon="83.296753" lat="17.741781"><ele>47.424637</ele><time>2024-07-11T01:06:11Z</time><extensions><speed>0.043292</speed><course>261.210298</course><hAcc>1.914955</hAcc><vAcc>0.918967</vAcc></extensions></trkpt>
      <trkpt lon="83.296753" lat="17.741780"><ele>47.420276</ele><time>2024-07-11T01:06:12Z</time><extensions><speed>0.055587</speed><course>233.933239</course><hAcc>1.928584</hAcc><vAcc>0.922868</vAcc></extensions></trkpt>
      <trkpt lon="83.296753" lat="17.741780"><ele>47.415302</ele><time>2024-07-11T01:06:13Z</time><extensions><speed>0.058789</speed><course>208.984626</course><hAcc>1.955158</hAcc><vAcc>0.925771</vAcc></extensions></trkpt>
      <trkpt lon="83.296752" lat="17.741780"><ele>47.403361</ele><time>2024-07-11T01:06:14Z</time><extensions><speed>0.047797</speed><course>183.582294</course><hAcc>1.993100</hAcc><vAcc>0.928418</vAcc></extensions></trkpt>
      <trkpt lon="83.296752" lat="17.741779"><ele>47.389919</ele><time>2024-07-11T01:06:15Z</time><extensions><speed>0.085926</speed><course>174.409734</course><hAcc>2.012780</hAcc><vAcc>0.931418</vAcc></extensions></trkpt>
      <trkpt lon="83.296752" lat="17.741778"><ele>47.376072</ele><time>2024-07-11T01:06:16Z</time><extensions><speed>0.129481</speed><course>174.136802</course><hAcc>2.017491</hAcc><vAcc>0.933160</vAcc></extensions></trkpt>
      <trkpt lon="83.296753" lat="17.741777"><ele>47.358485</ele><time>2024-07-11T01:06:17Z</time><extensions><speed>0.180613</speed><course>175.765690</course><hAcc>2.013936</hAcc><vAcc>0.933830</vAcc></extensions></trkpt>
      <trkpt lon="83.296753" lat="17.741775"><ele>47.328777</ele><time>2024-07-11T01:06:18Z</time><extensions><speed>0.160259</speed><course>172.618730</course><hAcc>2.018941</hAcc><vAcc>0.933894</vAcc></extensions></trkpt>
      <trkpt lon="83.296753" lat="17.741774"><ele>47.297670</ele><time>2024-07-11T01:06:19Z</time><extensions><speed>0.151948</speed><course>174.386630</course><hAcc>2.011460</hAcc><vAcc>0.935801</vAcc></extensions></trkpt>
      <trkpt lon="83.296753" lat="17.741773"><ele>47.259697</ele><time>2024-07-11T01:06:20Z</time><extensions><speed>0.125247</speed><course>185.736164</course><hAcc>2.005818</hAcc><vAcc>0.938297</vAcc></extensions></trkpt>
      <trkpt lon="83.296753" lat="17.741772"><ele>47.224312</ele><time>2024-07-11T01:06:21Z</time><extensions><speed>0.091197</speed><course>211.707054</course><hAcc>2.004648</hAcc><vAcc>0.941255</vAcc></extensions></trkpt>
      <trkpt lon="83.296752" lat="17.741771"><ele>47.193913</ele><time>2024-07-11T01:06:22Z</time><extensions><speed>0.147752</speed><course>222.437633</course><hAcc>1.969915</hAcc><vAcc>0.943335</vAcc></extensions></trkpt>
      <trkpt lon="83.296751" lat="17.741770"><ele>47.173045</ele><time>2024-07-11T01:06:23Z</time><extensions><speed>0.203720</speed><course>226.173154</course><hAcc>1.948278</hAcc><vAcc>0.942800</vAcc></extensions></trkpt>
      <trkpt lon="83.296749" lat="17.741768"><ele>47.154074</ele><time>2024-07-11T01:06:24Z</time><extensions><speed>0.271146</speed><course>222.860463</course><hAcc>1.946262</hAcc><vAcc>0.941267</vAcc></extensions></trkpt>
      <trkpt lon="83.296748" lat="17.741767"><ele>47.135253</ele><time>2024-07-11T01:06:25Z</time><extensions><speed>0.144832</speed><course>243.785419</course><hAcc>1.949701</hAcc><vAcc>0.941090</vAcc></extensions></trkpt>
      <trkpt lon="83.296747" lat="17.741767"><ele>47.119802</ele><time>2024-07-11T01:06:26Z</time><extensions><speed>0.091164</speed><course>271.255493</course><hAcc>1.950840</hAcc><vAcc>0.939489</vAcc></extensions></trkpt>
      <trkpt lon="83.296746" lat="17.741767"><ele>47.118319</ele><time>2024-07-11T01:06:27Z</time><extensions><speed>0.072083</speed><course>278.152298</course><hAcc>1.955855</hAcc><vAcc>0.937376</vAcc></extensions></trkpt>
      <trkpt lon="83.296745" lat="17.741767"><ele>47.121090</ele><time>2024-07-11T01:06:28Z</time><extensions><speed>0.075300</speed><course>247.588662</course><hAcc>1.964296</hAcc><vAcc>0.934266</vAcc></extensions></trkpt>
      <trkpt lon="83.296745" lat="17.741766"><ele>47.128812</ele><time>2024-07-11T01:06:29Z</time><extensions><speed>0.069071</speed><course>234.493838</course><hAcc>1.982658</hAcc><vAcc>0.929405</vAcc></extensions></trkpt>
      <trkpt lon="83.296744" lat="17.741766"><ele>47.140861</ele><time>2024-07-11T01:06:30Z</time><extensions><speed>0.068246</speed><course>222.405444</course><hAcc>1.996861</hAcc><vAcc>0.922767</vAcc></extensions></trkpt>
      <trkpt lon="83.296744" lat="17.741765"><ele>47.155750</ele><time>2024-07-11T01:06:31Z</time><extensions><speed>0.105357</speed><course>209.834508</course><hAcc>1.997694</hAcc><vAcc>0.915865</vAcc></extensions></trkpt>
      <trkpt lon="83.296743" lat="17.741764"><ele>47.173921</ele><time>2024-07-11T01:06:32Z</time><extensions><speed>0.194927</speed><course>206.356485</course><hAcc>1.983810</hAcc><vAcc>0.908365</vAcc></extensions></trkpt>
      <trkpt lon="83.296742" lat="17.741763"><ele>47.194698</ele><time>2024-07-11T01:06:33Z</time><extensions><speed>0.220055</speed><course>208.258235</course><hAcc>1.971498</hAcc><vAcc>0.901612</vAcc></extensions></trkpt>
      <trkpt lon="83.296741" lat="17.741761"><ele>47.217948</ele><time>2024-07-11T01:06:34Z</time><extensions><speed>0.216622</speed><course>209.654308</course><hAcc>1.967056</hAcc><vAcc>0.895446</vAcc></extensions></trkpt>
      <trkpt lon="83.296741" lat="17.741760"><ele>47.243045</ele><time>2024-07-11T01:06:35Z</time><extensions><speed>0.056816</speed><course>219.867979</course><hAcc>1.967577</hAcc><vAcc>0.889971</vAcc></extensions></trkpt>
      <trkpt lon="83.296740" lat="17.741760"><ele>47.269238</ele><time>2024-07-11T01:06:36Z</time><extensions><speed>0.025645</speed><course>5.337863</course><hAcc>1.959252</hAcc><vAcc>0.886086</vAcc></extensions></trkpt>
      <trkpt lon="83.296740" lat="17.741760"><ele>47.295783</ele><time>2024-07-11T01:06:37Z</time><extensions><speed>0.051743</speed><course>21.131590</course><hAcc>1.962386</hAcc><vAcc>0.884057</vAcc></extensions></trkpt>
      <trkpt lon="83.296741" lat="17.741761"><ele>47.321990</ele><time>2024-07-11T01:06:38Z</time><extensions><speed>0.051431</speed><course>23.676713</course><hAcc>1.968964</hAcc><vAcc>0.884739</vAcc></extensions></trkpt>
      <trkpt lon="83.296741" lat="17.741761"><ele>47.347181</ele><time>2024-07-11T01:06:39Z</time><extensions><speed>0.045098</speed><course>24.637270</course><hAcc>1.977492</hAcc><vAcc>0.888094</vAcc></extensions></trkpt>
      <trkpt lon="83.296741" lat="17.741761"><ele>47.370742</ele><time>2024-07-11T01:06:40Z</time><extensions><speed>0.032214</speed><course>25.097195</course><hAcc>2.008176</hAcc><vAcc>0.893172</vAcc></extensions></trkpt>
      <trkpt lon="83.296741" lat="17.741762"><ele>47.392755</ele><time>2024-07-11T01:06:41Z</time><extensions><speed>0.023763</speed><course>25.360193</course><hAcc>2.038134</hAcc><vAcc>0.902301</vAcc></extensions></trkpt>
      <trkpt lon="83.296741" lat="17.741762"><ele>47.406307</ele><time>2024-07-11T01:06:42Z</time><extensions><speed>0.016739</speed><course>30.146700</course><hAcc>2.060651</hAcc><vAcc>0.913222</vAcc></extensions></trkpt>
      <trkpt lon="83.296741" lat="17.741762"><ele>47.417366</ele><time>2024-07-11T01:06:43Z</time><extensions><speed>0.013134</speed><course>41.973246</course><hAcc>2.072986</hAcc><vAcc>0.926271</vAcc></extensions></trkpt>
      <trkpt lon="83.296741" lat="17.741762"><ele>47.425684</ele><time>2024-07-11T01:06:44Z</time><extensions><speed>0.008703</speed><course>72.088768</course><hAcc>2.108968</hAcc><vAcc>0.940608</vAcc></extensions></trkpt>
      <trkpt lon="83.296741" lat="17.741762"><ele>47.431427</ele><time>2024-07-11T01:06:45Z</time><extensions><speed>0.009335</speed><course>125.249820</course><hAcc>2.152102</hAcc><vAcc>0.955670</vAcc></extensions></trkpt>
      <trkpt lon="83.296742" lat="17.741762"><ele>47.434732</ele><time>2024-07-11T01:06:46Z</time><extensions><speed>0.016053</speed><course>153.175391</course><hAcc>2.185632</hAcc><vAcc>0.970874</vAcc></extensions></trkpt>
      <trkpt lon="83.296742" lat="17.741761"><ele>47.436273</ele><time>2024-07-11T01:06:47Z</time><extensions><speed>0.025377</speed><course>163.381121</course><hAcc>2.207898</hAcc><vAcc>0.987550</vAcc></extensions></trkpt>
      <trkpt lon="83.296742" lat="17.741761"><ele>47.435569</ele><time>2024-07-11T01:06:48Z</time><extensions><speed>0.036361</speed><course>167.759954</course><hAcc>2.220797</hAcc><vAcc>1.003454</vAcc></extensions></trkpt>
      <trkpt lon="83.296742" lat="17.741760"><ele>47.425066</ele><time>2024-07-11T01:06:49Z</time><extensions><speed>0.053888</speed><course>172.796610</course><hAcc>2.225921</hAcc><vAcc>1.014175</vAcc></extensions></trkpt>
      <trkpt lon="83.296742" lat="17.741760"><ele>47.407105</ele><time>2024-07-11T01:06:50Z</time><extensions><speed>0.071726</speed><course>175.230569</course><hAcc>2.229916</hAcc><vAcc>1.021556</vAcc></extensions></trkpt>
      <trkpt lon="83.296742" lat="17.741759"><ele>47.386130</ele><time>2024-07-11T01:06:51Z</time><extensions><speed>0.083548</speed><course>175.996560</course><hAcc>2.237000</hAcc><vAcc>1.031020</vAcc></extensions></trkpt>
      <trkpt lon="83.296742" lat="17.741758"><ele>47.357128</ele><time>2024-07-11T01:06:52Z</time><extensions><speed>0.084188</speed><course>175.325777</course><hAcc>2.242343</hAcc><vAcc>1.038147</vAcc></extensions></trkpt>
      <trkpt lon="83.296742" lat="17.741758"><ele>47.327274</ele><time>2024-07-11T01:06:53Z</time><extensions><speed>0.073416</speed><course>175.864303</course><hAcc>2.247726</hAcc><vAcc>1.043130</vAcc></extensions></trkpt>
      <trkpt lon="83.296742" lat="17.741757"><ele>47.299377</ele><time>2024-07-11T01:06:54Z</time><extensions><speed>0.061419</speed><course>177.949025</course><hAcc>2.257120</hAcc><vAcc>1.045928</vAcc></extensions></trkpt>
      <trkpt lon="83.296742" lat="17.741757"><ele>47.269321</ele><time>2024-07-11T01:06:55Z</time><extensions><speed>0.050105</speed><course>183.038185</course><hAcc>2.272897</hAcc><vAcc>1.049557</vAcc></extensions></trkpt>
      <trkpt lon="83.296742" lat="17.741757"><ele>47.236745</ele><time>2024-07-11T01:06:56Z</time><extensions><speed>0.044633</speed><course>194.268171</course><hAcc>2.292408</hAcc><vAcc>1.052923</vAcc></extensions></trkpt>
      <trkpt lon="83.296742" lat="17.741756"><ele>47.203333</ele><time>2024-07-11T01:06:57Z</time><extensions><speed>0.048422</speed><course>208.038591</course><hAcc>2.308761</hAcc><vAcc>1.055062</vAcc></extensions></trkpt>
      <trkpt lon="83.296741" lat="17.741756"><ele>47.168034</ele><time>2024-07-11T01:06:58Z</time><extensions><speed>0.066308</speed><course>222.332094</course><hAcc>2.314486</hAcc><vAcc>1.056927</vAcc></extensions></trkpt>
      <trkpt lon="83.296741" lat="17.741756"><ele>47.141156</ele><time>2024-07-11T01:06:59Z</time><extensions><speed>0.107710</speed><course>229.441904</course><hAcc>2.308257</hAcc><vAcc>1.056774</vAcc></extensions></trkpt>
      <trkpt lon="83.296740" lat="17.741755"><ele>47.115814</ele><time>2024-07-11T01:07:00Z</time><extensions><speed>0.083033</speed><course>260.078224</course><hAcc>2.312674</hAcc><vAcc>1.054647</vAcc></extensions></trkpt>
      <trkpt lon="83.296739" lat="17.741756"><ele>47.092159</ele><time>2024-07-11T01:07:01Z</time><extensions><speed>0.095776</speed><course>314.785960</course><hAcc>2.320966</hAcc><vAcc>1.050446</vAcc></extensions></trkpt>
      <trkpt lon="83.296738" lat="17.741756"><ele>47.069206</ele><time>2024-07-11T01:07:02Z</time><extensions><speed>0.139065</speed><course>328.727814</course><hAcc>2.313509</hAcc><vAcc>1.048599</vAcc></extensions></trkpt>
      <trkpt lon="83.296738" lat="17.741758"><ele>47.047796</ele><time>2024-07-11T01:07:03Z</time><extensions><speed>0.155351</speed><course>322.816543</course><hAcc>2.291261</hAcc><vAcc>1.048267</vAcc></extensions></trkpt>
      <trkpt lon="83.296737" lat="17.741759"><ele>47.026008</ele><time>2024-07-11T01:07:04Z</time><extensions><speed>0.155195</speed><course>311.057256</course><hAcc>2.264934</hAcc><vAcc>1.049606</vAcc></extensions></trkpt>
      <trkpt lon="83.296736" lat="17.741760"><ele>47.003798</ele><time>2024-07-11T01:07:05Z</time><extensions><speed>0.151444</speed><course>310.550461</course><hAcc>2.243285</hAcc><vAcc>1.051549</vAcc></extensions></trkpt>
      <trkpt lon="83.296735" lat="17.741761"><ele>46.987019</ele><time>2024-07-11T01:07:06Z</time><extensions><speed>0.138691</speed><course>313.729691</course><hAcc>2.219973</hAcc><vAcc>1.055168</vAcc></extensions></trkpt>
      <trkpt lon="83.296734" lat="17.741761"><ele>46.962446</ele><time>2024-07-11T01:07:07Z</time><extensions><speed>0.128650</speed><course>310.026040</course><hAcc>2.179928</hAcc><vAcc>1.058886</vAcc></extensions></trkpt>
      <trkpt lon="83.296733" lat="17.741762"><ele>46.939163</ele><time>2024-07-11T01:07:08Z</time><extensions><speed>0.110806</speed><course>297.361152</course><hAcc>2.140470</hAcc><vAcc>1.062219</vAcc></extensions></trkpt>
      <trkpt lon="83.296732" lat="17.741763"><ele>46.915764</ele><time>2024-07-11T01:07:09Z</time><extensions><speed>0.087659</speed><course>283.827914</course><hAcc>2.121634</hAcc><vAcc>1.064080</vAcc></extensions></trkpt>
      <trkpt lon="83.296731" lat="17.741763"><ele>46.893047</ele><time>2024-07-11T01:07:10Z</time><extensions><speed>0.043415</speed><course>313.390795</course><hAcc>2.135298</hAcc><vAcc>1.066264</vAcc></extensions></trkpt>
      <trkpt lon="83.296731" lat="17.741763"><ele>46.873483</ele><time>2024-07-11T01:07:11Z</time><extensions><speed>0.036493</speed><course>345.063772</course><hAcc>2.138979</hAcc><vAcc>1.067722</vAcc></extensions></trkpt>
      <trkpt lon="83.296731" lat="17.741764"><ele>46.846315</ele><time>2024-07-11T01:07:12Z</time><extensions><speed>0.042972</speed><course>4.897582</course><hAcc>2.140033</hAcc><vAcc>1.071884</vAcc></extensions></trkpt>
      <trkpt lon="83.296732" lat="17.741764"><ele>46.812939</ele><time>2024-07-11T01:07:13Z</time><extensions><speed>0.054662</speed><course>14.431125</course><hAcc>2.137324</hAcc><vAcc>1.076322</vAcc></extensions></trkpt>
      <trkpt lon="83.296732" lat="17.741765"><ele>46.783824</ele><time>2024-07-11T01:07:14Z</time><extensions><speed>0.068695</speed><course>19.397945</course><hAcc>2.122403</hAcc><vAcc>1.079417</vAcc></extensions></trkpt>
      <trkpt lon="83.296732" lat="17.741766"><ele>46.752788</ele><time>2024-07-11T01:07:15Z</time><extensions><speed>0.062479</speed><course>22.923422</course><hAcc>2.130984</hAcc><vAcc>1.082259</vAcc></extensions></trkpt>
      <trkpt lon="83.296733" lat="17.741766"><ele>46.726237</ele><time>2024-07-11T01:07:16Z</time><extensions><speed>0.058950</speed><course>33.997119</course><hAcc>2.153805</hAcc><vAcc>1.084753</vAcc></extensions></trkpt>
      <trkpt lon="83.296734" lat="17.741767"><ele>46.682484</ele><time>2024-07-11T01:07:17Z</time><extensions><speed>0.108734</speed><course>48.579197</course><hAcc>2.173832</hAcc><vAcc>1.084515</vAcc></extensions></trkpt>
      <trkpt lon="83.296735" lat="17.741767"><ele>46.666058</ele><time>2024-07-11T01:07:18Z</time><extensions><speed>0.170537</speed><course>57.358919</course><hAcc>2.181949</hAcc><vAcc>1.082893</vAcc></extensions></trkpt>
      <trkpt lon="83.296737" lat="17.741768"><ele>46.634234</ele><time>2024-07-11T01:07:19Z</time><extensions><speed>0.249805</speed><course>64.059643</course><hAcc>2.179772</hAcc><vAcc>1.075707</vAcc></extensions></trkpt>
      <trkpt lon="83.296739" lat="17.741769"><ele>46.585625</ele><time>2024-07-11T01:07:20Z</time><extensions><speed>0.329548</speed><course>71.895293</course><hAcc>2.165107</hAcc><vAcc>1.065130</vAcc></extensions></trkpt>
      <trkpt lon="83.296743" lat="17.741770"><ele>46.558342</ele><time>2024-07-11T01:07:21Z</time><extensions><speed>0.409153</speed><course>82.603717</course><hAcc>2.133376</hAcc><vAcc>1.051838</vAcc></extensions></trkpt>
      <trkpt lon="83.296747" lat="17.741770"><ele>46.528704</ele><time>2024-07-11T01:07:22Z</time><extensions><speed>0.511790</speed><course>94.764897</course><hAcc>2.088149</hAcc><vAcc>1.037500</vAcc></extensions></trkpt>
      <trkpt lon="83.296753" lat="17.741769"><ele>46.499933</ele><time>2024-07-11T01:07:23Z</time><extensions><speed>0.689288</speed><course>107.030529</course><hAcc>2.032876</hAcc><vAcc>1.023109</vAcc></extensions></trkpt>
      <trkpt lon="83.296760" lat="17.741766"><ele>46.450715</ele><time>2024-07-11T01:07:24Z</time><extensions><speed>0.991768</speed><course>119.438345</course><hAcc>1.987093</hAcc><vAcc>1.007808</vAcc></extensions></trkpt>
      <trkpt lon="83.296770" lat="17.741760"><ele>46.390945</ele><time>2024-07-11T01:07:25Z</time><extensions><speed>1.263908</speed><course>123.479504</course><hAcc>1.966238</hAcc><vAcc>0.991316</vAcc></extensions></trkpt>
      <trkpt lon="83.296780" lat="17.741753"><ele>46.325261</ele><time>2024-07-11T01:07:26Z</time><extensions><speed>1.438478</speed><course>132.049439</course><hAcc>1.934397</hAcc><vAcc>0.973936</vAcc></extensions></trkpt>
      <trkpt lon="83.296789" lat="17.741744"><ele>46.274473</ele><time>2024-07-11T01:07:27Z</time><extensions><speed>1.309253</speed><course>137.208311</course><hAcc>1.897806</hAcc><vAcc>0.955705</vAcc></extensions></trkpt>
      <trkpt lon="83.296797" lat="17.741736"><ele>46.234748</ele><time>2024-07-11T01:07:28Z</time><extensions><speed>1.119375</speed><course>142.475310</course><hAcc>1.877042</hAcc><vAcc>0.937023</vAcc></extensions></trkpt>
      <trkpt lon="83.296803" lat="17.741728"><ele>46.197515</ele><time>2024-07-11T01:07:29Z</time><extensions><speed>1.088868</speed><course>146.695539</course><hAcc>1.833895</hAcc><vAcc>0.918607</vAcc></extensions></trkpt>
      <trkpt lon="83.296809" lat="17.741719"><ele>46.153977</ele><time>2024-07-11T01:07:30Z</time><extensions><speed>1.143496</speed><course>148.123031</course><hAcc>1.804193</hAcc><vAcc>0.900798</vAcc></extensions></trkpt>
      <trkpt lon="83.296815" lat="17.741710"><ele>46.104583</ele><time>2024-07-11T01:07:31Z</time><extensions><speed>1.209437</speed><course>148.574875</course><hAcc>1.795630</hAcc><vAcc>0.884121</vAcc></extensions></trkpt>
      <trkpt lon="83.296821" lat="17.741700"><ele>46.050279</ele><time>2024-07-11T01:07:32Z</time><extensions><speed>1.302858</speed><course>147.765895</course><hAcc>1.786124</hAcc><vAcc>0.869688</vAcc></extensions></trkpt>
      <trkpt lon="83.296828" lat="17.741690"><ele>45.983881</ele><time>2024-07-11T01:07:33Z</time><extensions><speed>1.444743</speed><course>148.471659</course><hAcc>1.777204</hAcc><vAcc>0.857768</vAcc></extensions></trkpt>
      <trkpt lon="83.296835" lat="17.741679"><ele>45.908023</ele><time>2024-07-11T01:07:34Z</time><extensions><speed>1.524276</speed><course>147.323592</course><hAcc>1.764495</hAcc><vAcc>0.848510</vAcc></extensions></trkpt>
      <trkpt lon="83.296843" lat="17.741667"><ele>45.850245</ele><time>2024-07-11T01:07:35Z</time><extensions><speed>1.510184</speed><course>146.934226</course><hAcc>1.751449</hAcc><vAcc>0.841756</vAcc></extensions></trkpt>
      <trkpt lon="83.296850" lat="17.741656"><ele>45.774249</ele><time>2024-07-11T01:07:36Z</time><extensions><speed>1.480096</speed><course>148.287567</course><hAcc>1.744225</hAcc><vAcc>0.837222</vAcc></extensions></trkpt>
      <trkpt lon="83.296857" lat="17.741644"><ele>45.693170</ele><time>2024-07-11T01:07:37Z</time><extensions><speed>1.522777</speed><course>149.965034</course><hAcc>1.741996</hAcc><vAcc>0.834789</vAcc></extensions></trkpt>
      <trkpt lon="83.296864" lat="17.741633"><ele>45.628181</ele><time>2024-07-11T01:07:38Z</time><extensions><speed>1.524297</speed><course>154.053753</course><hAcc>1.734644</hAcc><vAcc>0.833316</vAcc></extensions></trkpt>
      <trkpt lon="83.296870" lat="17.741620"><ele>45.568094</ele><time>2024-07-11T01:07:39Z</time><extensions><speed>1.491086</speed><course>161.656191</course><hAcc>1.722238</hAcc><vAcc>0.832526</vAcc></extensions></trkpt>
      <trkpt lon="83.296874" lat="17.741608"><ele>45.505701</ele><time>2024-07-11T01:07:40Z</time><extensions><speed>1.418409</speed><course>168.349259</course><hAcc>1.714103</hAcc><vAcc>0.832307</vAcc></extensions></trkpt>
      <trkpt lon="83.296876" lat="17.741596"><ele>45.452215</ele><time>2024-07-11T01:07:41Z</time><extensions><speed>1.315547</speed><course>173.614272</course><hAcc>1.702871</hAcc><vAcc>0.832336</vAcc></extensions></trkpt>
      <trkpt lon="83.296877" lat="17.741585"><ele>45.397283</ele><time>2024-07-11T01:07:42Z</time><extensions><speed>1.149724</speed><course>173.455261</course><hAcc>1.692160</hAcc><vAcc>0.832104</vAcc></extensions></trkpt>
      <trkpt lon="83.296879" lat="17.741575"><ele>45.345013</ele><time>2024-07-11T01:07:43Z</time><extensions><speed>1.077445</speed><course>166.857711</course><hAcc>1.677717</hAcc><vAcc>0.831752</vAcc></extensions></trkpt>
      <trkpt lon="83.296882" lat="17.741566"><ele>45.299957</ele><time>2024-07-11T01:07:44Z</time><extensions><speed>1.034573</speed><course>165.586604</course><hAcc>1.665084</hAcc><vAcc>0.830976</vAcc></extensions></trkpt>
      <trkpt lon="83.296885" lat="17.741557"><ele>45.247448</ele><time>2024-07-11T01:07:45Z</time><extensions><speed>0.949976</speed><course>161.332890</course><hAcc>1.665193</hAcc><vAcc>0.829272</vAcc></extensions></trkpt>
      <trkpt lon="83.296889" lat="17.741550"><ele>45.207925</ele><time>2024-07-11T01:07:46Z</time><extensions><speed>0.874337</speed><course>143.036467</course><hAcc>1.656494</hAcc><vAcc>0.826546</vAcc></extensions></trkpt>
      <trkpt lon="83.296895" lat="17.741545"><ele>45.176817</ele><time>2024-07-11T01:07:47Z</time><extensions><speed>0.885275</speed><course>120.330498</course><hAcc>1.647003</hAcc><vAcc>0.822681</vAcc></extensions></trkpt>
      <trkpt lon="83.296903" lat="17.741542"><ele>45.158956</ele><time>2024-07-11T01:07:48Z</time><extensions><speed>1.024786</speed><course>106.605483</course><hAcc>1.612172</hAcc><vAcc>0.817823</vAcc></extensions></trkpt>
      <trkpt lon="83.296913" lat="17.741539"><ele>45.140457</ele><time>2024-07-11T01:07:49Z</time><extensions><speed>1.128020</speed><course>104.230386</course><hAcc>1.589316</hAcc><vAcc>0.812149</vAcc></extensions></trkpt>
      <trkpt lon="83.296924" lat="17.741537"><ele>45.133939</ele><time>2024-07-11T01:07:50Z</time><extensions><speed>1.119527</speed><course>105.481317</course><hAcc>1.579804</hAcc><vAcc>0.805869</vAcc></extensions></trkpt>
      <trkpt lon="83.296934" lat="17.741534"><ele>45.134365</ele><time>2024-07-11T01:07:51Z</time><extensions><speed>1.093878</speed><course>104.306307</course><hAcc>1.565938</hAcc><vAcc>0.799278</vAcc></extensions></trkpt>
      <trkpt lon="83.296944" lat="17.741532"><ele>45.137054</ele><time>2024-07-11T01:07:52Z</time><extensions><speed>1.148919</speed><course>102.121448</course><hAcc>1.546453</hAcc><vAcc>0.792777</vAcc></extensions></trkpt>
      <trkpt lon="83.296955" lat="17.741530"><ele>45.141439</ele><time>2024-07-11T01:07:53Z</time><extensions><speed>1.155635</speed><course>98.915740</course><hAcc>1.545022</hAcc><vAcc>0.786662</vAcc></extensions></trkpt>
      <trkpt lon="83.296965" lat="17.741529"><ele>45.156175</ele><time>2024-07-11T01:07:54Z</time><extensions><speed>1.098741</speed><course>98.285087</course><hAcc>1.556348</hAcc><vAcc>0.781260</vAcc></extensions></trkpt>
      <trkpt lon="83.296976" lat="17.741527"><ele>45.175433</ele><time>2024-07-11T01:07:55Z</time><extensions><speed>1.086013</speed><course>98.473306</course><hAcc>1.557725</hAcc><vAcc>0.776809</vAcc></extensions></trkpt>
      <trkpt lon="83.296986" lat="17.741525"><ele>45.194787</ele><time>2024-07-11T01:07:56Z</time><extensions><speed>1.199197</speed><course>97.695557</course><hAcc>1.534376</hAcc><vAcc>0.774195</vAcc></extensions></trkpt>
      <trkpt lon="83.296998" lat="17.741523"><ele>45.222965</ele><time>2024-07-11T01:07:57Z</time><extensions><speed>1.329279</speed><course>99.232337</course><hAcc>1.541140</hAcc><vAcc>0.773193</vAcc></extensions></trkpt>
      <trkpt lon="83.297011" lat="17.741522"><ele>45.258280</ele><time>2024-07-11T01:07:58Z</time><extensions><speed>1.404992</speed><course>95.301760</course><hAcc>1.562055</hAcc><vAcc>0.773597</vAcc></extensions></trkpt>
      <trkpt lon="83.297025" lat="17.741521"><ele>45.308523</ele><time>2024-07-11T01:07:59Z</time><extensions><speed>1.419648</speed><course>92.257723</course><hAcc>1.585409</hAcc><vAcc>0.775452</vAcc></extensions></trkpt>
      <trkpt lon="83.297038" lat="17.741521"><ele>45.364315</ele><time>2024-07-11T01:08:00Z</time><extensions><speed>1.435332</speed><course>90.606560</course><hAcc>1.597894</hAcc><vAcc>0.778520</vAcc></extensions></trkpt>
      <trkpt lon="83.297052" lat="17.741521"><ele>45.419522</ele><time>2024-07-11T01:08:01Z</time><extensions><speed>1.446314</speed><course>89.557752</course><hAcc>1.600731</hAcc><vAcc>0.782282</vAcc></extensions></trkpt>
      <trkpt lon="83.297065" lat="17.741521"><ele>45.478808</ele><time>2024-07-11T01:08:02Z</time><extensions><speed>1.344798</speed><course>86.663436</course><hAcc>1.614483</hAcc><vAcc>0.786046</vAcc></extensions></trkpt>
      <trkpt lon="83.297077" lat="17.741522"><ele>45.535737</ele><time>2024-07-11T01:08:03Z</time><extensions><speed>1.215178</speed><course>87.646835</course><hAcc>1.632173</hAcc><vAcc>0.789995</vAcc></extensions></trkpt>
      <trkpt lon="83.297088" lat="17.741523"><ele>45.573262</ele><time>2024-07-11T01:08:04Z</time><extensions><speed>1.182767</speed><course>90.031305</course><hAcc>1.655633</hAcc><vAcc>0.794112</vAcc></extensions></trkpt>
      <trkpt lon="83.297100" lat="17.741523"><ele>45.604345</ele><time>2024-07-11T01:08:05Z</time><extensions><speed>1.218216</speed><course>89.700526</course><hAcc>1.686265</hAcc><vAcc>0.797978</vAcc></extensions></trkpt>
      <trkpt lon="83.297111" lat="17.741523"><ele>45.626289</ele><time>2024-07-11T01:08:06Z</time><extensions><speed>1.189682</speed><course>88.074443</course><hAcc>1.724895</hAcc><vAcc>0.801094</vAcc></extensions></trkpt>
      <trkpt lon="83.297122" lat="17.741523"><ele>45.646516</ele><time>2024-07-11T01:08:07Z</time><extensions><speed>1.144933</speed><course>83.869445</course><hAcc>1.726489</hAcc><vAcc>0.802974</vAcc></extensions></trkpt>
      <trkpt lon="83.297131" lat="17.741524"><ele>45.668076</ele><time>2024-07-11T01:08:08Z</time><extensions><speed>0.886622</speed><course>81.964035</course><hAcc>1.739371</hAcc><vAcc>0.803296</vAcc></extensions></trkpt>
      <trkpt lon="83.297138" lat="17.741526"><ele>45.679187</ele><time>2024-07-11T01:08:09Z</time><extensions><speed>0.624641</speed><course>78.922273</course><hAcc>1.767629</hAcc><vAcc>0.801965</vAcc></extensions></trkpt>
      <trkpt lon="83.297143" lat="17.741527"><ele>45.669849</ele><time>2024-07-11T01:08:10Z</time><extensions><speed>0.463586</speed><course>64.763658</course><hAcc>1.807790</hAcc><vAcc>0.799097</vAcc></extensions></trkpt>
      <trkpt lon="83.297147" lat="17.741529"><ele>45.641710</ele><time>2024-07-11T01:08:11Z</time><extensions><speed>0.422154</speed><course>49.307535</course><hAcc>1.869591</hAcc><vAcc>0.794991</vAcc></extensions></trkpt>
      <trkpt lon="83.297149" lat="17.741532"><ele>45.606021</ele><time>2024-07-11T01:08:12Z</time><extensions><speed>0.443935</speed><course>37.823699</course><hAcc>1.956030</hAcc><vAcc>0.790084</vAcc></extensions></trkpt>
      <trkpt lon="83.297152" lat="17.741535"><ele>45.560238</ele><time>2024-07-11T01:08:13Z</time><extensions><speed>0.450641</speed><course>31.628486</course><hAcc>2.045883</hAcc><vAcc>0.784854</vAcc></extensions></trkpt>
      <trkpt lon="83.297152" lat="17.741538"><ele>45.505574</ele><time>2024-07-11T01:08:14Z</time><extensions><speed>0.235239</speed><course>317.595452</course><hAcc>2.109640</hAcc><vAcc>0.779719</vAcc></extensions></trkpt>
      <trkpt lon="83.297150" lat="17.741539"><ele>45.443845</ele><time>2024-07-11T01:08:15Z</time><extensions><speed>0.332404</speed><course>271.880883</course><hAcc>2.156281</hAcc><vAcc>0.775053</vAcc></extensions></trkpt>
      <trkpt lon="83.297147" lat="17.741538"><ele>45.380771</ele><time>2024-07-11T01:08:16Z</time><extensions><speed>0.362994</speed><course>254.082894</course><hAcc>2.278577</hAcc><vAcc>0.775859</vAcc></extensions></trkpt>
      <trkpt lon="83.297144" lat="17.741537"><ele>45.312473</ele><time>2024-07-11T01:08:17Z</time><extensions><speed>0.318344</speed><course>233.529636</course><hAcc>2.527329</hAcc><vAcc>0.780900</vAcc></extensions></trkpt>
      <trkpt lon="83.297142" lat="17.741535"><ele>45.240042</ele><time>2024-07-11T01:08:18Z</time><extensions><speed>0.299943</speed><course>201.234064</course><hAcc>2.921286</hAcc><vAcc>0.792385</vAcc></extensions></trkpt>
      <trkpt lon="83.297142" lat="17.741532"><ele>45.164517</ele><time>2024-07-11T01:08:19Z</time><extensions><speed>0.362853</speed><course>173.302226</course><hAcc>3.442054</hAcc><vAcc>0.813182</vAcc></extensions></trkpt>
      <trkpt lon="83.297143" lat="17.741528"><ele>45.087089</ele><time>2024-07-11T01:08:20Z</time><extensions><speed>0.454185</speed><course>156.772686</course><hAcc>4.057071</hAcc><vAcc>0.846753</vAcc></extensions></trkpt>
      <trkpt lon="83.297145" lat="17.741524"><ele>45.009018</ele><time>2024-07-11T01:08:21Z</time><extensions><speed>0.530123</speed><course>146.753037</course><hAcc>4.726683</hAcc><vAcc>0.896883</vAcc></extensions></trkpt>
      <trkpt lon="83.297148" lat="17.741520"><ele>44.931292</ele><time>2024-07-11T01:08:22Z</time><extensions><speed>0.565623</speed><course>140.310264</course><hAcc>5.385601</hAcc><vAcc>0.967248</vAcc></extensions></trkpt>
      <trkpt lon="83.297151" lat="17.741517"><ele>44.854407</ele><time>2024-07-11T01:08:23Z</time><extensions><speed>0.461207</speed><course>139.768344</course><hAcc>6.017052</hAcc><vAcc>1.060925</vAcc></extensions></trkpt>
      <trkpt lon="83.297154" lat="17.741514"><ele>44.778439</ele><time>2024-07-11T01:08:24Z</time><extensions><speed>0.382933</speed><course>139.489118</course><hAcc>6.704491</hAcc><vAcc>1.180034</vAcc></extensions></trkpt>
      <trkpt lon="83.297156" lat="17.741511"><ele>44.699267</ele><time>2024-07-11T01:08:25Z</time><extensions><speed>0.333948</speed><course>139.397414</course><hAcc>7.595475</hAcc><vAcc>1.333885</vAcc></extensions></trkpt>
    </trkseg>
  </trk>
</gpx>