<?xml version="1.0" encoding="UTF-8"?>
<gpx version="1.1" creator="Apple Health Export" xmlns="http://www.topografix.com/GPX/1/1" xmlns:xsi="http://www.w3.org/2001/XMLSchema-instance" xsi:schemaLocation="http://www.topografix.com/GPX/1/1 http://www.topografix.com/GPX/1/1/gpx.xsd">
  <metadata>
    <time>2026-01-11T07:57:37Z</time>
  </metadata>
  <trk>
    <name>Route 2025-01-18 7:22pm</name>
    <trkseg>
      <trkpt lon="-117.165299" lat="32.897017"><ele>74.303615</ele><time>2025-01-19T03:20:55Z</time><extensions><speed>0.024526</speed><course>89.569698</course><hAcc>2.783522</hAcc><vAcc>1.473695</vAcc></extensions></trkpt>
      <trkpt lon="-117.165296" lat="32.897019"><ele>74.333021</ele><time>2025-01-19T03:20:56Z</time><extensions><speed>0.067062</speed><course>98.951445</course><hAcc>2.556572</hAcc><vAcc>1.284280</vAcc></extensions></trkpt>
      <trkpt lon="-117.165290" lat="32.897019"><ele>74.369090</ele><time>2025-01-19T03:20:58Z</time><extensions><speed>0.424889</speed><course>115.905823</course><hAcc>2.413529</hAcc><vAcc>1.097724</vAcc></extensions></trkpt>
      <trkpt lon="-117.165282" lat="32.897017"><ele>74.389521</ele><time>2025-01-19T03:20:59Z</time><extensions><speed>0.860739</speed><course>113.299539</course><hAcc>2.324966</hAcc><vAcc>0.993237</vAcc></extensions></trkpt>
      <trkpt lon="-117.165270" lat="32.897016"><ele>74.402086</ele><time>2025-01-19T03:21:00Z</time><extensions><speed>0.990838</speed><course>104.635251</course><hAcc>2.246685</hAcc><vAcc>0.916977</vAcc></extensions></trkpt>
      <trkpt lon="-117.165259" lat="32.897015"><ele>74.403570</ele><time>2025-01-19T03:21:01Z</time><extensions><speed>1.012984</speed><course>105.395104</course><hAcc>2.177909</hAcc><vAcc>0.863406</vAcc></extensions></trkpt>
      <trkpt lon="-117.165246" lat="32.897014"><ele>74.393775</ele><time>2025-01-19T03:21:02Z</time><extensions><speed>1.133141</speed><course>106.353786</course><hAcc>2.111192</hAcc><vAcc>0.827252</vAcc></extensions></trkpt>
      <trkpt lon="-117.165233" lat="32.897014"><ele>74.374464</ele><time>2025-01-19T03:21:03Z</time><extensions><speed>1.161858</speed><course>93.738826</course><hAcc>2.044301</hAcc><vAcc>0.803802</vAcc></extensions></trkpt>
      <trkpt lon="-117.165219" lat="32.897015"><ele>74.346313</ele><time>2025-01-19T03:21:04Z</time><extensions><speed>1.219566</speed><course>86.735745</course><hAcc>1.991247</hAcc><vAcc>0.789147</vAcc></extensions></trkpt>
      <trkpt lon="-117.165204" lat="32.897016"><ele>74.310196</ele><time>2025-01-19T03:21:05Z</time><extensions><speed>1.352545</speed><course>99.615226</course><hAcc>1.945596</hAcc><vAcc>0.780263</vAcc></extensions></trkpt>
      <trkpt lon="-117.165190" lat="32.897013"><ele>74.265502</ele><time>2025-01-19T03:21:06Z</time><extensions><speed>1.323488</speed><course>117.703171</course><hAcc>1.902082</hAcc><vAcc>0.774963</vAcc></extensions></trkpt>
      <trkpt lon="-117.165176" lat="32.897007"><ele>74.213091</ele><time>2025-01-19T03:21:07Z</time><extensions><speed>1.327100</speed><course>121.976076</course><hAcc>1.866044</hAcc><vAcc>0.771754</vAcc></extensions></trkpt>
      <trkpt lon="-117.165163" lat="32.897001"><ele>74.152703</ele><time>2025-01-19T03:21:08Z</time><extensions><speed>1.321025</speed><course>126.563186</course><hAcc>1.838289</hAcc><vAcc>0.769678</vAcc></extensions></trkpt>
      <trkpt lon="-117.165150" lat="32.896995"><ele>74.084918</ele><time>2025-01-19T03:21:09Z</time><extensions><speed>1.311193</speed><course>124.238867</course><hAcc>1.805780</hAcc><vAcc>0.768158</vAcc></extensions></trkpt>
      <trkpt lon="-117.165139" lat="32.896989"><ele>74.010601</ele><time>2025-01-19T03:21:10Z</time><extensions><speed>1.170711</speed><course>127.740755</course><hAcc>1.772176</hAcc><vAcc>0.766879</vAcc></extensions></trkpt>
      <trkpt lon="-117.165129" lat="32.896983"><ele>73.930505</ele><time>2025-01-19T03:21:11Z</time><extensions><speed>1.090674</speed><course>140.322451</course><hAcc>1.754418</hAcc><vAcc>0.765687</vAcc></extensions></trkpt>
      <trkpt lon="-117.165123" lat="32.896977"><ele>73.846675</ele><time>2025-01-19T03:21:12Z</time><extensions><speed>0.872519</speed><course>147.197967</course><hAcc>1.737064</hAcc><vAcc>0.764529</vAcc></extensions></trkpt>
      <trkpt lon="-117.165118" lat="32.896972"><ele>73.760982</ele><time>2025-01-19T03:21:13Z</time><extensions><speed>0.736970</speed><course>151.213949</course><hAcc>1.721514</hAcc><vAcc>0.763404</vAcc></extensions></trkpt>
      <trkpt lon="-117.165114" lat="32.896967"><ele>73.674367</ele><time>2025-01-19T03:21:14Z</time><extensions><speed>0.757322</speed><course>153.318159</course><hAcc>1.701119</hAcc><vAcc>0.762330</vAcc></extensions></trkpt>
      <trkpt lon="-117.165108" lat="32.896960"><ele>73.588885</ele><time>2025-01-19T03:21:15Z</time><extensions><speed>1.053491</speed><course>145.780314</course><hAcc>1.668737</hAcc><vAcc>0.761335</vAcc></extensions></trkpt>
      <trkpt lon="-117.165101" lat="32.896952"><ele>73.503710</ele><time>2025-01-19T03:21:16Z</time><extensions><speed>1.176841</speed><course>142.498450</course><hAcc>1.650629</hAcc><vAcc>0.760440</vAcc></extensions></trkpt>
      <trkpt lon="-117.165093" lat="32.896944"><ele>73.418366</ele><time>2025-01-19T03:21:17Z</time><extensions><speed>1.199858</speed><course>141.440557</course><hAcc>1.645292</hAcc><vAcc>0.759657</vAcc></extensions></trkpt>
      <trkpt lon="-117.165085" lat="32.896935"><ele>73.326069</ele><time>2025-01-19T03:21:18Z</time><extensions><speed>1.239970</speed><course>143.471564</course><hAcc>1.642885</hAcc><vAcc>0.758993</vAcc></extensions></trkpt>
      <trkpt lon="-117.165078" lat="32.896927"><ele>73.324521</ele><time>2025-01-19T03:21:19Z</time><extensions><speed>1.208178</speed><course>145.861562</course><hAcc>1.630361</hAcc><vAcc>0.760702</vAcc></extensions></trkpt>
      <trkpt lon="-117.165073" lat="32.896919"><ele>73.374429</ele><time>2025-01-19T03:21:20Z</time><extensions><speed>1.034738</speed><course>149.593887</course><hAcc>1.621093</hAcc><vAcc>0.763557</vAcc></extensions></trkpt>
      <trkpt lon="-117.165069" lat="32.896911"><ele>73.471184</ele><time>2025-01-19T03:21:21Z</time><extensions><speed>1.003078</speed><course>159.311017</course><hAcc>1.614247</hAcc><vAcc>0.767438</vAcc></extensions></trkpt>
      <trkpt lon="-117.165066" lat="32.896903"><ele>73.577602</ele><time>2025-01-19T03:21:22Z</time><extensions><speed>0.990263</speed><course>162.130653</course><hAcc>1.616223</hAcc><vAcc>0.774235</vAcc></extensions></trkpt>
      <trkpt lon="-117.165062" lat="32.896894"><ele>73.724105</ele><time>2025-01-19T03:21:23Z</time><extensions><speed>0.979594</speed><course>160.464332</course><hAcc>1.631811</hAcc><vAcc>0.783160</vAcc></extensions></trkpt>
      <trkpt lon="-117.165059" lat="32.896886"><ele>73.877569</ele><time>2025-01-19T03:21:24Z</time><extensions><speed>0.993644</speed><course>159.016206</course><hAcc>1.663411</hAcc><vAcc>0.798086</vAcc></extensions></trkpt>
      <trkpt lon="-117.165056" lat="32.896877"><ele>74.060914</ele><time>2025-01-19T03:21:25Z</time><extensions><speed>1.065066</speed><course>168.100497</course><hAcc>1.696315</hAcc><vAcc>0.818081</vAcc></extensions></trkpt>
      <trkpt lon="-117.165054" lat="32.896868"><ele>74.268834</ele><time>2025-01-19T03:21:26Z</time><extensions><speed>1.090932</speed><course>175.074253</course><hAcc>1.734110</hAcc><vAcc>0.843763</vAcc></extensions></trkpt>
      <trkpt lon="-117.165054" lat="32.896858"><ele>74.502089</ele><time>2025-01-19T03:21:27Z</time><extensions><speed>1.101724</speed><course>181.641496</course><hAcc>1.778543</hAcc><vAcc>0.875066</vAcc></extensions></trkpt>
      <trkpt lon="-117.165055" lat="32.896848"><ele>74.754163</ele><time>2025-01-19T03:21:28Z</time><extensions><speed>1.106727</speed><course>189.168502</course><hAcc>1.810765</hAcc><vAcc>0.912126</vAcc></extensions></trkpt>
      <trkpt lon="-117.165058" lat="32.896838"><ele>75.011244</ele><time>2025-01-19T03:21:29Z</time><extensions><speed>1.090353</speed><course>204.285305</course><hAcc>1.806637</hAcc><vAcc>0.954265</vAcc></extensions></trkpt>
      <trkpt lon="-117.165063" lat="32.896829"><ele>75.260634</ele><time>2025-01-19T03:21:30Z</time><extensions><speed>1.106185</speed><course>208.452675</course><hAcc>1.856235</hAcc><vAcc>0.999040</vAcc></extensions></trkpt>
      <trkpt lon="-117.165069" lat="32.896821"><ele>75.516788</ele><time>2025-01-19T03:21:31Z</time><extensions><speed>1.120390</speed><course>210.133063</course><hAcc>1.933025</hAcc><vAcc>1.046533</vAcc></extensions></trkpt>
      <trkpt lon="-117.165075" lat="32.896812"><ele>75.773676</ele><time>2025-01-19T03:21:32Z</time><extensions><speed>1.138744</speed><course>207.063291</course><hAcc>2.011362</hAcc><vAcc>1.094971</vAcc></extensions></trkpt>
      <trkpt lon="-117.165080" lat="32.896802"><ele>76.029758</ele><time>2025-01-19T03:21:33Z</time><extensions><speed>1.208745</speed><course>200.499415</course><hAcc>2.084614</hAcc><vAcc>1.144661</vAcc></extensions></trkpt>
      <trkpt lon="-117.165083" lat="32.896791"><ele>76.273134</ele><time>2025-01-19T03:21:34Z</time><extensions><speed>1.266822</speed><course>193.689429</course><hAcc>2.149342</hAcc><vAcc>1.194250</vAcc></extensions></trkpt>
      <trkpt lon="-117.165086" lat="32.896780"><ele>76.510246</ele><time>2025-01-19T03:21:35Z</time><extensions><speed>1.241687</speed><course>189.499352</course><hAcc>2.186635</hAcc><vAcc>1.241934</vAcc></extensions></trkpt>
      <trkpt lon="-117.165087" lat="32.896769"><ele>76.720966</ele><time>2025-01-19T03:21:36Z</time><extensions><speed>1.241867</speed><course>185.724185</course><hAcc>2.215150</hAcc><vAcc>1.287453</vAcc></extensions></trkpt>
      <trkpt lon="-117.165087" lat="32.896757"><ele>76.903789</ele><time>2025-01-19T03:21:37Z</time><extensions><speed>1.236466</speed><course>185.320976</course><hAcc>2.243354</hAcc><vAcc>1.329202</vAcc></extensions></trkpt>
      <trkpt lon="-117.165088" lat="32.896746"><ele>77.083771</ele><time>2025-01-19T03:21:38Z</time><extensions><speed>1.228752</speed><course>187.551024</course><hAcc>2.269663</hAcc><vAcc>1.366787</vAcc></extensions></trkpt>
      <trkpt lon="-117.165090" lat="32.896735"><ele>77.249601</ele><time>2025-01-19T03:21:39Z</time><extensions><speed>1.170930</speed><course>190.117773</course><hAcc>2.291154</hAcc><vAcc>1.400447</vAcc></extensions></trkpt>
      <trkpt lon="-117.165091" lat="32.896725"><ele>77.385127</ele><time>2025-01-19T03:21:40Z</time><extensions><speed>1.119588</speed><course>190.878796</course><hAcc>2.306850</hAcc><vAcc>1.429780</vAcc></extensions></trkpt>
      <trkpt lon="-117.165092" lat="32.896715"><ele>77.482267</ele><time>2025-01-19T03:21:41Z</time><extensions><speed>1.017978</speed><course>188.288785</course><hAcc>2.327199</hAcc><vAcc>1.456429</vAcc></extensions></trkpt>
      <trkpt lon="-117.165093" lat="32.896706"><ele>77.563448</ele><time>2025-01-19T03:21:42Z</time><extensions><speed>0.964971</speed><course>184.090236</course><hAcc>2.338850</hAcc><vAcc>1.480259</vAcc></extensions></trkpt>
      <trkpt lon="-117.165092" lat="32.896697"><ele>77.617914</ele><time>2025-01-19T03:21:43Z</time><extensions><speed>1.022218</speed><course>180.306477</course><hAcc>2.354725</hAcc><vAcc>1.502501</vAcc></extensions></trkpt>
      <trkpt lon="-117.165091" lat="32.896688"><ele>77.670644</ele><time>2025-01-19T03:21:44Z</time><extensions><speed>1.039879</speed><course>175.377302</course><hAcc>2.368937</hAcc><vAcc>1.522194</vAcc></extensions></trkpt>
      <trkpt lon="-117.165089" lat="32.896678"><ele>77.699384</ele><time>2025-01-19T03:21:45Z</time><extensions><speed>1.102493</speed><course>168.437625</course><hAcc>2.375332</hAcc><vAcc>1.538617</vAcc></extensions></trkpt>
      <trkpt lon="-117.165086" lat="32.896668"><ele>77.717849</ele><time>2025-01-19T03:21:46Z</time><extensions><speed>1.185551</speed><course>163.386752</course><hAcc>2.386652</hAcc><vAcc>1.557662</vAcc></extensions></trkpt>
      <trkpt lon="-117.165082" lat="32.896657"><ele>77.723543</ele><time>2025-01-19T03:21:47Z</time><extensions><speed>1.228820</speed><course>160.859605</course><hAcc>2.388819</hAcc><vAcc>1.575931</vAcc></extensions></trkpt>
      <trkpt lon="-117.165077" lat="32.896647"><ele>77.732776</ele><time>2025-01-19T03:21:48Z</time><extensions><speed>1.212267</speed><course>159.270909</course><hAcc>2.389722</hAcc><vAcc>1.593809</vAcc></extensions></trkpt>
      <trkpt lon="-117.165072" lat="32.896637"><ele>77.711209</ele><time>2025-01-19T03:21:49Z</time><extensions><speed>1.178397</speed><course>157.415036</course><hAcc>2.390691</hAcc><vAcc>1.608512</vAcc></extensions></trkpt>
      <trkpt lon="-117.165066" lat="32.896628"><ele>77.686957</ele><time>2025-01-19T03:21:50Z</time><extensions><speed>1.131157</speed><course>155.144533</course><hAcc>2.392190</hAcc><vAcc>1.622028</vAcc></extensions></trkpt>
      <trkpt lon="-117.165061" lat="32.896619"><ele>77.648677</ele><time>2025-01-19T03:21:51Z</time><extensions><speed>1.072272</speed><course>154.158739</course><hAcc>2.393500</hAcc><vAcc>1.633070</vAcc></extensions></trkpt>
      <trkpt lon="-117.165056" lat="32.896610"><ele>77.624366</ele><time>2025-01-19T03:21:52Z</time><extensions><speed>1.129336</speed><course>156.165165</course><hAcc>2.405692</hAcc><vAcc>1.644975</vAcc></extensions></trkpt>
      <trkpt lon="-117.165050" lat="32.896600"><ele>77.586425</ele><time>2025-01-19T03:21:53Z</time><extensions><speed>1.271535</speed><course>157.235241</course><hAcc>2.415116</hAcc><vAcc>1.653564</vAcc></extensions></trkpt>
      <trkpt lon="-117.165044" lat="32.896589"><ele>77.561852</ele><time>2025-01-19T03:21:54Z</time><extensions><speed>1.297365</speed><course>158.681783</course><hAcc>2.421478</hAcc><vAcc>1.660839</vAcc></extensions></trkpt>
      <trkpt lon="-117.165039" lat="32.896579"><ele>77.526614</ele><time>2025-01-19T03:21:55Z</time><extensions><speed>1.237349</speed><course>160.560940</course><hAcc>2.430544</hAcc><vAcc>1.663910</vAcc></extensions></trkpt>
      <trkpt lon="-117.165034" lat="32.896569"><ele>77.457315</ele><time>2025-01-19T03:21:56Z</time><extensions><speed>1.162638</speed><course>159.107310</course><hAcc>2.440886</hAcc><vAcc>1.660824</vAcc></extensions></trkpt>
      <trkpt lon="-117.165029" lat="32.896559"><ele>77.373798</ele><time>2025-01-19T03:21:57Z</time><extensions><speed>1.101719</speed><course>157.723519</course><hAcc>2.456724</hAcc><vAcc>1.650759</vAcc></extensions></trkpt>
      <trkpt lon="-117.165025" lat="32.896551"><ele>77.310557</ele><time>2025-01-19T03:21:58Z</time><extensions><speed>0.918473</speed><course>154.450163</course><hAcc>2.470469</hAcc><vAcc>1.643089</vAcc></extensions></trkpt>
      <trkpt lon="-117.165020" lat="32.896544"><ele>77.294184</ele><time>2025-01-19T03:21:59Z</time><extensions><speed>0.839677</speed><course>152.189603</course><hAcc>2.472737</hAcc><vAcc>1.633602</vAcc></extensions></trkpt>
      <trkpt lon="-117.165016" lat="32.896538"><ele>77.282729</ele><time>2025-01-19T03:22:00Z</time><extensions><speed>0.716733</speed><course>143.191715</course><hAcc>2.472250</hAcc><vAcc>1.621326</vAcc></extensions></trkpt>
      <trkpt lon="-117.165011" lat="32.896533"><ele>77.287381</ele><time>2025-01-19T03:22:01Z</time><extensions><speed>0.675335</speed><course>135.408736</course><hAcc>2.484540</hAcc><vAcc>1.613062</vAcc></extensions></trkpt>
      <trkpt lon="-117.165005" lat="32.896529"><ele>77.281214</ele><time>2025-01-19T03:22:02Z</time><extensions><speed>0.790823</speed><course>132.219596</course><hAcc>2.508401</hAcc><vAcc>1.597283</vAcc></extensions></trkpt>
      <trkpt lon="-117.164999" lat="32.896524"><ele>77.237926</ele><time>2025-01-19T03:22:03Z</time><extensions><speed>0.908029</speed><course>139.810551</course><hAcc>2.554361</hAcc><vAcc>1.568104</vAcc></extensions></trkpt>
      <trkpt lon="-117.164993" lat="32.896518"><ele>77.173299</ele><time>2025-01-19T03:22:04Z</time><extensions><speed>0.902582</speed><course>144.475802</course><hAcc>2.578887</hAcc><vAcc>1.529666</vAcc></extensions></trkpt>
      <trkpt lon="-117.164988" lat="32.896512"><ele>77.029476</ele><time>2025-01-19T03:22:05Z</time><extensions><speed>0.739000</speed><course>144.525755</course><hAcc>2.572258</hAcc><vAcc>1.490332</vAcc></extensions></trkpt>
      <trkpt lon="-117.164984" lat="32.896508"><ele>76.799411</ele><time>2025-01-19T03:22:06Z</time><extensions><speed>0.468011</speed><course>131.497600</course><hAcc>2.551732</hAcc><vAcc>1.437658</vAcc></extensions></trkpt>
      <trkpt lon="-117.164980" lat="32.896506"><ele>76.548591</ele><time>2025-01-19T03:22:07Z</time><extensions><speed>0.353697</speed><course>115.915110</course><hAcc>2.561735</hAcc><vAcc>1.382785</vAcc></extensions></trkpt>
      <trkpt lon="-117.164978" lat="32.896505"><ele>76.270314</ele><time>2025-01-19T03:22:08Z</time><extensions><speed>0.306800</speed><course>143.917910</course><hAcc>2.593532</hAcc><vAcc>1.330360</vAcc></extensions></trkpt>
      <trkpt lon="-117.164977" lat="32.896501"><ele>76.015925</ele><time>2025-01-19T03:22:09Z</time><extensions><speed>0.527305</speed><course>165.012679</course><hAcc>2.622493</hAcc><vAcc>1.282617</vAcc></extensions></trkpt>
      <trkpt lon="-117.164975" lat="32.896496"><ele>75.782210</ele><time>2025-01-19T03:22:10Z</time><extensions><speed>0.646244</speed><course>164.830008</course><hAcc>2.659138</hAcc><vAcc>1.236324</vAcc></extensions></trkpt>
      <trkpt lon="-117.164974" lat="32.896492"><ele>75.547988</ele><time>2025-01-19T03:22:11Z</time><extensions><speed>0.335366</speed><course>165.919516</course><hAcc>2.665991</hAcc><vAcc>1.190112</vAcc></extensions></trkpt>
      <trkpt lon="-117.164974" lat="32.896490"><ele>75.303024</ele><time>2025-01-19T03:22:12Z</time><extensions><speed>0.156979</speed><course>190.152472</course><hAcc>2.679872</hAcc><vAcc>1.143533</vAcc></extensions></trkpt>
      <trkpt lon="-117.164975" lat="32.896489"><ele>75.048548</ele><time>2025-01-19T03:22:13Z</time><extensions><speed>0.190496</speed><course>227.348067</course><hAcc>2.707964</hAcc><vAcc>1.096737</vAcc></extensions></trkpt>
      <trkpt lon="-117.164977" lat="32.896488"><ele>74.779730</ele><time>2025-01-19T03:22:14Z</time><extensions><speed>0.314156</speed><course>250.311550</course><hAcc>2.757789</hAcc><vAcc>1.050298</vAcc></extensions></trkpt>
      <trkpt lon="-117.164980" lat="32.896487"><ele>74.502942</ele><time>2025-01-19T03:22:15Z</time><extensions><speed>0.411116</speed><course>251.205390</course><hAcc>2.810075</hAcc><vAcc>1.005068</vAcc></extensions></trkpt>
      <trkpt lon="-117.164984" lat="32.896487"><ele>74.226079</ele><time>2025-01-19T03:22:16Z</time><extensions><speed>0.367244</speed><course>271.217799</course><hAcc>2.845604</hAcc><vAcc>0.962078</vAcc></extensions></trkpt>
      <trkpt lon="-117.164988" lat="32.896487"><ele>73.940065</ele><time>2025-01-19T03:22:17Z</time><extensions><speed>0.338236</speed><course>286.530591</course><hAcc>2.886282</hAcc><vAcc>0.922411</vAcc></extensions></trkpt>
      <trkpt lon="-117.164991" lat="32.896488"><ele>73.661727</ele><time>2025-01-19T03:22:18Z</time><extensions><speed>0.296744</speed><course>294.372676</course><hAcc>2.948908</hAcc><vAcc>0.887026</vAcc></extensions></trkpt>
      <trkpt lon="-117.164994" lat="32.896490"><ele>73.386171</ele><time>2025-01-19T03:22:19Z</time><extensions><speed>0.237870</speed><course>304.380314</course><hAcc>3.040737</hAcc><vAcc>0.856552</vAcc></extensions></trkpt>
      <trkpt lon="-117.164995" lat="32.896491"><ele>73.121016</ele><time>2025-01-19T03:22:20Z</time><extensions><speed>0.187512</speed><course>325.192257</course><hAcc>3.156665</hAcc><vAcc>0.831274</vAcc></extensions></trkpt>
      <trkpt lon="-117.164996" lat="32.896493"><ele>72.863824</ele><time>2025-01-19T03:22:21Z</time><extensions><speed>0.207275</speed><course>346.563294</course><hAcc>3.289195</hAcc><vAcc>0.810979</vAcc></extensions></trkpt>
      <trkpt lon="-117.164996" lat="32.896495"><ele>72.618995</ele><time>2025-01-19T03:22:22Z</time><extensions><speed>0.249151</speed><course>0.047827</course><hAcc>3.508458</hAcc><vAcc>0.799546</vAcc></extensions></trkpt>
      <trkpt lon="-117.164996" lat="32.896497"><ele>72.383133</ele><time>2025-01-19T03:22:23Z</time><extensions><speed>0.283100</speed><course>7.995840</course><hAcc>3.863670</hAcc><vAcc>0.795580</vAcc></extensions></trkpt>
      <trkpt lon="-117.164995" lat="32.896500"><ele>72.157385</ele><time>2025-01-19T03:22:24Z</time><extensions><speed>0.300507</speed><course>12.479630</course><hAcc>4.352448</hAcc><vAcc>0.800772</vAcc></extensions></trkpt>
      <trkpt lon="-117.164995" lat="32.896502"><ele>71.942255</ele><time>2025-01-19T03:22:25Z</time><extensions><speed>0.291431</speed><course>14.751373</course><hAcc>4.951518</hAcc><vAcc>0.817494</vAcc></extensions></trkpt>
      <trkpt lon="-117.164994" lat="32.896505"><ele>71.737480</ele><time>2025-01-19T03:22:26Z</time><extensions><speed>0.274571</speed><course>16.406804</course><hAcc>5.643450</hAcc><vAcc>0.848750</vAcc></extensions></trkpt>
      <trkpt lon="-117.164993" lat="32.896507"><ele>71.542122</ele><time>2025-01-19T03:22:27Z</time><extensions><speed>0.251200</speed><course>16.728455</course><hAcc>6.442656</hAcc><vAcc>0.897903</vAcc></extensions></trkpt>
      <trkpt lon="-117.164992" lat="32.896509"><ele>71.354747</ele><time>2025-01-19T03:22:28Z</time><extensions><speed>0.227933</speed><course>16.936428</course><hAcc>7.371486</hAcc><vAcc>0.968246</vAcc></extensions></trkpt>
      <trkpt lon="-117.164992" lat="32.896511"><ele>71.173554</ele><time>2025-01-19T03:22:29Z</time><extensions><speed>0.208737</speed><course>16.617160</course><hAcc>8.461830</hAcc><vAcc>1.062523</vAcc></extensions></trkpt>
      <trkpt lon="-117.164991" lat="32.896513"><ele>70.988317</ele><time>2025-01-19T03:22:30Z</time><extensions><speed>0.190588</speed><course>16.119862</course><hAcc>9.819472</hAcc><vAcc>1.188902</vAcc></extensions></trkpt>
      <trkpt lon="-117.164990" lat="32.896514"><ele>70.813731</ele><time>2025-01-19T03:22:31Z</time><extensions><speed>0.184153</speed><course>15.704178</course><hAcc>11.387130</hAcc><vAcc>1.337244</vAcc></extensions></trkpt>
    </trkseg>
  </trk>
</gpx>