<?xml version="1.0" encoding="UTF-8"?>
<gpx version="1.1" creator="Apple Health Export" xmlns="http://www.topografix.com/GPX/1/1" xmlns:xsi="http://www.w3.org/2001/XMLSchema-instance" xsi:schemaLocation="http://www.topografix.com/GPX/1/1 http://www.topografix.com/GPX/1/1/gpx.xsd">
  <metadata>
    <time>2026-01-11T07:58:09Z</time>
  </metadata>
  <trk>
    <name>Route 2025-03-31 7:59pm</name>
    <trkseg>
      <trkpt lon="-117.330122" lat="33.979286"><ele>322.290439</ele><time>2025-04-01T02:56:46Z</time><extensions><speed>0.106292</speed><course>99.689926</course><hAcc>5.629791</hAcc><vAcc>2.584305</vAcc></extensions></trkpt>
      <trkpt lon="-117.330115" lat="33.979288"><ele>322.302173</ele><time>2025-04-01T02:56:47Z</time><extensions><speed>0.158101</speed><course>99.285689</course><hAcc>4.986046</hAcc><vAcc>2.257698</vAcc></extensions></trkpt>
      <trkpt lon="-117.330110" lat="33.979289"><ele>322.315005</ele><time>2025-04-01T02:56:48Z</time><extensions><speed>0.226009</speed><course>98.006303</course><hAcc>4.507679</hAcc><vAcc>1.973618</vAcc></extensions></trkpt>
      <trkpt lon="-117.330105" lat="33.979290"><ele>322.327342</ele><time>2025-04-01T02:56:49Z</time><extensions><speed>0.277680</speed><course>94.516624</course><hAcc>4.137904</hAcc><vAcc>1.727528</vAcc></extensions></trkpt>
      <trkpt lon="-117.330099" lat="33.979290"><ele>322.340569</ele><time>2025-04-01T02:56:50Z</time><extensions><speed>0.587850</speed><course>91.413735</course><hAcc>3.821440</hAcc><vAcc>1.516074</vAcc></extensions></trkpt>
      <trkpt lon="-117.330089" lat="33.979291"><ele>322.354838</ele><time>2025-04-01T02:56:51Z</time><extensions><speed>1.047116</speed><course>89.967412</course><hAcc>3.603723</hAcc><vAcc>1.336919</vAcc></extensions></trkpt>
      <trkpt lon="-117.330076" lat="33.979291"><ele>322.372110</ele><time>2025-04-01T02:56:52Z</time><extensions><speed>1.302911</speed><course>90.781008</course><hAcc>3.420590</hAcc><vAcc>1.188259</vAcc></extensions></trkpt>
      <trkpt lon="-117.330063" lat="33.979291"><ele>322.388622</ele><time>2025-04-01T02:56:53Z</time><extensions><speed>1.432702</speed><course>94.334393</course><hAcc>3.265985</hAcc><vAcc>1.084413</vAcc></extensions></trkpt>
      <trkpt lon="-117.330047" lat="33.979290"><ele>322.409591</ele><time>2025-04-01T02:56:54Z</time><extensions><speed>1.542036</speed><course>94.838432</course><hAcc>3.110860</hAcc><vAcc>0.987935</vAcc></extensions></trkpt>
      <trkpt lon="-117.330031" lat="33.979289"><ele>322.431774</ele><time>2025-04-01T02:56:55Z</time><extensions><speed>1.537519</speed><course>96.427522</course><hAcc>2.978364</hAcc><vAcc>0.914899</vAcc></extensions></trkpt>
      <trkpt lon="-117.330015" lat="33.979288"><ele>322.454877</ele><time>2025-04-01T02:56:56Z</time><extensions><speed>1.498885</speed><course>95.690628</course><hAcc>2.853967</hAcc><vAcc>0.861743</vAcc></extensions></trkpt>
      <trkpt lon="-117.329999" lat="33.979287"><ele>322.478777</ele><time>2025-04-01T02:56:57Z</time><extensions><speed>1.485987</speed><course>94.175435</course><hAcc>2.741040</hAcc><vAcc>0.824644</vAcc></extensions></trkpt>
      <trkpt lon="-117.329984" lat="33.979287"><ele>322.503469</ele><time>2025-04-01T02:56:58Z</time><extensions><speed>1.474569</speed><course>92.260904</course><hAcc>2.640144</hAcc><vAcc>0.799864</vAcc></extensions></trkpt>
      <trkpt lon="-117.329968" lat="33.979287"><ele>322.517044</ele><time>2025-04-01T02:56:59Z</time><extensions><speed>1.456217</speed><course>86.530485</course><hAcc>2.558050</hAcc><vAcc>0.784049</vAcc></extensions></trkpt>
      <trkpt lon="-117.329954" lat="33.979289"><ele>322.529143</ele><time>2025-04-01T02:57:00Z</time><extensions><speed>1.322735</speed><course>85.712853</course><hAcc>2.474618</hAcc><vAcc>0.774423</vAcc></extensions></trkpt>
      <trkpt lon="-117.329940" lat="33.979290"><ele>322.540741</ele><time>2025-04-01T02:57:01Z</time><extensions><speed>1.297839</speed><course>88.069275</course><hAcc>2.395566</hAcc><vAcc>0.768846</vAcc></extensions></trkpt>
      <trkpt lon="-117.329926" lat="33.979290"><ele>322.552507</ele><time>2025-04-01T02:57:02Z</time><extensions><speed>1.290676</speed><course>91.853542</course><hAcc>2.342386</hAcc><vAcc>0.765763</vAcc></extensions></trkpt>
      <trkpt lon="-117.329912" lat="33.979290"><ele>322.564644</ele><time>2025-04-01T02:57:03Z</time><extensions><speed>1.263494</speed><course>92.802991</course><hAcc>2.278149</hAcc><vAcc>0.764111</vAcc></extensions></trkpt>
      <trkpt lon="-117.329898" lat="33.979290"><ele>322.577569</ele><time>2025-04-01T02:57:04Z</time><extensions><speed>1.253426</speed><course>94.223920</course><hAcc>2.236292</hAcc><vAcc>0.763203</vAcc></extensions></trkpt>
      <trkpt lon="-117.329885" lat="33.979290"><ele>322.591328</ele><time>2025-04-01T02:57:05Z</time><extensions><speed>1.215395</speed><course>91.867530</course><hAcc>2.180161</hAcc><vAcc>0.762627</vAcc></extensions></trkpt>
      <trkpt lon="-117.329872" lat="33.979290"><ele>322.606714</ele><time>2025-04-01T02:57:06Z</time><extensions><speed>1.207589</speed><course>93.211335</course><hAcc>2.142261</hAcc><vAcc>0.762156</vAcc></extensions></trkpt>
      <trkpt lon="-117.329859" lat="33.979290"><ele>322.623357</ele><time>2025-04-01T02:57:07Z</time><extensions><speed>1.192267</speed><course>96.076647</course><hAcc>2.121700</hAcc><vAcc>0.761684</vAcc></extensions></trkpt>
      <trkpt lon="-117.329844" lat="33.979292"><ele>322.679769</ele><time>2025-04-01T02:57:08Z</time><extensions><speed>1.193576</speed><course>93.293530</course><hAcc>2.037878</hAcc><vAcc>0.761174</vAcc></extensions></trkpt>
      <trkpt lon="-117.329831" lat="33.979292"><ele>322.739096</ele><time>2025-04-01T02:57:09Z</time><extensions><speed>1.195068</speed><course>90.608023</course><hAcc>2.009981</hAcc><vAcc>0.760629</vAcc></extensions></trkpt>
      <trkpt lon="-117.329818" lat="33.979293"><ele>322.800844</ele><time>2025-04-01T02:57:10Z</time><extensions><speed>1.162839</speed><course>89.038367</course><hAcc>1.976119</hAcc><vAcc>0.760219</vAcc></extensions></trkpt>
      <trkpt lon="-117.329805" lat="33.979293"><ele>322.864804</ele><time>2025-04-01T02:57:11Z</time><extensions><speed>1.180909</speed><course>89.144630</course><hAcc>1.948222</hAcc><vAcc>0.759740</vAcc></extensions></trkpt>
      <trkpt lon="-117.329793" lat="33.979294"><ele>322.931839</ele><time>2025-04-01T02:57:12Z</time><extensions><speed>1.175741</speed><course>93.868500</course><hAcc>1.950019</hAcc><vAcc>0.759308</vAcc></extensions></trkpt>
      <trkpt lon="-117.329780" lat="33.979293"><ele>323.006376</ele><time>2025-04-01T02:57:12Z</time><extensions><speed>1.194732</speed><course>93.049701</course><hAcc>1.919648</hAcc><vAcc>0.758940</vAcc></extensions></trkpt>
      <trkpt lon="-117.329767" lat="33.979293"><ele>323.090052</ele><time>2025-04-01T02:57:13Z</time><extensions><speed>1.204284</speed><course>91.906707</course><hAcc>1.902977</hAcc><vAcc>0.758644</vAcc></extensions></trkpt>
      <trkpt lon="-117.329754" lat="33.979293"><ele>323.177034</ele><time>2025-04-01T02:57:14Z</time><extensions><speed>1.171782</speed><course>92.408724</course><hAcc>1.904809</hAcc><vAcc>0.758420</vAcc></extensions></trkpt>
      <trkpt lon="-117.329742" lat="33.979293"><ele>323.267539</ele><time>2025-04-01T02:57:15Z</time><extensions><speed>1.169570</speed><course>89.459326</course><hAcc>1.904095</hAcc><vAcc>0.758261</vAcc></extensions></trkpt>
      <trkpt lon="-117.329729" lat="33.979293"><ele>323.343488</ele><time>2025-04-01T02:57:16Z</time><extensions><speed>1.176127</speed><course>87.669990</course><hAcc>1.892303</hAcc><vAcc>0.758154</vAcc></extensions></trkpt>
      <trkpt lon="-117.329716" lat="33.979294"><ele>323.418748</ele><time>2025-04-01T02:57:17Z</time><extensions><speed>1.203910</speed><course>83.123047</course><hAcc>1.862995</hAcc><vAcc>0.758082</vAcc></extensions></trkpt>
      <trkpt lon="-117.329703" lat="33.979295"><ele>323.491352</ele><time>2025-04-01T02:57:18Z</time><extensions><speed>1.206181</speed><course>89.171312</course><hAcc>1.886656</hAcc><vAcc>0.758020</vAcc></extensions></trkpt>
      <trkpt lon="-117.329690" lat="33.979295"><ele>323.552054</ele><time>2025-04-01T02:57:19Z</time><extensions><speed>1.165531</speed><course>90.094936</course><hAcc>1.872593</hAcc><vAcc>0.757945</vAcc></extensions></trkpt>
      <trkpt lon="-117.329678" lat="33.979295"><ele>323.597141</ele><time>2025-04-01T02:57:20Z</time><extensions><speed>1.138880</speed><course>89.405645</course><hAcc>1.870565</hAcc><vAcc>0.757839</vAcc></extensions></trkpt>
      <trkpt lon="-117.329666" lat="33.979295"><ele>323.624949</ele><time>2025-04-01T02:57:21Z</time><extensions><speed>1.119117</speed><course>88.949617</course><hAcc>1.874290</hAcc><vAcc>0.757708</vAcc></extensions></trkpt>
      <trkpt lon="-117.329654" lat="33.979295"><ele>323.643267</ele><time>2025-04-01T02:57:22Z</time><extensions><speed>1.110141</speed><course>90.623312</course><hAcc>1.879743</hAcc><vAcc>0.757565</vAcc></extensions></trkpt>
      <trkpt lon="-117.329642" lat="33.979295"><ele>323.645351</ele><time>2025-04-01T02:57:23Z</time><extensions><speed>1.118564</speed><course>91.289366</course><hAcc>1.871991</hAcc><vAcc>0.757421</vAcc></extensions></trkpt>
      <trkpt lon="-117.329630" lat="33.979295"><ele>323.627192</ele><time>2025-04-01T02:57:24Z</time><extensions><speed>1.138747</speed><course>90.585396</course><hAcc>1.855158</hAcc><vAcc>0.757286</vAcc></extensions></trkpt>
      <trkpt lon="-117.329617" lat="33.979295"><ele>323.597936</ele><time>2025-04-01T02:57:25Z</time><extensions><speed>1.145258</speed><course>91.791746</course><hAcc>1.845194</hAcc><vAcc>0.757166</vAcc></extensions></trkpt>
      <trkpt lon="-117.329605" lat="33.979294"><ele>323.559596</ele><time>2025-04-01T02:57:26Z</time><extensions><speed>1.151296</speed><course>94.133300</course><hAcc>1.830354</hAcc><vAcc>0.757062</vAcc></extensions></trkpt>
      <trkpt lon="-117.329593" lat="33.979293"><ele>323.512646</ele><time>2025-04-01T02:57:27Z</time><extensions><speed>1.145487</speed><course>96.230032</course><hAcc>1.817966</hAcc><vAcc>0.756976</vAcc></extensions></trkpt>
      <trkpt lon="-117.329580" lat="33.979292"><ele>323.457230</ele><time>2025-04-01T02:57:28Z</time><extensions><speed>1.137597</speed><course>99.101336</course><hAcc>1.806176</hAcc><vAcc>0.756907</vAcc></extensions></trkpt>
      <trkpt lon="-117.329568" lat="33.979290"><ele>323.397578</ele><time>2025-04-01T02:57:29Z</time><extensions><speed>1.111768</speed><course>101.656157</course><hAcc>1.785161</hAcc><vAcc>0.756853</vAcc></extensions></trkpt>
      <trkpt lon="-117.329557" lat="33.979289"><ele>323.341505</ele><time>2025-04-01T02:57:30Z</time><extensions><speed>1.057634</speed><course>99.068498</course><hAcc>1.770324</hAcc><vAcc>0.756813</vAcc></extensions></trkpt>
      <trkpt lon="-117.329545" lat="33.979288"><ele>323.285625</ele><time>2025-04-01T02:57:31Z</time><extensions><speed>1.047688</speed><course>95.253022</course><hAcc>1.756201</hAcc><vAcc>0.756784</vAcc></extensions></trkpt>
      <trkpt lon="-117.329534" lat="33.979287"><ele>323.229785</ele><time>2025-04-01T02:57:32Z</time><extensions><speed>1.102848</speed><course>91.248859</course><hAcc>1.741061</hAcc><vAcc>0.756764</vAcc></extensions></trkpt>
      <trkpt lon="-117.329522" lat="33.979287"><ele>323.179082</ele><time>2025-04-01T02:57:33Z</time><extensions><speed>1.114900</speed><course>91.116317</course><hAcc>1.725257</hAcc><vAcc>0.756750</vAcc></extensions></trkpt>
      <trkpt lon="-117.329510" lat="33.979287"><ele>323.138854</ele><time>2025-04-01T02:57:34Z</time><extensions><speed>1.132466</speed><course>90.418639</course><hAcc>1.710023</hAcc><vAcc>0.756741</vAcc></extensions></trkpt>
      <trkpt lon="-117.329497" lat="33.979287"><ele>323.104110</ele><time>2025-04-01T02:57:35Z</time><extensions><speed>1.157305</speed><course>85.201372</course><hAcc>1.696414</hAcc><vAcc>0.756736</vAcc></extensions></trkpt>
      <trkpt lon="-117.329485" lat="33.979289"><ele>323.075763</ele><time>2025-04-01T02:57:36Z</time><extensions><speed>1.171354</speed><course>80.800748</course><hAcc>1.684879</hAcc><vAcc>0.756733</vAcc></extensions></trkpt>
      <trkpt lon="-117.329472" lat="33.979291"><ele>323.050072</ele><time>2025-04-01T02:57:37Z</time><extensions><speed>1.183098</speed><course>79.772735</course><hAcc>1.675627</hAcc><vAcc>0.756732</vAcc></extensions></trkpt>
      <trkpt lon="-117.329459" lat="33.979292"><ele>323.036313</ele><time>2025-04-01T02:57:38Z</time><extensions><speed>1.213217</speed><course>81.248059</course><hAcc>1.666831</hAcc><vAcc>0.756732</vAcc></extensions></trkpt>
      <trkpt lon="-117.329446" lat="33.979294"><ele>323.025933</ele><time>2025-04-01T02:57:39Z</time><extensions><speed>1.235120</speed><course>81.447329</course><hAcc>1.659685</hAcc><vAcc>0.756732</vAcc></extensions></trkpt>
      <trkpt lon="-117.329433" lat="33.979296"><ele>323.026707</ele><time>2025-04-01T02:57:40Z</time><extensions><speed>1.236569</speed><course>81.281942</course><hAcc>1.664273</hAcc><vAcc>0.756733</vAcc></extensions></trkpt>
      <trkpt lon="-117.329419" lat="33.979297"><ele>323.029440</ele><time>2025-04-01T02:57:41Z</time><extensions><speed>1.267651</speed><course>85.390613</course><hAcc>1.666414</hAcc><vAcc>0.756733</vAcc></extensions></trkpt>
      <trkpt lon="-117.329405" lat="33.979298"><ele>323.033005</ele><time>2025-04-01T02:57:42Z</time><extensions><speed>1.310688</speed><course>87.732301</course><hAcc>1.663426</hAcc><vAcc>0.756734</vAcc></extensions></trkpt>
      <trkpt lon="-117.329391" lat="33.979299"><ele>323.041019</ele><time>2025-04-01T02:57:43Z</time><extensions><speed>1.326212</speed><course>85.676605</course><hAcc>1.656455</hAcc><vAcc>0.756734</vAcc></extensions></trkpt>
      <trkpt lon="-117.329376" lat="33.979300"><ele>323.046292</ele><time>2025-04-01T02:57:44Z</time><extensions><speed>1.362810</speed><course>83.811617</course><hAcc>1.646922</hAcc><vAcc>0.756735</vAcc></extensions></trkpt>
      <trkpt lon="-117.329361" lat="33.979301"><ele>323.045808</ele><time>2025-04-01T02:57:45Z</time><extensions><speed>1.427915</speed><course>84.228028</course><hAcc>1.635840</hAcc><vAcc>0.756735</vAcc></extensions></trkpt>
      <trkpt lon="-117.329346" lat="33.979302"><ele>323.039514</ele><time>2025-04-01T02:57:46Z</time><extensions><speed>1.413050</speed><course>83.996462</course><hAcc>1.636218</hAcc><vAcc>0.756736</vAcc></extensions></trkpt>
      <trkpt lon="-117.329331" lat="33.979304"><ele>323.028773</ele><time>2025-04-01T02:57:47Z</time><extensions><speed>1.382343</speed><course>83.225147</course><hAcc>1.638660</hAcc><vAcc>0.756736</vAcc></extensions></trkpt>
      <trkpt lon="-117.329316" lat="33.979305"><ele>323.025019</ele><time>2025-04-01T02:57:48Z</time><extensions><speed>1.382599</speed><course>83.360006</course><hAcc>1.644084</hAcc><vAcc>0.756737</vAcc></extensions></trkpt>
      <trkpt lon="-117.329301" lat="33.979306"><ele>323.021946</ele><time>2025-04-01T02:57:49Z</time><extensions><speed>1.408829</speed><course>84.650130</course><hAcc>1.651891</hAcc><vAcc>0.756737</vAcc></extensions></trkpt>
      <trkpt lon="-117.329286" lat="33.979307"><ele>323.016322</ele><time>2025-04-01T02:57:50Z</time><extensions><speed>1.407268</speed><course>87.258231</course><hAcc>1.658937</hAcc><vAcc>0.756737</vAcc></extensions></trkpt>
      <trkpt lon="-117.329271" lat="33.979308"><ele>323.008738</ele><time>2025-04-01T02:57:51Z</time><extensions><speed>1.356320</speed><course>90.085766</course><hAcc>1.674052</hAcc><vAcc>0.756737</vAcc></extensions></trkpt>
      <trkpt lon="-117.329257" lat="33.979307"><ele>322.990779</ele><time>2025-04-01T02:57:52Z</time><extensions><speed>1.306374</speed><course>92.855106</course><hAcc>1.693046</hAcc><vAcc>0.756738</vAcc></extensions></trkpt>
      <trkpt lon="-117.329243" lat="33.979306"><ele>322.975585</ele><time>2025-04-01T02:57:53Z</time><extensions><speed>1.265753</speed><course>96.129413</course><hAcc>1.699270</hAcc><vAcc>0.756738</vAcc></extensions></trkpt>
      <trkpt lon="-117.329229" lat="33.979305"><ele>322.958830</ele><time>2025-04-01T02:57:54Z</time><extensions><speed>1.233895</speed><course>98.703104</course><hAcc>1.692872</hAcc><vAcc>0.756738</vAcc></extensions></trkpt>
      <trkpt lon="-117.329216" lat="33.979303"><ele>322.945480</ele><time>2025-04-01T02:57:55Z</time><extensions><speed>1.227395</speed><course>98.377674</course><hAcc>1.686185</hAcc><vAcc>0.756738</vAcc></extensions></trkpt>
      <trkpt lon="-117.329203" lat="33.979302"><ele>322.933869</ele><time>2025-04-01T02:57:56Z</time><extensions><speed>1.250987</speed><course>95.051299</course><hAcc>1.670771</hAcc><vAcc>0.756738</vAcc></extensions></trkpt>
      <trkpt lon="-117.329189" lat="33.979301"><ele>322.923137</ele><time>2025-04-01T02:57:57Z</time><extensions><speed>1.278297</speed><course>93.819193</course><hAcc>1.661119</hAcc><vAcc>0.756739</vAcc></extensions></trkpt>
      <trkpt lon="-117.329175" lat="33.979300"><ele>322.912039</ele><time>2025-04-01T02:57:58Z</time><extensions><speed>1.291257</speed><course>93.150023</course><hAcc>1.650241</hAcc><vAcc>0.756739</vAcc></extensions></trkpt>
      <trkpt lon="-117.329161" lat="33.979299"><ele>322.907594</ele><time>2025-04-01T02:57:59Z</time><extensions><speed>1.269656</speed><course>94.566776</course><hAcc>1.640821</hAcc><vAcc>0.756739</vAcc></extensions></trkpt>
      <trkpt lon="-117.329148" lat="33.979298"><ele>322.907959</ele><time>2025-04-01T02:58:00Z</time><extensions><speed>1.283362</speed><course>96.928733</course><hAcc>1.636127</hAcc><vAcc>0.756739</vAcc></extensions></trkpt>
      <trkpt lon="-117.329134" lat="33.979296"><ele>322.911262</ele><time>2025-04-01T02:58:01Z</time><extensions><speed>1.327709</speed><course>102.595991</course><hAcc>1.635560</hAcc><vAcc>0.756739</vAcc></extensions></trkpt>
      <trkpt lon="-117.329119" lat="33.979293"><ele>322.915265</ele><time>2025-04-01T02:58:02Z</time><extensions><speed>1.408217</speed><course>107.936422</course><hAcc>1.638104</hAcc><vAcc>0.756740</vAcc></extensions></trkpt>
      <trkpt lon="-117.329105" lat="33.979288"><ele>322.921308</ele><time>2025-04-01T02:58:03Z</time><extensions><speed>1.469328</speed><course>112.751680</course><hAcc>1.640449</hAcc><vAcc>0.756740</vAcc></extensions></trkpt>
      <trkpt lon="-117.329090" lat="33.979282"><ele>322.929654</ele><time>2025-04-01T02:58:04Z</time><extensions><speed>1.551754</speed><course>120.945644</course><hAcc>1.638286</hAcc><vAcc>0.756740</vAcc></extensions></trkpt>
      <trkpt lon="-117.329076" lat="33.979273"><ele>322.936669</ele><time>2025-04-01T02:58:05Z</time><extensions><speed>1.630050</speed><course>133.134740</course><hAcc>1.639825</hAcc><vAcc>0.756740</vAcc></extensions></trkpt>
      <trkpt lon="-117.329064" lat="33.979262"><ele>322.942132</ele><time>2025-04-01T02:58:06Z</time><extensions><speed>1.684606</speed><course>141.347931</course><hAcc>1.642360</hAcc><vAcc>0.756740</vAcc></extensions></trkpt>
      <trkpt lon="-117.329054" lat="33.979250"><ele>322.948020</ele><time>2025-04-01T02:58:07Z</time><extensions><speed>1.739817</speed><course>148.153062</course><hAcc>1.636187</hAcc><vAcc>0.756740</vAcc></extensions></trkpt>
      <trkpt lon="-117.329044" lat="33.979236"><ele>322.954285</ele><time>2025-04-01T02:58:08Z</time><extensions><speed>1.719635</speed><course>151.187352</course><hAcc>1.625791</hAcc><vAcc>0.756740</vAcc></extensions></trkpt>
      <trkpt lon="-117.329035" lat="33.979223"><ele>322.961764</ele><time>2025-04-01T02:58:09Z</time><extensions><speed>1.711619</speed><course>151.231146</course><hAcc>1.620800</hAcc><vAcc>0.756741</vAcc></extensions></trkpt>
      <trkpt lon="-117.329026" lat="33.979209"><ele>322.969774</ele><time>2025-04-01T02:58:10Z</time><extensions><speed>1.630096</speed><course>152.027482</course><hAcc>1.637493</hAcc><vAcc>0.756741</vAcc></extensions></trkpt>
      <trkpt lon="-117.329019" lat="33.979197"><ele>322.979975</ele><time>2025-04-01T02:58:11Z</time><extensions><speed>1.469767</speed><course>154.631240</course><hAcc>1.673156</hAcc><vAcc>0.756741</vAcc></extensions></trkpt>
      <trkpt lon="-117.329012" lat="33.979184"><ele>322.986801</ele><time>2025-04-01T02:58:12Z</time><extensions><speed>1.535651</speed><course>157.448301</course><hAcc>1.644517</hAcc><vAcc>0.756741</vAcc></extensions></trkpt>
      <trkpt lon="-117.329006" lat="33.979171"><ele>322.989158</ele><time>2025-04-01T02:58:13Z</time><extensions><speed>1.548798</speed><course>160.569573</course><hAcc>1.632730</hAcc><vAcc>0.756741</vAcc></extensions></trkpt>
      <trkpt lon="-117.329001" lat="33.979158"><ele>322.991126</ele><time>2025-04-01T02:58:14Z</time><extensions><speed>1.527543</speed><course>161.153927</course><hAcc>1.647112</hAcc><vAcc>0.756741</vAcc></extensions></trkpt>
      <trkpt lon="-117.328996" lat="33.979145"><ele>322.993811</ele><time>2025-04-01T02:58:15Z</time><extensions><speed>1.512244</speed><course>162.295273</course><hAcc>1.655835</hAcc><vAcc>0.758109</vAcc></extensions></trkpt>
      <trkpt lon="-117.328991" lat="33.979132"><ele>322.999125</ele><time>2025-04-01T02:58:16Z</time><extensions><speed>1.501711</speed><course>163.139473</course><hAcc>1.655022</hAcc><vAcc>0.760022</vAcc></extensions></trkpt>
      <trkpt lon="-117.328987" lat="33.979120"><ele>322.999768</ele><time>2025-04-01T02:58:17Z</time><extensions><speed>1.434207</speed><course>165.197074</course><hAcc>1.660165</hAcc><vAcc>0.763384</vAcc></extensions></trkpt>
      <trkpt lon="-117.328983" lat="33.979107"><ele>323.001162</ele><time>2025-04-01T02:58:18Z</time><extensions><speed>1.394234</speed><course>164.941147</course><hAcc>1.662446</hAcc><vAcc>0.767932</vAcc></extensions></trkpt>
      <trkpt lon="-117.328979" lat="33.979095"><ele>323.016066</ele><time>2025-04-01T02:58:19Z</time><extensions><speed>1.375368</speed><course>166.808476</course><hAcc>1.657816</hAcc><vAcc>0.773219</vAcc></extensions></trkpt>
      <trkpt lon="-117.328976" lat="33.979083"><ele>323.035789</ele><time>2025-04-01T02:58:20Z</time><extensions><speed>1.345941</speed><course>170.120560</course><hAcc>1.640896</hAcc><vAcc>0.780126</vAcc></extensions></trkpt>
      <trkpt lon="-117.328974" lat="33.979071"><ele>323.055875</ele><time>2025-04-01T02:58:21Z</time><extensions><speed>1.322454</speed><course>172.999436</course><hAcc>1.618434</hAcc><vAcc>0.788587</vAcc></extensions></trkpt>
      <trkpt lon="-117.328972" lat="33.979059"><ele>323.069239</ele><time>2025-04-01T02:58:22Z</time><extensions><speed>1.311458</speed><course>172.789078</course><hAcc>1.609377</hAcc><vAcc>0.797396</vAcc></extensions></trkpt>
      <trkpt lon="-117.328970" lat="33.979048"><ele>323.085041</ele><time>2025-04-01T02:58:23Z</time><extensions><speed>1.282337</speed><course>171.772163</course><hAcc>1.596298</hAcc><vAcc>0.807891</vAcc></extensions></trkpt>
      <trkpt lon="-117.328968" lat="33.979036"><ele>323.082450</ele><time>2025-04-01T02:58:24Z</time><extensions><speed>1.221860</speed><course>171.989918</course><hAcc>1.588867</hAcc><vAcc>0.818106</vAcc></extensions></trkpt>
      <trkpt lon="-117.328966" lat="33.979026"><ele>323.078621</ele><time>2025-04-01T02:58:25Z</time><extensions><speed>1.219856</speed><course>172.273164</course><hAcc>1.592872</hAcc><vAcc>0.828578</vAcc></extensions></trkpt>
      <trkpt lon="-117.328965" lat="33.979014"><ele>323.094385</ele><time>2025-04-01T02:58:26Z</time><extensions><speed>1.262790</speed><course>173.555961</course><hAcc>1.578263</hAcc><vAcc>0.838617</vAcc></extensions></trkpt>
      <trkpt lon="-117.328963" lat="33.979003"><ele>323.098084</ele><time>2025-04-01T02:58:27Z</time><extensions><speed>1.295898</speed><course>177.039862</course><hAcc>1.570912</hAcc><vAcc>0.847439</vAcc></extensions></trkpt>
      <trkpt lon="-117.328962" lat="33.978991"><ele>323.098300</ele><time>2025-04-01T02:58:28Z</time><extensions><speed>1.298975</speed><course>173.201037</course><hAcc>1.547358</hAcc><vAcc>0.854096</vAcc></extensions></trkpt>
      <trkpt lon="-117.328959" lat="33.978980"><ele>323.112394</ele><time>2025-04-01T02:58:29Z</time><extensions><speed>1.272617</speed><course>163.898435</course><hAcc>1.528568</hAcc><vAcc>0.859046</vAcc></extensions></trkpt>
      <trkpt lon="-117.328955" lat="33.978969"><ele>323.139611</ele><time>2025-04-01T02:58:30Z</time><extensions><speed>1.305176</speed><course>159.737365</course><hAcc>1.526721</hAcc><vAcc>0.862592</vAcc></extensions></trkpt>
      <trkpt lon="-117.328950" lat="33.978958"><ele>323.174993</ele><time>2025-04-01T02:58:31Z</time><extensions><speed>1.256633</speed><course>159.907846</course><hAcc>1.530131</hAcc><vAcc>0.865237</vAcc></extensions></trkpt>
      <trkpt lon="-117.328946" lat="33.978948"><ele>323.203521</ele><time>2025-04-01T02:58:32Z</time><extensions><speed>1.165632</speed><course>163.542140</course><hAcc>1.533380</hAcc><vAcc>0.866412</vAcc></extensions></trkpt>
      <trkpt lon="-117.328943" lat="33.978938"><ele>323.231808</ele><time>2025-04-01T02:58:33Z</time><extensions><speed>1.092491</speed><course>167.293655</course><hAcc>1.535190</hAcc><vAcc>0.866065</vAcc></extensions></trkpt>
      <trkpt lon="-117.328940" lat="33.978928"><ele>323.268566</ele><time>2025-04-01T02:58:34Z</time><extensions><speed>1.042898</speed><course>169.799910</course><hAcc>1.528482</hAcc><vAcc>0.865176</vAcc></extensions></trkpt>
      <trkpt lon="-117.328938" lat="33.978920"><ele>323.309056</ele><time>2025-04-01T02:58:35Z</time><extensions><speed>0.950306</speed><course>167.758274</course><hAcc>1.530120</hAcc><vAcc>0.863268</vAcc></extensions></trkpt>
      <trkpt lon="-117.328935" lat="33.978911"><ele>323.351370</ele><time>2025-04-01T02:58:36Z</time><extensions><speed>0.912636</speed><course>160.798658</course><hAcc>1.519956</hAcc><vAcc>0.861500</vAcc></extensions></trkpt>
      <trkpt lon="-117.328931" lat="33.978904"><ele>323.389891</ele><time>2025-04-01T02:58:37Z</time><extensions><speed>0.978211</speed><course>154.499945</course><hAcc>1.504954</hAcc><vAcc>0.860172</vAcc></extensions></trkpt>
      <trkpt lon="-117.328925" lat="33.978895"><ele>323.432771</ele><time>2025-04-01T02:58:38Z</time><extensions><speed>1.098460</speed><course>148.250937</course><hAcc>1.498145</hAcc><vAcc>0.859646</vAcc></extensions></trkpt>
      <trkpt lon="-117.328918" lat="33.978886"><ele>323.474865</ele><time>2025-04-01T02:58:39Z</time><extensions><speed>1.224159</speed><course>146.472900</course><hAcc>1.507739</hAcc><vAcc>0.859865</vAcc></extensions></trkpt>
      <trkpt lon="-117.328911" lat="33.978877"><ele>323.525644</ele><time>2025-04-01T02:58:40Z</time><extensions><speed>1.338048</speed><course>146.519756</course><hAcc>1.504573</hAcc><vAcc>0.860874</vAcc></extensions></trkpt>
      <trkpt lon="-117.328902" lat="33.978866"><ele>323.568583</ele><time>2025-04-01T02:58:41Z</time><extensions><speed>1.408234</speed><course>146.983018</course><hAcc>1.499032</hAcc><vAcc>0.862553</vAcc></extensions></trkpt>
      <trkpt lon="-117.328894" lat="33.978855"><ele>323.601190</ele><time>2025-04-01T02:58:42Z</time><extensions><speed>1.426792</speed><course>147.655416</course><hAcc>1.490414</hAcc><vAcc>0.864923</vAcc></extensions></trkpt>
      <trkpt lon="-117.328886" lat="33.978844"><ele>323.620214</ele><time>2025-04-01T02:58:43Z</time><extensions><speed>1.403829</speed><course>149.274818</course><hAcc>1.495731</hAcc><vAcc>0.867431</vAcc></extensions></trkpt>
      <trkpt lon="-117.328878" lat="33.978834"><ele>323.646623</ele><time>2025-04-01T02:58:44Z</time><extensions><speed>1.226595</speed><course>146.476265</course><hAcc>1.514244</hAcc><vAcc>0.869293</vAcc></extensions></trkpt>
      <trkpt lon="-117.328871" lat="33.978825"><ele>323.667216</ele><time>2025-04-01T02:58:45Z</time><extensions><speed>1.255873</speed><course>141.837547</course><hAcc>1.509183</hAcc><vAcc>0.873399</vAcc></extensions></trkpt>
      <trkpt lon="-117.328862" lat="33.978816"><ele>323.687569</ele><time>2025-04-01T02:58:46Z</time><extensions><speed>1.290100</speed><course>140.764686</course><hAcc>1.515203</hAcc><vAcc>0.877818</vAcc></extensions></trkpt>
      <trkpt lon="-117.328853" lat="33.978806"><ele>323.703284</ele><time>2025-04-01T02:58:47Z</time><extensions><speed>1.333396</speed><course>144.082157</course><hAcc>1.522724</hAcc><vAcc>0.881507</vAcc></extensions></trkpt>
      <trkpt lon="-117.328845" lat="33.978796"><ele>323.718932</ele><time>2025-04-01T02:58:48Z</time><extensions><speed>1.363176</speed><course>149.504005</course><hAcc>1.530944</hAcc><vAcc>0.885537</vAcc></extensions></trkpt>
      <trkpt lon="-117.328839" lat="33.978785"><ele>323.734183</ele><time>2025-04-01T02:58:49Z</time><extensions><speed>1.375233</speed><course>156.441708</course><hAcc>1.534078</hAcc><vAcc>0.889071</vAcc></extensions></trkpt>
      <trkpt lon="-117.328834" lat="33.978773"><ele>323.745145</ele><time>2025-04-01T02:58:50Z</time><extensions><speed>1.413169</speed><course>165.022901</course><hAcc>1.536749</hAcc><vAcc>0.892745</vAcc></extensions></trkpt>
      <trkpt lon="-117.328830" lat="33.978761"><ele>323.744771</ele><time>2025-04-01T02:58:51Z</time><extensions><speed>1.414113</speed><course>169.610751</course><hAcc>1.533336</hAcc><vAcc>0.896541</vAcc></extensions></trkpt>
      <trkpt lon="-117.328828" lat="33.978748"><ele>323.739317</ele><time>2025-04-01T02:58:52Z</time><extensions><speed>1.350446</speed><course>170.709944</course><hAcc>1.530406</hAcc><vAcc>0.899902</vAcc></extensions></trkpt>
      <trkpt lon="-117.328826" lat="33.978736"><ele>323.723956</ele><time>2025-04-01T02:58:53Z</time><extensions><speed>1.440573</speed><course>171.953466</course><hAcc>1.519057</hAcc><vAcc>0.903084</vAcc></extensions></trkpt>
      <trkpt lon="-117.328824" lat="33.978722"><ele>323.707735</ele><time>2025-04-01T02:58:54Z</time><extensions><speed>1.576623</speed><course>173.314684</course><hAcc>1.532387</hAcc><vAcc>0.906592</vAcc></extensions></trkpt>
      <trkpt lon="-117.328822" lat="33.978708"><ele>323.680857</ele><time>2025-04-01T02:58:55Z</time><extensions><speed>1.621003</speed><course>174.491133</course><hAcc>1.551442</hAcc><vAcc>0.910194</vAcc></extensions></trkpt>
      <trkpt lon="-117.328820" lat="33.978693"><ele>323.639092</ele><time>2025-04-01T02:58:56Z</time><extensions><speed>1.547085</speed><course>176.087469</course><hAcc>1.568349</hAcc><vAcc>0.913995</vAcc></extensions></trkpt>
      <trkpt lon="-117.328820" lat="33.978680"><ele>323.580448</ele><time>2025-04-01T02:58:57Z</time><extensions><speed>1.425467</speed><course>178.517287</course><hAcc>1.575175</hAcc><vAcc>0.917889</vAcc></extensions></trkpt>
      <trkpt lon="-117.328819" lat="33.978668"><ele>323.509245</ele><time>2025-04-01T02:58:58Z</time><extensions><speed>1.283230</speed><course>178.784818</course><hAcc>1.588727</hAcc><vAcc>0.921219</vAcc></extensions></trkpt>
      <trkpt lon="-117.328819" lat="33.978656"><ele>323.440965</ele><time>2025-04-01T02:58:59Z</time><extensions><speed>1.232062</speed><course>178.365844</course><hAcc>1.590628</hAcc><vAcc>0.924890</vAcc></extensions></trkpt>
      <trkpt lon="-117.328818" lat="33.978645"><ele>323.345346</ele><time>2025-04-01T02:59:00Z</time><extensions><speed>1.227349</speed><course>177.684193</course><hAcc>1.621638</hAcc><vAcc>0.927027</vAcc></extensions></trkpt>
      <trkpt lon="-117.328818" lat="33.978634"><ele>323.228721</ele><time>2025-04-01T02:59:01Z</time><extensions><speed>1.264498</speed><course>177.902637</course><hAcc>1.633796</hAcc><vAcc>0.927994</vAcc></extensions></trkpt>
      <trkpt lon="-117.328818" lat="33.978622"><ele>323.102808</ele><time>2025-04-01T02:59:02Z</time><extensions><speed>1.250137</speed><course>180.307633</course><hAcc>1.646585</hAcc><vAcc>0.927785</vAcc></extensions></trkpt>
      <trkpt lon="-117.328818" lat="33.978611"><ele>322.984123</ele><time>2025-04-01T02:59:03Z</time><extensions><speed>1.163364</speed><course>184.200594</course><hAcc>1.653451</hAcc><vAcc>0.927028</vAcc></extensions></trkpt>
      <trkpt lon="-117.328819" lat="33.978601"><ele>322.875052</ele><time>2025-04-01T02:59:04Z</time><extensions><speed>1.108759</speed><course>187.692026</course><hAcc>1.650529</hAcc><vAcc>0.925191</vAcc></extensions></trkpt>
      <trkpt lon="-117.328821" lat="33.978591"><ele>322.769739</ele><time>2025-04-01T02:59:05Z</time><extensions><speed>1.061562</speed><course>190.445989</course><hAcc>1.657561</hAcc><vAcc>0.923413</vAcc></extensions></trkpt>
      <trkpt lon="-117.328823" lat="33.978582"><ele>322.667513</ele><time>2025-04-01T02:59:06Z</time><extensions><speed>1.061521</speed><course>190.325047</course><hAcc>1.652862</hAcc><vAcc>0.921478</vAcc></extensions></trkpt>
      <trkpt lon="-117.328825" lat="33.978572"><ele>322.579238</ele><time>2025-04-01T02:59:07Z</time><extensions><speed>1.138947</speed><course>188.388192</course><hAcc>1.638435</hAcc><vAcc>0.919371</vAcc></extensions></trkpt>
      <trkpt lon="-117.328827" lat="33.978561"><ele>322.497580</ele><time>2025-04-01T02:59:08Z</time><extensions><speed>1.232625</speed><course>185.824034</course><hAcc>1.631979</hAcc><vAcc>0.915794</vAcc></extensions></trkpt>
      <trkpt lon="-117.328828" lat="33.978550"><ele>322.427674</ele><time>2025-04-01T02:59:09Z</time><extensions><speed>1.372243</speed><course>183.964711</course><hAcc>1.628980</hAcc><vAcc>0.911032</vAcc></extensions></trkpt>
      <trkpt lon="-117.328828" lat="33.978537"><ele>322.359025</ele><time>2025-04-01T02:59:10Z</time><extensions><speed>1.323065</speed><course>182.739680</course><hAcc>1.609371</hAcc><vAcc>0.905847</vAcc></extensions></trkpt>
      <trkpt lon="-117.328829" lat="33.978526"><ele>322.284006</ele><time>2025-04-01T02:59:11Z</time><extensions><speed>1.265421</speed><course>183.158046</course><hAcc>1.588718</hAcc><vAcc>0.899524</vAcc></extensions></trkpt>
      <trkpt lon="-117.328829" lat="33.978515"><ele>322.206585</ele><time>2025-04-01T02:59:12Z</time><extensions><speed>1.211126</speed><course>180.265217</course><hAcc>1.578989</hAcc><vAcc>0.892980</vAcc></extensions></trkpt>
      <trkpt lon="-117.328829" lat="33.978504"><ele>322.135477</ele><time>2025-04-01T02:59:13Z</time><extensions><speed>1.190416</speed><course>177.074569</course><hAcc>1.576014</hAcc><vAcc>0.886675</vAcc></extensions></trkpt>
      <trkpt lon="-117.328828" lat="33.978493"><ele>322.068452</ele><time>2025-04-01T02:59:14Z</time><extensions><speed>1.142580</speed><course>175.769687</course><hAcc>1.573284</hAcc><vAcc>0.881625</vAcc></extensions></trkpt>
      <trkpt lon="-117.328827" lat="33.978483"><ele>322.007819</ele><time>2025-04-01T02:59:15Z</time><extensions><speed>1.133929</speed><course>172.642665</course><hAcc>1.574278</hAcc><vAcc>0.877555</vAcc></extensions></trkpt>
      <trkpt lon="-117.328825" lat="33.978473"><ele>321.946844</ele><time>2025-04-01T02:59:16Z</time><extensions><speed>1.103480</speed><course>169.497741</course><hAcc>1.578046</hAcc><vAcc>0.874449</vAcc></extensions></trkpt>
      <trkpt lon="-117.328822" lat="33.978463"><ele>321.896791</ele><time>2025-04-01T02:59:17Z</time><extensions><speed>1.129472</speed><course>166.829552</course><hAcc>1.586934</hAcc><vAcc>0.871910</vAcc></extensions></trkpt>
      <trkpt lon="-117.328819" lat="33.978454"><ele>321.851348</ele><time>2025-04-01T02:59:19Z</time><extensions><speed>1.059791</speed><course>162.862285</course><hAcc>1.598338</hAcc><vAcc>0.870460</vAcc></extensions></trkpt>
      <trkpt lon="-117.328815" lat="33.978445"><ele>321.817125</ele><time>2025-04-01T02:59:20Z</time><extensions><speed>0.938512</speed><course>159.030219</course><hAcc>1.610990</hAcc><vAcc>0.870746</vAcc></extensions></trkpt>
      <trkpt lon="-117.328811" lat="33.978437"><ele>321.799054</ele><time>2025-04-01T02:59:21Z</time><extensions><speed>0.926018</speed><course>152.642959</course><hAcc>1.620637</hAcc><vAcc>0.872844</vAcc></extensions></trkpt>
      <trkpt lon="-117.328806" lat="33.978430"><ele>321.764804</ele><time>2025-04-01T02:59:22Z</time><extensions><speed>1.015845</speed><course>146.348132</course><hAcc>1.631258</hAcc><vAcc>0.886138</vAcc></extensions></trkpt>
      <trkpt lon="-117.328799" lat="33.978422"><ele>321.732698</ele><time>2025-04-01T02:59:23Z</time><extensions><speed>1.080021</speed><course>140.923266</course><hAcc>1.653288</hAcc><vAcc>0.907785</vAcc></extensions></trkpt>
      <trkpt lon="-117.328791" lat="33.978415"><ele>321.703290</ele><time>2025-04-01T02:59:24Z</time><extensions><speed>1.166560</speed><course>137.681291</course><hAcc>1.686565</hAcc><vAcc>0.940170</vAcc></extensions></trkpt>
      <trkpt lon="-117.328782" lat="33.978407"><ele>321.676980</ele><time>2025-04-01T02:59:25Z</time><extensions><speed>1.243294</speed><course>135.698805</course><hAcc>1.727634</hAcc><vAcc>0.985666</vAcc></extensions></trkpt>
      <trkpt lon="-117.328773" lat="33.978399"><ele>321.653920</ele><time>2025-04-01T02:59:26Z</time><extensions><speed>1.221696</speed><course>134.238253</course><hAcc>1.770390</hAcc><vAcc>1.046515</vAcc></extensions></trkpt>
      <trkpt lon="-117.328763" lat="33.978392"><ele>321.633987</ele><time>2025-04-01T02:59:27Z</time><extensions><speed>1.135876</speed><course>131.362412</course><hAcc>1.821226</hAcc><vAcc>1.124779</vAcc></extensions></trkpt>
      <trkpt lon="-117.328754" lat="33.978385"><ele>321.616793</ele><time>2025-04-01T02:59:28Z</time><extensions><speed>1.102028</speed><course>130.615772</course><hAcc>1.912683</hAcc><vAcc>1.222289</vAcc></extensions></trkpt>
      <trkpt lon="-117.328745" lat="33.978378"><ele>321.601713</ele><time>2025-04-01T02:59:29Z</time><extensions><speed>1.062175</speed><course>133.063719</course><hAcc>2.064127</hAcc><vAcc>1.340561</vAcc></extensions></trkpt>
      <trkpt lon="-117.328738" lat="33.978372"><ele>321.588008</ele><time>2025-04-01T02:59:30Z</time><extensions><speed>1.000775</speed><course>138.021464</course><hAcc>2.247856</hAcc><vAcc>1.480712</vAcc></extensions></trkpt>
      <trkpt lon="-117.328731" lat="33.978365"><ele>321.574968</ele><time>2025-04-01T02:59:31Z</time><extensions><speed>0.876669</speed><course>144.627969</course><hAcc>2.554109</hAcc><vAcc>1.643432</vAcc></extensions></trkpt>
    </trkseg>
  </trk>
</gpx>