<?xml version="1.0" encoding="UTF-8"?>
<gpx version="1.1" creator="Apple Health Export" xmlns="http://www.topografix.com/GPX/1/1" xmlns:xsi="http://www.w3.org/2001/XMLSchema-instance" xsi:schemaLocation="http://www.topografix.com/GPX/1/1 http://www.topografix.com/GPX/1/1/gpx.xsd">
  <metadata>
    <time>2026-01-11T07:58:09Z</time>
  </metadata>
  <trk>
    <name>Route 2025-04-01 8:29pm</name>
    <trkseg>
      <trkpt lon="-117.331258" lat="33.981315"><ele>317.328923</ele><time>2025-04-02T03:28:30Z</time><extensions><speed>1.247254</speed><course>4.659246</course><hAcc>1.393801</hAcc><vAcc>1.438631</vAcc></extensions></trkpt>
      <trkpt lon="-117.331257" lat="33.981326"><ele>317.326410</ele><time>2025-04-02T03:28:31Z</time><extensions><speed>1.247215</speed><course>3.496712</course><hAcc>1.359749</hAcc><vAcc>1.252903</vAcc></extensions></trkpt>
      <trkpt lon="-117.331257" lat="33.981338"><ele>317.328467</ele><time>2025-04-02T03:28:32Z</time><extensions><speed>1.224028</speed><course>3.008195</course><hAcc>1.306862</hAcc><vAcc>1.108417</vAcc></extensions></trkpt>
      <trkpt lon="-117.331256" lat="33.981349"><ele>317.332506</ele><time>2025-04-02T03:28:33Z</time><extensions><speed>1.215850</speed><course>2.755428</course><hAcc>1.257338</hAcc><vAcc>0.999257</vAcc></extensions></trkpt>
      <trkpt lon="-117.331256" lat="33.981360"><ele>317.337461</ele><time>2025-04-02T03:28:34Z</time><extensions><speed>1.208435</speed><course>359.521758</course><hAcc>1.231901</hAcc><vAcc>0.919664</vAcc></extensions></trkpt>
      <trkpt lon="-117.331256" lat="33.981371"><ele>317.342163</ele><time>2025-04-02T03:28:35Z</time><extensions><speed>1.203936</speed><course>1.377651</course><hAcc>1.209452</hAcc><vAcc>0.863920</vAcc></extensions></trkpt>
      <trkpt lon="-117.331256" lat="33.981382"><ele>317.346840</ele><time>2025-04-02T03:28:36Z</time><extensions><speed>1.159544</speed><course>3.690677</course><hAcc>1.185613</hAcc><vAcc>0.826519</vAcc></extensions></trkpt>
      <trkpt lon="-117.331255" lat="33.981392"><ele>317.351570</ele><time>2025-04-02T03:28:37Z</time><extensions><speed>1.177411</speed><course>4.791875</course><hAcc>1.186072</hAcc><vAcc>0.802502</vAcc></extensions></trkpt>
      <trkpt lon="-117.331254" lat="33.981403"><ele>317.356423</ele><time>2025-04-02T03:28:38Z</time><extensions><speed>1.177430</speed><course>3.947030</course><hAcc>1.187459</hAcc><vAcc>0.787724</vAcc></extensions></trkpt>
      <trkpt lon="-117.331253" lat="33.981414"><ele>317.359760</ele><time>2025-04-02T03:28:39Z</time><extensions><speed>1.207000</speed><course>2.756573</course><hAcc>1.169210</hAcc><vAcc>0.778976</vAcc></extensions></trkpt>
      <trkpt lon="-117.331253" lat="33.981425"><ele>317.362330</ele><time>2025-04-02T03:28:40Z</time><extensions><speed>1.279787</speed><course>2.857284</course><hAcc>1.165501</hAcc><vAcc>0.773932</vAcc></extensions></trkpt>
      <trkpt lon="-117.331252" lat="33.981437"><ele>317.364101</ele><time>2025-04-02T03:28:41Z</time><extensions><speed>1.272554</speed><course>1.906595</course><hAcc>1.172397</hAcc><vAcc>0.771012</vAcc></extensions></trkpt>
      <trkpt lon="-117.331252" lat="33.981449"><ele>317.364533</ele><time>2025-04-02T03:28:42Z</time><extensions><speed>1.273644</speed><course>0.695396</course><hAcc>1.163093</hAcc><vAcc>0.769205</vAcc></extensions></trkpt>
      <trkpt lon="-117.331252" lat="33.981460"><ele>317.364254</ele><time>2025-04-02T03:28:43Z</time><extensions><speed>1.274178</speed><course>359.704331</course><hAcc>1.167144</hAcc><vAcc>0.767910</vAcc></extensions></trkpt>
      <trkpt lon="-117.331253" lat="33.981472"><ele>317.363948</ele><time>2025-04-02T03:28:44Z</time><extensions><speed>1.273867</speed><course>358.656527</course><hAcc>1.188412</hAcc><vAcc>0.766801</vAcc></extensions></trkpt>
      <trkpt lon="-117.331253" lat="33.981484"><ele>317.361834</ele><time>2025-04-02T03:28:45Z</time><extensions><speed>1.277239</speed><course>0.909244</course><hAcc>1.211192</hAcc><vAcc>0.765728</vAcc></extensions></trkpt>
      <trkpt lon="-117.331253" lat="33.981495"><ele>317.358667</ele><time>2025-04-02T03:28:46Z</time><extensions><speed>1.301913</speed><course>0.949110</course><hAcc>1.236199</hAcc><vAcc>0.764645</vAcc></extensions></trkpt>
      <trkpt lon="-117.331253" lat="33.981507"><ele>317.354839</ele><time>2025-04-02T03:28:47Z</time><extensions><speed>1.289226</speed><course>359.460607</course><hAcc>1.256047</hAcc><vAcc>0.763558</vAcc></extensions></trkpt>
      <trkpt lon="-117.331253" lat="33.981519"><ele>317.350183</ele><time>2025-04-02T03:28:48Z</time><extensions><speed>1.307036</speed><course>0.651671</course><hAcc>1.268408</hAcc><vAcc>0.762497</vAcc></extensions></trkpt>
      <trkpt lon="-117.331253" lat="33.981531"><ele>317.345793</ele><time>2025-04-02T03:28:49Z</time><extensions><speed>1.310744</speed><course>2.040345</course><hAcc>1.294289</hAcc><vAcc>0.761497</vAcc></extensions></trkpt>
      <trkpt lon="-117.331253" lat="33.981543"><ele>317.341111</ele><time>2025-04-02T03:28:50Z</time><extensions><speed>1.299033</speed><course>1.431138</course><hAcc>1.328270</hAcc><vAcc>0.760586</vAcc></extensions></trkpt>
      <trkpt lon="-117.331253" lat="33.981555"><ele>317.336315</ele><time>2025-04-02T03:28:51Z</time><extensions><speed>1.311053</speed><course>358.412129</course><hAcc>1.336032</hAcc><vAcc>0.759783</vAcc></extensions></trkpt>
      <trkpt lon="-117.331254" lat="33.981567"><ele>317.331993</ele><time>2025-04-02T03:28:52Z</time><extensions><speed>1.305582</speed><course>357.232088</course><hAcc>1.359631</hAcc><vAcc>0.759096</vAcc></extensions></trkpt>
      <trkpt lon="-117.331254" lat="33.981578"><ele>317.324700</ele><time>2025-04-02T03:28:53Z</time><extensions><speed>1.331376</speed><course>358.646906</course><hAcc>1.360241</hAcc><vAcc>0.759853</vAcc></extensions></trkpt>
      <trkpt lon="-117.331255" lat="33.981590"><ele>317.323704</ele><time>2025-04-02T03:28:54Z</time><extensions><speed>1.333718</speed><course>358.632042</course><hAcc>1.370908</hAcc><vAcc>0.761373</vAcc></extensions></trkpt>
      <trkpt lon="-117.331255" lat="33.981602"><ele>317.325171</ele><time>2025-04-02T03:28:55Z</time><extensions><speed>1.321559</speed><course>358.632153</course><hAcc>1.400662</hAcc><vAcc>0.764635</vAcc></extensions></trkpt>
      <trkpt lon="-117.331255" lat="33.981614"><ele>317.331868</ele><time>2025-04-02T03:28:56Z</time><extensions><speed>1.321414</speed><course>0.948367</course><hAcc>1.404679</hAcc><vAcc>0.771365</vAcc></extensions></trkpt>
      <trkpt lon="-117.331255" lat="33.981626"><ele>317.348455</ele><time>2025-04-02T03:28:57Z</time><extensions><speed>1.319750</speed><course>1.225141</course><hAcc>1.419854</hAcc><vAcc>0.780652</vAcc></extensions></trkpt>
      <trkpt lon="-117.331255" lat="33.981637"><ele>317.380027</ele><time>2025-04-02T03:28:58Z</time><extensions><speed>1.322357</speed><course>0.166627</course><hAcc>1.423481</hAcc><vAcc>0.792376</vAcc></extensions></trkpt>
      <trkpt lon="-117.331255" lat="33.981649"><ele>317.415950</ele><time>2025-04-02T03:28:59Z</time><extensions><speed>1.318144</speed><course>0.844257</course><hAcc>1.448860</hAcc><vAcc>0.806673</vAcc></extensions></trkpt>
      <trkpt lon="-117.331254" lat="33.981661"><ele>317.447355</ele><time>2025-04-02T03:29:00Z</time><extensions><speed>1.317534</speed><course>3.430047</course><hAcc>1.482190</hAcc><vAcc>0.824011</vAcc></extensions></trkpt>
      <trkpt lon="-117.331253" lat="33.981673"><ele>317.483692</ele><time>2025-04-02T03:29:01Z</time><extensions><speed>1.311618</speed><course>3.722410</course><hAcc>1.503472</hAcc><vAcc>0.843271</vAcc></extensions></trkpt>
      <trkpt lon="-117.331253" lat="33.981685"><ele>317.519260</ele><time>2025-04-02T03:29:02Z</time><extensions><speed>1.303420</speed><course>3.332892</course><hAcc>1.533796</hAcc><vAcc>0.864987</vAcc></extensions></trkpt>
      <trkpt lon="-117.331252" lat="33.981696"><ele>317.554247</ele><time>2025-04-02T03:29:03Z</time><extensions><speed>1.196373</speed><course>3.521044</course><hAcc>1.519625</hAcc><vAcc>0.887047</vAcc></extensions></trkpt>
      <trkpt lon="-117.331251" lat="33.981707"><ele>317.591601</ele><time>2025-04-02T03:29:04Z</time><extensions><speed>1.154156</speed><course>2.303903</course><hAcc>1.589347</hAcc><vAcc>0.908017</vAcc></extensions></trkpt>
      <trkpt lon="-117.331251" lat="33.981718"><ele>317.611748</ele><time>2025-04-02T03:29:05Z</time><extensions><speed>1.195138</speed><course>358.831886</course><hAcc>1.688010</hAcc><vAcc>0.927636</vAcc></extensions></trkpt>
      <trkpt lon="-117.331251" lat="33.981728"><ele>317.626773</ele><time>2025-04-02T03:29:06Z</time><extensions><speed>1.168490</speed><course>357.761814</course><hAcc>1.763579</hAcc><vAcc>0.944824</vAcc></extensions></trkpt>
      <trkpt lon="-117.331252" lat="33.981739"><ele>317.624215</ele><time>2025-04-02T03:29:07Z</time><extensions><speed>1.157912</speed><course>358.996341</course><hAcc>1.779549</hAcc><vAcc>0.959099</vAcc></extensions></trkpt>
      <trkpt lon="-117.331252" lat="33.981750"><ele>317.608778</ele><time>2025-04-02T03:29:08Z</time><extensions><speed>1.164648</speed><course>2.030568</course><hAcc>1.780263</hAcc><vAcc>0.971445</vAcc></extensions></trkpt>
      <trkpt lon="-117.331251" lat="33.981760"><ele>317.604371</ele><time>2025-04-02T03:29:09Z</time><extensions><speed>1.123060</speed><course>3.392301</course><hAcc>1.786312</hAcc><vAcc>0.980752</vAcc></extensions></trkpt>
      <trkpt lon="-117.331251" lat="33.981770"><ele>317.612994</ele><time>2025-04-02T03:29:10Z</time><extensions><speed>1.109024</speed><course>0.764088</course><hAcc>1.778028</hAcc><vAcc>0.986816</vAcc></extensions></trkpt>
      <trkpt lon="-117.331251" lat="33.981780"><ele>317.595804</ele><time>2025-04-02T03:29:11Z</time><extensions><speed>1.049005</speed><course>358.802347</course><hAcc>1.749253</hAcc><vAcc>0.990872</vAcc></extensions></trkpt>
      <trkpt lon="-117.331251" lat="33.981790"><ele>317.578069</ele><time>2025-04-02T03:29:12Z</time><extensions><speed>1.096286</speed><course>359.363754</course><hAcc>1.734553</hAcc><vAcc>0.992860</vAcc></extensions></trkpt>
      <trkpt lon="-117.331251" lat="33.981800"><ele>317.559354</ele><time>2025-04-02T03:29:13Z</time><extensions><speed>1.226966</speed><course>1.054940</course><hAcc>1.735921</hAcc><vAcc>0.993042</vAcc></extensions></trkpt>
      <trkpt lon="-117.331251" lat="33.981812"><ele>317.519061</ele><time>2025-04-02T03:29:14Z</time><extensions><speed>1.358487</speed><course>359.989510</course><hAcc>1.714770</hAcc><vAcc>0.990917</vAcc></extensions></trkpt>
      <trkpt lon="-117.331251" lat="33.981825"><ele>317.477299</ele><time>2025-04-02T03:29:15Z</time><extensions><speed>1.410505</speed><course>357.825432</course><hAcc>1.690992</hAcc><vAcc>0.986982</vAcc></extensions></trkpt>
      <trkpt lon="-117.331252" lat="33.981837"><ele>317.436300</ele><time>2025-04-02T03:29:16Z</time><extensions><speed>1.424337</speed><course>355.616764</course><hAcc>1.672132</hAcc><vAcc>0.983924</vAcc></extensions></trkpt>
      <trkpt lon="-117.331253" lat="33.981850"><ele>317.402217</ele><time>2025-04-02T03:29:17Z</time><extensions><speed>1.481420</speed><course>356.006077</course><hAcc>1.651378</hAcc><vAcc>0.980722</vAcc></extensions></trkpt>
      <trkpt lon="-117.331254" lat="33.981864"><ele>317.360861</ele><time>2025-04-02T03:29:18Z</time><extensions><speed>1.445667</speed><course>358.231245</course><hAcc>1.630896</hAcc><vAcc>0.976531</vAcc></extensions></trkpt>
      <trkpt lon="-117.331254" lat="33.981876"><ele>317.324324</ele><time>2025-04-02T03:29:19Z</time><extensions><speed>1.329308</speed><course>358.086937</course><hAcc>1.601698</hAcc><vAcc>0.971674</vAcc></extensions></trkpt>
      <trkpt lon="-117.331254" lat="33.981888"><ele>317.301924</ele><time>2025-04-02T03:29:20Z</time><extensions><speed>1.185170</speed><course>359.593223</course><hAcc>1.568048</hAcc><vAcc>0.966336</vAcc></extensions></trkpt>
      <trkpt lon="-117.331254" lat="33.981898"><ele>317.268759</ele><time>2025-04-02T03:29:21Z</time><extensions><speed>1.098137</speed><course>1.651698</course><hAcc>1.556670</hAcc><vAcc>0.973827</vAcc></extensions></trkpt>
      <trkpt lon="-117.331254" lat="33.981908"><ele>317.236385</ele><time>2025-04-02T03:29:22Z</time><extensions><speed>1.077061</speed><course>0.655484</course><hAcc>1.542453</hAcc><vAcc>0.987085</vAcc></extensions></trkpt>
      <trkpt lon="-117.331254" lat="33.981918"><ele>317.205125</ele><time>2025-04-02T03:29:23Z</time><extensions><speed>1.156082</speed><course>358.760921</course><hAcc>1.522240</hAcc><vAcc>1.008318</vAcc></extensions></trkpt>
      <trkpt lon="-117.331254" lat="33.981929"><ele>317.175262</ele><time>2025-04-02T03:29:24Z</time><extensions><speed>1.278396</speed><course>359.080697</course><hAcc>1.493324</hAcc><vAcc>1.040147</vAcc></extensions></trkpt>
      <trkpt lon="-117.331254" lat="33.981940"><ele>317.147020</ele><time>2025-04-02T03:29:25Z</time><extensions><speed>1.334175</speed><course>0.000045</course><hAcc>1.493509</hAcc><vAcc>1.085480</vAcc></extensions></trkpt>
      <trkpt lon="-117.331254" lat="33.981952"><ele>317.120447</ele><time>2025-04-02T03:29:26Z</time><extensions><speed>1.271385</speed><course>1.073437</course><hAcc>1.537039</hAcc><vAcc>1.147273</vAcc></extensions></trkpt>
      <trkpt lon="-117.331254" lat="33.981963"><ele>317.095384</ele><time>2025-04-02T03:29:27Z</time><extensions><speed>1.160625</speed><course>6.276554</course><hAcc>1.567229</hAcc><vAcc>1.228272</vAcc></extensions></trkpt>
      <trkpt lon="-117.331252" lat="33.981973"><ele>317.071549</ele><time>2025-04-02T03:29:28Z</time><extensions><speed>1.135802</speed><course>8.724836</course><hAcc>1.602859</hAcc><vAcc>1.330828</vAcc></extensions></trkpt>
      <trkpt lon="-117.331250" lat="33.981984"><ele>317.048609</ele><time>2025-04-02T03:29:29Z</time><extensions><speed>1.209483</speed><course>9.690237</course><hAcc>1.735820</hAcc><vAcc>1.456743</vAcc></extensions></trkpt>
      <trkpt lon="-117.331248" lat="33.981995"><ele>317.026176</ele><time>2025-04-02T03:29:30Z</time><extensions><speed>1.292833</speed><course>8.486590</course><hAcc>2.017271</hAcc><vAcc>1.607132</vAcc></extensions></trkpt>
    </trkseg>
  </trk>
</gpx>