<?xml version="1.0" encoding="UTF-8"?>
<gpx version="1.1" creator="Apple Health Export" xmlns="http://www.topografix.com/GPX/1/1" xmlns:xsi="http://www.w3.org/2001/XMLSchema-instance" xsi:schemaLocation="http://www.topografix.com/GPX/1/1 http://www.topografix.com/GPX/1/1/gpx.xsd">
  <metadata>
    <time>2026-01-11T07:57:39Z</time>
  </metadata>
  <trk>
    <name>Route 2025-03-02 7:21pm</name>
    <trkseg>
      <trkpt lon="-117.165976" lat="32.898393"><ele>94.468006</ele><time>2025-03-03T03:15:45Z</time><extensions><speed>0.173103</speed><course>129.007092</course><hAcc>2.620170</hAcc><vAcc>1.839298</vAcc></extensions></trkpt>
      <trkpt lon="-117.165972" lat="32.898392"><ele>94.471874</ele><time>2025-03-03T03:15:46Z</time><extensions><speed>0.523158</speed><course>130.156478</course><hAcc>2.272626</hAcc><vAcc>1.588977</vAcc></extensions></trkpt>
      <trkpt lon="-117.165966" lat="32.898388"><ele>94.482973</ele><time>2025-03-03T03:15:47Z</time><extensions><speed>1.109209</speed><course>132.459949</course><hAcc>2.098519</hAcc><vAcc>1.382830</vAcc></extensions></trkpt>
      <trkpt lon="-117.165955" lat="32.898380"><ele>94.494655</ele><time>2025-03-03T03:15:48Z</time><extensions><speed>1.437517</speed><course>132.024033</course><hAcc>1.994141</hAcc><vAcc>1.215929</vAcc></extensions></trkpt>
      <trkpt lon="-117.165945" lat="32.898372"><ele>94.502785</ele><time>2025-03-03T03:15:49Z</time><extensions><speed>1.458460</speed><course>137.148006</course><hAcc>1.910783</hAcc><vAcc>1.097158</vAcc></extensions></trkpt>
      <trkpt lon="-117.165934" lat="32.898363"><ele>94.509297</ele><time>2025-03-03T03:15:50Z</time><extensions><speed>1.411443</speed><course>136.989010</course><hAcc>1.826359</hAcc><vAcc>0.993677</vAcc></extensions></trkpt>
      <trkpt lon="-117.165925" lat="32.898354"><ele>94.509170</ele><time>2025-03-03T03:15:51Z</time><extensions><speed>1.319224</speed><course>140.303791</course><hAcc>1.757290</hAcc><vAcc>0.916999</vAcc></extensions></trkpt>
      <trkpt lon="-117.165916" lat="32.898345"><ele>94.502216</ele><time>2025-03-03T03:15:52Z</time><extensions><speed>1.289821</speed><course>140.160929</course><hAcc>1.698563</hAcc><vAcc>0.862403</vAcc></extensions></trkpt>
      <trkpt lon="-117.165907" lat="32.898338"><ele>94.495583</ele><time>2025-03-03T03:15:53Z</time><extensions><speed>1.045631</speed><course>137.033058</course><hAcc>1.640656</hAcc><vAcc>0.825153</vAcc></extensions></trkpt>
      <trkpt lon="-117.165899" lat="32.898332"><ele>94.487057</ele><time>2025-03-03T03:15:54Z</time><extensions><speed>1.022615</speed><course>142.305553</course><hAcc>1.586160</hAcc><vAcc>0.800833</vAcc></extensions></trkpt>
      <trkpt lon="-117.165892" lat="32.898325"><ele>94.475435</ele><time>2025-03-03T03:15:55Z</time><extensions><speed>1.049709</speed><course>135.993835</course><hAcc>1.525998</hAcc><vAcc>0.785649</vAcc></extensions></trkpt>
      <trkpt lon="-117.165882" lat="32.898319"><ele>94.460365</ele><time>2025-03-03T03:15:56Z</time><extensions><speed>1.247243</speed><course>129.529000</course><hAcc>1.466993</hAcc><vAcc>0.776574</vAcc></extensions></trkpt>
      <trkpt lon="-117.165872" lat="32.898312"><ele>94.440991</ele><time>2025-03-03T03:15:57Z</time><extensions><speed>1.279726</speed><course>128.138873</course><hAcc>1.443679</hAcc><vAcc>0.771359</vAcc></extensions></trkpt>
      <trkpt lon="-117.165861" lat="32.898306"><ele>94.418070</ele><time>2025-03-03T03:15:58Z</time><extensions><speed>1.283527</speed><course>127.439116</course><hAcc>1.416178</hAcc><vAcc>0.768428</vAcc></extensions></trkpt>
      <trkpt lon="-117.165850" lat="32.898299"><ele>94.391218</ele><time>2025-03-03T03:15:59Z</time><extensions><speed>1.280623</speed><course>126.903415</course><hAcc>1.386080</hAcc><vAcc>0.766745</vAcc></extensions></trkpt>
      <trkpt lon="-117.165839" lat="32.898292"><ele>94.358398</ele><time>2025-03-03T03:16:00Z</time><extensions><speed>1.267551</speed><course>131.384619</course><hAcc>1.370929</hAcc><vAcc>0.765670</vAcc></extensions></trkpt>
      <trkpt lon="-117.165830" lat="32.898285"><ele>94.321234</ele><time>2025-03-03T03:16:01Z</time><extensions><speed>1.128021</speed><course>136.513409</course><hAcc>1.353198</hAcc><vAcc>0.764837</vAcc></extensions></trkpt>
      <trkpt lon="-117.165822" lat="32.898278"><ele>94.280181</ele><time>2025-03-03T03:16:02Z</time><extensions><speed>1.152138</speed><course>141.990682</course><hAcc>1.338653</hAcc><vAcc>0.764061</vAcc></extensions></trkpt>
      <trkpt lon="-117.165813" lat="32.898270"><ele>94.239566</ele><time>2025-03-03T03:16:03Z</time><extensions><speed>1.218426</speed><course>130.975667</course><hAcc>1.325765</hAcc><vAcc>0.763270</vAcc></extensions></trkpt>
      <trkpt lon="-117.165803" lat="32.898263"><ele>94.193881</ele><time>2025-03-03T03:16:04Z</time><extensions><speed>1.233172</speed><course>128.190146</course><hAcc>1.318276</hAcc><vAcc>0.762452</vAcc></extensions></trkpt>
      <trkpt lon="-117.165792" lat="32.898256"><ele>94.142608</ele><time>2025-03-03T03:16:05Z</time><extensions><speed>1.305436</speed><course>128.047111</course><hAcc>1.315915</hAcc><vAcc>0.761628</vAcc></extensions></trkpt>
      <trkpt lon="-117.165781" lat="32.898248"><ele>94.081844</ele><time>2025-03-03T03:16:06Z</time><extensions><speed>1.285609</speed><course>133.654104</course><hAcc>1.310361</hAcc><vAcc>0.760829</vAcc></extensions></trkpt>
      <trkpt lon="-117.165771" lat="32.898241"><ele>94.024116</ele><time>2025-03-03T03:16:07Z</time><extensions><speed>1.178927</speed><course>130.035655</course><hAcc>1.321414</hAcc><vAcc>0.760083</vAcc></extensions></trkpt>
      <trkpt lon="-117.165761" lat="32.898234"><ele>93.960798</ele><time>2025-03-03T03:16:08Z</time><extensions><speed>1.173800</speed><course>124.284370</course><hAcc>1.336877</hAcc><vAcc>0.759411</vAcc></extensions></trkpt>
      <trkpt lon="-117.165750" lat="32.898227"><ele>93.911384</ele><time>2025-03-03T03:16:09Z</time><extensions><speed>1.191201</speed><course>122.179620</course><hAcc>1.315231</hAcc><vAcc>0.758825</vAcc></extensions></trkpt>
      <trkpt lon="-117.165739" lat="32.898220"><ele>93.860493</ele><time>2025-03-03T03:16:10Z</time><extensions><speed>1.206268</speed><course>124.535349</course><hAcc>1.310144</hAcc><vAcc>0.758330</vAcc></extensions></trkpt>
      <trkpt lon="-117.165729" lat="32.898213"><ele>93.816515</ele><time>2025-03-03T03:16:11Z</time><extensions><speed>1.219732</speed><course>129.960169</course><hAcc>1.308100</hAcc><vAcc>0.757924</vAcc></extensions></trkpt>
      <trkpt lon="-117.165719" lat="32.898206"><ele>93.782573</ele><time>2025-03-03T03:16:12Z</time><extensions><speed>1.261556</speed><course>133.235318</course><hAcc>1.301319</hAcc><vAcc>0.757599</vAcc></extensions></trkpt>
      <trkpt lon="-117.165709" lat="32.898198"><ele>93.748222</ele><time>2025-03-03T03:16:13Z</time><extensions><speed>1.275925</speed><course>134.142416</course><hAcc>1.312711</hAcc><vAcc>0.757347</vAcc></extensions></trkpt>
      <trkpt lon="-117.165699" lat="32.898190"><ele>93.716463</ele><time>2025-03-03T03:16:14Z</time><extensions><speed>1.316710</speed><course>135.754111</course><hAcc>1.276278</hAcc><vAcc>0.757156</vAcc></extensions></trkpt>
      <trkpt lon="-117.165689" lat="32.898181"><ele>93.682190</ele><time>2025-03-03T03:16:15Z</time><extensions><speed>1.338130</speed><course>137.781470</course><hAcc>1.245735</hAcc><vAcc>0.757015</vAcc></extensions></trkpt>
      <trkpt lon="-117.165681" lat="32.898171"><ele>93.650414</ele><time>2025-03-03T03:16:16Z</time><extensions><speed>1.340047</speed><course>145.842819</course><hAcc>1.246363</hAcc><vAcc>0.756914</vAcc></extensions></trkpt>
      <trkpt lon="-117.165672" lat="32.898162"><ele>93.613161</ele><time>2025-03-03T03:16:17Z</time><extensions><speed>1.359889</speed><course>139.617405</course><hAcc>1.227679</hAcc><vAcc>0.756844</vAcc></extensions></trkpt>
      <trkpt lon="-117.165662" lat="32.898153"><ele>93.575585</ele><time>2025-03-03T03:16:18Z</time><extensions><speed>1.372043</speed><course>135.019738</course><hAcc>1.183844</hAcc><vAcc>0.756797</vAcc></extensions></trkpt>
      <trkpt lon="-117.165651" lat="32.898144"><ele>93.538356</ele><time>2025-03-03T03:16:19Z</time><extensions><speed>1.439661</speed><course>134.763862</course><hAcc>1.044666</hAcc><vAcc>0.757239</vAcc></extensions></trkpt>
      <trkpt lon="-117.165640" lat="32.898135"><ele>93.498888</ele><time>2025-03-03T03:16:20Z</time><extensions><speed>1.406110</speed><course>133.422576</course><hAcc>0.981961</hAcc><vAcc>0.758096</vAcc></extensions></trkpt>
      <trkpt lon="-117.165630" lat="32.898127"><ele>93.453336</ele><time>2025-03-03T03:16:21Z</time><extensions><speed>1.341777</speed><course>131.147216</course><hAcc>1.007693</hAcc><vAcc>0.759578</vAcc></extensions></trkpt>
      <trkpt lon="-117.165619" lat="32.898119"><ele>93.398195</ele><time>2025-03-03T03:16:22Z</time><extensions><speed>1.291900</speed><course>131.163190</course><hAcc>1.055463</hAcc><vAcc>0.761927</vAcc></extensions></trkpt>
      <trkpt lon="-117.165609" lat="32.898111"><ele>93.331572</ele><time>2025-03-03T03:16:23Z</time><extensions><speed>1.270258</speed><course>133.850435</course><hAcc>1.104705</hAcc><vAcc>0.765306</vAcc></extensions></trkpt>
      <trkpt lon="-117.165599" lat="32.898103"><ele>93.253003</ele><time>2025-03-03T03:16:24Z</time><extensions><speed>1.265421</speed><course>136.582214</course><hAcc>1.152639</hAcc><vAcc>0.769348</vAcc></extensions></trkpt>
      <trkpt lon="-117.165591" lat="32.898094"><ele>93.163849</ele><time>2025-03-03T03:16:25Z</time><extensions><speed>1.262692</speed><course>141.778987</course><hAcc>1.195480</hAcc><vAcc>0.774416</vAcc></extensions></trkpt>
      <trkpt lon="-117.165583" lat="32.898085"><ele>93.059527</ele><time>2025-03-03T03:16:26Z</time><extensions><speed>1.211514</speed><course>147.255329</course><hAcc>1.239921</hAcc><vAcc>0.780195</vAcc></extensions></trkpt>
      <trkpt lon="-117.165576" lat="32.898076"><ele>92.944551</ele><time>2025-03-03T03:16:27Z</time><extensions><speed>1.164442</speed><course>149.217812</course><hAcc>1.305403</hAcc><vAcc>0.786112</vAcc></extensions></trkpt>
      <trkpt lon="-117.165570" lat="32.898067"><ele>92.820917</ele><time>2025-03-03T03:16:28Z</time><extensions><speed>1.164887</speed><course>149.157375</course><hAcc>1.350803</hAcc><vAcc>0.792455</vAcc></extensions></trkpt>
      <trkpt lon="-117.165564" lat="32.898058"><ele>92.695396</ele><time>2025-03-03T03:16:29Z</time><extensions><speed>1.180617</speed><course>151.282547</course><hAcc>1.386617</hAcc><vAcc>0.798927</vAcc></extensions></trkpt>
      <trkpt lon="-117.165558" lat="32.898048"><ele>92.559918</ele><time>2025-03-03T03:16:30Z</time><extensions><speed>1.212194</speed><course>152.082585</course><hAcc>1.415454</hAcc><vAcc>0.804840</vAcc></extensions></trkpt>
      <trkpt lon="-117.165551" lat="32.898038"><ele>92.419522</ele><time>2025-03-03T03:16:31Z</time><extensions><speed>1.238031</speed><course>152.624339</course><hAcc>1.433910</hAcc><vAcc>0.810053</vAcc></extensions></trkpt>
      <trkpt lon="-117.165546" lat="32.898028"><ele>92.276080</ele><time>2025-03-03T03:16:32Z</time><extensions><speed>1.209926</speed><course>154.433274</course><hAcc>1.446345</hAcc><vAcc>0.814511</vAcc></extensions></trkpt>
      <trkpt lon="-117.165541" lat="32.898019"><ele>92.113022</ele><time>2025-03-03T03:16:33Z</time><extensions><speed>1.077591</speed><course>155.987577</course><hAcc>1.453581</hAcc><vAcc>0.817621</vAcc></extensions></trkpt>
      <trkpt lon="-117.165536" lat="32.898010"><ele>91.958515</ele><time>2025-03-03T03:16:34Z</time><extensions><speed>1.176587</speed><course>156.258108</course><hAcc>1.446766</hAcc><vAcc>0.819729</vAcc></extensions></trkpt>
      <trkpt lon="-117.165531" lat="32.898000"><ele>91.818035</ele><time>2025-03-03T03:16:35Z</time><extensions><speed>1.190573</speed><course>158.262540</course><hAcc>1.444722</hAcc><vAcc>0.820692</vAcc></extensions></trkpt>
      <trkpt lon="-117.165526" lat="32.897990"><ele>91.685596</ele><time>2025-03-03T03:16:36Z</time><extensions><speed>1.199739</speed><course>158.419305</course><hAcc>1.444832</hAcc><vAcc>0.821062</vAcc></extensions></trkpt>
      <trkpt lon="-117.165521" lat="32.897980"><ele>91.580721</ele><time>2025-03-03T03:16:37Z</time><extensions><speed>1.260571</speed><course>156.951903</course><hAcc>1.436331</hAcc><vAcc>0.820661</vAcc></extensions></trkpt>
      <trkpt lon="-117.165515" lat="32.897969"><ele>91.471612</ele><time>2025-03-03T03:16:38Z</time><extensions><speed>1.268167</speed><course>155.541850</course><hAcc>1.432175</hAcc><vAcc>0.819759</vAcc></extensions></trkpt>
      <trkpt lon="-117.165510" lat="32.897959"><ele>91.356595</ele><time>2025-03-03T03:16:39Z</time><extensions><speed>1.281463</speed><course>154.707383</course><hAcc>1.430214</hAcc><vAcc>0.818876</vAcc></extensions></trkpt>
      <trkpt lon="-117.165504" lat="32.897948"><ele>91.238647</ele><time>2025-03-03T03:16:40Z</time><extensions><speed>1.231461</speed><course>155.726754</course><hAcc>1.431275</hAcc><vAcc>0.818068</vAcc></extensions></trkpt>
      <trkpt lon="-117.165499" lat="32.897939"><ele>91.135282</ele><time>2025-03-03T03:16:41Z</time><extensions><speed>1.145513</speed><course>158.011593</course><hAcc>1.438837</hAcc><vAcc>0.817239</vAcc></extensions></trkpt>
      <trkpt lon="-117.165494" lat="32.897929"><ele>91.042627</ele><time>2025-03-03T03:16:42Z</time><extensions><speed>1.180850</speed><course>158.398491</course><hAcc>1.451047</hAcc><vAcc>0.816495</vAcc></extensions></trkpt>
      <trkpt lon="-117.165490" lat="32.897919"><ele>90.959062</ele><time>2025-03-03T03:16:43Z</time><extensions><speed>1.147231</speed><course>161.916046</course><hAcc>1.433648</hAcc><vAcc>0.815732</vAcc></extensions></trkpt>
      <trkpt lon="-117.165486" lat="32.897909"><ele>90.872208</ele><time>2025-03-03T03:16:44Z</time><extensions><speed>1.107271</speed><course>159.813469</course><hAcc>1.438706</hAcc><vAcc>0.814857</vAcc></extensions></trkpt>
      <trkpt lon="-117.165482" lat="32.897899"><ele>90.788366</ele><time>2025-03-03T03:16:45Z</time><extensions><speed>1.269159</speed><course>158.542968</course><hAcc>1.472332</hAcc><vAcc>0.813674</vAcc></extensions></trkpt>
      <trkpt lon="-117.165476" lat="32.897889"><ele>90.701928</ele><time>2025-03-03T03:16:46Z</time><extensions><speed>1.232141</speed><course>155.059544</course><hAcc>1.507646</hAcc><vAcc>0.812082</vAcc></extensions></trkpt>
      <trkpt lon="-117.165471" lat="32.897880"><ele>90.618446</ele><time>2025-03-03T03:16:47Z</time><extensions><speed>1.072261</speed><course>153.848890</course><hAcc>1.481440</hAcc><vAcc>0.809895</vAcc></extensions></trkpt>
      <trkpt lon="-117.165467" lat="32.897871"><ele>90.530969</ele><time>2025-03-03T03:16:48Z</time><extensions><speed>0.925727</speed><course>161.414174</course><hAcc>1.466674</hAcc><vAcc>0.807005</vAcc></extensions></trkpt>
      <trkpt lon="-117.165464" lat="32.897863"><ele>90.443877</ele><time>2025-03-03T03:16:49Z</time><extensions><speed>0.993309</speed><course>163.633667</course><hAcc>1.473968</hAcc><vAcc>0.803395</vAcc></extensions></trkpt>
      <trkpt lon="-117.165461" lat="32.897854"><ele>90.377101</ele><time>2025-03-03T03:16:50Z</time><extensions><speed>1.103340</speed><course>163.721093</course><hAcc>1.474048</hAcc><vAcc>0.799129</vAcc></extensions></trkpt>
      <trkpt lon="-117.165457" lat="32.897844"><ele>90.315757</ele><time>2025-03-03T03:16:51Z</time><extensions><speed>1.194910</speed><course>161.841354</course><hAcc>1.473061</hAcc><vAcc>0.794487</vAcc></extensions></trkpt>
      <trkpt lon="-117.165453" lat="32.897834"><ele>90.255533</ele><time>2025-03-03T03:16:52Z</time><extensions><speed>1.256467</speed><course>160.144850</course><hAcc>1.458307</hAcc><vAcc>0.789486</vAcc></extensions></trkpt>
      <trkpt lon="-117.165449" lat="32.897823"><ele>90.181556</ele><time>2025-03-03T03:16:53Z</time><extensions><speed>1.212949</speed><course>161.064703</course><hAcc>1.439866</hAcc><vAcc>0.784458</vAcc></extensions></trkpt>
      <trkpt lon="-117.165445" lat="32.897813"><ele>90.096474</ele><time>2025-03-03T03:16:54Z</time><extensions><speed>1.115334</speed><course>161.796032</course><hAcc>1.423338</hAcc><vAcc>0.779640</vAcc></extensions></trkpt>
      <trkpt lon="-117.165441" lat="32.897804"><ele>89.999799</ele><time>2025-03-03T03:16:55Z</time><extensions><speed>1.081098</speed><course>161.625833</course><hAcc>1.406476</hAcc><vAcc>0.775231</vAcc></extensions></trkpt>
      <trkpt lon="-117.165437" lat="32.897794"><ele>89.891312</ele><time>2025-03-03T03:16:56Z</time><extensions><speed>1.150723</speed><course>159.953947</course><hAcc>1.390028</hAcc><vAcc>0.771362</vAcc></extensions></trkpt>
      <trkpt lon="-117.165433" lat="32.897784"><ele>89.776392</ele><time>2025-03-03T03:16:57Z</time><extensions><speed>1.216738</speed><course>158.066293</course><hAcc>1.379317</hAcc><vAcc>0.768308</vAcc></extensions></trkpt>
      <trkpt lon="-117.165428" lat="32.897774"><ele>89.655622</ele><time>2025-03-03T03:16:58Z</time><extensions><speed>1.239909</speed><course>159.971626</course><hAcc>1.371703</hAcc><vAcc>0.765766</vAcc></extensions></trkpt>
      <trkpt lon="-117.165423" lat="32.897763"><ele>89.518662</ele><time>2025-03-03T03:16:59Z</time><extensions><speed>1.264117</speed><course>161.886638</course><hAcc>1.365234</hAcc><vAcc>0.763783</vAcc></extensions></trkpt>
      <trkpt lon="-117.165419" lat="32.897752"><ele>89.368159</ele><time>2025-03-03T03:17:00Z</time><extensions><speed>1.310685</speed><course>161.028295</course><hAcc>1.360653</hAcc><vAcc>0.762296</vAcc></extensions></trkpt>
      <trkpt lon="-117.165415" lat="32.897741"><ele>89.202958</ele><time>2025-03-03T03:17:01Z</time><extensions><speed>1.267878</speed><course>161.955788</course><hAcc>1.384812</hAcc><vAcc>0.761211</vAcc></extensions></trkpt>
      <trkpt lon="-117.165410" lat="32.897730"><ele>89.019040</ele><time>2025-03-03T03:17:02Z</time><extensions><speed>1.236164</speed><course>161.628927</course><hAcc>1.370272</hAcc><vAcc>0.760439</vAcc></extensions></trkpt>
      <trkpt lon="-117.165406" lat="32.897720"><ele>88.821141</ele><time>2025-03-03T03:17:03Z</time><extensions><speed>1.276445</speed><course>160.242076</course><hAcc>1.363860</hAcc><vAcc>0.759907</vAcc></extensions></trkpt>
      <trkpt lon="-117.165401" lat="32.897709"><ele>88.608347</ele><time>2025-03-03T03:17:04Z</time><extensions><speed>1.280103</speed><course>158.851991</course><hAcc>1.364430</hAcc><vAcc>0.759553</vAcc></extensions></trkpt>
      <trkpt lon="-117.165397" lat="32.897698"><ele>88.380439</ele><time>2025-03-03T03:17:05Z</time><extensions><speed>1.271005</speed><course>160.502579</course><hAcc>1.366044</hAcc><vAcc>0.759355</vAcc></extensions></trkpt>
      <trkpt lon="-117.165392" lat="32.897687"><ele>88.145600</ele><time>2025-03-03T03:17:06Z</time><extensions><speed>1.222915</speed><course>162.723914</course><hAcc>1.369048</hAcc><vAcc>0.759196</vAcc></extensions></trkpt>
      <trkpt lon="-117.165388" lat="32.897677"><ele>87.910228</ele><time>2025-03-03T03:17:07Z</time><extensions><speed>1.280836</speed><course>163.508678</course><hAcc>1.373840</hAcc><vAcc>0.759309</vAcc></extensions></trkpt>
      <trkpt lon="-117.165385" lat="32.897665"><ele>87.670351</ele><time>2025-03-03T03:17:08Z</time><extensions><speed>1.323103</speed><course>164.608991</course><hAcc>1.375200</hAcc><vAcc>0.759549</vAcc></extensions></trkpt>
      <trkpt lon="-117.165381" lat="32.897654"><ele>87.421036</ele><time>2025-03-03T03:17:09Z</time><extensions><speed>1.271482</speed><course>165.093530</course><hAcc>1.377211</hAcc><vAcc>0.760016</vAcc></extensions></trkpt>
      <trkpt lon="-117.165377" lat="32.897643"><ele>87.174417</ele><time>2025-03-03T03:17:10Z</time><extensions><speed>1.274550</speed><course>164.994709</course><hAcc>1.383529</hAcc><vAcc>0.760630</vAcc></extensions></trkpt>
      <trkpt lon="-117.165374" lat="32.897632"><ele>86.929233</ele><time>2025-03-03T03:17:11Z</time><extensions><speed>1.228004</speed><course>165.468922</course><hAcc>1.392166</hAcc><vAcc>0.761707</vAcc></extensions></trkpt>
      <trkpt lon="-117.165371" lat="32.897621"><ele>86.687847</ele><time>2025-03-03T03:17:12Z</time><extensions><speed>1.184541</speed><course>165.826166</course><hAcc>1.401638</hAcc><vAcc>0.763407</vAcc></extensions></trkpt>
      <trkpt lon="-117.165368" lat="32.897611"><ele>86.449159</ele><time>2025-03-03T03:17:13Z</time><extensions><speed>1.164579</speed><course>167.544477</course><hAcc>1.414440</hAcc><vAcc>0.765380</vAcc></extensions></trkpt>
      <trkpt lon="-117.165365" lat="32.897601"><ele>86.210520</ele><time>2025-03-03T03:17:14Z</time><extensions><speed>1.180018</speed><course>168.687857</course><hAcc>1.425929</hAcc><vAcc>0.767696</vAcc></extensions></trkpt>
      <trkpt lon="-117.165363" lat="32.897590"><ele>85.974965</ele><time>2025-03-03T03:17:15Z</time><extensions><speed>1.204386</speed><course>170.500218</course><hAcc>1.438121</hAcc><vAcc>0.770640</vAcc></extensions></trkpt>
      <trkpt lon="-117.165361" lat="32.897579"><ele>85.744701</ele><time>2025-03-03T03:17:16Z</time><extensions><speed>1.226080</speed><course>171.243167</course><hAcc>1.452169</hAcc><vAcc>0.774320</vAcc></extensions></trkpt>
      <trkpt lon="-117.165358" lat="32.897568"><ele>85.511951</ele><time>2025-03-03T03:17:17Z</time><extensions><speed>1.269934</speed><course>166.923606</course><hAcc>1.464933</hAcc><vAcc>0.778034</vAcc></extensions></trkpt>
      <trkpt lon="-117.165355" lat="32.897557"><ele>85.275760</ele><time>2025-03-03T03:17:18Z</time><extensions><speed>1.304977</speed><course>166.407775</course><hAcc>1.476796</hAcc><vAcc>0.781982</vAcc></extensions></trkpt>
      <trkpt lon="-117.165352" lat="32.897546"><ele>85.039035</ele><time>2025-03-03T03:17:19Z</time><extensions><speed>1.266905</speed><course>168.007077</course><hAcc>1.482372</hAcc><vAcc>0.785982</vAcc></extensions></trkpt>
      <trkpt lon="-117.165349" lat="32.897534"><ele>84.802861</ele><time>2025-03-03T03:17:20Z</time><extensions><speed>1.241638</speed><course>169.322633</course><hAcc>1.491978</hAcc><vAcc>0.789682</vAcc></extensions></trkpt>
      <trkpt lon="-117.165347" lat="32.897524"><ele>84.572881</ele><time>2025-03-03T03:17:21Z</time><extensions><speed>1.215355</speed><course>170.976529</course><hAcc>1.501175</hAcc><vAcc>0.793041</vAcc></extensions></trkpt>
      <trkpt lon="-117.165346" lat="32.897513"><ele>84.346123</ele><time>2025-03-03T03:17:22Z</time><extensions><speed>1.196290</speed><course>174.158360</course><hAcc>1.509692</hAcc><vAcc>0.795839</vAcc></extensions></trkpt>
      <trkpt lon="-117.165344" lat="32.897502"><ele>84.118469</ele><time>2025-03-03T03:17:23Z</time><extensions><speed>1.237313</speed><course>175.007263</course><hAcc>1.515822</hAcc><vAcc>0.797973</vAcc></extensions></trkpt>
      <trkpt lon="-117.165343" lat="32.897491"><ele>83.891575</ele><time>2025-03-03T03:17:24Z</time><extensions><speed>1.211341</speed><course>174.318323</course><hAcc>1.523583</hAcc><vAcc>0.799491</vAcc></extensions></trkpt>
      <trkpt lon="-117.165342" lat="32.897480"><ele>83.671302</ele><time>2025-03-03T03:17:25Z</time><extensions><speed>1.229505</speed><course>175.965145</course><hAcc>1.532762</hAcc><vAcc>0.800340</vAcc></extensions></trkpt>
      <trkpt lon="-117.165342" lat="32.897469"><ele>83.456785</ele><time>2025-03-03T03:17:26Z</time><extensions><speed>1.248298</speed><course>177.639886</course><hAcc>1.536965</hAcc><vAcc>0.800483</vAcc></extensions></trkpt>
      <trkpt lon="-117.165341" lat="32.897457"><ele>83.252511</ele><time>2025-03-03T03:17:27Z</time><extensions><speed>1.220378</speed><course>181.267086</course><hAcc>1.535798</hAcc><vAcc>0.800214</vAcc></extensions></trkpt>
      <trkpt lon="-117.165342" lat="32.897447"><ele>83.054939</ele><time>2025-03-03T03:17:28Z</time><extensions><speed>1.197754</speed><course>183.476225</course><hAcc>1.529773</hAcc><vAcc>0.799731</vAcc></extensions></trkpt>
      <trkpt lon="-117.165342" lat="32.897436"><ele>82.864802</ele><time>2025-03-03T03:17:29Z</time><extensions><speed>1.183005</speed><course>183.006341</course><hAcc>1.523528</hAcc><vAcc>0.798901</vAcc></extensions></trkpt>
      <trkpt lon="-117.165343" lat="32.897425"><ele>82.688046</ele><time>2025-03-03T03:17:30Z</time><extensions><speed>1.239915</speed><course>181.356848</course><hAcc>1.521598</hAcc><vAcc>0.797990</vAcc></extensions></trkpt>
      <trkpt lon="-117.165343" lat="32.897414"><ele>82.519350</ele><time>2025-03-03T03:17:31Z</time><extensions><speed>1.253179</speed><course>180.308938</course><hAcc>1.517329</hAcc><vAcc>0.797405</vAcc></extensions></trkpt>
      <trkpt lon="-117.165342" lat="32.897402"><ele>82.374382</ele><time>2025-03-03T03:17:32Z</time><extensions><speed>1.275553</speed><course>179.592175</course><hAcc>1.509864</hAcc><vAcc>0.797449</vAcc></extensions></trkpt>
      <trkpt lon="-117.165342" lat="32.897391"><ele>82.234512</ele><time>2025-03-03T03:17:33Z</time><extensions><speed>1.289192</speed><course>179.145641</course><hAcc>1.501445</hAcc><vAcc>0.798293</vAcc></extensions></trkpt>
      <trkpt lon="-117.165342" lat="32.897379"><ele>82.090049</ele><time>2025-03-03T03:17:34Z</time><extensions><speed>1.281045</speed><course>178.393134</course><hAcc>1.494135</hAcc><vAcc>0.800198</vAcc></extensions></trkpt>
      <trkpt lon="-117.165341" lat="32.897367"><ele>81.969321</ele><time>2025-03-03T03:17:35Z</time><extensions><speed>1.267629</speed><course>175.811064</course><hAcc>1.490187</hAcc><vAcc>0.803101</vAcc></extensions></trkpt>
      <trkpt lon="-117.165340" lat="32.897356"><ele>81.853954</ele><time>2025-03-03T03:17:36Z</time><extensions><speed>1.258781</speed><course>173.353206</course><hAcc>1.489446</hAcc><vAcc>0.806829</vAcc></extensions></trkpt>
      <trkpt lon="-117.165338" lat="32.897345"><ele>81.758934</ele><time>2025-03-03T03:17:37Z</time><extensions><speed>1.276632</speed><course>169.836842</course><hAcc>1.491285</hAcc><vAcc>0.812287</vAcc></extensions></trkpt>
      <trkpt lon="-117.165336" lat="32.897334"><ele>81.680988</ele><time>2025-03-03T03:17:38Z</time><extensions><speed>1.224878</speed><course>167.805881</course><hAcc>1.494916</hAcc><vAcc>0.818571</vAcc></extensions></trkpt>
      <trkpt lon="-117.165333" lat="32.897323"><ele>81.610385</ele><time>2025-03-03T03:17:39Z</time><extensions><speed>1.216322</speed><course>168.387251</course><hAcc>1.501505</hAcc><vAcc>0.825118</vAcc></extensions></trkpt>
      <trkpt lon="-117.165331" lat="32.897313"><ele>81.543439</ele><time>2025-03-03T03:17:40Z</time><extensions><speed>1.175406</speed><course>169.865536</course><hAcc>1.509076</hAcc><vAcc>0.831780</vAcc></extensions></trkpt>
      <trkpt lon="-117.165329" lat="32.897303"><ele>81.489067</ele><time>2025-03-03T03:17:41Z</time><extensions><speed>1.081537</speed><course>172.530067</course><hAcc>1.514275</hAcc><vAcc>0.838205</vAcc></extensions></trkpt>
      <trkpt lon="-117.165329" lat="32.897293"><ele>81.438864</ele><time>2025-03-03T03:17:42Z</time><extensions><speed>1.068114</speed><course>179.170260</course><hAcc>1.519305</hAcc><vAcc>0.844622</vAcc></extensions></trkpt>
      <trkpt lon="-117.165330" lat="32.897283"><ele>81.392240</ele><time>2025-03-03T03:17:43Z</time><extensions><speed>1.079281</speed><course>187.857422</course><hAcc>1.523017</hAcc><vAcc>0.851047</vAcc></extensions></trkpt>
      <trkpt lon="-117.165332" lat="32.897274"><ele>81.343708</ele><time>2025-03-03T03:17:44Z</time><extensions><speed>1.098835</speed><course>193.708887</course><hAcc>1.519720</hAcc><vAcc>0.857062</vAcc></extensions></trkpt>
      <trkpt lon="-117.165335" lat="32.897264"><ele>81.303405</ele><time>2025-03-03T03:17:45Z</time><extensions><speed>1.168950</speed><course>191.484211</course><hAcc>1.529730</hAcc><vAcc>0.862558</vAcc></extensions></trkpt>
      <trkpt lon="-117.165337" lat="32.897253"><ele>81.255557</ele><time>2025-03-03T03:17:46Z</time><extensions><speed>1.272695</speed><course>189.777712</course><hAcc>1.539750</hAcc><vAcc>0.867814</vAcc></extensions></trkpt>
      <trkpt lon="-117.165340" lat="32.897242"><ele>81.209525</ele><time>2025-03-03T03:17:47Z</time><extensions><speed>1.211106</speed><course>188.249066</course><hAcc>1.566756</hAcc><vAcc>0.872610</vAcc></extensions></trkpt>
      <trkpt lon="-117.165342" lat="32.897232"><ele>81.165175</ele><time>2025-03-03T03:17:48Z</time><extensions><speed>1.065469</speed><course>191.666784</course><hAcc>1.542720</hAcc><vAcc>0.876081</vAcc></extensions></trkpt>
      <trkpt lon="-117.165344" lat="32.897223"><ele>81.118681</ele><time>2025-03-03T03:17:49Z</time><extensions><speed>0.992192</speed><course>194.913482</course><hAcc>1.534388</hAcc><vAcc>0.878615</vAcc></extensions></trkpt>
      <trkpt lon="-117.165347" lat="32.897214"><ele>81.078405</ele><time>2025-03-03T03:17:50Z</time><extensions><speed>1.065656</speed><course>195.084085</course><hAcc>1.543001</hAcc><vAcc>0.881341</vAcc></extensions></trkpt>
      <trkpt lon="-117.165350" lat="32.897204"><ele>81.032626</ele><time>2025-03-03T03:17:51Z</time><extensions><speed>1.138715</speed><course>193.163339</course><hAcc>1.552628</hAcc><vAcc>0.883425</vAcc></extensions></trkpt>
      <trkpt lon="-117.165353" lat="32.897195"><ele>80.981005</ele><time>2025-03-03T03:17:52Z</time><extensions><speed>1.097458</speed><course>191.330853</course><hAcc>1.560713</hAcc><vAcc>0.885248</vAcc></extensions></trkpt>
      <trkpt lon="-117.165355" lat="32.897185"><ele>80.928210</ele><time>2025-03-03T03:17:53Z</time><extensions><speed>1.030649</speed><course>192.887577</course><hAcc>1.565739</hAcc><vAcc>0.886162</vAcc></extensions></trkpt>
      <trkpt lon="-117.165358" lat="32.897176"><ele>80.892894</ele><time>2025-03-03T03:17:54Z</time><extensions><speed>0.970327</speed><course>195.814141</course><hAcc>1.567565</hAcc><vAcc>0.887669</vAcc></extensions></trkpt>
      <trkpt lon="-117.165361" lat="32.897168"><ele>80.844135</ele><time>2025-03-03T03:17:55Z</time><extensions><speed>0.967328</speed><course>194.772077</course><hAcc>1.566300</hAcc><vAcc>0.888575</vAcc></extensions></trkpt>
      <trkpt lon="-117.165363" lat="32.897159"><ele>80.795109</ele><time>2025-03-03T03:17:56Z</time><extensions><speed>1.014015</speed><course>193.275912</course><hAcc>1.559066</hAcc><vAcc>0.888578</vAcc></extensions></trkpt>
      <trkpt lon="-117.165366" lat="32.897150"><ele>80.742623</ele><time>2025-03-03T03:17:57Z</time><extensions><speed>1.118812</speed><course>190.229091</course><hAcc>1.550618</hAcc><vAcc>0.887609</vAcc></extensions></trkpt>
      <trkpt lon="-117.165368" lat="32.897140"><ele>80.708141</ele><time>2025-03-03T03:17:58Z</time><extensions><speed>1.049546</speed><course>189.237113</course><hAcc>1.535600</hAcc><vAcc>0.886279</vAcc></extensions></trkpt>
      <trkpt lon="-117.165369" lat="32.897132"><ele>80.681243</ele><time>2025-03-03T03:17:59Z</time><extensions><speed>0.916513</speed><course>186.379329</course><hAcc>1.519147</hAcc><vAcc>0.884628</vAcc></extensions></trkpt>
      <trkpt lon="-117.165370" lat="32.897124"><ele>80.649112</ele><time>2025-03-03T03:18:00Z</time><extensions><speed>0.862951</speed><course>182.895389</course><hAcc>1.505648</hAcc><vAcc>0.882534</vAcc></extensions></trkpt>
      <trkpt lon="-117.165370" lat="32.897116"><ele>80.613653</ele><time>2025-03-03T03:18:01Z</time><extensions><speed>0.882216</speed><course>182.285616</course><hAcc>1.488144</hAcc><vAcc>0.881104</vAcc></extensions></trkpt>
      <trkpt lon="-117.165371" lat="32.897108"><ele>80.578723</ele><time>2025-03-03T03:18:02Z</time><extensions><speed>0.978648</speed><course>181.100782</course><hAcc>1.481738</hAcc><vAcc>0.879091</vAcc></extensions></trkpt>
      <trkpt lon="-117.165371" lat="32.897098"><ele>80.546393</ele><time>2025-03-03T03:18:03Z</time><extensions><speed>1.102139</speed><course>182.064888</course><hAcc>1.473004</hAcc><vAcc>0.877635</vAcc></extensions></trkpt>
      <trkpt lon="-117.165372" lat="32.897088"><ele>80.508148</ele><time>2025-03-03T03:18:04Z</time><extensions><speed>1.171386</speed><course>182.791876</course><hAcc>1.491098</hAcc><vAcc>0.876036</vAcc></extensions></trkpt>
      <trkpt lon="-117.165373" lat="32.897078"><ele>80.470275</ele><time>2025-03-03T03:18:05Z</time><extensions><speed>1.128254</speed><course>185.967397</course><hAcc>1.474236</hAcc><vAcc>0.874892</vAcc></extensions></trkpt>
      <trkpt lon="-117.165373" lat="32.897068"><ele>80.437067</ele><time>2025-03-03T03:18:06Z</time><extensions><speed>1.026654</speed><course>178.956554</course><hAcc>1.464886</hAcc><vAcc>0.874166</vAcc></extensions></trkpt>
      <trkpt lon="-117.165373" lat="32.897059"><ele>80.407895</ele><time>2025-03-03T03:18:07Z</time><extensions><speed>0.970398</speed><course>180.046050</course><hAcc>1.464708</hAcc><vAcc>0.874236</vAcc></extensions></trkpt>
      <trkpt lon="-117.165373" lat="32.897050"><ele>80.385414</ele><time>2025-03-03T03:18:08Z</time><extensions><speed>0.985130</speed><course>180.094356</course><hAcc>1.461358</hAcc><vAcc>0.875490</vAcc></extensions></trkpt>
      <trkpt lon="-117.165373" lat="32.897041"><ele>80.368261</ele><time>2025-03-03T03:18:09Z</time><extensions><speed>1.018249</speed><course>181.988675</course><hAcc>1.458956</hAcc><vAcc>0.877874</vAcc></extensions></trkpt>
      <trkpt lon="-117.165374" lat="32.897032"><ele>80.354086</ele><time>2025-03-03T03:18:10Z</time><extensions><speed>1.018400</speed><course>181.667262</course><hAcc>1.461809</hAcc><vAcc>0.881050</vAcc></extensions></trkpt>
      <trkpt lon="-117.165374" lat="32.897023"><ele>80.341789</ele><time>2025-03-03T03:18:11Z</time><extensions><speed>0.997723</speed><course>181.606445</course><hAcc>1.468356</hAcc><vAcc>0.884124</vAcc></extensions></trkpt>
      <trkpt lon="-117.165374" lat="32.897013"><ele>80.324820</ele><time>2025-03-03T03:18:12Z</time><extensions><speed>1.203801</speed><course>185.253673</course><hAcc>1.455679</hAcc><vAcc>0.886808</vAcc></extensions></trkpt>
      <trkpt lon="-117.165375" lat="32.897002"><ele>80.304048</ele><time>2025-03-03T03:18:13Z</time><extensions><speed>1.138643</speed><course>187.603336</course><hAcc>1.458479</hAcc><vAcc>0.888705</vAcc></extensions></trkpt>
      <trkpt lon="-117.165377" lat="32.896993"><ele>80.283113</ele><time>2025-03-03T03:18:14Z</time><extensions><speed>1.029817</speed><course>193.433491</course><hAcc>1.444877</hAcc><vAcc>0.889660</vAcc></extensions></trkpt>
      <trkpt lon="-117.165380" lat="32.896984"><ele>80.273704</ele><time>2025-03-03T03:18:15Z</time><extensions><speed>0.973095</speed><course>196.909468</course><hAcc>1.437203</hAcc><vAcc>0.890230</vAcc></extensions></trkpt>
      <trkpt lon="-117.165383" lat="32.896976"><ele>80.252332</ele><time>2025-03-03T03:18:16Z</time><extensions><speed>1.010314</speed><course>197.969476</course><hAcc>1.426520</hAcc><vAcc>0.890101</vAcc></extensions></trkpt>
      <trkpt lon="-117.165386" lat="32.896967"><ele>80.239610</ele><time>2025-03-03T03:18:17Z</time><extensions><speed>1.035321</speed><course>198.180173</course><hAcc>1.422022</hAcc><vAcc>0.889100</vAcc></extensions></trkpt>
      <trkpt lon="-117.165390" lat="32.896958"><ele>80.225984</ele><time>2025-03-03T03:18:18Z</time><extensions><speed>1.096684</speed><course>199.577688</course><hAcc>1.422788</hAcc><vAcc>0.887108</vAcc></extensions></trkpt>
      <trkpt lon="-117.165394" lat="32.896949"><ele>80.181883</ele><time>2025-03-03T03:18:19Z</time><extensions><speed>1.060299</speed><course>199.217905</course><hAcc>1.425077</hAcc><vAcc>0.883360</vAcc></extensions></trkpt>
      <trkpt lon="-117.165396" lat="32.896940"><ele>80.121178</ele><time>2025-03-03T03:18:20Z</time><extensions><speed>0.965520</speed><course>188.586799</course><hAcc>1.411967</hAcc><vAcc>0.878054</vAcc></extensions></trkpt>
      <trkpt lon="-117.165397" lat="32.896931"><ele>80.063054</ele><time>2025-03-03T03:18:21Z</time><extensions><speed>1.054896</speed><course>177.552733</course><hAcc>1.407030</hAcc><vAcc>0.872499</vAcc></extensions></trkpt>
      <trkpt lon="-117.165396" lat="32.896921"><ele>79.983628</ele><time>2025-03-03T03:18:22Z</time><extensions><speed>1.241379</speed><course>170.082287</course><hAcc>1.419846</hAcc><vAcc>0.866751</vAcc></extensions></trkpt>
      <trkpt lon="-117.165392" lat="32.896910"><ele>79.900917</ele><time>2025-03-03T03:18:23Z</time><extensions><speed>1.297074</speed><course>158.071781</course><hAcc>1.403759</hAcc><vAcc>0.861547</vAcc></extensions></trkpt>
      <trkpt lon="-117.165385" lat="32.896899"><ele>79.824371</ele><time>2025-03-03T03:18:24Z</time><extensions><speed>1.306000</speed><course>147.823764</course><hAcc>1.406117</hAcc><vAcc>0.856721</vAcc></extensions></trkpt>
      <trkpt lon="-117.165378" lat="32.896890"><ele>79.742470</ele><time>2025-03-03T03:18:25Z</time><extensions><speed>1.263946</speed><course>144.140598</course><hAcc>1.417727</hAcc><vAcc>0.853233</vAcc></extensions></trkpt>
      <trkpt lon="-117.165370" lat="32.896880"><ele>79.649098</ele><time>2025-03-03T03:18:26Z</time><extensions><speed>1.175301</speed><course>146.437650</course><hAcc>1.436764</hAcc><vAcc>0.851266</vAcc></extensions></trkpt>
      <trkpt lon="-117.165363" lat="32.896872"><ele>79.543042</ele><time>2025-03-03T03:18:27Z</time><extensions><speed>1.107822</speed><course>147.837202</course><hAcc>1.456954</hAcc><vAcc>0.850349</vAcc></extensions></trkpt>
      <trkpt lon="-117.165357" lat="32.896864"><ele>79.428682</ele><time>2025-03-03T03:18:28Z</time><extensions><speed>1.071965</speed><course>146.924114</course><hAcc>1.475452</hAcc><vAcc>0.851203</vAcc></extensions></trkpt>
      <trkpt lon="-117.165350" lat="32.896856"><ele>79.297792</ele><time>2025-03-03T03:18:29Z</time><extensions><speed>1.020222</speed><course>141.754629</course><hAcc>1.455092</hAcc><vAcc>0.852947</vAcc></extensions></trkpt>
      <trkpt lon="-117.165343" lat="32.896848"><ele>79.168902</ele><time>2025-03-03T03:18:30Z</time><extensions><speed>1.110650</speed><course>142.128638</course><hAcc>1.463010</hAcc><vAcc>0.856168</vAcc></extensions></trkpt>
      <trkpt lon="-117.165336" lat="32.896840"><ele>79.035599</ele><time>2025-03-03T03:18:31Z</time><extensions><speed>1.147347</speed><course>143.443316</course><hAcc>1.485781</hAcc><vAcc>0.861938</vAcc></extensions></trkpt>
      <trkpt lon="-117.165328" lat="32.896832"><ele>78.914859</ele><time>2025-03-03T03:18:32Z</time><extensions><speed>1.145115</speed><course>143.111340</course><hAcc>1.494979</hAcc><vAcc>0.868690</vAcc></extensions></trkpt>
      <trkpt lon="-117.165321" lat="32.896824"><ele>78.815269</ele><time>2025-03-03T03:18:33Z</time><extensions><speed>1.106355</speed><course>138.560860</course><hAcc>1.521208</hAcc><vAcc>0.876316</vAcc></extensions></trkpt>
      <trkpt lon="-117.165311" lat="32.896816"><ele>78.727875</ele><time>2025-03-03T03:18:34Z</time><extensions><speed>1.339813</speed><course>133.067774</course><hAcc>1.516422</hAcc><vAcc>0.884180</vAcc></extensions></trkpt>
      <trkpt lon="-117.165300" lat="32.896808"><ele>78.671519</ele><time>2025-03-03T03:18:35Z</time><extensions><speed>1.374389</speed><course>129.736952</course><hAcc>1.538817</hAcc><vAcc>0.892961</vAcc></extensions></trkpt>
      <trkpt lon="-117.165288" lat="32.896800"><ele>78.639786</ele><time>2025-03-03T03:18:36Z</time><extensions><speed>1.445481</speed><course>125.255406</course><hAcc>1.527087</hAcc><vAcc>0.900440</vAcc></extensions></trkpt>
      <trkpt lon="-117.165275" lat="32.896793"><ele>78.652710</ele><time>2025-03-03T03:18:37Z</time><extensions><speed>1.432560</speed><course>123.060171</course><hAcc>1.522391</hAcc><vAcc>0.906389</vAcc></extensions></trkpt>
      <trkpt lon="-117.165263" lat="32.896786"><ele>78.692345</ele><time>2025-03-03T03:18:38Z</time><extensions><speed>1.390611</speed><course>122.778042</course><hAcc>1.532447</hAcc><vAcc>0.912623</vAcc></extensions></trkpt>
      <trkpt lon="-117.165250" lat="32.896779"><ele>78.732641</ele><time>2025-03-03T03:18:39Z</time><extensions><speed>1.389746</speed><course>124.970928</course><hAcc>1.539652</hAcc><vAcc>0.919716</vAcc></extensions></trkpt>
      <trkpt lon="-117.165238" lat="32.896771"><ele>78.794139</ele><time>2025-03-03T03:18:40Z</time><extensions><speed>1.410011</speed><course>129.018647</course><hAcc>1.548568</hAcc><vAcc>0.926153</vAcc></extensions></trkpt>
      <trkpt lon="-117.165226" lat="32.896762"><ele>78.843533</ele><time>2025-03-03T03:18:41Z</time><extensions><speed>1.499963</speed><course>132.147546</course><hAcc>1.545883</hAcc><vAcc>0.932065</vAcc></extensions></trkpt>
      <trkpt lon="-117.165214" lat="32.896753"><ele>78.900300</ele><time>2025-03-03T03:18:42Z</time><extensions><speed>1.545930</speed><course>132.901517</course><hAcc>1.543942</hAcc><vAcc>0.939347</vAcc></extensions></trkpt>
      <trkpt lon="-117.165202" lat="32.896743"><ele>78.943990</ele><time>2025-03-03T03:18:43Z</time><extensions><speed>1.541171</speed><course>132.236265</course><hAcc>1.544887</hAcc><vAcc>0.947723</vAcc></extensions></trkpt>
      <trkpt lon="-117.165189" lat="32.896734"><ele>78.955288</ele><time>2025-03-03T03:18:44Z</time><extensions><speed>1.548473</speed><course>129.559857</course><hAcc>1.549455</hAcc><vAcc>0.955230</vAcc></extensions></trkpt>
      <trkpt lon="-117.165177" lat="32.896726"><ele>78.959322</ele><time>2025-03-03T03:18:45Z</time><extensions><speed>1.394821</speed><course>126.101188</course><hAcc>1.553703</hAcc><vAcc>0.964222</vAcc></extensions></trkpt>
      <trkpt lon="-117.165165" lat="32.896719"><ele>78.946383</ele><time>2025-03-03T03:18:46Z</time><extensions><speed>1.282019</speed><course>123.036305</course><hAcc>1.528071</hAcc><vAcc>0.972613</vAcc></extensions></trkpt>
      <trkpt lon="-117.165153" lat="32.896712"><ele>78.942988</ele><time>2025-03-03T03:18:47Z</time><extensions><speed>1.370568</speed><course>126.687424</course><hAcc>1.513240</hAcc><vAcc>0.981648</vAcc></extensions></trkpt>
      <trkpt lon="-117.165142" lat="32.896704"><ele>78.926065</ele><time>2025-03-03T03:18:48Z</time><extensions><speed>1.441750</speed><course>132.971293</course><hAcc>1.550534</hAcc><vAcc>0.992468</vAcc></extensions></trkpt>
      <trkpt lon="-117.165132" lat="32.896695"><ele>78.884327</ele><time>2025-03-03T03:18:49Z</time><extensions><speed>1.325983</speed><course>142.183879</course><hAcc>1.611283</hAcc><vAcc>1.002697</vAcc></extensions></trkpt>
      <trkpt lon="-117.165124" lat="32.896685"><ele>78.814021</ele><time>2025-03-03T03:18:50Z</time><extensions><speed>1.369454</speed><course>148.849044</course><hAcc>1.599052</hAcc><vAcc>1.014195</vAcc></extensions></trkpt>
      <trkpt lon="-117.165117" lat="32.896675"><ele>78.733159</ele><time>2025-03-03T03:18:51Z</time><extensions><speed>1.285642</speed><course>151.677787</course><hAcc>1.603919</hAcc><vAcc>1.025050</vAcc></extensions></trkpt>
      <trkpt lon="-117.165111" lat="32.896665"><ele>78.641566</ele><time>2025-03-03T03:18:52Z</time><extensions><speed>1.133209</speed><course>154.898772</course><hAcc>1.635960</hAcc><vAcc>1.036141</vAcc></extensions></trkpt>
      <trkpt lon="-117.165107" lat="32.896656"><ele>78.531401</ele><time>2025-03-03T03:18:53Z</time><extensions><speed>0.984050</speed><course>160.986576</course><hAcc>1.654695</hAcc><vAcc>1.046546</vAcc></extensions></trkpt>
      <trkpt lon="-117.165104" lat="32.896648"><ele>78.399249</ele><time>2025-03-03T03:18:54Z</time><extensions><speed>0.894284</speed><course>167.839067</course><hAcc>1.657341</hAcc><vAcc>1.056055</vAcc></extensions></trkpt>
      <trkpt lon="-117.165102" lat="32.896640"><ele>78.273415</ele><time>2025-03-03T03:18:55Z</time><extensions><speed>0.918247</speed><course>171.411076</course><hAcc>1.670501</hAcc><vAcc>1.062484</vAcc></extensions></trkpt>
      <trkpt lon="-117.165100" lat="32.896632"><ele>78.140945</ele><time>2025-03-03T03:18:56Z</time><extensions><speed>1.005254</speed><course>168.815560</course><hAcc>1.665923</hAcc><vAcc>1.066988</vAcc></extensions></trkpt>
      <trkpt lon="-117.165098" lat="32.896622"><ele>77.996000</ele><time>2025-03-03T03:18:57Z</time><extensions><speed>1.193415</speed><course>169.768410</course><hAcc>1.685579</hAcc><vAcc>1.070389</vAcc></extensions></trkpt>
      <trkpt lon="-117.165095" lat="32.896611"><ele>77.853960</ele><time>2025-03-03T03:18:58Z</time><extensions><speed>1.197682</speed><course>168.832595</course><hAcc>1.697727</hAcc><vAcc>1.071934</vAcc></extensions></trkpt>
      <trkpt lon="-117.165093" lat="32.896601"><ele>77.716801</ele><time>2025-03-03T03:18:59Z</time><extensions><speed>1.104361</speed><course>168.253415</course><hAcc>1.660033</hAcc><vAcc>1.074845</vAcc></extensions></trkpt>
      <trkpt lon="-117.165090" lat="32.896592"><ele>77.559327</ele><time>2025-03-03T03:19:00Z</time><extensions><speed>0.997054</speed><course>167.262351</course><hAcc>1.628237</hAcc><vAcc>1.075867</vAcc></extensions></trkpt>
      <trkpt lon="-117.165088" lat="32.896584"><ele>77.397544</ele><time>2025-03-03T03:19:01Z</time><extensions><speed>0.877522</speed><course>164.838928</course><hAcc>1.616811</hAcc><vAcc>1.076328</vAcc></extensions></trkpt>
      <trkpt lon="-117.165085" lat="32.896576"><ele>77.230479</ele><time>2025-03-03T03:19:02Z</time><extensions><speed>0.832396</speed><course>167.218882</course><hAcc>1.596136</hAcc><vAcc>1.075165</vAcc></extensions></trkpt>
      <trkpt lon="-117.165083" lat="32.896569"><ele>77.070943</ele><time>2025-03-03T03:19:03Z</time><extensions><speed>0.842190</speed><course>168.093357</course><hAcc>1.579358</hAcc><vAcc>1.072356</vAcc></extensions></trkpt>
      <trkpt lon="-117.165080" lat="32.896561"><ele>76.919744</ele><time>2025-03-03T03:19:04Z</time><extensions><speed>0.858528</speed><course>163.319155</course><hAcc>1.565234</hAcc><vAcc>1.070473</vAcc></extensions></trkpt>
      <trkpt lon="-117.165077" lat="32.896553"><ele>76.759653</ele><time>2025-03-03T03:19:05Z</time><extensions><speed>1.062237</speed><course>161.445784</course><hAcc>1.534808</hAcc><vAcc>1.068602</vAcc></extensions></trkpt>
      <trkpt lon="-117.165072" lat="32.896543"><ele>76.620373</ele><time>2025-03-03T03:19:06Z</time><extensions><speed>1.277512</speed><course>161.400891</course><hAcc>1.522127</hAcc><vAcc>1.065547</vAcc></extensions></trkpt>
      <trkpt lon="-117.165067" lat="32.896532"><ele>76.482706</ele><time>2025-03-03T03:19:07Z</time><extensions><speed>1.272091</speed><course>159.712714</course><hAcc>1.508285</hAcc><vAcc>1.062647</vAcc></extensions></trkpt>
      <trkpt lon="-117.165062" lat="32.896522"><ele>76.363227</ele><time>2025-03-03T03:19:08Z</time><extensions><speed>1.134011</speed><course>151.786882</course><hAcc>1.484765</hAcc><vAcc>1.059858</vAcc></extensions></trkpt>
      <trkpt lon="-117.165056" lat="32.896513"><ele>76.263201</ele><time>2025-03-03T03:19:09Z</time><extensions><speed>1.103790</speed><course>152.132371</course><hAcc>1.507903</hAcc><vAcc>1.059049</vAcc></extensions></trkpt>
      <trkpt lon="-117.165050" lat="32.896505"><ele>76.178475</ele><time>2025-03-03T03:19:10Z</time><extensions><speed>1.074423</speed><course>149.176807</course><hAcc>1.506108</hAcc><vAcc>1.060119</vAcc></extensions></trkpt>
      <trkpt lon="-117.165045" lat="32.896497"><ele>76.110388</ele><time>2025-03-03T03:19:11Z</time><extensions><speed>0.922134</speed><course>152.619289</course><hAcc>1.542913</hAcc><vAcc>1.061110</vAcc></extensions></trkpt>
      <trkpt lon="-117.165039" lat="32.896489"><ele>76.068642</ele><time>2025-03-03T03:19:12Z</time><extensions><speed>1.075231</speed><course>144.583556</course><hAcc>1.524143</hAcc><vAcc>1.063076</vAcc></extensions></trkpt>
      <trkpt lon="-117.165032" lat="32.896481"><ele>76.043589</ele><time>2025-03-03T03:19:13Z</time><extensions><speed>1.194772</speed><course>146.145142</course><hAcc>1.565409</hAcc><vAcc>1.064975</vAcc></extensions></trkpt>
      <trkpt lon="-117.165026" lat="32.896472"><ele>76.027634</ele><time>2025-03-03T03:19:14Z</time><extensions><speed>1.196343</speed><course>151.078431</course><hAcc>1.619495</hAcc><vAcc>1.067155</vAcc></extensions></trkpt>
      <trkpt lon="-117.165020" lat="32.896462"><ele>76.034714</ele><time>2025-03-03T03:19:15Z</time><extensions><speed>1.147893</speed><course>151.053919</course><hAcc>1.624951</hAcc><vAcc>1.069494</vAcc></extensions></trkpt>
      <trkpt lon="-117.165014" lat="32.896454"><ele>76.060601</ele><time>2025-03-03T03:19:16Z</time><extensions><speed>1.063389</speed><course>150.606564</course><hAcc>1.629525</hAcc><vAcc>1.070683</vAcc></extensions></trkpt>
      <trkpt lon="-117.165008" lat="32.896445"><ele>76.092903</ele><time>2025-03-03T03:19:17Z</time><extensions><speed>1.045404</speed><course>154.555011</course><hAcc>1.657185</hAcc><vAcc>1.072686</vAcc></extensions></trkpt>
      <trkpt lon="-117.165004" lat="32.896437"><ele>76.167388</ele><time>2025-03-03T03:19:18Z</time><extensions><speed>1.052198</speed><course>155.574249</course><hAcc>1.676831</hAcc><vAcc>1.076086</vAcc></extensions></trkpt>
      <trkpt lon="-117.164999" lat="32.896428"><ele>76.260158</ele><time>2025-03-03T03:19:19Z</time><extensions><speed>1.072084</speed><course>158.794621</course><hAcc>1.686813</hAcc><vAcc>1.081162</vAcc></extensions></trkpt>
      <trkpt lon="-117.164995" lat="32.896419"><ele>76.356456</ele><time>2025-03-03T03:19:20Z</time><extensions><speed>1.109839</speed><course>159.191440</course><hAcc>1.692750</hAcc><vAcc>1.086080</vAcc></extensions></trkpt>
      <trkpt lon="-117.164991" lat="32.896410"><ele>76.472705</ele><time>2025-03-03T03:19:21Z</time><extensions><speed>1.079499</speed><course>160.088032</course><hAcc>1.688921</hAcc><vAcc>1.090773</vAcc></extensions></trkpt>
      <trkpt lon="-117.164987" lat="32.896401"><ele>76.585879</ele><time>2025-03-03T03:19:22Z</time><extensions><speed>1.087348</speed><course>159.823902</course><hAcc>1.676592</hAcc><vAcc>1.095168</vAcc></extensions></trkpt>
      <trkpt lon="-117.164982" lat="32.896392"><ele>76.714805</ele><time>2025-03-03T03:19:23Z</time><extensions><speed>1.165064</speed><course>158.818782</course><hAcc>1.689599</hAcc><vAcc>1.096697</vAcc></extensions></trkpt>
      <trkpt lon="-117.164978" lat="32.896382"><ele>76.840721</ele><time>2025-03-03T03:19:24Z</time><extensions><speed>1.169611</speed><course>157.660916</course><hAcc>1.707436</hAcc><vAcc>1.098766</vAcc></extensions></trkpt>
      <trkpt lon="-117.164973" lat="32.896373"><ele>76.936838</ele><time>2025-03-03T03:19:25Z</time><extensions><speed>1.093032</speed><course>154.399731</course><hAcc>1.729537</hAcc><vAcc>1.100511</vAcc></extensions></trkpt>
      <trkpt lon="-117.164968" lat="32.896365"><ele>77.031660</ele><time>2025-03-03T03:19:26Z</time><extensions><speed>0.960014</speed><course>150.150802</course><hAcc>1.730606</hAcc><vAcc>1.102957</vAcc></extensions></trkpt>
      <trkpt lon="-117.164962" lat="32.896358"><ele>77.108116</ele><time>2025-03-03T03:19:27Z</time><extensions><speed>0.840057</speed><course>142.985887</course><hAcc>1.744775</hAcc><vAcc>1.104882</vAcc></extensions></trkpt>
      <trkpt lon="-117.164957" lat="32.896354"><ele>77.160731</ele><time>2025-03-03T03:19:28Z</time><extensions><speed>0.663096</speed><course>121.049071</course><hAcc>1.766969</hAcc><vAcc>1.105907</vAcc></extensions></trkpt>
      <trkpt lon="-117.164950" lat="32.896352"><ele>77.211873</ele><time>2025-03-03T03:19:29Z</time><extensions><speed>0.616004</speed><course>103.607308</course><hAcc>1.817881</hAcc><vAcc>1.105847</vAcc></extensions></trkpt>
      <trkpt lon="-117.164944" lat="32.896351"><ele>77.255223</ele><time>2025-03-03T03:19:30Z</time><extensions><speed>0.564259</speed><course>82.280543</course><hAcc>1.857836</hAcc><vAcc>1.107650</vAcc></extensions></trkpt>
      <trkpt lon="-117.164939" lat="32.896353"><ele>77.295112</ele><time>2025-03-03T03:19:31Z</time><extensions><speed>0.502109</speed><course>60.465965</course><hAcc>1.888348</hAcc><vAcc>1.108672</vAcc></extensions></trkpt>
      <trkpt lon="-117.164935" lat="32.896355"><ele>77.307040</ele><time>2025-03-03T03:19:32Z</time><extensions><speed>0.403656</speed><course>47.702736</course><hAcc>1.914487</hAcc><vAcc>1.108081</vAcc></extensions></trkpt>
      <trkpt lon="-117.164932" lat="32.896358"><ele>77.304594</ele><time>2025-03-03T03:19:33Z</time><extensions><speed>0.383586</speed><course>53.866639</course><hAcc>1.938082</hAcc><vAcc>1.108576</vAcc></extensions></trkpt>
      <trkpt lon="-117.164928" lat="32.896359"><ele>77.291099</ele><time>2025-03-03T03:19:34Z</time><extensions><speed>0.459817</speed><course>77.171079</course><hAcc>1.968407</hAcc><vAcc>1.108180</vAcc></extensions></trkpt>
      <trkpt lon="-117.164923" lat="32.896360"><ele>77.258865</ele><time>2025-03-03T03:19:35Z</time><extensions><speed>0.520521</speed><course>87.476247</course><hAcc>2.003145</hAcc><vAcc>1.109110</vAcc></extensions></trkpt>
      <trkpt lon="-117.164918" lat="32.896360"><ele>77.207281</ele><time>2025-03-03T03:19:36Z</time><extensions><speed>0.498437</speed><course>85.427006</course><hAcc>2.022129</hAcc><vAcc>1.110431</vAcc></extensions></trkpt>
      <trkpt lon="-117.164913" lat="32.896361"><ele>77.130737</ele><time>2025-03-03T03:19:37Z</time><extensions><speed>0.361755</speed><course>84.894394</course><hAcc>2.040393</hAcc><vAcc>1.112878</vAcc></extensions></trkpt>
      <trkpt lon="-117.164910" lat="32.896361"><ele>77.035244</ele><time>2025-03-03T03:19:38Z</time><extensions><speed>0.166871</speed><course>74.302902</course><hAcc>2.058054</hAcc><vAcc>1.115524</vAcc></extensions></trkpt>
      <trkpt lon="-117.164909" lat="32.896362"><ele>76.929404</ele><time>2025-03-03T03:19:39Z</time><extensions><speed>0.072428</speed><course>27.877367</course><hAcc>2.078726</hAcc><vAcc>1.118910</vAcc></extensions></trkpt>
      <trkpt lon="-117.164909" lat="32.896363"><ele>76.807520</ele><time>2025-03-03T03:19:40Z</time><extensions><speed>0.045816</speed><course>53.801282</course><hAcc>2.098390</hAcc><vAcc>1.123470</vAcc></extensions></trkpt>
      <trkpt lon="-117.164908" lat="32.896363"><ele>76.673592</ele><time>2025-03-03T03:19:41Z</time><extensions><speed>0.179947</speed><course>107.965079</course><hAcc>2.103534</hAcc><vAcc>1.128870</vAcc></extensions></trkpt>
      <trkpt lon="-117.164905" lat="32.896363"><ele>76.549247</ele><time>2025-03-03T03:19:42Z</time><extensions><speed>0.279962</speed><course>93.038465</course><hAcc>2.106471</hAcc><vAcc>1.132615</vAcc></extensions></trkpt>
      <trkpt lon="-117.164902" lat="32.896364"><ele>76.439897</ele><time>2025-03-03T03:19:43Z</time><extensions><speed>0.319287</speed><course>60.006714</course><hAcc>2.088618</hAcc><vAcc>1.136657</vAcc></extensions></trkpt>
      <trkpt lon="-117.164898" lat="32.896366"><ele>76.330183</ele><time>2025-03-03T03:19:44Z</time><extensions><speed>0.481725</speed><course>51.778088</course><hAcc>2.068004</hAcc><vAcc>1.140233</vAcc></extensions></trkpt>
      <trkpt lon="-117.164892" lat="32.896370"><ele>76.201907</ele><time>2025-03-03T03:19:45Z</time><extensions><speed>0.772582</speed><course>63.524000</course><hAcc>2.055812</hAcc><vAcc>1.142401</vAcc></extensions></trkpt>
      <trkpt lon="-117.164882" lat="32.896373"><ele>76.061901</ele><time>2025-03-03T03:19:46Z</time><extensions><speed>1.139190</speed><course>72.137985</course><hAcc>2.048948</hAcc><vAcc>1.145182</vAcc></extensions></trkpt>
      <trkpt lon="-117.164869" lat="32.896376"><ele>75.929443</ele><time>2025-03-03T03:19:47Z</time><extensions><speed>1.376017</speed><course>77.618511</course><hAcc>2.038107</hAcc><vAcc>1.147220</vAcc></extensions></trkpt>
      <trkpt lon="-117.164854" lat="32.896379"><ele>75.818601</ele><time>2025-03-03T03:19:48Z</time><extensions><speed>1.422865</speed><course>77.456600</course><hAcc>2.018896</hAcc><vAcc>1.150046</vAcc></extensions></trkpt>
      <trkpt lon="-117.164840" lat="32.896382"><ele>75.721462</ele><time>2025-03-03T03:19:49Z</time><extensions><speed>1.262403</speed><course>74.219895</course><hAcc>2.000888</hAcc><vAcc>1.152220</vAcc></extensions></trkpt>
      <trkpt lon="-117.164827" lat="32.896385"><ele>75.665720</ele><time>2025-03-03T03:19:50Z</time><extensions><speed>1.170870</speed><course>71.860366</course><hAcc>1.984819</hAcc><vAcc>1.153761</vAcc></extensions></trkpt>
      <trkpt lon="-117.164815" lat="32.896389"><ele>75.634873</ele><time>2025-03-03T03:19:51Z</time><extensions><speed>1.252224</speed><course>69.202861</course><hAcc>1.969356</hAcc><vAcc>1.153890</vAcc></extensions></trkpt>
      <trkpt lon="-117.164802" lat="32.896393"><ele>75.621620</ele><time>2025-03-03T03:19:52Z</time><extensions><speed>1.350458</speed><course>67.658479</course><hAcc>1.948442</hAcc><vAcc>1.152322</vAcc></extensions></trkpt>
      <trkpt lon="-117.164789" lat="32.896398"><ele>75.641892</ele><time>2025-03-03T03:19:53Z</time><extensions><speed>1.289461</speed><course>67.177108</course><hAcc>1.936593</hAcc><vAcc>1.149094</vAcc></extensions></trkpt>
      <trkpt lon="-117.164776" lat="32.896402"><ele>75.712687</ele><time>2025-03-03T03:19:54Z</time><extensions><speed>1.220234</speed><course>69.309184</course><hAcc>1.944051</hAcc><vAcc>1.144542</vAcc></extensions></trkpt>
      <trkpt lon="-117.164764" lat="32.896405"><ele>75.775209</ele><time>2025-03-03T03:19:55Z</time><extensions><speed>1.191708</speed><course>69.816627</course><hAcc>1.944699</hAcc><vAcc>1.140809</vAcc></extensions></trkpt>
      <trkpt lon="-117.164753" lat="32.896409"><ele>75.820327</ele><time>2025-03-03T03:19:56Z</time><extensions><speed>1.154088</speed><course>69.333592</course><hAcc>1.940188</hAcc><vAcc>1.136752</vAcc></extensions></trkpt>
      <trkpt lon="-117.164742" lat="32.896413"><ele>75.853495</ele><time>2025-03-03T03:19:57Z</time><extensions><speed>1.103297</speed><course>69.113702</course><hAcc>1.950730</hAcc><vAcc>1.133662</vAcc></extensions></trkpt>
      <trkpt lon="-117.164731" lat="32.896416"><ele>75.864405</ele><time>2025-03-03T03:19:58Z</time><extensions><speed>1.029096</speed><course>69.143500</course><hAcc>1.961465</hAcc><vAcc>1.129796</vAcc></extensions></trkpt>
      <trkpt lon="-117.164722" lat="32.896418"><ele>75.871563</ele><time>2025-03-03T03:19:59Z</time><extensions><speed>0.889741</speed><course>75.403930</course><hAcc>1.946464</hAcc><vAcc>1.125078</vAcc></extensions></trkpt>
      <trkpt lon="-117.164714" lat="32.896419"><ele>75.866445</ele><time>2025-03-03T03:20:00Z</time><extensions><speed>0.751388</speed><course>84.637306</course><hAcc>1.947290</hAcc><vAcc>1.121078</vAcc></extensions></trkpt>
      <trkpt lon="-117.164706" lat="32.896420"><ele>75.872992</ele><time>2025-03-03T03:20:01Z</time><extensions><speed>0.660771</speed><course>86.313301</course><hAcc>1.962885</hAcc><vAcc>1.117201</vAcc></extensions></trkpt>
      <trkpt lon="-117.164699" lat="32.896420"><ele>75.857338</ele><time>2025-03-03T03:20:02Z</time><extensions><speed>0.718487</speed><course>81.843141</course><hAcc>1.981331</hAcc><vAcc>1.112504</vAcc></extensions></trkpt>
      <trkpt lon="-117.164692" lat="32.896421"><ele>75.840600</ele><time>2025-03-03T03:20:03Z</time><extensions><speed>0.577564</speed><course>77.828809</course><hAcc>1.989285</hAcc><vAcc>1.106047</vAcc></extensions></trkpt>
      <trkpt lon="-117.164689" lat="32.896422"><ele>75.817634</ele><time>2025-03-03T03:20:04Z</time><extensions><speed>0.198655</speed><course>93.309207</course><hAcc>1.981507</hAcc><vAcc>1.098804</vAcc></extensions></trkpt>
      <trkpt lon="-117.164688" lat="32.896421"><ele>75.776626</ele><time>2025-03-03T03:20:05Z</time><extensions><speed>0.167101</speed><course>222.473137</course><hAcc>2.001657</hAcc><vAcc>1.093061</vAcc></extensions></trkpt>
      <trkpt lon="-117.164690" lat="32.896420"><ele>75.724126</ele><time>2025-03-03T03:20:06Z</time><extensions><speed>0.288772</speed><course>234.410612</course><hAcc>2.025868</hAcc><vAcc>1.086671</vAcc></extensions></trkpt>
      <trkpt lon="-117.164694" lat="32.896418"><ele>75.667771</ele><time>2025-03-03T03:20:07Z</time><extensions><speed>0.416674</speed><course>238.145488</course><hAcc>2.047269</hAcc><vAcc>1.081039</vAcc></extensions></trkpt>
      <trkpt lon="-117.164698" lat="32.896415"><ele>75.627495</ele><time>2025-03-03T03:20:08Z</time><extensions><speed>0.529292</speed><course>241.344332</course><hAcc>2.076011</hAcc><vAcc>1.076018</vAcc></extensions></trkpt>
      <trkpt lon="-117.164704" lat="32.896413"><ele>75.571511</ele><time>2025-03-03T03:20:09Z</time><extensions><speed>0.573161</speed><course>245.201147</course><hAcc>2.095570</hAcc><vAcc>1.071457</vAcc></extensions></trkpt>
      <trkpt lon="-117.164710" lat="32.896410"><ele>75.498265</ele><time>2025-03-03T03:20:10Z</time><extensions><speed>0.626563</speed><course>252.121601</course><hAcc>2.096228</hAcc><vAcc>1.066670</vAcc></extensions></trkpt>
      <trkpt lon="-117.164717" lat="32.896408"><ele>75.412914</ele><time>2025-03-03T03:20:11Z</time><extensions><speed>0.697540</speed><course>248.212978</course><hAcc>2.082429</hAcc><vAcc>1.061275</vAcc></extensions></trkpt>
      <trkpt lon="-117.164724" lat="32.896405"><ele>75.324179</ele><time>2025-03-03T03:20:12Z</time><extensions><speed>0.755665</speed><course>245.334373</course><hAcc>2.065090</hAcc><vAcc>1.055004</vAcc></extensions></trkpt>
      <trkpt lon="-117.164732" lat="32.896401"><ele>75.236162</ele><time>2025-03-03T03:20:13Z</time><extensions><speed>0.760356</speed><course>241.074923</course><hAcc>2.051792</hAcc><vAcc>1.050041</vAcc></extensions></trkpt>
      <trkpt lon="-117.164739" lat="32.896398"><ele>75.132929</ele><time>2025-03-03T03:20:14Z</time><extensions><speed>0.839456</speed><course>243.564568</course><hAcc>2.025523</hAcc><vAcc>1.044902</vAcc></extensions></trkpt>
      <trkpt lon="-117.164749" lat="32.896394"><ele>75.018001</ele><time>2025-03-03T03:20:15Z</time><extensions><speed>0.971963</speed><course>251.603007</course><hAcc>2.001175</hAcc><vAcc>1.040447</vAcc></extensions></trkpt>
      <trkpt lon="-117.164759" lat="32.896391"><ele>74.913220</ele><time>2025-03-03T03:20:16Z</time><extensions><speed>1.039031</speed><course>252.245083</course><hAcc>1.995297</hAcc><vAcc>1.037541</vAcc></extensions></trkpt>
      <trkpt lon="-117.164770" lat="32.896388"><ele>74.810439</ele><time>2025-03-03T03:20:17Z</time><extensions><speed>1.111785</speed><course>256.314826</course><hAcc>1.998129</hAcc><vAcc>1.034827</vAcc></extensions></trkpt>
      <trkpt lon="-117.164783" lat="32.896384"><ele>74.706864</ele><time>2025-03-03T03:20:18Z</time><extensions><speed>1.264062</speed><course>253.345648</course><hAcc>1.986420</hAcc><vAcc>1.033336</vAcc></extensions></trkpt>
      <trkpt lon="-117.164796" lat="32.896380"><ele>74.616056</ele><time>2025-03-03T03:20:19Z</time><extensions><speed>1.218576</speed><course>249.455456</course><hAcc>1.990903</hAcc><vAcc>1.032217</vAcc></extensions></trkpt>
      <trkpt lon="-117.164808" lat="32.896375"><ele>74.532331</ele><time>2025-03-03T03:20:20Z</time><extensions><speed>1.225167</speed><course>241.559137</course><hAcc>1.977200</hAcc><vAcc>1.032611</vAcc></extensions></trkpt>
      <trkpt lon="-117.164819" lat="32.896369"><ele>74.447719</ele><time>2025-03-03T03:20:21Z</time><extensions><speed>1.249739</speed><course>232.552882</course><hAcc>1.955251</hAcc><vAcc>1.033266</vAcc></extensions></trkpt>
      <trkpt lon="-117.164829" lat="32.896362"><ele>74.375733</ele><time>2025-03-03T03:20:22Z</time><extensions><speed>1.215409</speed><course>230.322318</course><hAcc>1.957718</hAcc><vAcc>1.034416</vAcc></extensions></trkpt>
      <trkpt lon="-117.164839" lat="32.896354"><ele>74.309884</ele><time>2025-03-03T03:20:23Z</time><extensions><speed>1.211041</speed><course>229.869296</course><hAcc>1.970201</hAcc><vAcc>1.036282</vAcc></extensions></trkpt>
      <trkpt lon="-117.164850" lat="32.896348"><ele>74.248184</ele><time>2025-03-03T03:20:24Z</time><extensions><speed>1.211927</speed><course>233.279036</course><hAcc>1.996795</hAcc><vAcc>1.039055</vAcc></extensions></trkpt>
      <trkpt lon="-117.164860" lat="32.896342"><ele>74.190401</ele><time>2025-03-03T03:20:25Z</time><extensions><speed>1.097225</speed><course>236.824919</course><hAcc>2.032974</hAcc><vAcc>1.042946</vAcc></extensions></trkpt>
      <trkpt lon="-117.164869" lat="32.896335"><ele>74.139445</ele><time>2025-03-03T03:20:26Z</time><extensions><speed>1.088715</speed><course>224.027079</course><hAcc>2.029964</hAcc><vAcc>1.047358</vAcc></extensions></trkpt>
      <trkpt lon="-117.164876" lat="32.896328"><ele>74.093059</ele><time>2025-03-03T03:20:27Z</time><extensions><speed>1.004208</speed><course>212.067049</course><hAcc>2.038964</hAcc><vAcc>1.051853</vAcc></extensions></trkpt>
      <trkpt lon="-117.164881" lat="32.896321"><ele>74.051002</ele><time>2025-03-03T03:20:28Z</time><extensions><speed>0.928369</speed><course>205.458264</course><hAcc>2.050534</hAcc><vAcc>1.056495</vAcc></extensions></trkpt>
      <trkpt lon="-117.164885" lat="32.896314"><ele>74.012629</ele><time>2025-03-03T03:20:29Z</time><extensions><speed>0.896599</speed><course>205.140989</course><hAcc>2.057889</hAcc><vAcc>1.060968</vAcc></extensions></trkpt>
      <trkpt lon="-117.164889" lat="32.896307"><ele>73.986417</ele><time>2025-03-03T03:20:30Z</time><extensions><speed>0.771908</speed><course>209.791646</course><hAcc>2.069902</hAcc><vAcc>1.065995</vAcc></extensions></trkpt>
      <trkpt lon="-117.164893" lat="32.896303"><ele>73.956211</ele><time>2025-03-03T03:20:31Z</time><extensions><speed>0.555515</speed><course>219.378810</course><hAcc>2.075684</hAcc><vAcc>1.070717</vAcc></extensions></trkpt>
      <trkpt lon="-117.164897" lat="32.896300"><ele>73.928097</ele><time>2025-03-03T03:20:32Z</time><extensions><speed>0.395565</speed><course>237.079960</course><hAcc>2.080411</hAcc><vAcc>1.073471</vAcc></extensions></trkpt>
      <trkpt lon="-117.164900" lat="32.896300"><ele>73.897782</ele><time>2025-03-03T03:20:33Z</time><extensions><speed>0.285614</speed><course>271.924955</course><hAcc>2.087747</hAcc><vAcc>1.075506</vAcc></extensions></trkpt>
      <trkpt lon="-117.164903" lat="32.896301"><ele>73.873818</ele><time>2025-03-03T03:20:34Z</time><extensions><speed>0.307466</speed><course>302.430995</course><hAcc>2.094665</hAcc><vAcc>1.077356</vAcc></extensions></trkpt>
      <trkpt lon="-117.164906" lat="32.896304"><ele>73.853635</ele><time>2025-03-03T03:20:35Z</time><extensions><speed>0.385821</speed><course>329.219552</course><hAcc>2.114168</hAcc><vAcc>1.081129</vAcc></extensions></trkpt>
      <trkpt lon="-117.164908" lat="32.896308"><ele>73.816072</ele><time>2025-03-03T03:20:36Z</time><extensions><speed>0.505051</speed><course>339.400917</course><hAcc>2.117352</hAcc><vAcc>1.085056</vAcc></extensions></trkpt>
      <trkpt lon="-117.164910" lat="32.896313"><ele>73.790248</ele><time>2025-03-03T03:20:37Z</time><extensions><speed>0.691616</speed><course>343.222286</course><hAcc>2.093686</hAcc><vAcc>1.089386</vAcc></extensions></trkpt>
      <trkpt lon="-117.164912" lat="32.896320"><ele>73.760330</ele><time>2025-03-03T03:20:38Z</time><extensions><speed>0.815997</speed><course>347.343300</course><hAcc>2.082938</hAcc><vAcc>1.093586</vAcc></extensions></trkpt>
      <trkpt lon="-117.164914" lat="32.896328"><ele>73.744711</ele><time>2025-03-03T03:20:39Z</time><extensions><speed>0.898532</speed><course>350.442301</course><hAcc>2.082974</hAcc><vAcc>1.098905</vAcc></extensions></trkpt>
      <trkpt lon="-117.164915" lat="32.896337"><ele>73.722201</ele><time>2025-03-03T03:20:40Z</time><extensions><speed>0.944646</speed><course>352.285943</course><hAcc>2.081061</hAcc><vAcc>1.104042</vAcc></extensions></trkpt>
      <trkpt lon="-117.164916" lat="32.896346"><ele>73.700717</ele><time>2025-03-03T03:20:41Z</time><extensions><speed>0.983500</speed><course>353.166429</course><hAcc>2.068190</hAcc><vAcc>1.109139</vAcc></extensions></trkpt>
      <trkpt lon="-117.164918" lat="32.896355"><ele>73.692731</ele><time>2025-03-03T03:20:42Z</time><extensions><speed>1.032297</speed><course>353.292966</course><hAcc>2.046148</hAcc><vAcc>1.115275</vAcc></extensions></trkpt>
      <trkpt lon="-117.164919" lat="32.896365"><ele>73.694098</ele><time>2025-03-03T03:20:43Z</time><extensions><speed>1.107136</speed><course>351.918208</course><hAcc>2.025102</hAcc><vAcc>1.123021</vAcc></extensions></trkpt>
      <trkpt lon="-117.164921" lat="32.896375"><ele>73.697483</ele><time>2025-03-03T03:20:44Z</time><extensions><speed>1.262538</speed><course>348.073056</course><hAcc>2.023791</hAcc><vAcc>1.127824</vAcc></extensions></trkpt>
      <trkpt lon="-117.164923" lat="32.896387"><ele>73.676886</ele><time>2025-03-03T03:20:45Z</time><extensions><speed>1.232995</speed><course>350.128265</course><hAcc>2.047195</hAcc><vAcc>1.135452</vAcc></extensions></trkpt>
      <trkpt lon="-117.164925" lat="32.896398"><ele>73.665480</ele><time>2025-03-03T03:20:46Z</time><extensions><speed>1.318253</speed><course>352.952158</course><hAcc>2.027491</hAcc><vAcc>1.141064</vAcc></extensions></trkpt>
      <trkpt lon="-117.164927" lat="32.896410"><ele>73.684391</ele><time>2025-03-03T03:20:47Z</time><extensions><speed>1.306610</speed><course>355.293258</course><hAcc>2.014246</hAcc><vAcc>1.144998</vAcc></extensions></trkpt>
      <trkpt lon="-117.164928" lat="32.896422"><ele>73.723340</ele><time>2025-03-03T03:20:48Z</time><extensions><speed>1.298571</speed><course>357.692342</course><hAcc>2.004963</hAcc><vAcc>1.149656</vAcc></extensions></trkpt>
      <trkpt lon="-117.164929" lat="32.896433"><ele>73.757218</ele><time>2025-03-03T03:20:49Z</time><extensions><speed>1.299447</speed><course>357.717801</course><hAcc>2.007525</hAcc><vAcc>1.154314</vAcc></extensions></trkpt>
      <trkpt lon="-117.164930" lat="32.896445"><ele>73.807702</ele><time>2025-03-03T03:20:50Z</time><extensions><speed>1.269665</speed><course>359.226742</course><hAcc>2.009887</hAcc><vAcc>1.159405</vAcc></extensions></trkpt>
      <trkpt lon="-117.164930" lat="32.896457"><ele>73.854800</ele><time>2025-03-03T03:20:51Z</time><extensions><speed>1.265614</speed><course>0.738132</course><hAcc>2.027662</hAcc><vAcc>1.162582</vAcc></extensions></trkpt>
      <trkpt lon="-117.164929" lat="32.896468"><ele>73.883452</ele><time>2025-03-03T03:20:52Z</time><extensions><speed>1.257638</speed><course>3.899217</course><hAcc>2.046085</hAcc><vAcc>1.159971</vAcc></extensions></trkpt>
      <trkpt lon="-117.164928" lat="32.896479"><ele>73.862970</ele><time>2025-03-03T03:20:53Z</time><extensions><speed>1.118712</speed><course>7.577980</course><hAcc>2.057774</hAcc><vAcc>1.141452</vAcc></extensions></trkpt>
      <trkpt lon="-117.164927" lat="32.896487"><ele>73.833957</ele><time>2025-03-03T03:20:54Z</time><extensions><speed>0.815940</speed><course>8.324330</course><hAcc>2.066294</hAcc><vAcc>1.126542</vAcc></extensions></trkpt>
      <trkpt lon="-117.164926" lat="32.896494"><ele>73.787165</ele><time>2025-03-03T03:20:55Z</time><extensions><speed>0.585235</speed><course>3.955545</course><hAcc>2.087763</hAcc><vAcc>1.105545</vAcc></extensions></trkpt>
      <trkpt lon="-117.164926" lat="32.896498"><ele>73.716661</ele><time>2025-03-03T03:20:56Z</time><extensions><speed>0.352295</speed><course>347.660991</course><hAcc>2.114009</hAcc><vAcc>1.085374</vAcc></extensions></trkpt>
      <trkpt lon="-117.164927" lat="32.896501"><ele>73.655250</ele><time>2025-03-03T03:20:57Z</time><extensions><speed>0.323464</speed><course>333.621304</course><hAcc>2.127518</hAcc><vAcc>1.064570</vAcc></extensions></trkpt>
      <trkpt lon="-117.164929" lat="32.896503"><ele>73.590310</ele><time>2025-03-03T03:20:58Z</time><extensions><speed>0.290343</speed><course>326.290933</course><hAcc>2.162481</hAcc><vAcc>1.042413</vAcc></extensions></trkpt>
      <trkpt lon="-117.164931" lat="32.896504"><ele>73.516430</ele><time>2025-03-03T03:20:59Z</time><extensions><speed>0.205899</speed><course>318.534145</course><hAcc>2.211680</hAcc><vAcc>1.018578</vAcc></extensions></trkpt>
      <trkpt lon="-117.164933" lat="32.896506"><ele>73.427052</ele><time>2025-03-03T03:21:00Z</time><extensions><speed>0.191631</speed><course>327.838412</course><hAcc>2.235049</hAcc><vAcc>0.993038</vAcc></extensions></trkpt>
      <trkpt lon="-117.164934" lat="32.896507"><ele>73.330888</ele><time>2025-03-03T03:21:01Z</time><extensions><speed>0.115400</speed><course>324.336450</course><hAcc>2.305937</hAcc><vAcc>0.966068</vAcc></extensions></trkpt>
      <trkpt lon="-117.164935" lat="32.896507"><ele>73.224300</ele><time>2025-03-03T03:21:02Z</time><extensions><speed>0.023708</speed><course>286.400446</course><hAcc>2.391961</hAcc><vAcc>0.938251</vAcc></extensions></trkpt>
      <trkpt lon="-117.164935" lat="32.896507"><ele>73.109014</ele><time>2025-03-03T03:21:03Z</time><extensions><speed>0.043816</speed><course>168.600498</course><hAcc>2.367280</hAcc><vAcc>0.910459</vAcc></extensions></trkpt>
      <trkpt lon="-117.164935" lat="32.896506"><ele>72.986116</ele><time>2025-03-03T03:21:04Z</time><extensions><speed>0.132965</speed><course>165.735780</course><hAcc>2.392698</hAcc><vAcc>0.883697</vAcc></extensions></trkpt>
      <trkpt lon="-117.164936" lat="32.896505"><ele>72.855530</ele><time>2025-03-03T03:21:05Z</time><extensions><speed>0.240061</speed><course>194.914313</course><hAcc>2.485447</hAcc><vAcc>0.858902</vAcc></extensions></trkpt>
      <trkpt lon="-117.164938" lat="32.896502"><ele>72.718664</ele><time>2025-03-03T03:21:06Z</time><extensions><speed>0.419789</speed><course>217.893143</course><hAcc>2.581556</hAcc><vAcc>0.836812</vAcc></extensions></trkpt>
      <trkpt lon="-117.164942" lat="32.896498"><ele>72.580268</ele><time>2025-03-03T03:21:07Z</time><extensions><speed>0.682430</speed><course>231.848208</course><hAcc>2.603696</hAcc><vAcc>0.817863</vAcc></extensions></trkpt>
      <trkpt lon="-117.164949" lat="32.896494"><ele>72.442973</ele><time>2025-03-03T03:21:08Z</time><extensions><speed>0.947278</speed><course>236.642365</course><hAcc>2.619438</hAcc><vAcc>0.802238</vAcc></extensions></trkpt>
      <trkpt lon="-117.164958" lat="32.896490"><ele>72.307370</ele><time>2025-03-03T03:21:09Z</time><extensions><speed>1.127211</speed><course>242.509591</course><hAcc>2.647689</hAcc><vAcc>0.789753</vAcc></extensions></trkpt>
      <trkpt lon="-117.164970" lat="32.896485"><ele>72.175964</ele><time>2025-03-03T03:21:10Z</time><extensions><speed>1.286549</speed><course>245.195170</course><hAcc>2.668388</hAcc><vAcc>0.780106</vAcc></extensions></trkpt>
      <trkpt lon="-117.164983" lat="32.896480"><ele>72.050313</ele><time>2025-03-03T03:21:11Z</time><extensions><speed>1.418359</speed><course>246.093491</course><hAcc>2.685589</hAcc><vAcc>0.772899</vAcc></extensions></trkpt>
      <trkpt lon="-117.164997" lat="32.896475"><ele>71.929754</ele><time>2025-03-03T03:21:12Z</time><extensions><speed>1.482695</speed><course>245.590803</course><hAcc>2.724707</hAcc><vAcc>0.772455</vAcc></extensions></trkpt>
      <trkpt lon="-117.165011" lat="32.896469"><ele>71.814038</ele><time>2025-03-03T03:21:13Z</time><extensions><speed>1.459970</speed><course>243.570124</course><hAcc>2.802543</hAcc><vAcc>0.777251</vAcc></extensions></trkpt>
      <trkpt lon="-117.165024" lat="32.896463"><ele>71.703478</ele><time>2025-03-03T03:21:14Z</time><extensions><speed>1.299765</speed><course>240.204848</course><hAcc>2.903048</hAcc><vAcc>0.789115</vAcc></extensions></trkpt>
      <trkpt lon="-117.165035" lat="32.896458"><ele>71.598118</ele><time>2025-03-03T03:21:15Z</time><extensions><speed>0.999384</speed><course>236.313579</course><hAcc>3.037369</hAcc><vAcc>0.810616</vAcc></extensions></trkpt>
      <trkpt lon="-117.165042" lat="32.896453"><ele>71.497763</ele><time>2025-03-03T03:21:16Z</time><extensions><speed>0.635413</speed><course>230.243906</course><hAcc>3.231018</hAcc><vAcc>0.844984</vAcc></extensions></trkpt>
      <trkpt lon="-117.165045" lat="32.896451"><ele>71.401971</ele><time>2025-03-03T03:21:17Z</time><extensions><speed>0.219035</speed><course>216.134880</course><hAcc>3.458594</hAcc><vAcc>0.895842</vAcc></extensions></trkpt>
      <trkpt lon="-117.165045" lat="32.896449"><ele>71.306125</ele><time>2025-03-03T03:21:18Z</time><extensions><speed>0.090517</speed><course>142.049948</course><hAcc>3.710471</hAcc><vAcc>0.970195</vAcc></extensions></trkpt>
      <trkpt lon="-117.165044" lat="32.896449"><ele>71.217604</ele><time>2025-03-03T03:21:19Z</time><extensions><speed>0.134397</speed><course>100.159291</course><hAcc>4.068792</hAcc><vAcc>1.064965</vAcc></extensions></trkpt>
      <trkpt lon="-117.165043" lat="32.896449"><ele>71.131115</ele><time>2025-03-03T03:21:20Z</time><extensions><speed>0.152216</speed><course>92.567760</course><hAcc>4.651165</hAcc><vAcc>1.185303</vAcc></extensions></trkpt>
      <trkpt lon="-117.165041" lat="32.896449"><ele>71.045772</ele><time>2025-03-03T03:21:21Z</time><extensions><speed>0.148328</speed><course>91.292743</course><hAcc>5.565448</hAcc><vAcc>1.332187</vAcc></extensions></trkpt>
    </trkseg>
  </trk>
</gpx>