<?xml version="1.0" encoding="UTF-8"?>
<gpx version="1.1" creator="Apple Health Export" xmlns="http://www.topografix.com/GPX/1/1" xmlns:xsi="http://www.w3.org/2001/XMLSchema-instance" xsi:schemaLocation="http://www.topografix.com/GPX/1/1 http://www.topografix.com/GPX/1/1/gpx.xsd">
  <metadata>
    <time>2026-01-11T07:58:11Z</time>
  </metadata>
  <trk>
    <name>Route 2025-04-22 7:17pm</name>
    <trkseg>
      <trkpt lon="-117.331985" lat="33.980424"><ele>317.142834</ele><time>2025-04-23T02:15:18Z</time><extensions><speed>0.051900</speed><course>264.204315</course><hAcc>5.170090</hAcc><vAcc>3.182930</vAcc></extensions></trkpt>
      <trkpt lon="-117.331999" lat="33.980423"><ele>317.088850</ele><time>2025-04-23T02:15:19Z</time><extensions><speed>0.051199</speed><course>264.632872</course><hAcc>4.491398</hAcc><vAcc>2.828737</vAcc></extensions></trkpt>
      <trkpt lon="-117.332008" lat="33.980423"><ele>317.040558</ele><time>2025-04-23T02:15:20Z</time><extensions><speed>0.067955</speed><course>265.605300</course><hAcc>4.069801</hAcc><vAcc>2.514488</vAcc></extensions></trkpt>
      <trkpt lon="-117.332014" lat="33.980423"><ele>316.993494</ele><time>2025-04-23T02:15:21Z</time><extensions><speed>0.108021</speed><course>267.699662</course><hAcc>3.689729</hAcc><vAcc>2.233525</vAcc></extensions></trkpt>
      <trkpt lon="-117.332019" lat="33.980423"><ele>316.949756</ele><time>2025-04-23T02:15:22Z</time><extensions><speed>0.123961</speed><course>273.431209</course><hAcc>3.308821</hAcc><vAcc>1.982099</vAcc></extensions></trkpt>
      <trkpt lon="-117.332023" lat="33.980422"><ele>316.906892</ele><time>2025-04-23T02:15:23Z</time><extensions><speed>0.097101</speed><course>302.231836</course><hAcc>2.898919</hAcc><vAcc>1.758028</vAcc></extensions></trkpt>
      <trkpt lon="-117.332024" lat="33.980423"><ele>316.867341</ele><time>2025-04-23T02:15:24Z</time><extensions><speed>0.254354</speed><course>54.687732</course><hAcc>2.573989</hAcc><vAcc>1.560251</vAcc></extensions></trkpt>
      <trkpt lon="-117.332019" lat="33.980425"><ele>316.826765</ele><time>2025-04-23T02:15:25Z</time><extensions><speed>1.115140</speed><course>68.493755</course><hAcc>2.425756</hAcc><vAcc>1.388770</vAcc></extensions></trkpt>
      <trkpt lon="-117.332008" lat="33.980429"><ele>316.786527</ele><time>2025-04-23T02:15:26Z</time><extensions><speed>1.342304</speed><course>65.924284</course><hAcc>2.311708</hAcc><vAcc>1.244297</vAcc></extensions></trkpt>
      <trkpt lon="-117.331989" lat="33.980437"><ele>316.725028</ele><time>2025-04-23T02:15:28Z</time><extensions><speed>1.329024</speed><course>59.931372</course><hAcc>2.105617</hAcc><vAcc>1.068079</vAcc></extensions></trkpt>
      <trkpt lon="-117.331980" lat="33.980444"><ele>316.687296</ele><time>2025-04-23T02:15:29Z</time><extensions><speed>1.009401</speed><course>33.474345</course><hAcc>2.009716</hAcc><vAcc>0.979623</vAcc></extensions></trkpt>
      <trkpt lon="-117.331975" lat="33.980452"><ele>316.652816</ele><time>2025-04-23T02:15:30Z</time><extensions><speed>0.985452</speed><course>25.178107</course><hAcc>1.925713</hAcc><vAcc>0.912000</vAcc></extensions></trkpt>
      <trkpt lon="-117.331971" lat="33.980461"><ele>316.622285</ele><time>2025-04-23T02:15:31Z</time><extensions><speed>0.996101</speed><course>21.146402</course><hAcc>1.825582</hAcc><vAcc>0.862135</vAcc></extensions></trkpt>
      <trkpt lon="-117.331967" lat="33.980469"><ele>316.596298</ele><time>2025-04-23T02:15:32Z</time><extensions><speed>1.039744</speed><course>21.225546</course><hAcc>1.734421</hAcc><vAcc>0.826725</vAcc></extensions></trkpt>
      <trkpt lon="-117.331962" lat="33.980478"><ele>316.575056</ele><time>2025-04-23T02:15:33Z</time><extensions><speed>1.062250</speed><course>25.932120</course><hAcc>1.687715</hAcc><vAcc>0.802527</vAcc></extensions></trkpt>
      <trkpt lon="-117.331957" lat="33.980486"><ele>316.558233</ele><time>2025-04-23T02:15:34Z</time><extensions><speed>0.980957</speed><course>32.720182</course><hAcc>1.623624</hAcc><vAcc>0.786616</vAcc></extensions></trkpt>
      <trkpt lon="-117.331952" lat="33.980494"><ele>316.546423</ele><time>2025-04-23T02:15:35Z</time><extensions><speed>0.940357</speed><course>35.267193</course><hAcc>1.573962</hAcc><vAcc>0.776544</vAcc></extensions></trkpt>
      <trkpt lon="-117.331946" lat="33.980500"><ele>316.539802</ele><time>2025-04-23T02:15:36Z</time><extensions><speed>0.867401</speed><course>38.353335</course><hAcc>1.540858</hAcc><vAcc>0.770395</vAcc></extensions></trkpt>
      <trkpt lon="-117.331939" lat="33.980506"><ele>316.536777</ele><time>2025-04-23T02:15:37Z</time><extensions><speed>0.880909</speed><course>48.075476</course><hAcc>1.511051</hAcc><vAcc>0.766752</vAcc></extensions></trkpt>
      <trkpt lon="-117.331932" lat="33.980512"><ele>316.539367</ele><time>2025-04-23T02:15:38Z</time><extensions><speed>0.994042</speed><course>53.514406</course><hAcc>1.495591</hAcc><vAcc>0.764626</vAcc></extensions></trkpt>
      <trkpt lon="-117.331923" lat="33.980517"><ele>316.548193</ele><time>2025-04-23T02:15:39Z</time><extensions><speed>1.018511</speed><course>59.517367</course><hAcc>1.462273</hAcc><vAcc>0.763356</vAcc></extensions></trkpt>
      <trkpt lon="-117.331913" lat="33.980522"><ele>316.563863</ele><time>2025-04-23T02:15:40Z</time><extensions><speed>1.109774</speed><course>59.354659</course><hAcc>1.462833</hAcc><vAcc>0.762531</vAcc></extensions></trkpt>
      <trkpt lon="-117.331901" lat="33.980528"><ele>316.612174</ele><time>2025-04-23T02:15:41Z</time><extensions><speed>1.123729</speed><course>51.940091</course><hAcc>1.395719</hAcc><vAcc>0.761908</vAcc></extensions></trkpt>
      <trkpt lon="-117.331892" lat="33.980535"><ele>316.665737</ele><time>2025-04-23T02:15:42Z</time><extensions><speed>1.073890</speed><course>44.307963</course><hAcc>1.361755</hAcc><vAcc>0.761359</vAcc></extensions></trkpt>
      <trkpt lon="-117.331884" lat="33.980542"><ele>316.715782</ele><time>2025-04-23T02:15:43Z</time><extensions><speed>1.061512</speed><course>36.638884</course><hAcc>1.351777</hAcc><vAcc>0.760830</vAcc></extensions></trkpt>
      <trkpt lon="-117.331876" lat="33.980549"><ele>316.767279</ele><time>2025-04-23T02:15:44Z</time><extensions><speed>1.064912</speed><course>50.728872</course><hAcc>1.339446</hAcc><vAcc>0.760304</vAcc></extensions></trkpt>
      <trkpt lon="-117.331867" lat="33.980555"><ele>316.828183</ele><time>2025-04-23T02:15:45Z</time><extensions><speed>1.072286</speed><course>56.498864</course><hAcc>1.346656</hAcc><vAcc>0.759786</vAcc></extensions></trkpt>
      <trkpt lon="-117.331857" lat="33.980560"><ele>316.880558</ele><time>2025-04-23T02:15:46Z</time><extensions><speed>1.116693</speed><course>55.214098</course><hAcc>1.326392</hAcc><vAcc>0.759291</vAcc></extensions></trkpt>
      <trkpt lon="-117.331847" lat="33.980566"><ele>316.940236</ele><time>2025-04-23T02:15:47Z</time><extensions><speed>1.151662</speed><course>60.591339</course><hAcc>1.311974</hAcc><vAcc>0.758831</vAcc></extensions></trkpt>
      <trkpt lon="-117.331836" lat="33.980570"><ele>317.000468</ele><time>2025-04-23T02:15:48Z</time><extensions><speed>1.139972</speed><course>69.443877</course><hAcc>1.320253</hAcc><vAcc>0.758418</vAcc></extensions></trkpt>
      <trkpt lon="-117.331824" lat="33.980574"><ele>317.062458</ele><time>2025-04-23T02:15:49Z</time><extensions><speed>1.161395</speed><course>71.738676</course><hAcc>1.299108</hAcc><vAcc>0.758059</vAcc></extensions></trkpt>
      <trkpt lon="-117.331812" lat="33.980577"><ele>317.130267</ele><time>2025-04-23T02:15:50Z</time><extensions><speed>1.142201</speed><course>77.924817</course><hAcc>1.291853</hAcc><vAcc>0.757755</vAcc></extensions></trkpt>
      <trkpt lon="-117.331800" lat="33.980579"><ele>317.200355</ele><time>2025-04-23T02:15:51Z</time><extensions><speed>1.137055</speed><course>77.150138</course><hAcc>1.203352</hAcc><vAcc>0.757505</vAcc></extensions></trkpt>
      <trkpt lon="-117.331788" lat="33.980582"><ele>317.259019</ele><time>2025-04-23T02:15:52Z</time><extensions><speed>1.046415</speed><course>67.412272</course><hAcc>1.186409</hAcc><vAcc>0.757304</vAcc></extensions></trkpt>
      <trkpt lon="-117.331779" lat="33.980586"><ele>317.322529</ele><time>2025-04-23T02:15:53Z</time><extensions><speed>0.977514</speed><course>58.350249</course><hAcc>1.239967</hAcc><vAcc>0.757148</vAcc></extensions></trkpt>
      <trkpt lon="-117.331769" lat="33.980591"><ele>317.377315</ele><time>2025-04-23T02:15:54Z</time><extensions><speed>1.157917</speed><course>56.968199</course><hAcc>1.283309</hAcc><vAcc>0.757029</vAcc></extensions></trkpt>
      <trkpt lon="-117.331758" lat="33.980598"><ele>317.427929</ele><time>2025-04-23T02:15:55Z</time><extensions><speed>1.390864</speed><course>54.641324</course><hAcc>1.291563</hAcc><vAcc>0.756982</vAcc></extensions></trkpt>
      <trkpt lon="-117.331746" lat="33.980606"><ele>317.481336</ele><time>2025-04-23T02:15:56Z</time><extensions><speed>1.425982</speed><course>46.674444</course><hAcc>1.280597</hAcc><vAcc>0.757768</vAcc></extensions></trkpt>
      <trkpt lon="-117.331735" lat="33.980615"><ele>317.532786</ele><time>2025-04-23T02:15:57Z</time><extensions><speed>1.494134</speed><course>39.980192</course><hAcc>1.283660</hAcc><vAcc>0.758959</vAcc></extensions></trkpt>
      <trkpt lon="-117.331726" lat="33.980625"><ele>317.584007</ele><time>2025-04-23T02:15:58Z</time><extensions><speed>1.341647</speed><course>36.962108</course><hAcc>1.286673</hAcc><vAcc>0.760363</vAcc></extensions></trkpt>
      <trkpt lon="-117.331718" lat="33.980634"><ele>317.621693</ele><time>2025-04-23T02:15:59Z</time><extensions><speed>1.057587</speed><course>36.659561</course><hAcc>1.294526</hAcc><vAcc>0.762071</vAcc></extensions></trkpt>
      <trkpt lon="-117.331712" lat="33.980642"><ele>317.658912</ele><time>2025-04-23T02:16:00Z</time><extensions><speed>1.011176</speed><course>26.109250</course><hAcc>1.287091</hAcc><vAcc>0.764455</vAcc></extensions></trkpt>
      <trkpt lon="-117.331707" lat="33.980650"><ele>317.690949</ele><time>2025-04-23T02:16:01Z</time><extensions><speed>1.071384</speed><course>25.204543</course><hAcc>1.283387</hAcc><vAcc>0.767204</vAcc></extensions></trkpt>
      <trkpt lon="-117.331702" lat="33.980659"><ele>317.729577</ele><time>2025-04-23T02:16:02Z</time><extensions><speed>1.125649</speed><course>25.730536</course><hAcc>1.287510</hAcc><vAcc>0.770148</vAcc></extensions></trkpt>
      <trkpt lon="-117.331698" lat="33.980668"><ele>317.776898</ele><time>2025-04-23T02:16:03Z</time><extensions><speed>1.064761</speed><course>19.935495</course><hAcc>1.294154</hAcc><vAcc>0.773164</vAcc></extensions></trkpt>
      <trkpt lon="-117.331695" lat="33.980678"><ele>317.828906</ele><time>2025-04-23T02:16:04Z</time><extensions><speed>1.077476</speed><course>6.406519</course><hAcc>1.295213</hAcc><vAcc>0.776479</vAcc></extensions></trkpt>
      <trkpt lon="-117.331695" lat="33.980688"><ele>317.874409</ele><time>2025-04-23T02:16:05Z</time><extensions><speed>1.237347</speed><course>0.378894</course><hAcc>1.311035</hAcc><vAcc>0.779661</vAcc></extensions></trkpt>
      <trkpt lon="-117.331695" lat="33.980699"><ele>317.919562</ele><time>2025-04-23T02:16:06Z</time><extensions><speed>1.153418</speed><course>356.240823</course><hAcc>1.355725</hAcc><vAcc>0.782238</vAcc></extensions></trkpt>
      <trkpt lon="-117.331697" lat="33.980709"><ele>317.964450</ele><time>2025-04-23T02:16:07Z</time><extensions><speed>1.045129</speed><course>346.247039</course><hAcc>1.336958</hAcc><vAcc>0.784162</vAcc></extensions></trkpt>
      <trkpt lon="-117.331699" lat="33.980717"><ele>318.001789</ele><time>2025-04-23T02:16:08Z</time><extensions><speed>0.985386</speed><course>345.453612</course><hAcc>1.326679</hAcc><vAcc>0.785256</vAcc></extensions></trkpt>
      <trkpt lon="-117.331702" lat="33.980726"><ele>318.041542</ele><time>2025-04-23T02:16:09Z</time><extensions><speed>1.029873</speed><course>350.855607</course><hAcc>1.353028</hAcc><vAcc>0.785513</vAcc></extensions></trkpt>
      <trkpt lon="-117.331703" lat="33.980736"><ele>318.081499</ele><time>2025-04-23T02:16:10Z</time><extensions><speed>1.140834</speed><course>356.237628</course><hAcc>1.371189</hAcc><vAcc>0.785631</vAcc></extensions></trkpt>
      <trkpt lon="-117.331703" lat="33.980747"><ele>318.130902</ele><time>2025-04-23T02:16:11Z</time><extensions><speed>1.173285</speed><course>1.256325</course><hAcc>1.379142</hAcc><vAcc>0.784987</vAcc></extensions></trkpt>
      <trkpt lon="-117.331703" lat="33.980757"><ele>318.173430</ele><time>2025-04-23T02:16:12Z</time><extensions><speed>1.049264</speed><course>0.564407</course><hAcc>1.389903</hAcc><vAcc>0.783800</vAcc></extensions></trkpt>
      <trkpt lon="-117.331703" lat="33.980766"><ele>318.225214</ele><time>2025-04-23T02:16:13Z</time><extensions><speed>1.002743</speed><course>356.834801</course><hAcc>1.394170</hAcc><vAcc>0.782608</vAcc></extensions></trkpt>
      <trkpt lon="-117.331705" lat="33.980774"><ele>318.265648</ele><time>2025-04-23T02:16:14Z</time><extensions><speed>0.936541</speed><course>351.028570</course><hAcc>1.388245</hAcc><vAcc>0.781285</vAcc></extensions></trkpt>
      <trkpt lon="-117.331706" lat="33.980783"><ele>318.292978</ele><time>2025-04-23T02:16:15Z</time><extensions><speed>1.016006</speed><course>352.365361</course><hAcc>1.401782</hAcc><vAcc>0.780020</vAcc></extensions></trkpt>
      <trkpt lon="-117.331708" lat="33.980793"><ele>318.320544</ele><time>2025-04-23T02:16:16Z</time><extensions><speed>1.110449</speed><course>353.054287</course><hAcc>1.425461</hAcc><vAcc>0.779250</vAcc></extensions></trkpt>
      <trkpt lon="-117.331710" lat="33.980803"><ele>318.347268</ele><time>2025-04-23T02:16:17Z</time><extensions><speed>1.216494</speed><course>349.818977</course><hAcc>1.427086</hAcc><vAcc>0.778954</vAcc></extensions></trkpt>
      <trkpt lon="-117.331712" lat="33.980815"><ele>318.368476</ele><time>2025-04-23T02:16:18Z</time><extensions><speed>1.367716</speed><course>350.712533</course><hAcc>1.415392</hAcc><vAcc>0.779191</vAcc></extensions></trkpt>
      <trkpt lon="-117.331714" lat="33.980827"><ele>318.392610</ele><time>2025-04-23T02:16:19Z</time><extensions><speed>1.338557</speed><course>350.321304</course><hAcc>1.426132</hAcc><vAcc>0.780241</vAcc></extensions></trkpt>
      <trkpt lon="-117.331716" lat="33.980838"><ele>318.407427</ele><time>2025-04-23T02:16:20Z</time><extensions><speed>1.193953</speed><course>355.082549</course><hAcc>1.458732</hAcc><vAcc>0.781970</vAcc></extensions></trkpt>
      <trkpt lon="-117.331717" lat="33.980848"><ele>318.424614</ele><time>2025-04-23T02:16:21Z</time><extensions><speed>1.063484</speed><course>354.674206</course><hAcc>1.414242</hAcc><vAcc>0.784414</vAcc></extensions></trkpt>
      <trkpt lon="-117.331718" lat="33.980858"><ele>318.438073</ele><time>2025-04-23T02:16:22Z</time><extensions><speed>1.063890</speed><course>358.302870</course><hAcc>1.398349</hAcc><vAcc>0.786883</vAcc></extensions></trkpt>
      <trkpt lon="-117.331718" lat="33.980868"><ele>318.435092</ele><time>2025-04-23T02:16:23Z</time><extensions><speed>1.175408</speed><course>0.451600</course><hAcc>1.424717</hAcc><vAcc>0.790005</vAcc></extensions></trkpt>
      <trkpt lon="-117.331718" lat="33.980878"><ele>318.405481</ele><time>2025-04-23T02:16:24Z</time><extensions><speed>1.101503</speed><course>357.661765</course><hAcc>1.433684</hAcc><vAcc>0.793396</vAcc></extensions></trkpt>
      <trkpt lon="-117.331719" lat="33.980888"><ele>318.363474</ele><time>2025-04-23T02:16:25Z</time><extensions><speed>1.009638</speed><course>352.679811</course><hAcc>1.428135</hAcc><vAcc>0.797136</vAcc></extensions></trkpt>
      <trkpt lon="-117.331721" lat="33.980897"><ele>318.313499</ele><time>2025-04-23T02:16:26Z</time><extensions><speed>1.020179</speed><course>350.245128</course><hAcc>1.416896</hAcc><vAcc>0.801217</vAcc></extensions></trkpt>
      <trkpt lon="-117.331722" lat="33.980906"><ele>318.260723</ele><time>2025-04-23T02:16:27Z</time><extensions><speed>1.124528</speed><course>353.263556</course><hAcc>1.429719</hAcc><vAcc>0.805951</vAcc></extensions></trkpt>
      <trkpt lon="-117.331723" lat="33.980917"><ele>318.184269</ele><time>2025-04-23T02:16:28Z</time><extensions><speed>1.197269</speed><course>357.087772</course><hAcc>1.430032</hAcc><vAcc>0.810728</vAcc></extensions></trkpt>
      <trkpt lon="-117.331723" lat="33.980928"><ele>318.094007</ele><time>2025-04-23T02:16:29Z</time><extensions><speed>1.270886</speed><course>1.350414</course><hAcc>1.424009</hAcc><vAcc>0.814622</vAcc></extensions></trkpt>
      <trkpt lon="-117.331722" lat="33.980940"><ele>317.994900</ele><time>2025-04-23T02:16:30Z</time><extensions><speed>1.366689</speed><course>2.836363</course><hAcc>1.426024</hAcc><vAcc>0.818089</vAcc></extensions></trkpt>
      <trkpt lon="-117.331721" lat="33.980953"><ele>317.884625</ele><time>2025-04-23T02:16:31Z</time><extensions><speed>1.502051</speed><course>3.714528</course><hAcc>1.430336</hAcc><vAcc>0.821436</vAcc></extensions></trkpt>
      <trkpt lon="-117.331720" lat="33.980966"><ele>317.783774</ele><time>2025-04-23T02:16:32Z</time><extensions><speed>1.491672</speed><course>5.154184</course><hAcc>1.437735</hAcc><vAcc>0.824496</vAcc></extensions></trkpt>
      <trkpt lon="-117.331718" lat="33.980980"><ele>317.671425</ele><time>2025-04-23T02:16:33Z</time><extensions><speed>1.441340</speed><course>10.535530</course><hAcc>1.444990</hAcc><vAcc>0.827117</vAcc></extensions></trkpt>
      <trkpt lon="-117.331713" lat="33.980992"><ele>317.550115</ele><time>2025-04-23T02:16:34Z</time><extensions><speed>1.494772</speed><course>18.975518</course><hAcc>1.450664</hAcc><vAcc>0.828905</vAcc></extensions></trkpt>
      <trkpt lon="-117.331707" lat="33.981005"><ele>317.430296</ele><time>2025-04-23T02:16:35Z</time><extensions><speed>1.578385</speed><course>26.304549</course><hAcc>1.480037</hAcc><vAcc>0.830524</vAcc></extensions></trkpt>
      <trkpt lon="-117.331698" lat="33.981018"><ele>317.308904</ele><time>2025-04-23T02:16:36Z</time><extensions><speed>1.627312</speed><course>35.800845</course><hAcc>1.505509</hAcc><vAcc>0.832292</vAcc></extensions></trkpt>
      <trkpt lon="-117.331686" lat="33.981029"><ele>317.187017</ele><time>2025-04-23T02:16:37Z</time><extensions><speed>1.643581</speed><course>43.382748</course><hAcc>1.518897</hAcc><vAcc>0.834197</vAcc></extensions></trkpt>
      <trkpt lon="-117.331673" lat="33.981039"><ele>317.064417</ele><time>2025-04-23T02:16:38Z</time><extensions><speed>1.554739</speed><course>51.252687</course><hAcc>1.535869</hAcc><vAcc>0.837041</vAcc></extensions></trkpt>
      <trkpt lon="-117.331659" lat="33.981047"><ele>316.940032</ele><time>2025-04-23T02:16:39Z</time><extensions><speed>1.469831</speed><course>59.242089</course><hAcc>1.547698</hAcc><vAcc>0.841400</vAcc></extensions></trkpt>
      <trkpt lon="-117.331645" lat="33.981054"><ele>316.820901</ele><time>2025-04-23T02:16:40Z</time><extensions><speed>1.502971</speed><course>62.388124</course><hAcc>1.551824</hAcc><vAcc>0.846792</vAcc></extensions></trkpt>
      <trkpt lon="-117.331630" lat="33.981060"><ele>316.698171</ele><time>2025-04-23T02:16:41Z</time><extensions><speed>1.564538</speed><course>64.474208</course><hAcc>1.552556</hAcc><vAcc>0.853742</vAcc></extensions></trkpt>
      <trkpt lon="-117.331614" lat="33.981066"><ele>316.563405</ele><time>2025-04-23T02:16:42Z</time><extensions><speed>1.650410</speed><course>66.429016</course><hAcc>1.556043</hAcc><vAcc>0.862631</vAcc></extensions></trkpt>
      <trkpt lon="-117.331598" lat="33.981071"><ele>316.445067</ele><time>2025-04-23T02:16:43Z</time><extensions><speed>1.470904</speed><course>68.878557</course><hAcc>1.577152</hAcc><vAcc>0.874224</vAcc></extensions></trkpt>
      <trkpt lon="-117.331582" lat="33.981076"><ele>316.342029</ele><time>2025-04-23T02:16:44Z</time><extensions><speed>1.688799</speed><course>71.393048</course><hAcc>1.556758</hAcc><vAcc>0.887399</vAcc></extensions></trkpt>
      <trkpt lon="-117.331565" lat="33.981081"><ele>316.244386</ele><time>2025-04-23T02:16:45Z</time><extensions><speed>1.677209</speed><course>73.227585</course><hAcc>1.550722</hAcc><vAcc>0.901118</vAcc></extensions></trkpt>
      <trkpt lon="-117.331548" lat="33.981084"><ele>316.175830</ele><time>2025-04-23T02:16:46Z</time><extensions><speed>1.569858</speed><course>74.736403</course><hAcc>1.559196</hAcc><vAcc>0.912388</vAcc></extensions></trkpt>
      <trkpt lon="-117.331532" lat="33.981088"><ele>316.116519</ele><time>2025-04-23T02:16:47Z</time><extensions><speed>1.558585</speed><course>77.783357</course><hAcc>1.574094</hAcc><vAcc>0.923444</vAcc></extensions></trkpt>
      <trkpt lon="-117.331516" lat="33.981090"><ele>316.058148</ele><time>2025-04-23T02:16:48Z</time><extensions><speed>1.339775</speed><course>84.616589</course><hAcc>1.603131</hAcc><vAcc>0.935142</vAcc></extensions></trkpt>
      <trkpt lon="-117.331502" lat="33.981090"><ele>316.028413</ele><time>2025-04-23T02:16:49Z</time><extensions><speed>1.331652</speed><course>92.101453</course><hAcc>1.595186</hAcc><vAcc>0.945243</vAcc></extensions></trkpt>
      <trkpt lon="-117.331488" lat="33.981089"><ele>316.027565</ele><time>2025-04-23T02:16:50Z</time><extensions><speed>1.254545</speed><course>96.234707</course><hAcc>1.600632</hAcc><vAcc>0.953845</vAcc></extensions></trkpt>
      <trkpt lon="-117.331474" lat="33.981088"><ele>316.033852</ele><time>2025-04-23T02:16:51Z</time><extensions><speed>1.288254</speed><course>94.725443</course><hAcc>1.614029</hAcc><vAcc>0.961116</vAcc></extensions></trkpt>
      <trkpt lon="-117.331460" lat="33.981087"><ele>316.061888</ele><time>2025-04-23T02:16:52Z</time><extensions><speed>1.292431</speed><course>92.338972</course><hAcc>1.639269</hAcc><vAcc>0.968452</vAcc></extensions></trkpt>
      <trkpt lon="-117.331447" lat="33.981087"><ele>316.105483</ele><time>2025-04-23T02:16:53Z</time><extensions><speed>1.133453</speed><course>91.303231</course><hAcc>1.675700</hAcc><vAcc>0.973111</vAcc></extensions></trkpt>
      <trkpt lon="-117.331436" lat="33.981087"><ele>316.147137</ele><time>2025-04-23T02:16:54Z</time><extensions><speed>0.908748</speed><course>95.025657</course><hAcc>1.649185</hAcc><vAcc>0.974957</vAcc></extensions></trkpt>
      <trkpt lon="-117.331426" lat="33.981086"><ele>316.196025</ele><time>2025-04-23T02:16:55Z</time><extensions><speed>0.784101</speed><course>95.770032</course><hAcc>1.619131</hAcc><vAcc>0.974405</vAcc></extensions></trkpt>
      <trkpt lon="-117.331417" lat="33.981086"><ele>316.257871</ele><time>2025-04-23T02:16:56Z</time><extensions><speed>1.014798</speed><course>88.340300</course><hAcc>1.615763</hAcc><vAcc>0.972912</vAcc></extensions></trkpt>
      <trkpt lon="-117.331405" lat="33.981088"><ele>316.305519</ele><time>2025-04-23T02:16:57Z</time><extensions><speed>1.165909</speed><course>71.699372</course><hAcc>1.630493</hAcc><vAcc>0.970714</vAcc></extensions></trkpt>
      <trkpt lon="-117.331393" lat="33.981092"><ele>316.372761</ele><time>2025-04-23T02:16:58Z</time><extensions><speed>1.253991</speed><course>60.891102</course><hAcc>1.635300</hAcc><vAcc>0.968233</vAcc></extensions></trkpt>
      <trkpt lon="-117.331382" lat="33.981099"><ele>316.442971</ele><time>2025-04-23T02:16:59Z</time><extensions><speed>1.182940</speed><course>51.049548</course><hAcc>1.614471</hAcc><vAcc>0.965539</vAcc></extensions></trkpt>
      <trkpt lon="-117.331371" lat="33.981106"><ele>316.520257</ele><time>2025-04-23T02:17:00Z</time><extensions><speed>1.351356</speed><course>50.591626</course><hAcc>1.596411</hAcc><vAcc>0.963748</vAcc></extensions></trkpt>
      <trkpt lon="-117.331359" lat="33.981114"><ele>316.596457</ele><time>2025-04-23T02:17:01Z</time><extensions><speed>1.414306</speed><course>51.638950</course><hAcc>1.612007</hAcc><vAcc>0.961704</vAcc></extensions></trkpt>
      <trkpt lon="-117.331348" lat="33.981122"><ele>316.674348</ele><time>2025-04-23T02:17:02Z</time><extensions><speed>1.270186</speed><course>54.014994</course><hAcc>1.644118</hAcc><vAcc>0.959112</vAcc></extensions></trkpt>
      <trkpt lon="-117.331337" lat="33.981128"><ele>316.734758</ele><time>2025-04-23T02:17:03Z</time><extensions><speed>1.182980</speed><course>55.168736</course><hAcc>1.612855</hAcc><vAcc>0.957274</vAcc></extensions></trkpt>
      <trkpt lon="-117.331326" lat="33.981134"><ele>316.789715</ele><time>2025-04-23T02:17:04Z</time><extensions><speed>1.203784</speed><course>56.976203</course><hAcc>1.595529</hAcc><vAcc>0.956269</vAcc></extensions></trkpt>
      <trkpt lon="-117.331315" lat="33.981140"><ele>316.839080</ele><time>2025-04-23T02:17:05Z</time><extensions><speed>1.217606</speed><course>59.022982</course><hAcc>1.620515</hAcc><vAcc>0.957164</vAcc></extensions></trkpt>
      <trkpt lon="-117.331304" lat="33.981146"><ele>316.852525</ele><time>2025-04-23T02:17:06Z</time><extensions><speed>1.227393</speed><course>58.443432</course><hAcc>1.635589</hAcc><vAcc>0.958339</vAcc></extensions></trkpt>
      <trkpt lon="-117.331293" lat="33.981152"><ele>316.858136</ele><time>2025-04-23T02:17:07Z</time><extensions><speed>1.290212</speed><course>56.694037</course><hAcc>1.647629</hAcc><vAcc>0.961136</vAcc></extensions></trkpt>
      <trkpt lon="-117.331282" lat="33.981159"><ele>316.861595</ele><time>2025-04-23T02:17:08Z</time><extensions><speed>1.295364</speed><course>51.190671</course><hAcc>1.665527</hAcc><vAcc>0.965239</vAcc></extensions></trkpt>
      <trkpt lon="-117.331272" lat="33.981166"><ele>316.866866</ele><time>2025-04-23T02:17:09Z</time><extensions><speed>1.306971</speed><course>45.863712</course><hAcc>1.686273</hAcc><vAcc>0.970010</vAcc></extensions></trkpt>
      <trkpt lon="-117.331263" lat="33.981175"><ele>316.876517</ele><time>2025-04-23T02:17:10Z</time><extensions><speed>1.154841</speed><course>37.559538</course><hAcc>1.708453</hAcc><vAcc>0.976484</vAcc></extensions></trkpt>
      <trkpt lon="-117.331257" lat="33.981183"><ele>316.883165</ele><time>2025-04-23T02:17:11Z</time><extensions><speed>0.938053</speed><course>24.769037</course><hAcc>1.701007</hAcc><vAcc>0.983380</vAcc></extensions></trkpt>
      <trkpt lon="-117.331255" lat="33.981190"><ele>316.881290</ele><time>2025-04-23T02:17:12Z</time><extensions><speed>0.798756</speed><course>5.204755</course><hAcc>1.699976</hAcc><vAcc>0.990597</vAcc></extensions></trkpt>
      <trkpt lon="-117.331256" lat="33.981197"><ele>316.883841</ele><time>2025-04-23T02:17:13Z</time><extensions><speed>0.834568</speed><course>348.934241</course><hAcc>1.722608</hAcc><vAcc>0.998215</vAcc></extensions></trkpt>
      <trkpt lon="-117.331258" lat="33.981205"><ele>316.882189</ele><time>2025-04-23T02:17:14Z</time><extensions><speed>1.010742</speed><course>347.667876</course><hAcc>1.763552</hAcc><vAcc>1.006223</vAcc></extensions></trkpt>
      <trkpt lon="-117.331261" lat="33.981215"><ele>316.886823</ele><time>2025-04-23T02:17:15Z</time><extensions><speed>1.131398</speed><course>346.324878</course><hAcc>1.789938</hAcc><vAcc>1.014052</vAcc></extensions></trkpt>
      <trkpt lon="-117.331265" lat="33.981225"><ele>316.895596</ele><time>2025-04-23T02:17:16Z</time><extensions><speed>1.122530</speed><course>342.623713</course><hAcc>1.769422</hAcc><vAcc>1.021945</vAcc></extensions></trkpt>
      <trkpt lon="-117.331269" lat="33.981234"><ele>316.910624</ele><time>2025-04-23T02:17:17Z</time><extensions><speed>1.090408</speed><course>344.333380</course><hAcc>1.773666</hAcc><vAcc>1.030399</vAcc></extensions></trkpt>
      <trkpt lon="-117.331272" lat="33.981244"><ele>316.919737</ele><time>2025-04-23T02:17:18Z</time><extensions><speed>1.052446</speed><course>349.206717</course><hAcc>1.791376</hAcc><vAcc>1.037711</vAcc></extensions></trkpt>
      <trkpt lon="-117.331274" lat="33.981253"><ele>316.927629</ele><time>2025-04-23T02:17:19Z</time><extensions><speed>1.176920</speed><course>349.336560</course><hAcc>1.798129</hAcc><vAcc>1.045156</vAcc></extensions></trkpt>
      <trkpt lon="-117.331277" lat="33.981264"><ele>316.935038</ele><time>2025-04-23T02:17:20Z</time><extensions><speed>1.212421</speed><course>346.724711</course><hAcc>1.813720</hAcc><vAcc>1.051909</vAcc></extensions></trkpt>
      <trkpt lon="-117.331280" lat="33.981274"><ele>316.952208</ele><time>2025-04-23T02:17:21Z</time><extensions><speed>1.234972</speed><course>344.847520</course><hAcc>1.802285</hAcc><vAcc>1.059026</vAcc></extensions></trkpt>
      <trkpt lon="-117.331284" lat="33.981284"><ele>316.986547</ele><time>2025-04-23T02:17:22Z</time><extensions><speed>1.181095</speed><course>340.869316</course><hAcc>1.798820</hAcc><vAcc>1.064319</vAcc></extensions></trkpt>
      <trkpt lon="-117.331288" lat="33.981294"><ele>317.017823</ele><time>2025-04-23T02:17:23Z</time><extensions><speed>1.180286</speed><course>340.286537</course><hAcc>1.804734</hAcc><vAcc>1.068640</vAcc></extensions></trkpt>
      <trkpt lon="-117.331292" lat="33.981304"><ele>317.074495</ele><time>2025-04-23T02:17:24Z</time><extensions><speed>1.158553</speed><course>343.769701</course><hAcc>1.810429</hAcc><vAcc>1.071217</vAcc></extensions></trkpt>
      <trkpt lon="-117.331295" lat="33.981314"><ele>317.126146</ele><time>2025-04-23T02:17:25Z</time><extensions><speed>1.105319</speed><course>347.830876</course><hAcc>1.814118</hAcc><vAcc>1.072521</vAcc></extensions></trkpt>
      <trkpt lon="-117.331297" lat="33.981323"><ele>317.172741</ele><time>2025-04-23T02:17:26Z</time><extensions><speed>1.006305</speed><course>352.845253</course><hAcc>1.819137</hAcc><vAcc>1.075227</vAcc></extensions></trkpt>
      <trkpt lon="-117.331298" lat="33.981332"><ele>317.210148</ele><time>2025-04-23T02:17:27Z</time><extensions><speed>0.965825</speed><course>356.457287</course><hAcc>1.823439</hAcc><vAcc>1.075600</vAcc></extensions></trkpt>
      <trkpt lon="-117.331298" lat="33.981340"><ele>317.237151</ele><time>2025-04-23T02:17:28Z</time><extensions><speed>0.954428</speed><course>359.795596</course><hAcc>1.821253</hAcc><vAcc>1.074420</vAcc></extensions></trkpt>
      <trkpt lon="-117.331298" lat="33.981348"><ele>317.255744</ele><time>2025-04-23T02:17:29Z</time><extensions><speed>0.939426</speed><course>3.382978</course><hAcc>1.816137</hAcc><vAcc>1.071406</vAcc></extensions></trkpt>
      <trkpt lon="-117.331297" lat="33.981356"><ele>317.286854</ele><time>2025-04-23T02:17:30Z</time><extensions><speed>0.814972</speed><course>2.227524</course><hAcc>1.810904</hAcc><vAcc>1.067801</vAcc></extensions></trkpt>
      <trkpt lon="-117.331297" lat="33.981363"><ele>317.322299</ele><time>2025-04-23T02:17:31Z</time><extensions><speed>0.688355</speed><course>4.293344</course><hAcc>1.799050</hAcc><vAcc>1.063804</vAcc></extensions></trkpt>
      <trkpt lon="-117.331296" lat="33.981369"><ele>317.351150</ele><time>2025-04-23T02:17:32Z</time><extensions><speed>0.717097</speed><course>6.369181</course><hAcc>1.781995</hAcc><vAcc>1.058514</vAcc></extensions></trkpt>
      <trkpt lon="-117.331295" lat="33.981376"><ele>317.379712</ele><time>2025-04-23T02:17:33Z</time><extensions><speed>0.743009</speed><course>4.798387</course><hAcc>1.759950</hAcc><vAcc>1.054175</vAcc></extensions></trkpt>
      <trkpt lon="-117.331294" lat="33.981383"><ele>317.416333</ele><time>2025-04-23T02:17:34Z</time><extensions><speed>0.895273</speed><course>5.974767</course><hAcc>1.734330</hAcc><vAcc>1.046873</vAcc></extensions></trkpt>
      <trkpt lon="-117.331293" lat="33.981392"><ele>317.453588</ele><time>2025-04-23T02:17:35Z</time><extensions><speed>1.129468</speed><course>6.986218</course><hAcc>1.739945</hAcc><vAcc>1.039068</vAcc></extensions></trkpt>
      <trkpt lon="-117.331292" lat="33.981403"><ele>317.475571</ele><time>2025-04-23T02:17:36Z</time><extensions><speed>1.101607</speed><course>8.465656</course><hAcc>1.762233</hAcc><vAcc>1.032242</vAcc></extensions></trkpt>
      <trkpt lon="-117.331290" lat="33.981412"><ele>317.495385</ele><time>2025-04-23T02:17:37Z</time><extensions><speed>1.071333</speed><course>7.591832</course><hAcc>1.718713</hAcc><vAcc>1.026988</vAcc></extensions></trkpt>
      <trkpt lon="-117.331289" lat="33.981421"><ele>317.529066</ele><time>2025-04-23T02:17:38Z</time><extensions><speed>0.912912</speed><course>6.589822</course><hAcc>1.673041</hAcc><vAcc>1.021837</vAcc></extensions></trkpt>
      <trkpt lon="-117.331288" lat="33.981430"><ele>317.565067</ele><time>2025-04-23T02:17:39Z</time><extensions><speed>0.855938</speed><course>5.888029</course><hAcc>1.635563</hAcc><vAcc>1.017127</vAcc></extensions></trkpt>
      <trkpt lon="-117.331287" lat="33.981438"><ele>317.607315</ele><time>2025-04-23T02:17:40Z</time><extensions><speed>0.931771</speed><course>4.018315</course><hAcc>1.625948</hAcc><vAcc>1.012732</vAcc></extensions></trkpt>
      <trkpt lon="-117.331286" lat="33.981448"><ele>317.652057</ele><time>2025-04-23T02:17:41Z</time><extensions><speed>1.168464</speed><course>2.906830</course><hAcc>1.621758</hAcc><vAcc>1.009873</vAcc></extensions></trkpt>
      <trkpt lon="-117.331286" lat="33.981459"><ele>317.690368</ele><time>2025-04-23T02:17:42Z</time><extensions><speed>1.422503</speed><course>2.543597</course><hAcc>1.621437</hAcc><vAcc>1.007782</vAcc></extensions></trkpt>
      <trkpt lon="-117.331285" lat="33.981471"><ele>317.723999</ele><time>2025-04-23T02:17:43Z</time><extensions><speed>1.247693</speed><course>4.282520</course><hAcc>1.641694</hAcc><vAcc>1.020362</vAcc></extensions></trkpt>
      <trkpt lon="-117.331284" lat="33.981484"><ele>317.758376</ele><time>2025-04-23T02:17:44Z</time><extensions><speed>1.445034</speed><course>359.425120</course><hAcc>1.608056</hAcc><vAcc>1.040441</vAcc></extensions></trkpt>
      <trkpt lon="-117.331285" lat="33.981497"><ele>317.793405</ele><time>2025-04-23T02:17:45Z</time><extensions><speed>1.455666</speed><course>357.216803</course><hAcc>1.605724</hAcc><vAcc>1.070212</vAcc></extensions></trkpt>
      <trkpt lon="-117.331286" lat="33.981509"><ele>317.829003</ele><time>2025-04-23T02:17:46Z</time><extensions><speed>1.383772</speed><course>357.379501</course><hAcc>1.633110</hAcc><vAcc>1.112059</vAcc></extensions></trkpt>
      <trkpt lon="-117.331286" lat="33.981522"><ele>317.865091</ele><time>2025-04-23T02:17:47Z</time><extensions><speed>1.358408</speed><course>357.851962</course><hAcc>1.682769</hAcc><vAcc>1.168401</vAcc></extensions></trkpt>
      <trkpt lon="-117.331287" lat="33.981534"><ele>317.901491</ele><time>2025-04-23T02:17:48Z</time><extensions><speed>1.373516</speed><course>357.782990</course><hAcc>1.743829</hAcc><vAcc>1.241580</vAcc></extensions></trkpt>
      <trkpt lon="-117.331288" lat="33.981547"><ele>317.937931</ele><time>2025-04-23T02:17:49Z</time><extensions><speed>1.434609</speed><course>357.197836</course><hAcc>1.821228</hAcc><vAcc>1.333743</vAcc></extensions></trkpt>
      <trkpt lon="-117.331288" lat="33.981560"><ele>317.974165</ele><time>2025-04-23T02:17:50Z</time><extensions><speed>1.437663</speed><course>357.941403</course><hAcc>1.934802</hAcc><vAcc>1.446703</vAcc></extensions></trkpt>
      <trkpt lon="-117.331289" lat="33.981572"><ele>318.010061</ele><time>2025-04-23T02:17:51Z</time><extensions><speed>1.339547</speed><course>358.976307</course><hAcc>2.102230</hAcc><vAcc>1.581819</vAcc></extensions></trkpt>
      <trkpt lon="-117.331289" lat="33.981584"><ele>318.045647</ele><time>2025-04-23T02:17:52Z</time><extensions><speed>1.224856</speed><course>0.312907</course><hAcc>2.362520</hAcc><vAcc>1.739953</vAcc></extensions></trkpt>
    </trkseg>
  </trk>
</gpx>