<?xml version="1.0" encoding="UTF-8"?>
<gpx version="1.1" creator="Apple Health Export" xmlns="http://www.topografix.com/GPX/1/1" xmlns:xsi="http://www.w3.org/2001/XMLSchema-instance" xsi:schemaLocation="http://www.topografix.com/GPX/1/1 http://www.topografix.com/GPX/1/1/gpx.xsd">
  <metadata>
    <time>2026-01-11T07:58:10Z</time>
  </metadata>
  <trk>
    <name>Route 2025-04-03 5:31pm</name>
    <trkseg>
      <trkpt lon="-117.332090" lat="33.979267"><ele>317.597359</ele><time>2025-04-04T00:27:24Z</time><extensions><speed>1.026745</speed><course>101.876841</course><hAcc>2.495150</hAcc><vAcc>1.485190</vAcc></extensions></trkpt>
      <trkpt lon="-117.332079" lat="33.979265"><ele>317.616414</ele><time>2025-04-04T00:27:25Z</time><extensions><speed>1.029261</speed><course>107.880606</course><hAcc>2.331516</hAcc><vAcc>1.294600</vAcc></extensions></trkpt>
      <trkpt lon="-117.332062" lat="33.979261"><ele>317.640501</ele><time>2025-04-04T00:27:27Z</time><extensions><speed>1.165390</speed><course>103.707201</course><hAcc>2.119586</hAcc><vAcc>1.094409</vAcc></extensions></trkpt>
      <trkpt lon="-117.332050" lat="33.979260"><ele>317.656621</ele><time>2025-04-04T00:27:28Z</time><extensions><speed>1.085647</speed><course>94.037805</course><hAcc>1.996606</hAcc><vAcc>0.991415</vAcc></extensions></trkpt>
      <trkpt lon="-117.332039" lat="33.979260"><ele>317.671891</ele><time>2025-04-04T00:27:29Z</time><extensions><speed>1.078914</speed><course>90.715411</course><hAcc>1.904965</hAcc><vAcc>0.916203</vAcc></extensions></trkpt>
      <trkpt lon="-117.332027" lat="33.979260"><ele>317.681716</ele><time>2025-04-04T00:27:30Z</time><extensions><speed>1.074354</speed><course>94.592600</course><hAcc>1.819969</hAcc><vAcc>0.863305</vAcc></extensions></trkpt>
      <trkpt lon="-117.332015" lat="33.979259"><ele>317.685747</ele><time>2025-04-04T00:27:31Z</time><extensions><speed>1.087606</speed><course>94.785331</course><hAcc>1.731948</hAcc><vAcc>0.827526</vAcc></extensions></trkpt>
      <trkpt lon="-117.332002" lat="33.979259"><ele>317.685020</ele><time>2025-04-04T00:27:32Z</time><extensions><speed>1.145036</speed><course>93.121719</course><hAcc>1.691735</hAcc><vAcc>0.804239</vAcc></extensions></trkpt>
      <trkpt lon="-117.331989" lat="33.979259"><ele>317.682013</ele><time>2025-04-04T00:27:33Z</time><extensions><speed>1.188814</speed><course>96.897811</course><hAcc>1.633755</hAcc><vAcc>0.789607</vAcc></extensions></trkpt>
      <trkpt lon="-117.331976" lat="33.979258"><ele>317.678021</ele><time>2025-04-04T00:27:34Z</time><extensions><speed>1.195526</speed><course>100.376680</course><hAcc>1.579260</hAcc><vAcc>0.780670</vAcc></extensions></trkpt>
      <trkpt lon="-117.331963" lat="33.979257"><ele>317.674076</ele><time>2025-04-04T00:27:35Z</time><extensions><speed>1.191224</speed><course>97.496345</course><hAcc>1.551204</hAcc><vAcc>0.775281</vAcc></extensions></trkpt>
      <trkpt lon="-117.331951" lat="33.979255"><ele>317.668870</ele><time>2025-04-04T00:27:36Z</time><extensions><speed>1.187414</speed><course>100.134995</course><hAcc>1.510764</hAcc><vAcc>0.771977</vAcc></extensions></trkpt>
      <trkpt lon="-117.331938" lat="33.979254"><ele>317.654102</ele><time>2025-04-04T00:27:37Z</time><extensions><speed>1.192036</speed><course>99.691873</course><hAcc>1.486956</hAcc><vAcc>0.769813</vAcc></extensions></trkpt>
      <trkpt lon="-117.331925" lat="33.979252"><ele>317.638275</ele><time>2025-04-04T00:27:38Z</time><extensions><speed>1.194249</speed><course>98.473325</course><hAcc>1.455593</hAcc><vAcc>0.768223</vAcc></extensions></trkpt>
      <trkpt lon="-117.331912" lat="33.979251"><ele>317.622406</ele><time>2025-04-04T00:27:39Z</time><extensions><speed>1.196714</speed><course>97.011934</course><hAcc>1.420757</hAcc><vAcc>0.766889</vAcc></extensions></trkpt>
      <trkpt lon="-117.331899" lat="33.979251"><ele>317.608188</ele><time>2025-04-04T00:27:40Z</time><extensions><speed>1.217221</speed><course>90.643410</course><hAcc>1.414465</hAcc><vAcc>0.765661</vAcc></extensions></trkpt>
      <trkpt lon="-117.331886" lat="33.979251"><ele>317.595195</ele><time>2025-04-04T00:27:41Z</time><extensions><speed>1.218790</speed><course>88.395961</course><hAcc>1.398455</hAcc><vAcc>0.764481</vAcc></extensions></trkpt>
      <trkpt lon="-117.331873" lat="33.979252"><ele>317.582224</ele><time>2025-04-04T00:27:42Z</time><extensions><speed>1.218505</speed><course>85.999069</course><hAcc>1.382230</hAcc><vAcc>0.763345</vAcc></extensions></trkpt>
      <trkpt lon="-117.331860" lat="33.979253"><ele>317.573559</ele><time>2025-04-04T00:27:43Z</time><extensions><speed>1.220020</speed><course>87.456003</course><hAcc>1.368445</hAcc><vAcc>0.762269</vAcc></extensions></trkpt>
      <trkpt lon="-117.331847" lat="33.979254"><ele>317.567263</ele><time>2025-04-04T00:27:44Z</time><extensions><speed>1.228344</speed><course>85.769920</course><hAcc>1.357457</hAcc><vAcc>0.761276</vAcc></extensions></trkpt>
      <trkpt lon="-117.331834" lat="33.979255"><ele>317.565160</ele><time>2025-04-04T00:27:45Z</time><extensions><speed>1.225792</speed><course>85.831906</course><hAcc>1.349185</hAcc><vAcc>0.760387</vAcc></extensions></trkpt>
      <trkpt lon="-117.331821" lat="33.979256"><ele>317.566531</ele><time>2025-04-04T00:27:46Z</time><extensions><speed>1.208487</speed><course>85.802570</course><hAcc>1.340714</hAcc><vAcc>0.759612</vAcc></extensions></trkpt>
      <trkpt lon="-117.331807" lat="33.979257"><ele>317.572984</ele><time>2025-04-04T00:27:47Z</time><extensions><speed>1.206174</speed><course>84.455013</course><hAcc>1.324874</hAcc><vAcc>0.758955</vAcc></extensions></trkpt>
      <trkpt lon="-117.331794" lat="33.979261"><ele>317.604825</ele><time>2025-04-04T00:27:48Z</time><extensions><speed>1.216251</speed><course>83.461932</course><hAcc>1.337121</hAcc><vAcc>0.758414</vAcc></extensions></trkpt>
      <trkpt lon="-117.331780" lat="33.979264"><ele>317.647647</ele><time>2025-04-04T00:27:49Z</time><extensions><speed>1.255641</speed><course>80.042558</course><hAcc>1.319798</hAcc><vAcc>0.757978</vAcc></extensions></trkpt>
      <trkpt lon="-117.331766" lat="33.979267"><ele>317.698237</ele><time>2025-04-04T00:27:50Z</time><extensions><speed>1.286277</speed><course>76.598757</course><hAcc>1.310924</hAcc><vAcc>0.757637</vAcc></extensions></trkpt>
      <trkpt lon="-117.331752" lat="33.979270"><ele>317.749382</ele><time>2025-04-04T00:27:51Z</time><extensions><speed>1.255698</speed><course>79.565604</course><hAcc>1.336822</hAcc><vAcc>0.759787</vAcc></extensions></trkpt>
      <trkpt lon="-117.331739" lat="33.979272"><ele>317.809068</ele><time>2025-04-04T00:27:52Z</time><extensions><speed>1.239673</speed><course>84.216972</course><hAcc>1.339299</hAcc><vAcc>0.763678</vAcc></extensions></trkpt>
      <trkpt lon="-117.331725" lat="33.979274"><ele>317.876186</ele><time>2025-04-04T00:27:53Z</time><extensions><speed>1.238409</speed><course>84.802750</course><hAcc>1.342509</hAcc><vAcc>0.770473</vAcc></extensions></trkpt>
      <trkpt lon="-117.331712" lat="33.979275"><ele>317.951523</ele><time>2025-04-04T00:27:54Z</time><extensions><speed>1.254426</speed><course>84.032734</course><hAcc>1.351074</hAcc><vAcc>0.780757</vAcc></extensions></trkpt>
      <trkpt lon="-117.331698" lat="33.979276"><ele>318.035091</ele><time>2025-04-04T00:27:55Z</time><extensions><speed>1.255688</speed><course>86.906503</course><hAcc>1.365699</hAcc><vAcc>0.794801</vAcc></extensions></trkpt>
      <trkpt lon="-117.331684" lat="33.979277"><ele>318.123052</ele><time>2025-04-04T00:27:56Z</time><extensions><speed>1.268413</speed><course>81.905299</course><hAcc>1.386119</hAcc><vAcc>0.812622</vAcc></extensions></trkpt>
      <trkpt lon="-117.331671" lat="33.979280"><ele>318.212501</ele><time>2025-04-04T00:27:57Z</time><extensions><speed>1.307857</speed><course>75.382766</course><hAcc>1.404113</hAcc><vAcc>0.834406</vAcc></extensions></trkpt>
      <trkpt lon="-117.331656" lat="33.979284"><ele>318.296906</ele><time>2025-04-04T00:27:58Z</time><extensions><speed>1.578805</speed><course>64.039499</course><hAcc>1.394258</hAcc><vAcc>0.859458</vAcc></extensions></trkpt>
      <trkpt lon="-117.331641" lat="33.979291"><ele>318.373349</ele><time>2025-04-04T00:27:59Z</time><extensions><speed>1.588914</speed><course>64.382602</course><hAcc>1.480087</hAcc><vAcc>0.887389</vAcc></extensions></trkpt>
      <trkpt lon="-117.331625" lat="33.979296"><ele>318.445124</ele><time>2025-04-04T00:28:00Z</time><extensions><speed>1.481769</speed><course>68.778847</course><hAcc>1.598115</hAcc><vAcc>0.917079</vAcc></extensions></trkpt>
      <trkpt lon="-117.331611" lat="33.979300"><ele>318.502215</ele><time>2025-04-04T00:28:01Z</time><extensions><speed>1.352967</speed><course>75.024146</course><hAcc>1.699685</hAcc><vAcc>0.946318</vAcc></extensions></trkpt>
      <trkpt lon="-117.331597" lat="33.979303"><ele>318.557185</ele><time>2025-04-04T00:28:02Z</time><extensions><speed>1.297845</speed><course>77.817496</course><hAcc>1.752388</hAcc><vAcc>0.974757</vAcc></extensions></trkpt>
      <trkpt lon="-117.331584" lat="33.979305"><ele>318.603494</ele><time>2025-04-04T00:28:03Z</time><extensions><speed>1.188681</speed><course>79.313692</course><hAcc>1.787419</hAcc><vAcc>1.002547</vAcc></extensions></trkpt>
      <trkpt lon="-117.331571" lat="33.979306"><ele>318.652141</ele><time>2025-04-04T00:28:04Z</time><extensions><speed>1.187494</speed><course>84.115602</course><hAcc>1.808936</hAcc><vAcc>1.025997</vAcc></extensions></trkpt>
      <trkpt lon="-117.331558" lat="33.979306"><ele>318.690911</ele><time>2025-04-04T00:28:05Z</time><extensions><speed>1.193665</speed><course>88.625871</course><hAcc>1.823125</hAcc><vAcc>1.047802</vAcc></extensions></trkpt>
      <trkpt lon="-117.331545" lat="33.979306"><ele>318.716703</ele><time>2025-04-04T00:28:06Z</time><extensions><speed>1.217058</speed><course>92.427084</course><hAcc>1.831002</hAcc><vAcc>1.067776</vAcc></extensions></trkpt>
      <trkpt lon="-117.331532" lat="33.979306"><ele>318.731824</ele><time>2025-04-04T00:28:07Z</time><extensions><speed>1.195583</speed><course>94.293770</course><hAcc>1.830756</hAcc><vAcc>1.085705</vAcc></extensions></trkpt>
      <trkpt lon="-117.331519" lat="33.979305"><ele>318.745903</ele><time>2025-04-04T00:28:08Z</time><extensions><speed>1.147108</speed><course>94.629505</course><hAcc>1.825370</hAcc><vAcc>1.100659</vAcc></extensions></trkpt>
      <trkpt lon="-117.331507" lat="33.979304"><ele>318.758645</ele><time>2025-04-04T00:28:09Z</time><extensions><speed>1.172990</speed><course>96.512065</course><hAcc>1.819770</hAcc><vAcc>1.108749</vAcc></extensions></trkpt>
      <trkpt lon="-117.331494" lat="33.979302"><ele>318.754896</ele><time>2025-04-04T00:28:10Z</time><extensions><speed>1.172589</speed><course>97.124709</course><hAcc>1.812786</hAcc><vAcc>1.113996</vAcc></extensions></trkpt>
      <trkpt lon="-117.331481" lat="33.979301"><ele>318.731185</ele><time>2025-04-04T00:28:11Z</time><extensions><speed>1.172745</speed><course>97.768802</course><hAcc>1.803566</hAcc><vAcc>1.117849</vAcc></extensions></trkpt>
      <trkpt lon="-117.331469" lat="33.979299"><ele>318.695157</ele><time>2025-04-04T00:28:12Z</time><extensions><speed>1.155694</speed><course>98.871301</course><hAcc>1.796186</hAcc><vAcc>1.120097</vAcc></extensions></trkpt>
      <trkpt lon="-117.331456" lat="33.979298"><ele>318.657078</ele><time>2025-04-04T00:28:13Z</time><extensions><speed>1.164808</speed><course>99.514708</course><hAcc>1.788424</hAcc><vAcc>1.120608</vAcc></extensions></trkpt>
      <trkpt lon="-117.331444" lat="33.979296"><ele>318.618803</ele><time>2025-04-04T00:28:14Z</time><extensions><speed>1.160298</speed><course>99.310731</course><hAcc>1.779701</hAcc><vAcc>1.120121</vAcc></extensions></trkpt>
      <trkpt lon="-117.331431" lat="33.979294"><ele>318.587513</ele><time>2025-04-04T00:28:15Z</time><extensions><speed>1.157699</speed><course>97.856212</course><hAcc>1.771113</hAcc><vAcc>1.119372</vAcc></extensions></trkpt>
      <trkpt lon="-117.331419" lat="33.979293"><ele>318.573303</ele><time>2025-04-04T00:28:16Z</time><extensions><speed>1.166317</speed><course>96.210279</course><hAcc>1.761306</hAcc><vAcc>1.118248</vAcc></extensions></trkpt>
      <trkpt lon="-117.331405" lat="33.979292"><ele>318.562230</ele><time>2025-04-04T00:28:17Z</time><extensions><speed>1.224764</speed><course>95.390049</course><hAcc>1.754887</hAcc><vAcc>1.115732</vAcc></extensions></trkpt>
      <trkpt lon="-117.331392" lat="33.979291"><ele>318.561260</ele><time>2025-04-04T00:28:18Z</time><extensions><speed>1.240449</speed><course>95.163413</course><hAcc>1.751899</hAcc><vAcc>1.111775</vAcc></extensions></trkpt>
      <trkpt lon="-117.331379" lat="33.979289"><ele>318.572634</ele><time>2025-04-04T00:28:19Z</time><extensions><speed>1.242072</speed><course>95.242005</course><hAcc>1.747236</hAcc><vAcc>1.107255</vAcc></extensions></trkpt>
      <trkpt lon="-117.331365" lat="33.979288"><ele>318.594238</ele><time>2025-04-04T00:28:20Z</time><extensions><speed>1.232509</speed><course>97.398748</course><hAcc>1.736231</hAcc><vAcc>1.100504</vAcc></extensions></trkpt>
      <trkpt lon="-117.331352" lat="33.979286"><ele>318.609101</ele><time>2025-04-04T00:28:21Z</time><extensions><speed>1.220405</speed><course>100.395621</course><hAcc>1.719583</hAcc><vAcc>1.093824</vAcc></extensions></trkpt>
      <trkpt lon="-117.331339" lat="33.979284"><ele>318.601620</ele><time>2025-04-04T00:28:22Z</time><extensions><speed>1.232428</speed><course>102.372025</course><hAcc>1.706305</hAcc><vAcc>1.085730</vAcc></extensions></trkpt>
      <trkpt lon="-117.331326" lat="33.979281"><ele>318.594749</ele><time>2025-04-04T00:28:23Z</time><extensions><speed>1.222392</speed><course>105.274718</course><hAcc>1.700009</hAcc><vAcc>1.076353</vAcc></extensions></trkpt>
      <trkpt lon="-117.331314" lat="33.979278"><ele>318.599201</ele><time>2025-04-04T00:28:24Z</time><extensions><speed>1.233582</speed><course>108.811339</course><hAcc>1.694762</hAcc><vAcc>1.065274</vAcc></extensions></trkpt>
      <trkpt lon="-117.331301" lat="33.979274"><ele>318.607039</ele><time>2025-04-04T00:28:25Z</time><extensions><speed>1.314792</speed><course>110.907980</course><hAcc>1.688022</hAcc><vAcc>1.054475</vAcc></extensions></trkpt>
      <trkpt lon="-117.331288" lat="33.979269"><ele>318.599496</ele><time>2025-04-04T00:28:26Z</time><extensions><speed>1.347716</speed><course>112.202443</course><hAcc>1.683082</hAcc><vAcc>1.042863</vAcc></extensions></trkpt>
      <trkpt lon="-117.331275" lat="33.979265"><ele>318.596437</ele><time>2025-04-04T00:28:27Z</time><extensions><speed>1.277453</speed><course>115.188111</course><hAcc>1.682179</hAcc><vAcc>1.030721</vAcc></extensions></trkpt>
      <trkpt lon="-117.331263" lat="33.979259"><ele>318.587327</ele><time>2025-04-04T00:28:28Z</time><extensions><speed>1.250997</speed><course>121.087295</course><hAcc>1.683361</hAcc><vAcc>1.018194</vAcc></extensions></trkpt>
      <trkpt lon="-117.331252" lat="33.979253"><ele>318.590324</ele><time>2025-04-04T00:28:29Z</time><extensions><speed>1.222152</speed><course>125.196237</course><hAcc>1.690133</hAcc><vAcc>1.005146</vAcc></extensions></trkpt>
      <trkpt lon="-117.331242" lat="33.979247"><ele>318.601813</ele><time>2025-04-04T00:28:30Z</time><extensions><speed>1.083564</speed><course>128.108820</course><hAcc>1.701023</hAcc><vAcc>0.992863</vAcc></extensions></trkpt>
      <trkpt lon="-117.331233" lat="33.979242"><ele>318.617719</ele><time>2025-04-04T00:28:31Z</time><extensions><speed>0.817645</speed><course>128.733590</course><hAcc>1.706393</hAcc><vAcc>0.980224</vAcc></extensions></trkpt>
      <trkpt lon="-117.331228" lat="33.979238"><ele>318.639306</ele><time>2025-04-04T00:28:32Z</time><extensions><speed>0.452959</speed><course>133.479462</course><hAcc>1.692362</hAcc><vAcc>0.968195</vAcc></extensions></trkpt>
      <trkpt lon="-117.331226" lat="33.979236"><ele>318.668408</ele><time>2025-04-04T00:28:33Z</time><extensions><speed>0.176063</speed><course>156.919046</course><hAcc>1.697684</hAcc><vAcc>0.957490</vAcc></extensions></trkpt>
      <trkpt lon="-117.331226" lat="33.979235"><ele>318.706729</ele><time>2025-04-04T00:28:34Z</time><extensions><speed>0.071838</speed><course>207.990887</course><hAcc>1.715370</hAcc><vAcc>0.947814</vAcc></extensions></trkpt>
      <trkpt lon="-117.331226" lat="33.979235"><ele>318.746367</ele><time>2025-04-04T00:28:35Z</time><extensions><speed>0.029587</speed><course>289.907480</course><hAcc>1.722396</hAcc><vAcc>0.940920</vAcc></extensions></trkpt>
      <trkpt lon="-117.331226" lat="33.979235"><ele>318.797526</ele><time>2025-04-04T00:28:36Z</time><extensions><speed>0.114806</speed><course>47.925932</course><hAcc>1.707022</hAcc><vAcc>0.936087</vAcc></extensions></trkpt>
      <trkpt lon="-117.331224" lat="33.979237"><ele>318.840748</ele><time>2025-04-04T00:28:37Z</time><extensions><speed>0.319754</speed><course>61.225252</course><hAcc>1.682302</hAcc><vAcc>0.933239</vAcc></extensions></trkpt>
      <trkpt lon="-117.331219" lat="33.979239"><ele>318.886327</ele><time>2025-04-04T00:28:38Z</time><extensions><speed>0.703815</speed><course>70.510699</course><hAcc>1.654523</hAcc><vAcc>0.932376</vAcc></extensions></trkpt>
      <trkpt lon="-117.331210" lat="33.979241"><ele>318.939301</ele><time>2025-04-04T00:28:39Z</time><extensions><speed>0.996967</speed><course>73.318568</course><hAcc>1.656497</hAcc><vAcc>0.933288</vAcc></extensions></trkpt>
      <trkpt lon="-117.331199" lat="33.979244"><ele>318.997406</ele><time>2025-04-04T00:28:40Z</time><extensions><speed>1.128742</speed><course>74.493317</course><hAcc>1.635937</hAcc><vAcc>0.936181</vAcc></extensions></trkpt>
      <trkpt lon="-117.331187" lat="33.979246"><ele>319.058116</ele><time>2025-04-04T00:28:41Z</time><extensions><speed>1.168829</speed><course>74.513690</course><hAcc>1.608103</hAcc><vAcc>0.939122</vAcc></extensions></trkpt>
      <trkpt lon="-117.331174" lat="33.979249"><ele>319.124873</ele><time>2025-04-04T00:28:42Z</time><extensions><speed>1.247376</speed><course>75.798049</course><hAcc>1.586950</hAcc><vAcc>0.942880</vAcc></extensions></trkpt>
      <trkpt lon="-117.331160" lat="33.979252"><ele>319.189185</ele><time>2025-04-04T00:28:43Z</time><extensions><speed>1.341780</speed><course>76.718376</course><hAcc>1.575018</hAcc><vAcc>0.946786</vAcc></extensions></trkpt>
      <trkpt lon="-117.331146" lat="33.979254"><ele>319.238835</ele><time>2025-04-04T00:28:44Z</time><extensions><speed>1.399226</speed><course>77.562470</course><hAcc>1.568553</hAcc><vAcc>0.949081</vAcc></extensions></trkpt>
      <trkpt lon="-117.331131" lat="33.979257"><ele>319.301372</ele><time>2025-04-04T00:28:45Z</time><extensions><speed>1.354208</speed><course>75.460109</course><hAcc>1.570625</hAcc><vAcc>0.950478</vAcc></extensions></trkpt>
      <trkpt lon="-117.331117" lat="33.979260"><ele>319.367012</ele><time>2025-04-04T00:28:46Z</time><extensions><speed>1.361030</speed><course>75.058209</course><hAcc>1.554298</hAcc><vAcc>0.951774</vAcc></extensions></trkpt>
      <trkpt lon="-117.331103" lat="33.979263"><ele>319.423916</ele><time>2025-04-04T00:28:47Z</time><extensions><speed>1.354402</speed><course>80.176263</course><hAcc>1.534764</hAcc><vAcc>0.950809</vAcc></extensions></trkpt>
      <trkpt lon="-117.331089" lat="33.979265"><ele>319.475137</ele><time>2025-04-04T00:28:48Z</time><extensions><speed>1.295975</speed><course>84.129429</course><hAcc>1.518496</hAcc><vAcc>0.948822</vAcc></extensions></trkpt>
      <trkpt lon="-117.331075" lat="33.979265"><ele>319.524929</ele><time>2025-04-04T00:28:49Z</time><extensions><speed>1.238111</speed><course>88.357047</course><hAcc>1.519177</hAcc><vAcc>0.945607</vAcc></extensions></trkpt>
      <trkpt lon="-117.331062" lat="33.979265"><ele>319.581387</ele><time>2025-04-04T00:28:50Z</time><extensions><speed>1.222859</speed><course>93.301696</course><hAcc>1.540302</hAcc><vAcc>0.940904</vAcc></extensions></trkpt>
      <trkpt lon="-117.331048" lat="33.979264"><ele>319.627923</ele><time>2025-04-04T00:28:51Z</time><extensions><speed>1.215723</speed><course>99.636104</course><hAcc>1.496832</hAcc><vAcc>0.934768</vAcc></extensions></trkpt>
      <trkpt lon="-117.331036" lat="33.979262"><ele>319.660046</ele><time>2025-04-04T00:28:52Z</time><extensions><speed>1.216176</speed><course>101.198130</course><hAcc>1.476459</hAcc><vAcc>0.928211</vAcc></extensions></trkpt>
      <trkpt lon="-117.331023" lat="33.979260"><ele>319.683785</ele><time>2025-04-04T00:28:53Z</time><extensions><speed>1.227079</speed><course>99.400194</course><hAcc>1.471015</hAcc><vAcc>0.921093</vAcc></extensions></trkpt>
      <trkpt lon="-117.331009" lat="33.979259"><ele>319.714467</ele><time>2025-04-04T00:28:54Z</time><extensions><speed>1.270789</speed><course>96.767113</course><hAcc>1.465653</hAcc><vAcc>0.913802</vAcc></extensions></trkpt>
      <trkpt lon="-117.330996" lat="33.979258"><ele>319.753436</ele><time>2025-04-04T00:28:55Z</time><extensions><speed>1.234715</speed><course>94.079047</course><hAcc>1.465794</hAcc><vAcc>0.906979</vAcc></extensions></trkpt>
      <trkpt lon="-117.330983" lat="33.979258"><ele>319.795186</ele><time>2025-04-04T00:28:56Z</time><extensions><speed>1.176773</speed><course>88.412006</course><hAcc>1.465559</hAcc><vAcc>0.900841</vAcc></extensions></trkpt>
      <trkpt lon="-117.330970" lat="33.979259"><ele>319.846091</ele><time>2025-04-04T00:28:57Z</time><extensions><speed>1.150166</speed><course>77.936640</course><hAcc>1.450337</hAcc><vAcc>0.895572</vAcc></extensions></trkpt>
      <trkpt lon="-117.330958" lat="33.979262"><ele>319.905319</ele><time>2025-04-04T00:28:58Z</time><extensions><speed>1.188148</speed><course>70.163668</course><hAcc>1.437965</hAcc><vAcc>0.891317</vAcc></extensions></trkpt>
      <trkpt lon="-117.330946" lat="33.979266"><ele>319.953254</ele><time>2025-04-04T00:28:59Z</time><extensions><speed>1.231410</speed><course>69.091441</course><hAcc>1.439252</hAcc><vAcc>0.887988</vAcc></extensions></trkpt>
      <trkpt lon="-117.330933" lat="33.979270"><ele>319.993196</ele><time>2025-04-04T00:29:00Z</time><extensions><speed>1.310188</speed><course>68.610184</course><hAcc>1.438541</hAcc><vAcc>0.885770</vAcc></extensions></trkpt>
      <trkpt lon="-117.330919" lat="33.979275"><ele>320.031843</ele><time>2025-04-04T00:29:01Z</time><extensions><speed>1.323365</speed><course>68.578009</course><hAcc>1.440827</hAcc><vAcc>0.885085</vAcc></extensions></trkpt>
      <trkpt lon="-117.330906" lat="33.979279"><ele>320.074186</ele><time>2025-04-04T00:29:02Z</time><extensions><speed>1.309895</speed><course>68.872350</course><hAcc>1.446778</hAcc><vAcc>0.885164</vAcc></extensions></trkpt>
      <trkpt lon="-117.330893" lat="33.979284"><ele>320.118643</ele><time>2025-04-04T00:29:03Z</time><extensions><speed>1.321180</speed><course>68.387646</course><hAcc>1.453198</hAcc><vAcc>0.885734</vAcc></extensions></trkpt>
      <trkpt lon="-117.330879" lat="33.979288"><ele>320.158758</ele><time>2025-04-04T00:29:04Z</time><extensions><speed>1.342883</speed><course>69.027927</course><hAcc>1.462803</hAcc><vAcc>0.887892</vAcc></extensions></trkpt>
      <trkpt lon="-117.330866" lat="33.979292"><ele>320.205786</ele><time>2025-04-04T00:29:05Z</time><extensions><speed>1.301127</speed><course>69.569962</course><hAcc>1.478864</hAcc><vAcc>0.891704</vAcc></extensions></trkpt>
      <trkpt lon="-117.330853" lat="33.979297"><ele>320.255200</ele><time>2025-04-04T00:29:06Z</time><extensions><speed>1.265386</speed><course>70.514339</course><hAcc>1.500259</hAcc><vAcc>0.895458</vAcc></extensions></trkpt>
      <trkpt lon="-117.330840" lat="33.979301"><ele>320.312290</ele><time>2025-04-04T00:29:07Z</time><extensions><speed>1.295964</speed><course>70.261969</course><hAcc>1.520615</hAcc><vAcc>0.899813</vAcc></extensions></trkpt>
      <trkpt lon="-117.330827" lat="33.979305"><ele>320.366941</ele><time>2025-04-04T00:29:08Z</time><extensions><speed>1.307613</speed><course>70.478201</course><hAcc>1.535817</hAcc><vAcc>0.904194</vAcc></extensions></trkpt>
      <trkpt lon="-117.330813" lat="33.979308"><ele>320.420359</ele><time>2025-04-04T00:29:09Z</time><extensions><speed>1.255433</speed><course>72.350891</course><hAcc>1.547985</hAcc><vAcc>0.908984</vAcc></extensions></trkpt>
      <trkpt lon="-117.330800" lat="33.979312"><ele>320.471426</ele><time>2025-04-04T00:29:10Z</time><extensions><speed>1.253752</speed><course>72.080798</course><hAcc>1.553659</hAcc><vAcc>0.914167</vAcc></extensions></trkpt>
      <trkpt lon="-117.330787" lat="33.979316"><ele>320.519313</ele><time>2025-04-04T00:29:11Z</time><extensions><speed>1.266572</speed><course>71.238993</course><hAcc>1.557937</hAcc><vAcc>0.919601</vAcc></extensions></trkpt>
      <trkpt lon="-117.330774" lat="33.979320"><ele>320.568205</ele><time>2025-04-04T00:29:12Z</time><extensions><speed>1.336532</speed><course>71.212509</course><hAcc>1.563717</hAcc><vAcc>0.926575</vAcc></extensions></trkpt>
      <trkpt lon="-117.330760" lat="33.979324"><ele>320.607132</ele><time>2025-04-04T00:29:13Z</time><extensions><speed>1.391639</speed><course>71.167964</course><hAcc>1.570458</hAcc><vAcc>0.934718</vAcc></extensions></trkpt>
      <trkpt lon="-117.330745" lat="33.979328"><ele>320.643906</ele><time>2025-04-04T00:29:14Z</time><extensions><speed>1.429415</speed><course>72.183374</course><hAcc>1.589965</hAcc><vAcc>0.943314</vAcc></extensions></trkpt>
      <trkpt lon="-117.330731" lat="33.979332"><ele>320.682265</ele><time>2025-04-04T00:29:15Z</time><extensions><speed>1.283737</speed><course>75.519730</course><hAcc>1.613867</hAcc><vAcc>0.950949</vAcc></extensions></trkpt>
      <trkpt lon="-117.330718" lat="33.979334"><ele>320.726965</ele><time>2025-04-04T00:29:16Z</time><extensions><speed>1.263187</speed><course>74.299189</course><hAcc>1.604658</hAcc><vAcc>0.958032</vAcc></extensions></trkpt>
      <trkpt lon="-117.330705" lat="33.979338"><ele>320.772215</ele><time>2025-04-04T00:29:17Z</time><extensions><speed>1.281208</speed><course>73.689125</course><hAcc>1.607765</hAcc><vAcc>0.966306</vAcc></extensions></trkpt>
      <trkpt lon="-117.330692" lat="33.979341"><ele>320.822970</ele><time>2025-04-04T00:29:18Z</time><extensions><speed>1.222953</speed><course>76.255080</course><hAcc>1.620874</hAcc><vAcc>0.972891</vAcc></extensions></trkpt>
      <trkpt lon="-117.330679" lat="33.979343"><ele>320.893570</ele><time>2025-04-04T00:29:19Z</time><extensions><speed>1.212078</speed><course>78.395892</course><hAcc>1.628578</hAcc><vAcc>0.978517</vAcc></extensions></trkpt>
      <trkpt lon="-117.330666" lat="33.979345"><ele>320.962627</ele><time>2025-04-04T00:29:20Z</time><extensions><speed>1.204301</speed><course>78.722064</course><hAcc>1.631005</hAcc><vAcc>0.983880</vAcc></extensions></trkpt>
      <trkpt lon="-117.330653" lat="33.979347"><ele>321.026962</ele><time>2025-04-04T00:29:21Z</time><extensions><speed>1.205413</speed><course>80.124763</course><hAcc>1.627281</hAcc><vAcc>0.988389</vAcc></extensions></trkpt>
      <trkpt lon="-117.330641" lat="33.979349"><ele>321.086149</ele><time>2025-04-04T00:29:22Z</time><extensions><speed>1.145910</speed><course>81.064837</course><hAcc>1.625135</hAcc><vAcc>0.992321</vAcc></extensions></trkpt>
      <trkpt lon="-117.330629" lat="33.979350"><ele>321.145233</ele><time>2025-04-04T00:29:23Z</time><extensions><speed>1.104303</speed><course>83.775995</course><hAcc>1.629099</hAcc><vAcc>0.994877</vAcc></extensions></trkpt>
      <trkpt lon="-117.330616" lat="33.979350"><ele>321.218756</ele><time>2025-04-04T00:29:24Z</time><extensions><speed>1.203419</speed><course>88.816085</course><hAcc>1.624567</hAcc><vAcc>0.996031</vAcc></extensions></trkpt>
      <trkpt lon="-117.330603" lat="33.979350"><ele>321.287100</ele><time>2025-04-04T00:29:25Z</time><extensions><speed>1.302146</speed><course>91.940059</course><hAcc>1.598982</hAcc><vAcc>0.995567</vAcc></extensions></trkpt>
      <trkpt lon="-117.330589" lat="33.979349"><ele>321.349524</ele><time>2025-04-04T00:29:26Z</time><extensions><speed>1.266222</speed><course>95.481034</course><hAcc>1.602320</hAcc><vAcc>0.993146</vAcc></extensions></trkpt>
      <trkpt lon="-117.330576" lat="33.979348"><ele>321.410357</ele><time>2025-04-04T00:29:27Z</time><extensions><speed>1.125764</speed><course>96.187956</course><hAcc>1.630668</hAcc><vAcc>0.989189</vAcc></extensions></trkpt>
      <trkpt lon="-117.330565" lat="33.979347"><ele>321.457475</ele><time>2025-04-04T00:29:28Z</time><extensions><speed>1.010171</speed><course>94.512438</course><hAcc>1.606446</hAcc><vAcc>0.983694</vAcc></extensions></trkpt>
      <trkpt lon="-117.330555" lat="33.979347"><ele>321.510460</ele><time>2025-04-04T00:29:29Z</time><extensions><speed>0.915134</speed><course>91.697445</course><hAcc>1.596795</hAcc><vAcc>0.977221</vAcc></extensions></trkpt>
      <trkpt lon="-117.330545" lat="33.979347"><ele>321.564249</ele><time>2025-04-04T00:29:30Z</time><extensions><speed>0.873458</speed><course>90.866854</course><hAcc>1.620775</hAcc><vAcc>0.970667</vAcc></extensions></trkpt>
      <trkpt lon="-117.330535" lat="33.979346"><ele>321.638717</ele><time>2025-04-04T00:29:31Z</time><extensions><speed>0.895050</speed><course>93.945350</course><hAcc>1.641879</hAcc><vAcc>0.963086</vAcc></extensions></trkpt>
      <trkpt lon="-117.330526" lat="33.979346"><ele>321.712613</ele><time>2025-04-04T00:29:32Z</time><extensions><speed>0.895796</speed><course>96.793690</course><hAcc>1.658278</hAcc><vAcc>0.956130</vAcc></extensions></trkpt>
      <trkpt lon="-117.330517" lat="33.979345"><ele>321.780487</ele><time>2025-04-04T00:29:33Z</time><extensions><speed>0.800176</speed><course>102.570373</course><hAcc>1.668314</hAcc><vAcc>0.947918</vAcc></extensions></trkpt>
      <trkpt lon="-117.330510" lat="33.979343"><ele>321.859993</ele><time>2025-04-04T00:29:34Z</time><extensions><speed>0.424633</speed><course>109.121167</course><hAcc>1.663799</hAcc><vAcc>0.939161</vAcc></extensions></trkpt>
      <trkpt lon="-117.330507" lat="33.979342"><ele>321.918107</ele><time>2025-04-04T00:29:35Z</time><extensions><speed>0.127184</speed><course>113.827856</course><hAcc>1.673141</hAcc><vAcc>0.930155</vAcc></extensions></trkpt>
      <trkpt lon="-117.330506" lat="33.979342"><ele>321.962581</ele><time>2025-04-04T00:29:36Z</time><extensions><speed>0.079124</speed><course>67.784655</course><hAcc>1.669947</hAcc><vAcc>0.921286</vAcc></extensions></trkpt>
      <trkpt lon="-117.330505" lat="33.979343"><ele>322.006283</ele><time>2025-04-04T00:29:37Z</time><extensions><speed>0.200600</speed><course>58.867398</course><hAcc>1.651430</hAcc><vAcc>0.913091</vAcc></extensions></trkpt>
      <trkpt lon="-117.330502" lat="33.979344"><ele>322.059790</ele><time>2025-04-04T00:29:38Z</time><extensions><speed>0.508545</speed><course>70.205891</course><hAcc>1.610748</hAcc><vAcc>0.905920</vAcc></extensions></trkpt>
      <trkpt lon="-117.330494" lat="33.979346"><ele>322.107731</ele><time>2025-04-04T00:29:39Z</time><extensions><speed>0.908568</speed><course>77.679311</course><hAcc>1.604302</hAcc><vAcc>0.899681</vAcc></extensions></trkpt>
      <trkpt lon="-117.330483" lat="33.979347"><ele>322.163566</ele><time>2025-04-04T00:29:40Z</time><extensions><speed>1.208875</speed><course>78.112575</course><hAcc>1.585935</hAcc><vAcc>0.894378</vAcc></extensions></trkpt>
      <trkpt lon="-117.330469" lat="33.979349"><ele>322.211906</ele><time>2025-04-04T00:29:41Z</time><extensions><speed>1.376692</speed><course>82.241079</course><hAcc>1.563479</hAcc><vAcc>0.890038</vAcc></extensions></trkpt>
      <trkpt lon="-117.330455" lat="33.979351"><ele>322.248008</ele><time>2025-04-04T00:29:42Z</time><extensions><speed>1.274353</speed><course>85.135219</course><hAcc>1.564601</hAcc><vAcc>0.886701</vAcc></extensions></trkpt>
      <trkpt lon="-117.330441" lat="33.979351"><ele>322.279695</ele><time>2025-04-04T00:29:43Z</time><extensions><speed>1.280243</speed><course>84.832372</course><hAcc>1.537205</hAcc><vAcc>0.884456</vAcc></extensions></trkpt>
      <trkpt lon="-117.330428" lat="33.979353"><ele>322.307142</ele><time>2025-04-04T00:29:44Z</time><extensions><speed>1.215206</speed><course>83.399968</course><hAcc>1.522646</hAcc><vAcc>0.882875</vAcc></extensions></trkpt>
      <trkpt lon="-117.330415" lat="33.979354"><ele>322.328004</ele><time>2025-04-04T00:29:45Z</time><extensions><speed>1.084876</speed><course>83.803407</course><hAcc>1.519960</hAcc><vAcc>0.882188</vAcc></extensions></trkpt>
      <trkpt lon="-117.330403" lat="33.979354"><ele>322.344566</ele><time>2025-04-04T00:29:46Z</time><extensions><speed>1.076091</speed><course>88.690016</course><hAcc>1.519619</hAcc><vAcc>0.883350</vAcc></extensions></trkpt>
      <trkpt lon="-117.330391" lat="33.979354"><ele>322.362052</ele><time>2025-04-04T00:29:47Z</time><extensions><speed>1.155821</speed><course>93.429141</course><hAcc>1.530702</hAcc><vAcc>0.885237</vAcc></extensions></trkpt>
      <trkpt lon="-117.330378" lat="33.979353"><ele>322.386336</ele><time>2025-04-04T00:29:48Z</time><extensions><speed>1.255600</speed><course>95.406978</course><hAcc>1.535301</hAcc><vAcc>0.886653</vAcc></extensions></trkpt>
      <trkpt lon="-117.330365" lat="33.979351"><ele>322.415869</ele><time>2025-04-04T00:29:49Z</time><extensions><speed>1.266346</speed><course>95.781350</course><hAcc>1.531429</hAcc><vAcc>0.889302</vAcc></extensions></trkpt>
      <trkpt lon="-117.330350" lat="33.979350"><ele>322.465264</ele><time>2025-04-04T00:29:50Z</time><extensions><speed>1.344976</speed><course>97.646180</course><hAcc>1.522295</hAcc><vAcc>0.890831</vAcc></extensions></trkpt>
      <trkpt lon="-117.330336" lat="33.979348"><ele>322.528820</ele><time>2025-04-04T00:29:51Z</time><extensions><speed>1.329401</speed><course>98.760779</course><hAcc>1.520173</hAcc><vAcc>0.892607</vAcc></extensions></trkpt>
      <trkpt lon="-117.330322" lat="33.979346"><ele>322.587394</ele><time>2025-04-04T00:29:52Z</time><extensions><speed>1.254257</speed><course>99.370812</course><hAcc>1.519704</hAcc><vAcc>0.894189</vAcc></extensions></trkpt>
      <trkpt lon="-117.330309" lat="33.979344"><ele>322.644500</ele><time>2025-04-04T00:29:53Z</time><extensions><speed>1.203290</speed><course>100.259934</course><hAcc>1.516196</hAcc><vAcc>0.894802</vAcc></extensions></trkpt>
      <trkpt lon="-117.330296" lat="33.979342"><ele>322.700006</ele><time>2025-04-04T00:29:54Z</time><extensions><speed>1.215293</speed><course>101.388840</course><hAcc>1.496268</hAcc><vAcc>0.895019</vAcc></extensions></trkpt>
      <trkpt lon="-117.330283" lat="33.979339"><ele>322.757953</ele><time>2025-04-04T00:29:55Z</time><extensions><speed>1.219680</speed><course>101.171647</course><hAcc>1.491493</hAcc><vAcc>0.894576</vAcc></extensions></trkpt>
      <trkpt lon="-117.330270" lat="33.979337"><ele>322.821416</ele><time>2025-04-04T00:29:56Z</time><extensions><speed>1.239601</speed><course>99.673622</course><hAcc>1.503052</hAcc><vAcc>0.894003</vAcc></extensions></trkpt>
      <trkpt lon="-117.330256" lat="33.979335"><ele>322.881475</ele><time>2025-04-04T00:29:57Z</time><extensions><speed>1.350527</speed><course>102.044949</course><hAcc>1.483912</hAcc><vAcc>0.892804</vAcc></extensions></trkpt>
      <trkpt lon="-117.330241" lat="33.979333"><ele>322.941870</ele><time>2025-04-04T00:29:58Z</time><extensions><speed>1.456443</speed><course>101.740545</course><hAcc>1.479248</hAcc><vAcc>0.891096</vAcc></extensions></trkpt>
      <trkpt lon="-117.330226" lat="33.979330"><ele>322.998051</ele><time>2025-04-04T00:29:59Z</time><extensions><speed>1.331056</speed><course>97.096627</course><hAcc>1.501929</hAcc><vAcc>0.889531</vAcc></extensions></trkpt>
      <trkpt lon="-117.330212" lat="33.979329"><ele>323.048599</ele><time>2025-04-04T00:30:00Z</time><extensions><speed>1.388378</speed><course>96.905749</course><hAcc>1.472631</hAcc><vAcc>0.888656</vAcc></extensions></trkpt>
      <trkpt lon="-117.330197" lat="33.979328"><ele>323.094987</ele><time>2025-04-04T00:30:01Z</time><extensions><speed>1.376966</speed><course>95.513543</course><hAcc>1.474141</hAcc><vAcc>0.887821</vAcc></extensions></trkpt>
      <trkpt lon="-117.330182" lat="33.979326"><ele>323.134117</ele><time>2025-04-04T00:30:02Z</time><extensions><speed>1.300615</speed><course>95.829797</course><hAcc>1.497604</hAcc><vAcc>0.887793</vAcc></extensions></trkpt>
      <trkpt lon="-117.330169" lat="33.979325"><ele>323.167247</ele><time>2025-04-04T00:30:03Z</time><extensions><speed>1.247332</speed><course>95.558565</course><hAcc>1.508961</hAcc><vAcc>0.889239</vAcc></extensions></trkpt>
      <trkpt lon="-117.330155" lat="33.979324"><ele>323.195084</ele><time>2025-04-04T00:30:04Z</time><extensions><speed>1.242327</speed><course>93.502558</course><hAcc>1.516319</hAcc><vAcc>0.892428</vAcc></extensions></trkpt>
      <trkpt lon="-117.330142" lat="33.979324"><ele>323.214575</ele><time>2025-04-04T00:30:05Z</time><extensions><speed>1.213515</speed><course>90.532567</course><hAcc>1.523085</hAcc><vAcc>0.895708</vAcc></extensions></trkpt>
      <trkpt lon="-117.330129" lat="33.979324"><ele>323.234086</ele><time>2025-04-04T00:30:06Z</time><extensions><speed>1.190960</speed><course>88.742431</course><hAcc>1.528715</hAcc><vAcc>0.899363</vAcc></extensions></trkpt>
      <trkpt lon="-117.330116" lat="33.979324"><ele>323.251621</ele><time>2025-04-04T00:30:07Z</time><extensions><speed>1.170677</speed><course>88.595343</course><hAcc>1.536392</hAcc><vAcc>0.904104</vAcc></extensions></trkpt>
      <trkpt lon="-117.330104" lat="33.979324"><ele>323.259316</ele><time>2025-04-04T00:30:08Z</time><extensions><speed>1.140621</speed><course>90.755868</course><hAcc>1.543982</hAcc><vAcc>0.910426</vAcc></extensions></trkpt>
      <trkpt lon="-117.330091" lat="33.979324"><ele>323.256212</ele><time>2025-04-04T00:30:09Z</time><extensions><speed>1.174965</speed><course>89.867646</course><hAcc>1.552991</hAcc><vAcc>0.918206</vAcc></extensions></trkpt>
      <trkpt lon="-117.330078" lat="33.979324"><ele>323.256970</ele><time>2025-04-04T00:30:10Z</time><extensions><speed>1.175925</speed><course>88.554676</course><hAcc>1.552323</hAcc><vAcc>0.924121</vAcc></extensions></trkpt>
      <trkpt lon="-117.330066" lat="33.979325"><ele>323.253274</ele><time>2025-04-04T00:30:11Z</time><extensions><speed>1.160841</speed><course>88.134062</course><hAcc>1.554270</hAcc><vAcc>0.930493</vAcc></extensions></trkpt>
      <trkpt lon="-117.330053" lat="33.979325"><ele>323.236270</ele><time>2025-04-04T00:30:12Z</time><extensions><speed>1.176057</speed><course>86.118230</course><hAcc>1.559403</hAcc><vAcc>0.936606</vAcc></extensions></trkpt>
      <trkpt lon="-117.330040" lat="33.979326"><ele>323.220461</ele><time>2025-04-04T00:30:13Z</time><extensions><speed>1.177649</speed><course>86.617982</course><hAcc>1.565368</hAcc><vAcc>0.944192</vAcc></extensions></trkpt>
      <trkpt lon="-117.330028" lat="33.979326"><ele>323.205308</ele><time>2025-04-04T00:30:14Z</time><extensions><speed>1.168020</speed><course>87.832731</course><hAcc>1.571502</hAcc><vAcc>0.949702</vAcc></extensions></trkpt>
      <trkpt lon="-117.330015" lat="33.979327"><ele>323.193017</ele><time>2025-04-04T00:30:15Z</time><extensions><speed>1.161912</speed><course>89.116779</course><hAcc>1.577180</hAcc><vAcc>0.953678</vAcc></extensions></trkpt>
      <trkpt lon="-117.330002" lat="33.979327"><ele>323.197101</ele><time>2025-04-04T00:30:16Z</time><extensions><speed>1.181374</speed><course>89.225712</course><hAcc>1.581590</hAcc><vAcc>0.956199</vAcc></extensions></trkpt>
      <trkpt lon="-117.329990" lat="33.979327"><ele>323.208839</ele><time>2025-04-04T00:30:17Z</time><extensions><speed>1.193900</speed><course>90.478176</course><hAcc>1.584674</hAcc><vAcc>0.959658</vAcc></extensions></trkpt>
      <trkpt lon="-117.329977" lat="33.979327"><ele>323.219186</ele><time>2025-04-04T00:30:18Z</time><extensions><speed>1.190846</speed><course>91.796913</course><hAcc>1.588817</hAcc><vAcc>0.962094</vAcc></extensions></trkpt>
      <trkpt lon="-117.329964" lat="33.979326"><ele>323.241403</ele><time>2025-04-04T00:30:19Z</time><extensions><speed>1.197155</speed><course>91.612698</course><hAcc>1.596278</hAcc><vAcc>0.962017</vAcc></extensions></trkpt>
      <trkpt lon="-117.329951" lat="33.979326"><ele>323.272271</ele><time>2025-04-04T00:30:20Z</time><extensions><speed>1.095038</speed><course>91.600641</course><hAcc>1.587859</hAcc><vAcc>0.960255</vAcc></extensions></trkpt>
      <trkpt lon="-117.329940" lat="33.979326"><ele>323.317350</ele><time>2025-04-04T00:30:21Z</time><extensions><speed>1.093021</speed><course>89.368156</course><hAcc>1.577185</hAcc><vAcc>0.956687</vAcc></extensions></trkpt>
      <trkpt lon="-117.329928" lat="33.979326"><ele>323.360093</ele><time>2025-04-04T00:30:22Z</time><extensions><speed>1.072858</speed><course>94.235883</course><hAcc>1.565480</hAcc><vAcc>0.952044</vAcc></extensions></trkpt>
      <trkpt lon="-117.329916" lat="33.979325"><ele>323.415727</ele><time>2025-04-04T00:30:23Z</time><extensions><speed>1.091417</speed><course>100.461850</course><hAcc>1.566593</hAcc><vAcc>0.947012</vAcc></extensions></trkpt>
      <trkpt lon="-117.329904" lat="33.979322"><ele>323.464281</ele><time>2025-04-04T00:30:24Z</time><extensions><speed>1.226807</speed><course>102.442565</course><hAcc>1.532591</hAcc><vAcc>0.941648</vAcc></extensions></trkpt>
      <trkpt lon="-117.329890" lat="33.979320"><ele>323.519101</ele><time>2025-04-04T00:30:25Z</time><extensions><speed>1.331433</speed><course>100.364476</course><hAcc>1.499080</hAcc><vAcc>0.935524</vAcc></extensions></trkpt>
      <trkpt lon="-117.329876" lat="33.979318"><ele>323.583773</ele><time>2025-04-04T00:30:26Z</time><extensions><speed>1.357520</speed><course>97.197508</course><hAcc>1.485516</hAcc><vAcc>0.928434</vAcc></extensions></trkpt>
      <trkpt lon="-117.329862" lat="33.979317"><ele>323.645119</ele><time>2025-04-04T00:30:27Z</time><extensions><speed>1.223897</speed><course>93.347512</course><hAcc>1.507853</hAcc><vAcc>0.921285</vAcc></extensions></trkpt>
      <trkpt lon="-117.329849" lat="33.979317"><ele>323.700636</ele><time>2025-04-04T00:30:28Z</time><extensions><speed>1.160698</speed><course>89.204455</course><hAcc>1.499963</hAcc><vAcc>0.914090</vAcc></extensions></trkpt>
      <trkpt lon="-117.329836" lat="33.979317"><ele>323.754804</ele><time>2025-04-04T00:30:29Z</time><extensions><speed>1.213890</speed><course>87.098208</course><hAcc>1.457173</hAcc><vAcc>0.906465</vAcc></extensions></trkpt>
      <trkpt lon="-117.329823" lat="33.979318"><ele>323.808222</ele><time>2025-04-04T00:30:30Z</time><extensions><speed>1.250005</speed><course>88.430474</course><hAcc>1.442286</hAcc><vAcc>0.899454</vAcc></extensions></trkpt>
      <trkpt lon="-117.329810" lat="33.979317"><ele>323.858669</ele><time>2025-04-04T00:30:31Z</time><extensions><speed>1.266274</speed><course>91.725810</course><hAcc>1.440919</hAcc><vAcc>0.893068</vAcc></extensions></trkpt>
      <trkpt lon="-117.329796" lat="33.979316"><ele>323.904602</ele><time>2025-04-04T00:30:32Z</time><extensions><speed>1.297399</speed><course>96.033201</course><hAcc>1.441112</hAcc><vAcc>0.887014</vAcc></extensions></trkpt>
      <trkpt lon="-117.329782" lat="33.979315"><ele>323.947532</ele><time>2025-04-04T00:30:33Z</time><extensions><speed>1.306731</speed><course>99.053563</course><hAcc>1.441974</hAcc><vAcc>0.882613</vAcc></extensions></trkpt>
      <trkpt lon="-117.329768" lat="33.979313"><ele>323.981919</ele><time>2025-04-04T00:30:34Z</time><extensions><speed>1.282391</speed><course>101.578586</course><hAcc>1.439982</hAcc><vAcc>0.878598</vAcc></extensions></trkpt>
      <trkpt lon="-117.329755" lat="33.979311"><ele>324.010484</ele><time>2025-04-04T00:30:35Z</time><extensions><speed>1.274472</speed><course>101.039566</course><hAcc>1.423120</hAcc><vAcc>0.875350</vAcc></extensions></trkpt>
      <trkpt lon="-117.329741" lat="33.979309"><ele>324.022966</ele><time>2025-04-04T00:30:36Z</time><extensions><speed>1.234072</speed><course>98.237437</course><hAcc>1.413925</hAcc><vAcc>0.871695</vAcc></extensions></trkpt>
      <trkpt lon="-117.329728" lat="33.979307"><ele>324.029590</ele><time>2025-04-04T00:30:37Z</time><extensions><speed>1.204089</speed><course>94.685198</course><hAcc>1.420835</hAcc><vAcc>0.868161</vAcc></extensions></trkpt>
      <trkpt lon="-117.329715" lat="33.979307"><ele>324.030611</ele><time>2025-04-04T00:30:38Z</time><extensions><speed>1.169224</speed><course>93.302806</course><hAcc>1.422017</hAcc><vAcc>0.863993</vAcc></extensions></trkpt>
      <trkpt lon="-117.329703" lat="33.979305"><ele>324.024584</ele><time>2025-04-04T00:30:39Z</time><extensions><speed>1.213330</speed><course>99.309802</course><hAcc>1.394822</hAcc><vAcc>0.860250</vAcc></extensions></trkpt>
      <trkpt lon="-117.329689" lat="33.979303"><ele>324.021241</ele><time>2025-04-04T00:30:40Z</time><extensions><speed>1.306114</speed><course>106.622977</course><hAcc>1.382897</hAcc><vAcc>0.856453</vAcc></extensions></trkpt>
      <trkpt lon="-117.329676" lat="33.979299"><ele>324.024858</ele><time>2025-04-04T00:30:41Z</time><extensions><speed>1.310554</speed><course>107.221144</course><hAcc>1.373986</hAcc><vAcc>0.851345</vAcc></extensions></trkpt>
      <trkpt lon="-117.329663" lat="33.979296"><ele>324.019763</ele><time>2025-04-04T00:30:42Z</time><extensions><speed>1.226864</speed><course>103.069505</course><hAcc>1.373888</hAcc><vAcc>0.846142</vAcc></extensions></trkpt>
      <trkpt lon="-117.329650" lat="33.979294"><ele>324.009326</ele><time>2025-04-04T00:30:43Z</time><extensions><speed>1.154552</speed><course>99.139623</course><hAcc>1.389544</hAcc><vAcc>0.840062</vAcc></extensions></trkpt>
      <trkpt lon="-117.329637" lat="33.979293"><ele>323.992334</ele><time>2025-04-04T00:30:44Z</time><extensions><speed>1.165806</speed><course>96.656286</course><hAcc>1.363225</hAcc><vAcc>0.833447</vAcc></extensions></trkpt>
      <trkpt lon="-117.329625" lat="33.979292"><ele>323.978121</ele><time>2025-04-04T00:30:45Z</time><extensions><speed>1.169875</speed><course>91.652902</course><hAcc>1.360796</hAcc><vAcc>0.826389</vAcc></extensions></trkpt>
      <trkpt lon="-117.329612" lat="33.979292"><ele>323.965836</ele><time>2025-04-04T00:30:46Z</time><extensions><speed>1.142134</speed><course>87.540915</course><hAcc>1.336061</hAcc><vAcc>0.819059</vAcc></extensions></trkpt>
      <trkpt lon="-117.329600" lat="33.979293"><ele>323.957161</ele><time>2025-04-04T00:30:47Z</time><extensions><speed>1.225066</speed><course>87.880551</course><hAcc>1.322497</hAcc><vAcc>0.811675</vAcc></extensions></trkpt>
      <trkpt lon="-117.329586" lat="33.979293"><ele>323.950055</ele><time>2025-04-04T00:30:48Z</time><extensions><speed>1.293074</speed><course>91.234301</course><hAcc>1.314595</hAcc><vAcc>0.804445</vAcc></extensions></trkpt>
      <trkpt lon="-117.329572" lat="33.979292"><ele>323.947184</ele><time>2025-04-04T00:30:49Z</time><extensions><speed>1.286997</speed><course>94.046791</course><hAcc>1.316198</hAcc><vAcc>0.797524</vAcc></extensions></trkpt>
      <trkpt lon="-117.329558" lat="33.979291"><ele>323.950180</ele><time>2025-04-04T00:30:50Z</time><extensions><speed>1.299708</speed><course>94.268792</course><hAcc>1.324120</hAcc><vAcc>0.791005</vAcc></extensions></trkpt>
      <trkpt lon="-117.329544" lat="33.979291"><ele>323.957282</ele><time>2025-04-04T00:30:51Z</time><extensions><speed>1.318023</speed><course>93.484892</course><hAcc>1.299680</hAcc><vAcc>0.784973</vAcc></extensions></trkpt>
      <trkpt lon="-117.329530" lat="33.979290"><ele>323.964991</ele><time>2025-04-04T00:30:52Z</time><extensions><speed>1.226458</speed><course>91.702125</course><hAcc>1.309967</hAcc><vAcc>0.779527</vAcc></extensions></trkpt>
      <trkpt lon="-117.329517" lat="33.979290"><ele>323.973200</ele><time>2025-04-04T00:30:53Z</time><extensions><speed>1.260563</speed><course>91.050323</course><hAcc>1.295179</hAcc><vAcc>0.774738</vAcc></extensions></trkpt>
      <trkpt lon="-117.329503" lat="33.979290"><ele>323.976102</ele><time>2025-04-04T00:30:54Z</time><extensions><speed>1.307805</speed><course>90.837364</course><hAcc>1.289912</hAcc><vAcc>0.770644</vAcc></extensions></trkpt>
      <trkpt lon="-117.329488" lat="33.979290"><ele>323.979116</ele><time>2025-04-04T00:30:55Z</time><extensions><speed>1.326905</speed><course>88.056960</course><hAcc>1.288811</hAcc><vAcc>0.767247</vAcc></extensions></trkpt>
      <trkpt lon="-117.329474" lat="33.979290"><ele>323.986045</ele><time>2025-04-04T00:30:56Z</time><extensions><speed>1.355793</speed><course>87.448468</course><hAcc>1.284336</hAcc><vAcc>0.764507</vAcc></extensions></trkpt>
      <trkpt lon="-117.329459" lat="33.979291"><ele>323.994966</ele><time>2025-04-04T00:30:57Z</time><extensions><speed>1.332372</speed><course>86.472485</course><hAcc>1.280676</hAcc><vAcc>0.762355</vAcc></extensions></trkpt>
      <trkpt lon="-117.329445" lat="33.979292"><ele>324.007536</ele><time>2025-04-04T00:30:58Z</time><extensions><speed>1.345807</speed><course>87.517072</course><hAcc>1.275586</hAcc><vAcc>0.760710</vAcc></extensions></trkpt>
      <trkpt lon="-117.329430" lat="33.979292"><ele>324.020121</ele><time>2025-04-04T00:30:59Z</time><extensions><speed>1.402433</speed><course>89.758376</course><hAcc>1.267858</hAcc><vAcc>0.759485</vAcc></extensions></trkpt>
      <trkpt lon="-117.329415" lat="33.979292"><ele>324.037392</ele><time>2025-04-04T00:31:00Z</time><extensions><speed>1.332127</speed><course>90.961603</course><hAcc>1.272901</hAcc><vAcc>0.758596</vAcc></extensions></trkpt>
      <trkpt lon="-117.329401" lat="33.979292"><ele>324.058355</ele><time>2025-04-04T00:31:01Z</time><extensions><speed>1.357444</speed><course>90.390066</course><hAcc>1.259246</hAcc><vAcc>0.757969</vAcc></extensions></trkpt>
      <trkpt lon="-117.329386" lat="33.979292"><ele>324.076384</ele><time>2025-04-04T00:31:02Z</time><extensions><speed>1.311392</speed><course>88.215341</course><hAcc>1.253054</hAcc><vAcc>0.757540</vAcc></extensions></trkpt>
      <trkpt lon="-117.329372" lat="33.979292"><ele>324.095383</ele><time>2025-04-04T00:31:03Z</time><extensions><speed>1.248843</speed><course>87.121912</course><hAcc>1.248066</hAcc><vAcc>0.757254</vAcc></extensions></trkpt>
      <trkpt lon="-117.329359" lat="33.979293"><ele>324.114972</ele><time>2025-04-04T00:31:04Z</time><extensions><speed>1.240151</speed><course>87.210519</course><hAcc>1.238464</hAcc><vAcc>0.757070</vAcc></extensions></trkpt>
      <trkpt lon="-117.329345" lat="33.979293"><ele>324.143055</ele><time>2025-04-04T00:31:05Z</time><extensions><speed>1.280701</speed><course>88.400655</course><hAcc>1.231493</hAcc><vAcc>0.756956</vAcc></extensions></trkpt>
      <trkpt lon="-117.329331" lat="33.979294"><ele>324.176116</ele><time>2025-04-04T00:31:06Z</time><extensions><speed>1.351553</speed><course>89.504237</course><hAcc>1.224265</hAcc><vAcc>0.756888</vAcc></extensions></trkpt>
      <trkpt lon="-117.329316" lat="33.979293"><ele>324.216734</ele><time>2025-04-04T00:31:07Z</time><extensions><speed>1.391644</speed><course>91.222807</course><hAcc>1.212624</hAcc><vAcc>0.756848</vAcc></extensions></trkpt>
      <trkpt lon="-117.329301" lat="33.979293"><ele>324.258152</ele><time>2025-04-04T00:31:08Z</time><extensions><speed>1.428302</speed><course>93.557137</course><hAcc>1.196691</hAcc><vAcc>0.756826</vAcc></extensions></trkpt>
      <trkpt lon="-117.329286" lat="33.979292"><ele>324.286440</ele><time>2025-04-04T00:31:09Z</time><extensions><speed>1.366901</speed><course>94.008298</course><hAcc>1.189052</hAcc><vAcc>0.756813</vAcc></extensions></trkpt>
      <trkpt lon="-117.329271" lat="33.979291"><ele>324.312819</ele><time>2025-04-04T00:31:10Z</time><extensions><speed>1.379633</speed><course>91.630990</course><hAcc>1.175243</hAcc><vAcc>0.756805</vAcc></extensions></trkpt>
      <trkpt lon="-117.329256" lat="33.979291"><ele>324.338418</ele><time>2025-04-04T00:31:11Z</time><extensions><speed>1.352381</speed><course>89.360497</course><hAcc>1.186189</hAcc><vAcc>0.756799</vAcc></extensions></trkpt>
      <trkpt lon="-117.329242" lat="33.979292"><ele>324.366082</ele><time>2025-04-04T00:31:12Z</time><extensions><speed>1.300507</speed><course>87.816125</course><hAcc>1.173435</hAcc><vAcc>0.756794</vAcc></extensions></trkpt>
      <trkpt lon="-117.329228" lat="33.979292"><ele>324.389425</ele><time>2025-04-04T00:31:13Z</time><extensions><speed>1.260162</speed><course>87.537334</course><hAcc>1.162861</hAcc><vAcc>0.756788</vAcc></extensions></trkpt>
      <trkpt lon="-117.329214" lat="33.979292"><ele>324.422788</ele><time>2025-04-04T00:31:14Z</time><extensions><speed>1.287623</speed><course>88.856297</course><hAcc>1.166643</hAcc><vAcc>0.756782</vAcc></extensions></trkpt>
      <trkpt lon="-117.329200" lat="33.979293"><ele>324.444522</ele><time>2025-04-04T00:31:15Z</time><extensions><speed>1.343918</speed><course>88.785603</course><hAcc>1.172521</hAcc><vAcc>0.756777</vAcc></extensions></trkpt>
      <trkpt lon="-117.329185" lat="33.979293"><ele>324.457318</ele><time>2025-04-04T00:31:16Z</time><extensions><speed>1.389184</speed><course>90.073063</course><hAcc>1.172606</hAcc><vAcc>0.756771</vAcc></extensions></trkpt>
      <trkpt lon="-117.329170" lat="33.979292"><ele>324.466253</ele><time>2025-04-04T00:31:17Z</time><extensions><speed>1.356431</speed><course>93.723957</course><hAcc>1.168027</hAcc><vAcc>0.756766</vAcc></extensions></trkpt>
      <trkpt lon="-117.329156" lat="33.979291"><ele>324.468995</ele><time>2025-04-04T00:31:18Z</time><extensions><speed>1.314607</speed><course>99.172115</course><hAcc>1.166336</hAcc><vAcc>0.756761</vAcc></extensions></trkpt>
      <trkpt lon="-117.329142" lat="33.979289"><ele>324.471502</ele><time>2025-04-04T00:31:19Z</time><extensions><speed>1.280837</speed><course>103.406106</course><hAcc>1.159126</hAcc><vAcc>0.756757</vAcc></extensions></trkpt>
      <trkpt lon="-117.329129" lat="33.979286"><ele>324.473516</ele><time>2025-04-04T00:31:20Z</time><extensions><speed>1.203771</speed><course>107.550675</course><hAcc>1.162177</hAcc><vAcc>0.756754</vAcc></extensions></trkpt>
      <trkpt lon="-117.329117" lat="33.979282"><ele>324.475816</ele><time>2025-04-04T00:31:21Z</time><extensions><speed>1.184089</speed><course>115.967930</course><hAcc>1.177264</hAcc><vAcc>0.756751</vAcc></extensions></trkpt>
      <trkpt lon="-117.329107" lat="33.979276"><ele>324.475822</ele><time>2025-04-04T00:31:22Z</time><extensions><speed>1.187493</speed><course>130.971849</course><hAcc>1.183434</hAcc><vAcc>0.756749</vAcc></extensions></trkpt>
      <trkpt lon="-117.329098" lat="33.979268"><ele>324.474044</ele><time>2025-04-04T00:31:23Z</time><extensions><speed>1.255406</speed><course>147.459530</course><hAcc>1.194169</hAcc><vAcc>0.756747</vAcc></extensions></trkpt>
      <trkpt lon="-117.329092" lat="33.979257"><ele>324.468276</ele><time>2025-04-04T00:31:24Z</time><extensions><speed>1.279020</speed><course>161.082660</course><hAcc>1.205275</hAcc><vAcc>0.756746</vAcc></extensions></trkpt>
      <trkpt lon="-117.329089" lat="33.979247"><ele>324.452276</ele><time>2025-04-04T00:31:25Z</time><extensions><speed>1.188655</speed><course>166.688985</course><hAcc>1.220283</hAcc><vAcc>0.756745</vAcc></extensions></trkpt>
      <trkpt lon="-117.329085" lat="33.979237"><ele>324.430637</ele><time>2025-04-04T00:31:26Z</time><extensions><speed>1.004274</speed><course>160.735024</course><hAcc>1.236036</hAcc><vAcc>0.756744</vAcc></extensions></trkpt>
      <trkpt lon="-117.329081" lat="33.979230"><ele>324.409285</ele><time>2025-04-04T00:31:27Z</time><extensions><speed>0.753396</speed><course>143.731606</course><hAcc>1.248788</hAcc><vAcc>0.756743</vAcc></extensions></trkpt>
      <trkpt lon="-117.329076" lat="33.979226"><ele>324.394594</ele><time>2025-04-04T00:31:28Z</time><extensions><speed>0.568009</speed><course>128.411376</course><hAcc>1.245590</hAcc><vAcc>0.756743</vAcc></extensions></trkpt>
      <trkpt lon="-117.329072" lat="33.979224"><ele>324.375657</ele><time>2025-04-04T00:31:29Z</time><extensions><speed>0.435815</speed><course>116.736194</course><hAcc>1.262266</hAcc><vAcc>0.756743</vAcc></extensions></trkpt>
      <trkpt lon="-117.329068" lat="33.979222"><ele>324.350279</ele><time>2025-04-04T00:31:30Z</time><extensions><speed>0.287927</speed><course>113.587851</course><hAcc>1.282171</hAcc><vAcc>0.756743</vAcc></extensions></trkpt>
      <trkpt lon="-117.329066" lat="33.979221"><ele>324.320648</ele><time>2025-04-04T00:31:31Z</time><extensions><speed>0.225997</speed><course>120.777600</course><hAcc>1.288011</hAcc><vAcc>0.756742</vAcc></extensions></trkpt>
      <trkpt lon="-117.329064" lat="33.979220"><ele>324.290429</ele><time>2025-04-04T00:31:32Z</time><extensions><speed>0.290687</speed><course>133.702366</course><hAcc>1.292520</hAcc><vAcc>0.756742</vAcc></extensions></trkpt>
      <trkpt lon="-117.329061" lat="33.979217"><ele>324.246406</ele><time>2025-04-04T00:31:33Z</time><extensions><speed>0.484755</speed><course>140.703006</course><hAcc>1.282733</hAcc><vAcc>0.756742</vAcc></extensions></trkpt>
      <trkpt lon="-117.329056" lat="33.979212"><ele>324.207049</ele><time>2025-04-04T00:31:34Z</time><extensions><speed>0.801479</speed><course>143.113519</course><hAcc>1.261649</hAcc><vAcc>0.756742</vAcc></extensions></trkpt>
      <trkpt lon="-117.329051" lat="33.979206"><ele>324.167808</ele><time>2025-04-04T00:31:35Z</time><extensions><speed>1.022750</speed><course>145.277004</course><hAcc>1.260382</hAcc><vAcc>0.756742</vAcc></extensions></trkpt>
      <trkpt lon="-117.329044" lat="33.979197"><ele>324.127776</ele><time>2025-04-04T00:31:36Z</time><extensions><speed>1.215504</speed><course>146.604731</course><hAcc>1.240430</hAcc><vAcc>0.756742</vAcc></extensions></trkpt>
      <trkpt lon="-117.329037" lat="33.979188"><ele>324.092075</ele><time>2025-04-04T00:31:37Z</time><extensions><speed>1.328051</speed><course>148.978325</course><hAcc>1.222512</hAcc><vAcc>0.756742</vAcc></extensions></trkpt>
      <trkpt lon="-117.329029" lat="33.979177"><ele>324.055327</ele><time>2025-04-04T00:31:38Z</time><extensions><speed>1.451368</speed><course>151.716249</course><hAcc>1.206538</hAcc><vAcc>0.756742</vAcc></extensions></trkpt>
      <trkpt lon="-117.329022" lat="33.979165"><ele>324.021389</ele><time>2025-04-04T00:31:39Z</time><extensions><speed>1.466349</speed><course>155.858893</course><hAcc>1.200831</hAcc><vAcc>0.756743</vAcc></extensions></trkpt>
      <trkpt lon="-117.329016" lat="33.979153"><ele>323.983588</ele><time>2025-04-04T00:31:40Z</time><extensions><speed>1.413134</speed><course>159.729487</course><hAcc>1.196324</hAcc><vAcc>0.756743</vAcc></extensions></trkpt>
      <trkpt lon="-117.329011" lat="33.979141"><ele>323.944633</ele><time>2025-04-04T00:31:41Z</time><extensions><speed>1.417513</speed><course>160.907922</course><hAcc>1.193068</hAcc><vAcc>0.756743</vAcc></extensions></trkpt>
      <trkpt lon="-117.329006" lat="33.979129"><ele>323.917441</ele><time>2025-04-04T00:31:42Z</time><extensions><speed>1.388002</speed><course>158.729064</course><hAcc>1.188597</hAcc><vAcc>0.756743</vAcc></extensions></trkpt>
      <trkpt lon="-117.329000" lat="33.979117"><ele>323.908168</ele><time>2025-04-04T00:31:43Z</time><extensions><speed>1.392157</speed><course>158.702645</course><hAcc>1.177143</hAcc><vAcc>0.756811</vAcc></extensions></trkpt>
      <trkpt lon="-117.328995" lat="33.979106"><ele>323.901036</ele><time>2025-04-04T00:31:44Z</time><extensions><speed>1.391974</speed><course>159.797586</course><hAcc>1.178409</hAcc><vAcc>0.756843</vAcc></extensions></trkpt>
      <trkpt lon="-117.328990" lat="33.979094"><ele>323.898391</ele><time>2025-04-04T00:31:45Z</time><extensions><speed>1.387477</speed><course>162.504369</course><hAcc>1.178732</hAcc><vAcc>0.756880</vAcc></extensions></trkpt>
      <trkpt lon="-117.328986" lat="33.979082"><ele>323.903931</ele><time>2025-04-04T00:31:46Z</time><extensions><speed>1.377468</speed><course>164.692632</course><hAcc>1.180218</hAcc><vAcc>0.756924</vAcc></extensions></trkpt>
      <trkpt lon="-117.328982" lat="33.979070"><ele>323.911891</ele><time>2025-04-04T00:31:47Z</time><extensions><speed>1.357482</speed><course>163.530345</course><hAcc>1.185384</hAcc><vAcc>0.756974</vAcc></extensions></trkpt>
      <trkpt lon="-117.328977" lat="33.979059"><ele>323.927716</ele><time>2025-04-04T00:31:48Z</time><extensions><speed>1.263165</speed><course>161.181713</course><hAcc>1.195708</hAcc><vAcc>0.757391</vAcc></extensions></trkpt>
      <trkpt lon="-117.328972" lat="33.979048"><ele>323.958690</ele><time>2025-04-04T00:31:49Z</time><extensions><speed>1.235352</speed><course>154.903902</course><hAcc>1.193852</hAcc><vAcc>0.757758</vAcc></extensions></trkpt>
      <trkpt lon="-117.328966" lat="33.979039"><ele>323.984876</ele><time>2025-04-04T00:31:50Z</time><extensions><speed>1.189776</speed><course>146.976600</course><hAcc>1.198367</hAcc><vAcc>0.763438</vAcc></extensions></trkpt>
      <trkpt lon="-117.328958" lat="33.979030"><ele>324.016022</ele><time>2025-04-04T00:31:51Z</time><extensions><speed>1.261387</speed><course>136.579529</course><hAcc>1.192841</hAcc><vAcc>0.773030</vAcc></extensions></trkpt>
      <trkpt lon="-117.328948" lat="33.979023"><ele>324.051423</ele><time>2025-04-04T00:31:52Z</time><extensions><speed>1.277383</speed><course>128.765982</course><hAcc>1.208578</hAcc><vAcc>0.788752</vAcc></extensions></trkpt>
      <trkpt lon="-117.328937" lat="33.979016"><ele>324.090019</ele><time>2025-04-04T00:31:53Z</time><extensions><speed>1.221319</speed><course>123.264075</course><hAcc>1.233341</hAcc><vAcc>0.813501</vAcc></extensions></trkpt>
      <trkpt lon="-117.328925" lat="33.979010"><ele>324.130716</ele><time>2025-04-04T00:31:54Z</time><extensions><speed>1.249581</speed><course>115.358945</course><hAcc>1.225901</hAcc><vAcc>0.850761</vAcc></extensions></trkpt>
      <trkpt lon="-117.328913" lat="33.979006"><ele>324.172723</ele><time>2025-04-04T00:31:55Z</time><extensions><speed>1.176095</speed><course>109.785775</course><hAcc>1.233889</hAcc><vAcc>0.904319</vAcc></extensions></trkpt>
      <trkpt lon="-117.328901" lat="33.979003"><ele>324.215524</ele><time>2025-04-04T00:31:56Z</time><extensions><speed>1.157451</speed><course>108.485738</course><hAcc>1.265683</hAcc><vAcc>0.977814</vAcc></extensions></trkpt>
      <trkpt lon="-117.328889" lat="33.978999"><ele>324.258759</ele><time>2025-04-04T00:31:57Z</time><extensions><speed>1.235131</speed><course>112.583558</course><hAcc>1.340641</hAcc><vAcc>1.074264</vAcc></extensions></trkpt>
      <trkpt lon="-117.328877" lat="33.978994"><ele>324.302178</ele><time>2025-04-04T00:31:58Z</time><extensions><speed>1.324150</speed><course>117.892610</course><hAcc>1.478730</hAcc><vAcc>1.195718</vAcc></extensions></trkpt>
      <trkpt lon="-117.328864" lat="33.978988"><ele>324.345585</ele><time>2025-04-04T00:31:59Z</time><extensions><speed>1.413243</speed><course>123.366042</course><hAcc>1.649895</hAcc><vAcc>1.343155</vAcc></extensions></trkpt>
    </trkseg>
  </trk>
</gpx>