<?xml version="1.0" encoding="UTF-8"?>
<gpx version="1.1" creator="Apple Health Export" xmlns="http://www.topografix.com/GPX/1/1" xmlns:xsi="http://www.w3.org/2001/XMLSchema-instance" xsi:schemaLocation="http://www.topografix.com/GPX/1/1 http://www.topografix.com/GPX/1/1/gpx.xsd">
  <metadata>
    <time>2026-01-11T07:57:29Z</time>
  </metadata>
  <trk>
    <name>Route 2024-01-27 2:19pm</name>
    <trkseg>
      <trkpt lon="-117.325220" lat="33.977436"><ele>324.920383</ele><time>2024-01-27T22:12:06Z</time><extensions><speed>1.011985</speed><course>27.136952</course><hAcc>2.610633</hAcc><vAcc>1.217036</vAcc></extensions></trkpt>
      <trkpt lon="-117.325214" lat="33.977443"><ele>324.923670</ele><time>2024-01-27T22:12:07Z</time><extensions><speed>1.001869</speed><course>25.294841</course><hAcc>2.495342</hAcc><vAcc>1.044922</vAcc></extensions></trkpt>
      <trkpt lon="-117.325208" lat="33.977450"><ele>324.927909</ele><time>2024-01-27T22:12:08Z</time><extensions><speed>0.999000</speed><course>25.782003</course><hAcc>2.387387</hAcc><vAcc>0.914290</vAcc></extensions></trkpt>
      <trkpt lon="-117.325203" lat="33.977457"><ele>324.934219</ele><time>2024-01-27T22:12:09Z</time><extensions><speed>0.933997</speed><course>24.510157</course><hAcc>2.276006</hAcc><vAcc>0.819057</vAcc></extensions></trkpt>
      <trkpt lon="-117.325198" lat="33.977463"><ele>324.941645</ele><time>2024-01-27T22:12:10Z</time><extensions><speed>0.879410</speed><course>24.962908</course><hAcc>2.150427</hAcc><vAcc>0.752996</vAcc></extensions></trkpt>
      <trkpt lon="-117.325193" lat="33.977469"><ele>324.952120</ele><time>2024-01-27T22:12:11Z</time><extensions><speed>0.810902</speed><course>26.306030</course><hAcc>2.042857</hAcc><vAcc>0.709703</vAcc></extensions></trkpt>
      <trkpt lon="-117.325189" lat="33.977475"><ele>324.966176</ele><time>2024-01-27T22:12:12Z</time><extensions><speed>0.687837</speed><course>25.620019</course><hAcc>1.980621</hAcc><vAcc>0.683019</vAcc></extensions></trkpt>
      <trkpt lon="-117.325185" lat="33.977479"><ele>324.984162</ele><time>2024-01-27T22:12:13Z</time><extensions><speed>0.591041</speed><course>26.183476</course><hAcc>1.921075</hAcc><vAcc>0.667583</vAcc></extensions></trkpt>
      <trkpt lon="-117.325182" lat="33.977483"><ele>325.006265</ele><time>2024-01-27T22:12:14Z</time><extensions><speed>0.476228</speed><course>28.868572</course><hAcc>1.857988</hAcc><vAcc>0.659197</vAcc></extensions></trkpt>
      <trkpt lon="-117.325180" lat="33.977487"><ele>325.032059</ele><time>2024-01-27T22:12:15Z</time><extensions><speed>0.519761</speed><course>32.060310</course><hAcc>1.792150</hAcc><vAcc>0.654870</vAcc></extensions></trkpt>
      <trkpt lon="-117.325176" lat="33.977490"><ele>325.060563</ele><time>2024-01-27T22:12:16Z</time><extensions><speed>0.526865</speed><course>40.011004</course><hAcc>1.738607</hAcc><vAcc>0.652650</vAcc></extensions></trkpt>
      <trkpt lon="-117.325171" lat="33.977492"><ele>325.091979</ele><time>2024-01-27T22:12:17Z</time><extensions><speed>0.679595</speed><course>80.484468</course><hAcc>1.698202</hAcc><vAcc>0.651367</vAcc></extensions></trkpt>
      <trkpt lon="-117.325162" lat="33.977492"><ele>325.127119</ele><time>2024-01-27T22:12:18Z</time><extensions><speed>0.878246</speed><course>90.387539</course><hAcc>1.665499</hAcc><vAcc>0.650392</vAcc></extensions></trkpt>
      <trkpt lon="-117.325152" lat="33.977492"><ele>325.165509</ele><time>2024-01-27T22:12:19Z</time><extensions><speed>0.922996</speed><course>91.422641</course><hAcc>1.631851</hAcc><vAcc>0.649435</vAcc></extensions></trkpt>
      <trkpt lon="-117.325141" lat="33.977491"><ele>325.206654</ele><time>2024-01-27T22:12:20Z</time><extensions><speed>1.130569</speed><course>98.432712</course><hAcc>1.601188</hAcc><vAcc>0.648405</vAcc></extensions></trkpt>
      <trkpt lon="-117.325128" lat="33.977488"><ele>325.250305</ele><time>2024-01-27T22:12:21Z</time><extensions><speed>1.184621</speed><course>106.774680</course><hAcc>1.577069</hAcc><vAcc>0.647315</vAcc></extensions></trkpt>
      <trkpt lon="-117.325116" lat="33.977485"><ele>325.296575</ele><time>2024-01-27T22:12:22Z</time><extensions><speed>1.146986</speed><course>111.356141</course><hAcc>1.556173</hAcc><vAcc>0.646216</vAcc></extensions></trkpt>
      <trkpt lon="-117.325104" lat="33.977481"><ele>325.345089</ele><time>2024-01-27T22:12:23Z</time><extensions><speed>1.093871</speed><course>110.850840</course><hAcc>1.536338</hAcc><vAcc>0.645166</vAcc></extensions></trkpt>
      <trkpt lon="-117.325092" lat="33.977477"><ele>325.395025</ele><time>2024-01-27T22:12:24Z</time><extensions><speed>1.036517</speed><course>112.098915</course><hAcc>1.518165</hAcc><vAcc>0.644212</vAcc></extensions></trkpt>
      <trkpt lon="-117.325082" lat="33.977473"><ele>325.445558</ele><time>2024-01-27T22:12:25Z</time><extensions><speed>0.984860</speed><course>123.399592</course><hAcc>1.506063</hAcc><vAcc>0.643383</vAcc></extensions></trkpt>
      <trkpt lon="-117.325073" lat="33.977468"><ele>325.496730</ele><time>2024-01-27T22:12:26Z</time><extensions><speed>0.988162</speed><course>122.323893</course><hAcc>1.496797</hAcc><vAcc>0.642692</vAcc></extensions></trkpt>
      <trkpt lon="-117.325062" lat="33.977464"><ele>325.547797</ele><time>2024-01-27T22:12:27Z</time><extensions><speed>0.996341</speed><course>111.026702</course><hAcc>1.498773</hAcc><vAcc>0.642138</vAcc></extensions></trkpt>
      <trkpt lon="-117.325051" lat="33.977460"><ele>325.599387</ele><time>2024-01-27T22:12:28Z</time><extensions><speed>1.092480</speed><course>119.728335</course><hAcc>1.485180</hAcc><vAcc>0.641708</vAcc></extensions></trkpt>
      <trkpt lon="-117.325040" lat="33.977454"><ele>325.657813</ele><time>2024-01-27T22:12:29Z</time><extensions><speed>1.143317</speed><course>126.425912</course><hAcc>1.460278</hAcc><vAcc>0.641928</vAcc></extensions></trkpt>
      <trkpt lon="-117.325029" lat="33.977448"><ele>325.719830</ele><time>2024-01-27T22:12:30Z</time><extensions><speed>1.176336</speed><course>125.631913</course><hAcc>1.449839</hAcc><vAcc>0.643005</vAcc></extensions></trkpt>
      <trkpt lon="-117.325017" lat="33.977443"><ele>325.786504</ele><time>2024-01-27T22:12:31Z</time><extensions><speed>1.204698</speed><course>118.799975</course><hAcc>1.445790</hAcc><vAcc>0.645280</vAcc></extensions></trkpt>
      <trkpt lon="-117.325005" lat="33.977438"><ele>325.860468</ele><time>2024-01-27T22:12:32Z</time><extensions><speed>1.220733</speed><course>112.542318</course><hAcc>1.450488</hAcc><vAcc>0.649073</vAcc></extensions></trkpt>
      <trkpt lon="-117.324992" lat="33.977434"><ele>325.943368</ele><time>2024-01-27T22:12:33Z</time><extensions><speed>1.240198</speed><course>108.911045</course><hAcc>1.463486</hAcc><vAcc>0.654672</vAcc></extensions></trkpt>
      <trkpt lon="-117.324979" lat="33.977430"><ele>326.032721</ele><time>2024-01-27T22:12:34Z</time><extensions><speed>1.267711</speed><course>111.188448</course><hAcc>1.477987</hAcc><vAcc>0.662280</vAcc></extensions></trkpt>
      <trkpt lon="-117.324967" lat="33.977426"><ele>326.121872</ele><time>2024-01-27T22:12:35Z</time><extensions><speed>1.260411</speed><course>112.296764</course><hAcc>1.492865</hAcc><vAcc>0.672007</vAcc></extensions></trkpt>
      <trkpt lon="-117.324954" lat="33.977422"><ele>326.213599</ele><time>2024-01-27T22:12:36Z</time><extensions><speed>1.255978</speed><course>112.170264</course><hAcc>1.510811</hAcc><vAcc>0.683833</vAcc></extensions></trkpt>
      <trkpt lon="-117.324941" lat="33.977418"><ele>326.306452</ele><time>2024-01-27T22:12:37Z</time><extensions><speed>1.257632</speed><course>112.028838</course><hAcc>1.534157</hAcc><vAcc>0.697652</vAcc></extensions></trkpt>
      <trkpt lon="-117.324929" lat="33.977413"><ele>326.404702</ele><time>2024-01-27T22:12:38Z</time><extensions><speed>1.264890</speed><course>110.646622</course><hAcc>1.556720</hAcc><vAcc>0.712899</vAcc></extensions></trkpt>
      <trkpt lon="-117.324914" lat="33.977410"><ele>326.511741</ele><time>2024-01-27T22:12:39Z</time><extensions><speed>1.484886</speed><course>105.139230</course><hAcc>1.514267</hAcc><vAcc>0.728785</vAcc></extensions></trkpt>
      <trkpt lon="-117.324899" lat="33.977406"><ele>326.615145</ele><time>2024-01-27T22:12:40Z</time><extensions><speed>1.504641</speed><course>103.452538</course><hAcc>1.572027</hAcc><vAcc>0.744385</vAcc></extensions></trkpt>
      <trkpt lon="-117.324884" lat="33.977403"><ele>326.737137</ele><time>2024-01-27T22:12:41Z</time><extensions><speed>1.417834</speed><course>105.905529</course><hAcc>1.672444</hAcc><vAcc>0.758952</vAcc></extensions></trkpt>
      <trkpt lon="-117.324870" lat="33.977399"><ele>326.847366</ele><time>2024-01-27T22:12:42Z</time><extensions><speed>1.291266</speed><course>110.757973</course><hAcc>1.753128</hAcc><vAcc>0.772039</vAcc></extensions></trkpt>
      <trkpt lon="-117.324857" lat="33.977395"><ele>326.937552</ele><time>2024-01-27T22:12:43Z</time><extensions><speed>1.195423</speed><course>115.980035</course><hAcc>1.794558</hAcc><vAcc>0.783441</vAcc></extensions></trkpt>
      <trkpt lon="-117.324846" lat="33.977390"><ele>327.014932</ele><time>2024-01-27T22:12:44Z</time><extensions><speed>1.123572</speed><course>121.075960</course><hAcc>1.792617</hAcc><vAcc>0.793112</vAcc></extensions></trkpt>
      <trkpt lon="-117.324836" lat="33.977384"><ele>327.080779</ele><time>2024-01-27T22:12:45Z</time><extensions><speed>1.052240</speed><course>125.925969</course><hAcc>1.769997</hAcc><vAcc>0.801119</vAcc></extensions></trkpt>
      <trkpt lon="-117.324827" lat="33.977379"><ele>327.128950</ele><time>2024-01-27T22:12:46Z</time><extensions><speed>1.022510</speed><course>126.754650</course><hAcc>1.755627</hAcc><vAcc>0.807607</vAcc></extensions></trkpt>
      <trkpt lon="-117.324818" lat="33.977373"><ele>327.163750</ele><time>2024-01-27T22:12:47Z</time><extensions><speed>1.069707</speed><course>126.087099</course><hAcc>1.757131</hAcc><vAcc>0.812772</vAcc></extensions></trkpt>
      <trkpt lon="-117.324808" lat="33.977368"><ele>327.197584</ele><time>2024-01-27T22:12:48Z</time><extensions><speed>1.114790</speed><course>121.442689</course><hAcc>1.735480</hAcc><vAcc>0.816781</vAcc></extensions></trkpt>
      <trkpt lon="-117.324798" lat="33.977362"><ele>327.222396</ele><time>2024-01-27T22:12:49Z</time><extensions><speed>1.170093</speed><course>119.943175</course><hAcc>1.711926</hAcc><vAcc>0.819767</vAcc></extensions></trkpt>
      <trkpt lon="-117.324787" lat="33.977357"><ele>327.236460</ele><time>2024-01-27T22:12:50Z</time><extensions><speed>1.186306</speed><course>122.233726</course><hAcc>1.700134</hAcc><vAcc>0.821901</vAcc></extensions></trkpt>
      <trkpt lon="-117.324776" lat="33.977351"><ele>327.237577</ele><time>2024-01-27T22:12:51Z</time><extensions><speed>1.141563</speed><course>123.860465</course><hAcc>1.696249</hAcc><vAcc>0.823346</vAcc></extensions></trkpt>
      <trkpt lon="-117.324766" lat="33.977346"><ele>327.234428</ele><time>2024-01-27T22:12:52Z</time><extensions><speed>1.114967</speed><course>123.008003</course><hAcc>1.695098</hAcc><vAcc>0.824247</vAcc></extensions></trkpt>
      <trkpt lon="-117.324756" lat="33.977340"><ele>327.232295</ele><time>2024-01-27T22:12:53Z</time><extensions><speed>1.100422</speed><course>123.913945</course><hAcc>1.696550</hAcc><vAcc>0.824691</vAcc></extensions></trkpt>
      <trkpt lon="-117.324746" lat="33.977335"><ele>327.232455</ele><time>2024-01-27T22:12:54Z</time><extensions><speed>1.086609</speed><course>122.228516</course><hAcc>1.696625</hAcc><vAcc>0.824845</vAcc></extensions></trkpt>
      <trkpt lon="-117.324736" lat="33.977330"><ele>327.230136</ele><time>2024-01-27T22:12:55Z</time><extensions><speed>1.105590</speed><course>119.516903</course><hAcc>1.697284</hAcc><vAcc>0.824784</vAcc></extensions></trkpt>
      <trkpt lon="-117.324725" lat="33.977325"><ele>327.224118</ele><time>2024-01-27T22:12:56Z</time><extensions><speed>1.161307</speed><course>115.139742</course><hAcc>1.700357</hAcc><vAcc>0.824548</vAcc></extensions></trkpt>
      <trkpt lon="-117.324713" lat="33.977321"><ele>327.224126</ele><time>2024-01-27T22:12:57Z</time><extensions><speed>1.214141</speed><course>111.857881</course><hAcc>1.706989</hAcc><vAcc>0.824167</vAcc></extensions></trkpt>
      <trkpt lon="-117.324701" lat="33.977317"><ele>327.247285</ele><time>2024-01-27T22:12:58Z</time><extensions><speed>1.193061</speed><course>109.155694</course><hAcc>1.710967</hAcc><vAcc>0.823670</vAcc></extensions></trkpt>
      <trkpt lon="-117.324689" lat="33.977314"><ele>327.273689</ele><time>2024-01-27T22:12:59Z</time><extensions><speed>1.099069</speed><course>107.460359</course><hAcc>1.712091</hAcc><vAcc>0.823057</vAcc></extensions></trkpt>
      <trkpt lon="-117.324678" lat="33.977311"><ele>327.286602</ele><time>2024-01-27T22:13:00Z</time><extensions><speed>0.995413</speed><course>105.710445</course><hAcc>1.715763</hAcc><vAcc>0.822455</vAcc></extensions></trkpt>
      <trkpt lon="-117.324668" lat="33.977309"><ele>327.303363</ele><time>2024-01-27T22:13:01Z</time><extensions><speed>0.932505</speed><course>103.663682</course><hAcc>1.721184</hAcc><vAcc>0.821904</vAcc></extensions></trkpt>
      <trkpt lon="-117.324658" lat="33.977307"><ele>327.324002</ele><time>2024-01-27T22:13:02Z</time><extensions><speed>0.901764</speed><course>99.032681</course><hAcc>1.726165</hAcc><vAcc>0.821415</vAcc></extensions></trkpt>
      <trkpt lon="-117.324649" lat="33.977307"><ele>327.350331</ele><time>2024-01-27T22:13:03Z</time><extensions><speed>0.868491</speed><course>92.749029</course><hAcc>1.730423</hAcc><vAcc>0.821009</vAcc></extensions></trkpt>
      <trkpt lon="-117.324640" lat="33.977307"><ele>327.388554</ele><time>2024-01-27T22:13:04Z</time><extensions><speed>0.786187</speed><course>83.044750</course><hAcc>1.735391</hAcc><vAcc>0.820663</vAcc></extensions></trkpt>
      <trkpt lon="-117.324632" lat="33.977308"><ele>327.426869</ele><time>2024-01-27T22:13:05Z</time><extensions><speed>0.704414</speed><course>74.526025</course><hAcc>1.733449</hAcc><vAcc>0.820421</vAcc></extensions></trkpt>
      <trkpt lon="-117.324625" lat="33.977310"><ele>327.460904</ele><time>2024-01-27T22:13:06Z</time><extensions><speed>0.749211</speed><course>69.482540</course><hAcc>1.724885</hAcc><vAcc>0.820224</vAcc></extensions></trkpt>
      <trkpt lon="-117.324616" lat="33.977313"><ele>327.491638</ele><time>2024-01-27T22:13:07Z</time><extensions><speed>0.900089</speed><course>68.848706</course><hAcc>1.729613</hAcc><vAcc>0.820088</vAcc></extensions></trkpt>
      <trkpt lon="-117.324607" lat="33.977316"><ele>327.516863</ele><time>2024-01-27T22:13:08Z</time><extensions><speed>0.994263</speed><course>68.339653</course><hAcc>1.730042</hAcc><vAcc>0.820055</vAcc></extensions></trkpt>
      <trkpt lon="-117.324596" lat="33.977319"><ele>327.542241</ele><time>2024-01-27T22:13:09Z</time><extensions><speed>1.108383</speed><course>71.200924</course><hAcc>1.712168</hAcc><vAcc>0.820115</vAcc></extensions></trkpt>
      <trkpt lon="-117.324584" lat="33.977323"><ele>327.568744</ele><time>2024-01-27T22:13:10Z</time><extensions><speed>1.163954</speed><course>73.579669</course><hAcc>1.691705</hAcc><vAcc>0.820275</vAcc></extensions></trkpt>
      <trkpt lon="-117.324572" lat="33.977325"><ele>327.603089</ele><time>2024-01-27T22:13:11Z</time><extensions><speed>1.169122</speed><course>74.607074</course><hAcc>1.677691</hAcc><vAcc>0.820527</vAcc></extensions></trkpt>
      <trkpt lon="-117.324559" lat="33.977328"><ele>327.640236</ele><time>2024-01-27T22:13:12Z</time><extensions><speed>1.312131</speed><course>76.625769</course><hAcc>1.687074</hAcc><vAcc>0.820853</vAcc></extensions></trkpt>
      <trkpt lon="-117.324545" lat="33.977331"><ele>327.686794</ele><time>2024-01-27T22:13:13Z</time><extensions><speed>1.357353</speed><course>78.904327</course><hAcc>1.712690</hAcc><vAcc>0.821228</vAcc></extensions></trkpt>
      <trkpt lon="-117.324531" lat="33.977333"><ele>327.737812</ele><time>2024-01-27T22:13:14Z</time><extensions><speed>1.324816</speed><course>77.613145</course><hAcc>1.680951</hAcc><vAcc>0.821641</vAcc></extensions></trkpt>
      <trkpt lon="-117.324517" lat="33.977336"><ele>327.802430</ele><time>2024-01-27T22:13:15Z</time><extensions><speed>1.278649</speed><course>77.936278</course><hAcc>1.666066</hAcc><vAcc>0.822094</vAcc></extensions></trkpt>
      <trkpt lon="-117.324504" lat="33.977338"><ele>327.874949</ele><time>2024-01-27T22:13:16Z</time><extensions><speed>1.256251</speed><course>78.976218</course><hAcc>1.669539</hAcc><vAcc>0.822580</vAcc></extensions></trkpt>
      <trkpt lon="-117.324490" lat="33.977340"><ele>327.953286</ele><time>2024-01-27T22:13:17Z</time><extensions><speed>1.248529</speed><course>78.646731</course><hAcc>1.672205</hAcc><vAcc>0.823108</vAcc></extensions></trkpt>
      <trkpt lon="-117.324477" lat="33.977342"><ele>328.035288</ele><time>2024-01-27T22:13:18Z</time><extensions><speed>1.244953</speed><course>77.657523</course><hAcc>1.664485</hAcc><vAcc>0.823671</vAcc></extensions></trkpt>
      <trkpt lon="-117.324464" lat="33.977345"><ele>328.126341</ele><time>2024-01-27T22:13:19Z</time><extensions><speed>1.202170</speed><course>76.136889</course><hAcc>1.647063</hAcc><vAcc>0.824276</vAcc></extensions></trkpt>
      <trkpt lon="-117.324452" lat="33.977348"><ele>328.231302</ele><time>2024-01-27T22:13:20Z</time><extensions><speed>1.236899</speed><course>73.207822</course><hAcc>1.631147</hAcc><vAcc>0.824891</vAcc></extensions></trkpt>
      <trkpt lon="-117.324438" lat="33.977351"><ele>328.331615</ele><time>2024-01-27T22:13:21Z</time><extensions><speed>1.317351</speed><course>71.470507</course><hAcc>1.646586</hAcc><vAcc>0.825489</vAcc></extensions></trkpt>
      <trkpt lon="-117.324426" lat="33.977355"><ele>328.445443</ele><time>2024-01-27T22:13:22Z</time><extensions><speed>1.196489</speed><course>66.889844</course><hAcc>1.693596</hAcc><vAcc>0.826033</vAcc></extensions></trkpt>
      <trkpt lon="-117.324416" lat="33.977359"><ele>328.548238</ele><time>2024-01-27T22:13:23Z</time><extensions><speed>0.863878</speed><course>70.877384</course><hAcc>1.645205</hAcc><vAcc>0.826523</vAcc></extensions></trkpt>
      <trkpt lon="-117.324408" lat="33.977361"><ele>328.650359</ele><time>2024-01-27T22:13:24Z</time><extensions><speed>0.700158</speed><course>70.993438</course><hAcc>1.627777</hAcc><vAcc>0.826948</vAcc></extensions></trkpt>
      <trkpt lon="-117.324401" lat="33.977363"><ele>328.745681</ele><time>2024-01-27T22:13:25Z</time><extensions><speed>0.685479</speed><course>61.774540</course><hAcc>1.642241</hAcc><vAcc>0.827278</vAcc></extensions></trkpt>
      <trkpt lon="-117.324394" lat="33.977367"><ele>328.828795</ele><time>2024-01-27T22:13:26Z</time><extensions><speed>0.742119</speed><course>57.787433</course><hAcc>1.658371</hAcc><vAcc>0.827524</vAcc></extensions></trkpt>
      <trkpt lon="-117.324387" lat="33.977370"><ele>328.879760</ele><time>2024-01-27T22:13:27Z</time><extensions><speed>0.789592</speed><course>59.873772</course><hAcc>1.671191</hAcc><vAcc>0.827688</vAcc></extensions></trkpt>
      <trkpt lon="-117.324379" lat="33.977374"><ele>328.904346</ele><time>2024-01-27T22:13:28Z</time><extensions><speed>0.781106</speed><course>63.676674</course><hAcc>1.680998</hAcc><vAcc>0.827790</vAcc></extensions></trkpt>
      <trkpt lon="-117.324372" lat="33.977376"><ele>328.914923</ele><time>2024-01-27T22:13:29Z</time><extensions><speed>0.734127</speed><course>72.217383</course><hAcc>1.692275</hAcc><vAcc>0.827844</vAcc></extensions></trkpt>
      <trkpt lon="-117.324365" lat="33.977378"><ele>328.904276</ele><time>2024-01-27T22:13:30Z</time><extensions><speed>0.594632</speed><course>80.319163</course><hAcc>1.702715</hAcc><vAcc>0.827826</vAcc></extensions></trkpt>
      <trkpt lon="-117.324360" lat="33.977378"><ele>328.893778</ele><time>2024-01-27T22:13:31Z</time><extensions><speed>0.270790</speed><course>99.506978</course><hAcc>1.707126</hAcc><vAcc>0.827751</vAcc></extensions></trkpt>
      <trkpt lon="-117.324357" lat="33.977377"><ele>328.865817</ele><time>2024-01-27T22:13:32Z</time><extensions><speed>0.321799</speed><course>121.397990</course><hAcc>1.693598</hAcc><vAcc>0.827625</vAcc></extensions></trkpt>
      <trkpt lon="-117.324354" lat="33.977375"><ele>328.829097</ele><time>2024-01-27T22:13:33Z</time><extensions><speed>0.480329</speed><course>130.323654</course><hAcc>1.686919</hAcc><vAcc>0.827459</vAcc></extensions></trkpt>
      <trkpt lon="-117.324349" lat="33.977371"><ele>328.788531</ele><time>2024-01-27T22:13:34Z</time><extensions><speed>0.724163</speed><course>140.244977</course><hAcc>1.694211</hAcc><vAcc>0.827277</vAcc></extensions></trkpt>
      <trkpt lon="-117.324343" lat="33.977364"><ele>328.737829</ele><time>2024-01-27T22:13:35Z</time><extensions><speed>1.047360</speed><course>144.181350</course><hAcc>1.700853</hAcc><vAcc>0.827101</vAcc></extensions></trkpt>
      <trkpt lon="-117.324335" lat="33.977356"><ele>328.680809</ele><time>2024-01-27T22:13:36Z</time><extensions><speed>1.304352</speed><course>140.482633</course><hAcc>1.696067</hAcc><vAcc>0.826926</vAcc></extensions></trkpt>
      <trkpt lon="-117.324325" lat="33.977346"><ele>328.618896</ele><time>2024-01-27T22:13:37Z</time><extensions><speed>1.510266</speed><course>139.262190</course><hAcc>1.688126</hAcc><vAcc>0.826770</vAcc></extensions></trkpt>
      <trkpt lon="-117.324314" lat="33.977336"><ele>328.548453</ele><time>2024-01-27T22:13:38Z</time><extensions><speed>1.567595</speed><course>137.084043</course><hAcc>1.684431</hAcc><vAcc>0.826609</vAcc></extensions></trkpt>
      <trkpt lon="-117.324303" lat="33.977326"><ele>328.467356</ele><time>2024-01-27T22:13:39Z</time><extensions><speed>1.491234</speed><course>135.059278</course><hAcc>1.684596</hAcc><vAcc>0.826428</vAcc></extensions></trkpt>
      <trkpt lon="-117.324291" lat="33.977316"><ele>328.393043</ele><time>2024-01-27T22:13:40Z</time><extensions><speed>1.478127</speed><course>135.807415</course><hAcc>1.682047</hAcc><vAcc>0.826241</vAcc></extensions></trkpt>
      <trkpt lon="-117.324280" lat="33.977306"><ele>328.328691</ele><time>2024-01-27T22:13:41Z</time><extensions><speed>1.506305</speed><course>137.218725</course><hAcc>1.680271</hAcc><vAcc>0.826118</vAcc></extensions></trkpt>
      <trkpt lon="-117.324269" lat="33.977296"><ele>328.274020</ele><time>2024-01-27T22:13:42Z</time><extensions><speed>1.553157</speed><course>137.977600</course><hAcc>1.679625</hAcc><vAcc>0.825976</vAcc></extensions></trkpt>
      <trkpt lon="-117.324258" lat="33.977285"><ele>328.243925</ele><time>2024-01-27T22:13:43Z</time><extensions><speed>1.531805</speed><course>140.026089</course><hAcc>1.679309</hAcc><vAcc>0.825887</vAcc></extensions></trkpt>
      <trkpt lon="-117.324248" lat="33.977275"><ele>328.223866</ele><time>2024-01-27T22:13:44Z</time><extensions><speed>1.394931</speed><course>143.747863</course><hAcc>1.679074</hAcc><vAcc>0.825802</vAcc></extensions></trkpt>
      <trkpt lon="-117.324239" lat="33.977264"><ele>328.208137</ele><time>2024-01-27T22:13:45Z</time><extensions><speed>1.415516</speed><course>145.798894</course><hAcc>1.680393</hAcc><vAcc>0.825749</vAcc></extensions></trkpt>
      <trkpt lon="-117.324230" lat="33.977253"><ele>328.222441</ele><time>2024-01-27T22:13:46Z</time><extensions><speed>1.509685</speed><course>146.467695</course><hAcc>1.683391</hAcc><vAcc>0.825734</vAcc></extensions></trkpt>
      <trkpt lon="-117.324221" lat="33.977242"><ele>328.242409</ele><time>2024-01-27T22:13:47Z</time><extensions><speed>1.585599</speed><course>146.422453</course><hAcc>1.673939</hAcc><vAcc>0.825757</vAcc></extensions></trkpt>
      <trkpt lon="-117.324211" lat="33.977229"><ele>328.275503</ele><time>2024-01-27T22:13:48Z</time><extensions><speed>1.709304</speed><course>146.332343</course><hAcc>1.660351</hAcc><vAcc>0.825816</vAcc></extensions></trkpt>
      <trkpt lon="-117.324200" lat="33.977216"><ele>328.327931</ele><time>2024-01-27T22:13:49Z</time><extensions><speed>1.855620</speed><course>145.177526</course><hAcc>1.652767</hAcc><vAcc>0.825896</vAcc></extensions></trkpt>
      <trkpt lon="-117.324189" lat="33.977202"><ele>328.395677</ele><time>2024-01-27T22:13:50Z</time><extensions><speed>1.947148</speed><course>144.848958</course><hAcc>1.660473</hAcc><vAcc>0.825988</vAcc></extensions></trkpt>
      <trkpt lon="-117.324177" lat="33.977188"><ele>328.477242</ele><time>2024-01-27T22:13:51Z</time><extensions><speed>1.793763</speed><course>146.796155</course><hAcc>1.681535</hAcc><vAcc>0.826110</vAcc></extensions></trkpt>
      <trkpt lon="-117.324167" lat="33.977175"><ele>328.574897</ele><time>2024-01-27T22:13:52Z</time><extensions><speed>1.728931</speed><course>150.184948</course><hAcc>1.665374</hAcc><vAcc>0.826225</vAcc></extensions></trkpt>
      <trkpt lon="-117.324158" lat="33.977162"><ele>328.687241</ele><time>2024-01-27T22:13:53Z</time><extensions><speed>1.549624</speed><course>151.898400</course><hAcc>1.665943</hAcc><vAcc>0.826320</vAcc></extensions></trkpt>
      <trkpt lon="-117.324151" lat="33.977150"><ele>328.814035</ele><time>2024-01-27T22:13:54Z</time><extensions><speed>1.332481</speed><course>147.692954</course><hAcc>1.666265</hAcc><vAcc>0.826420</vAcc></extensions></trkpt>
      <trkpt lon="-117.324142" lat="33.977141"><ele>328.950485</ele><time>2024-01-27T22:13:55Z</time><extensions><speed>1.191681</speed><course>139.244983</course><hAcc>1.672816</hAcc><vAcc>0.826528</vAcc></extensions></trkpt>
      <trkpt lon="-117.324133" lat="33.977134"><ele>329.078145</ele><time>2024-01-27T22:13:56Z</time><extensions><speed>1.208792</speed><course>131.557748</course><hAcc>1.681320</hAcc><vAcc>0.826636</vAcc></extensions></trkpt>
      <trkpt lon="-117.324123" lat="33.977127"><ele>329.210521</ele><time>2024-01-27T22:13:57Z</time><extensions><speed>1.173633</speed><course>126.583470</course><hAcc>1.687860</hAcc><vAcc>0.826746</vAcc></extensions></trkpt>
      <trkpt lon="-117.324113" lat="33.977121"><ele>329.340670</ele><time>2024-01-27T22:13:58Z</time><extensions><speed>1.116424</speed><course>123.773476</course><hAcc>1.690576</hAcc><vAcc>0.826884</vAcc></extensions></trkpt>
      <trkpt lon="-117.324103" lat="33.977115"><ele>329.457077</ele><time>2024-01-27T22:13:59Z</time><extensions><speed>1.076629</speed><course>124.831769</course><hAcc>1.688573</hAcc><vAcc>0.826992</vAcc></extensions></trkpt>
      <trkpt lon="-117.324093" lat="33.977110"><ele>329.573936</ele><time>2024-01-27T22:14:00Z</time><extensions><speed>1.036869</speed><course>120.867905</course><hAcc>1.683212</hAcc><vAcc>0.827097</vAcc></extensions></trkpt>
      <trkpt lon="-117.324083" lat="33.977106"><ele>329.688406</ele><time>2024-01-27T22:14:01Z</time><extensions><speed>1.124486</speed><course>115.044498</course><hAcc>1.692089</hAcc><vAcc>0.827185</vAcc></extensions></trkpt>
      <trkpt lon="-117.324071" lat="33.977102"><ele>329.796332</ele><time>2024-01-27T22:14:02Z</time><extensions><speed>1.224727</speed><course>109.807826</course><hAcc>1.680041</hAcc><vAcc>0.827293</vAcc></extensions></trkpt>
      <trkpt lon="-117.324058" lat="33.977099"><ele>329.906449</ele><time>2024-01-27T22:14:03Z</time><extensions><speed>1.229303</speed><course>104.480239</course><hAcc>1.666641</hAcc><vAcc>0.827410</vAcc></extensions></trkpt>
      <trkpt lon="-117.324046" lat="33.977096"><ele>330.009773</ele><time>2024-01-27T22:14:04Z</time><extensions><speed>1.189975</speed><course>100.915446</course><hAcc>1.665481</hAcc><vAcc>0.827523</vAcc></extensions></trkpt>
      <trkpt lon="-117.324033" lat="33.977094"><ele>330.116400</ele><time>2024-01-27T22:14:05Z</time><extensions><speed>1.146538</speed><course>102.047884</course><hAcc>1.676084</hAcc><vAcc>0.827636</vAcc></extensions></trkpt>
      <trkpt lon="-117.324021" lat="33.977092"><ele>330.225976</ele><time>2024-01-27T22:14:06Z</time><extensions><speed>1.175638</speed><course>105.879503</course><hAcc>1.664260</hAcc><vAcc>0.827752</vAcc></extensions></trkpt>
      <trkpt lon="-117.324009" lat="33.977089"><ele>330.346012</ele><time>2024-01-27T22:14:07Z</time><extensions><speed>1.194160</speed><course>106.933971</course><hAcc>1.653860</hAcc><vAcc>0.827874</vAcc></extensions></trkpt>
      <trkpt lon="-117.323996" lat="33.977086"><ele>330.453182</ele><time>2024-01-27T22:14:08Z</time><extensions><speed>1.179600</speed><course>102.281368</course><hAcc>1.657360</hAcc><vAcc>0.827973</vAcc></extensions></trkpt>
      <trkpt lon="-117.323984" lat="33.977084"><ele>330.564973</ele><time>2024-01-27T22:14:09Z</time><extensions><speed>1.165138</speed><course>98.156926</course><hAcc>1.659457</hAcc><vAcc>0.828069</vAcc></extensions></trkpt>
      <trkpt lon="-117.323972" lat="33.977083"><ele>330.676044</ele><time>2024-01-27T22:14:10Z</time><extensions><speed>1.057790</speed><course>96.427895</course><hAcc>1.678159</hAcc><vAcc>0.828159</vAcc></extensions></trkpt>
      <trkpt lon="-117.323960" lat="33.977082"><ele>330.776014</ele><time>2024-01-27T22:14:11Z</time><extensions><speed>1.053820</speed><course>92.213015</course><hAcc>1.662080</hAcc><vAcc>0.828262</vAcc></extensions></trkpt>
      <trkpt lon="-117.323949" lat="33.977082"><ele>330.868926</ele><time>2024-01-27T22:14:12Z</time><extensions><speed>1.054522</speed><course>91.957762</course><hAcc>1.652060</hAcc><vAcc>0.828380</vAcc></extensions></trkpt>
      <trkpt lon="-117.323937" lat="33.977081"><ele>330.971512</ele><time>2024-01-27T22:14:13Z</time><extensions><speed>1.097032</speed><course>96.249568</course><hAcc>1.645122</hAcc><vAcc>0.828515</vAcc></extensions></trkpt>
      <trkpt lon="-117.323925" lat="33.977079"><ele>331.076380</ele><time>2024-01-27T22:14:14Z</time><extensions><speed>1.113593</speed><course>101.303870</course><hAcc>1.632702</hAcc><vAcc>0.828686</vAcc></extensions></trkpt>
      <trkpt lon="-117.323914" lat="33.977077"><ele>331.182255</ele><time>2024-01-27T22:14:15Z</time><extensions><speed>1.106961</speed><course>106.919371</course><hAcc>1.624629</hAcc><vAcc>0.828857</vAcc></extensions></trkpt>
      <trkpt lon="-117.323903" lat="33.977074"><ele>331.288761</ele><time>2024-01-27T22:14:16Z</time><extensions><speed>1.066969</speed><course>111.793721</course><hAcc>1.644679</hAcc><vAcc>0.829049</vAcc></extensions></trkpt>
      <trkpt lon="-117.323892" lat="33.977070"><ele>331.389014</ele><time>2024-01-27T22:14:17Z</time><extensions><speed>1.071563</speed><course>114.449780</course><hAcc>1.679606</hAcc><vAcc>0.829203</vAcc></extensions></trkpt>
      <trkpt lon="-117.323881" lat="33.977066"><ele>331.488679</ele><time>2024-01-27T22:14:18Z</time><extensions><speed>1.108216</speed><course>112.449802</course><hAcc>1.634665</hAcc><vAcc>0.829369</vAcc></extensions></trkpt>
      <trkpt lon="-117.323870" lat="33.977062"><ele>331.575169</ele><time>2024-01-27T22:14:19Z</time><extensions><speed>1.180487</speed><course>113.524829</course><hAcc>1.619164</hAcc><vAcc>0.829497</vAcc></extensions></trkpt>
      <trkpt lon="-117.323858" lat="33.977057"><ele>331.661432</ele><time>2024-01-27T22:14:20Z</time><extensions><speed>1.218724</speed><course>113.870000</course><hAcc>1.626521</hAcc><vAcc>0.829619</vAcc></extensions></trkpt>
      <trkpt lon="-117.323845" lat="33.977053"><ele>331.743380</ele><time>2024-01-27T22:14:21Z</time><extensions><speed>1.330325</speed><course>113.347918</course><hAcc>1.630791</hAcc><vAcc>0.829769</vAcc></extensions></trkpt>
      <trkpt lon="-117.323832" lat="33.977048"><ele>331.798000</ele><time>2024-01-27T22:14:22Z</time><extensions><speed>1.401155</speed><course>115.366357</course><hAcc>1.620497</hAcc><vAcc>0.829933</vAcc></extensions></trkpt>
      <trkpt lon="-117.323818" lat="33.977042"><ele>331.837073</ele><time>2024-01-27T22:14:23Z</time><extensions><speed>1.422189</speed><course>119.494161</course><hAcc>1.597198</hAcc><vAcc>0.830106</vAcc></extensions></trkpt>
      <trkpt lon="-117.323805" lat="33.977035"><ele>331.867043</ele><time>2024-01-27T22:14:24Z</time><extensions><speed>1.389899</speed><course>125.395131</course><hAcc>1.571806</hAcc><vAcc>0.830302</vAcc></extensions></trkpt>
      <trkpt lon="-117.323793" lat="33.977027"><ele>331.883202</ele><time>2024-01-27T22:14:25Z</time><extensions><speed>1.390370</speed><course>131.902445</course><hAcc>1.559564</hAcc><vAcc>0.830502</vAcc></extensions></trkpt>
      <trkpt lon="-117.323782" lat="33.977019"><ele>331.900250</ele><time>2024-01-27T22:14:26Z</time><extensions><speed>1.393555</speed><course>136.328069</course><hAcc>1.587437</hAcc><vAcc>0.830675</vAcc></extensions></trkpt>
      <trkpt lon="-117.323772" lat="33.977009"><ele>331.921196</ele><time>2024-01-27T22:14:27Z</time><extensions><speed>1.417195</speed><course>139.084547</course><hAcc>1.558643</hAcc><vAcc>0.830838</vAcc></extensions></trkpt>
      <trkpt lon="-117.323763" lat="33.977000"><ele>331.916978</ele><time>2024-01-27T22:14:28Z</time><extensions><speed>1.335934</speed><course>141.495355</course><hAcc>1.598086</hAcc><vAcc>0.830997</vAcc></extensions></trkpt>
      <trkpt lon="-117.323753" lat="33.976991"><ele>331.894296</ele><time>2024-01-27T22:14:29Z</time><extensions><speed>1.283500</speed><course>139.144606</course><hAcc>1.549241</hAcc><vAcc>0.831183</vAcc></extensions></trkpt>
      <trkpt lon="-117.323744" lat="33.976982"><ele>331.851004</ele><time>2024-01-27T22:14:30Z</time><extensions><speed>1.317138</speed><course>138.781598</course><hAcc>1.546103</hAcc><vAcc>0.831326</vAcc></extensions></trkpt>
      <trkpt lon="-117.323735" lat="33.976973"><ele>331.802279</ele><time>2024-01-27T22:14:31Z</time><extensions><speed>1.317749</speed><course>140.383675</course><hAcc>1.575640</hAcc><vAcc>0.831448</vAcc></extensions></trkpt>
      <trkpt lon="-117.323726" lat="33.976964"><ele>331.744898</ele><time>2024-01-27T22:14:32Z</time><extensions><speed>1.264466</speed><course>140.014373</course><hAcc>1.601594</hAcc><vAcc>0.831566</vAcc></extensions></trkpt>
      <trkpt lon="-117.323717" lat="33.976956"><ele>331.673303</ele><time>2024-01-27T22:14:33Z</time><extensions><speed>1.215870</speed><course>137.636839</course><hAcc>1.621135</hAcc><vAcc>0.831634</vAcc></extensions></trkpt>
      <trkpt lon="-117.323708" lat="33.976949"><ele>331.600358</ele><time>2024-01-27T22:14:34Z</time><extensions><speed>1.146740</speed><course>133.775783</course><hAcc>1.633580</hAcc><vAcc>0.831661</vAcc></extensions></trkpt>
      <trkpt lon="-117.323699" lat="33.976942"><ele>331.532745</ele><time>2024-01-27T22:14:35Z</time><extensions><speed>1.040268</speed><course>125.526295</course><hAcc>1.628991</hAcc><vAcc>0.831654</vAcc></extensions></trkpt>
      <trkpt lon="-117.323689" lat="33.976938"><ele>331.460831</ele><time>2024-01-27T22:14:36Z</time><extensions><speed>0.913399</speed><course>111.420647</course><hAcc>1.612906</hAcc><vAcc>0.831615</vAcc></extensions></trkpt>
      <trkpt lon="-117.323680" lat="33.976936"><ele>331.382935</ele><time>2024-01-27T22:14:37Z</time><extensions><speed>0.876045</speed><course>100.679721</course><hAcc>1.605363</hAcc><vAcc>0.831566</vAcc></extensions></trkpt>
      <trkpt lon="-117.323670" lat="33.976934"><ele>331.305935</ele><time>2024-01-27T22:14:38Z</time><extensions><speed>0.970341</speed><course>101.637509</course><hAcc>1.621210</hAcc><vAcc>0.831506</vAcc></extensions></trkpt>
      <trkpt lon="-117.323660" lat="33.976932"><ele>331.233301</ele><time>2024-01-27T22:14:39Z</time><extensions><speed>0.932586</speed><course>104.553580</course><hAcc>1.655851</hAcc><vAcc>0.831425</vAcc></extensions></trkpt>
      <trkpt lon="-117.323651" lat="33.976931"><ele>331.168890</ele><time>2024-01-27T22:14:40Z</time><extensions><speed>0.904143</speed><course>90.702013</course><hAcc>1.604298</hAcc><vAcc>0.831332</vAcc></extensions></trkpt>
      <trkpt lon="-117.323641" lat="33.976932"><ele>331.119835</ele><time>2024-01-27T22:14:41Z</time><extensions><speed>0.911593</speed><course>83.143227</course><hAcc>1.577232</hAcc><vAcc>0.831236</vAcc></extensions></trkpt>
      <trkpt lon="-117.323631" lat="33.976933"><ele>331.072537</ele><time>2024-01-27T22:14:42Z</time><extensions><speed>0.943883</speed><course>85.180715</course><hAcc>1.598030</hAcc><vAcc>0.831149</vAcc></extensions></trkpt>
      <trkpt lon="-117.323620" lat="33.976933"><ele>331.038740</ele><time>2024-01-27T22:14:43Z</time><extensions><speed>1.017369</speed><course>86.561813</course><hAcc>1.593202</hAcc><vAcc>0.831043</vAcc></extensions></trkpt>
      <trkpt lon="-117.323610" lat="33.976933"><ele>331.024863</ele><time>2024-01-27T22:14:44Z</time><extensions><speed>1.003878</speed><course>92.217557</course><hAcc>1.614927</hAcc><vAcc>0.830923</vAcc></extensions></trkpt>
      <trkpt lon="-117.323599" lat="33.976933"><ele>331.027314</ele><time>2024-01-27T22:14:45Z</time><extensions><speed>1.037726</speed><course>93.200672</course><hAcc>1.585530</hAcc><vAcc>0.830836</vAcc></extensions></trkpt>
      <trkpt lon="-117.323588" lat="33.976933"><ele>331.047141</ele><time>2024-01-27T22:14:46Z</time><extensions><speed>0.932055</speed><course>92.764324</course><hAcc>1.572238</hAcc><vAcc>0.830731</vAcc></extensions></trkpt>
      <trkpt lon="-117.323579" lat="33.976933"><ele>331.069763</ele><time>2024-01-27T22:14:47Z</time><extensions><speed>0.830479</speed><course>91.759259</course><hAcc>1.605165</hAcc><vAcc>0.830613</vAcc></extensions></trkpt>
      <trkpt lon="-117.323569" lat="33.976933"><ele>331.091963</ele><time>2024-01-27T22:14:48Z</time><extensions><speed>0.937238</speed><course>86.113775</course><hAcc>1.624626</hAcc><vAcc>0.830545</vAcc></extensions></trkpt>
      <trkpt lon="-117.323559" lat="33.976935"><ele>331.124648</ele><time>2024-01-27T22:14:49Z</time><extensions><speed>0.968301</speed><course>74.525749</course><hAcc>1.585930</hAcc><vAcc>0.830486</vAcc></extensions></trkpt>
      <trkpt lon="-117.323549" lat="33.976938"><ele>331.149867</ele><time>2024-01-27T22:14:50Z</time><extensions><speed>0.984491</speed><course>64.592587</course><hAcc>1.573008</hAcc><vAcc>0.830441</vAcc></extensions></trkpt>
      <trkpt lon="-117.323540" lat="33.976943"><ele>331.182127</ele><time>2024-01-27T22:14:51Z</time><extensions><speed>1.055282</speed><course>57.058922</course><hAcc>1.591659</hAcc><vAcc>0.830421</vAcc></extensions></trkpt>
      <trkpt lon="-117.323530" lat="33.976948"><ele>331.211644</ele><time>2024-01-27T22:14:52Z</time><extensions><speed>1.082127</speed><course>56.481404</course><hAcc>1.617568</hAcc><vAcc>0.830442</vAcc></extensions></trkpt>
      <trkpt lon="-117.323521" lat="33.976955"><ele>331.222881</ele><time>2024-01-27T22:14:53Z</time><extensions><speed>1.212656</speed><course>40.501035</course><hAcc>1.566054</hAcc><vAcc>0.830461</vAcc></extensions></trkpt>
      <trkpt lon="-117.323513" lat="33.976965"><ele>331.220320</ele><time>2024-01-27T22:14:54Z</time><extensions><speed>1.397685</speed><course>30.032289</course><hAcc>1.531936</hAcc><vAcc>0.830500</vAcc></extensions></trkpt>
      <trkpt lon="-117.323506" lat="33.976976"><ele>331.215937</ele><time>2024-01-27T22:14:55Z</time><extensions><speed>1.511292</speed><course>26.377182</course><hAcc>1.544448</hAcc><vAcc>0.830544</vAcc></extensions></trkpt>
      <trkpt lon="-117.323498" lat="33.976988"><ele>331.201391</ele><time>2024-01-27T22:14:56Z</time><extensions><speed>1.443119</speed><course>31.476492</course><hAcc>1.576329</hAcc><vAcc>0.830573</vAcc></extensions></trkpt>
      <trkpt lon="-117.323490" lat="33.976998"><ele>331.178954</ele><time>2024-01-27T22:14:57Z</time><extensions><speed>1.225116</speed><course>32.108471</course><hAcc>1.545170</hAcc><vAcc>0.830601</vAcc></extensions></trkpt>
      <trkpt lon="-117.323484" lat="33.977006"><ele>331.163150</ele><time>2024-01-27T22:14:58Z</time><extensions><speed>0.961495</speed><course>35.770749</course><hAcc>1.564313</hAcc><vAcc>0.830612</vAcc></extensions></trkpt>
      <trkpt lon="-117.323477" lat="33.977013"><ele>331.134257</ele><time>2024-01-27T22:14:59Z</time><extensions><speed>0.927997</speed><course>37.798654</course><hAcc>1.588252</hAcc><vAcc>0.830590</vAcc></extensions></trkpt>
      <trkpt lon="-117.323471" lat="33.977020"><ele>331.113641</ele><time>2024-01-27T22:15:00Z</time><extensions><speed>0.981396</speed><course>34.337805</course><hAcc>1.565139</hAcc><vAcc>0.830518</vAcc></extensions></trkpt>
      <trkpt lon="-117.323465" lat="33.977027"><ele>331.106658</ele><time>2024-01-27T22:15:01Z</time><extensions><speed>0.924073</speed><course>37.872834</course><hAcc>1.590542</hAcc><vAcc>0.830364</vAcc></extensions></trkpt>
      <trkpt lon="-117.323459" lat="33.977033"><ele>331.097109</ele><time>2024-01-27T22:15:02Z</time><extensions><speed>0.837200</speed><course>50.726474</course><hAcc>1.637859</hAcc><vAcc>0.830128</vAcc></extensions></trkpt>
      <trkpt lon="-117.323451" lat="33.977037"><ele>331.108554</ele><time>2024-01-27T22:15:03Z</time><extensions><speed>0.795132</speed><course>58.713932</course><hAcc>1.672438</hAcc><vAcc>0.829839</vAcc></extensions></trkpt>
      <trkpt lon="-117.323444" lat="33.977040"><ele>331.133263</ele><time>2024-01-27T22:15:04Z</time><extensions><speed>0.764550</speed><course>63.580932</course><hAcc>1.696003</hAcc><vAcc>0.829541</vAcc></extensions></trkpt>
      <trkpt lon="-117.323436" lat="33.977043"><ele>331.162092</ele><time>2024-01-27T22:15:05Z</time><extensions><speed>0.774357</speed><course>66.597500</course><hAcc>1.707134</hAcc><vAcc>0.829232</vAcc></extensions></trkpt>
      <trkpt lon="-117.323428" lat="33.977046"><ele>331.192917</ele><time>2024-01-27T22:15:06Z</time><extensions><speed>0.874249</speed><course>64.542212</course><hAcc>1.719558</hAcc><vAcc>0.828916</vAcc></extensions></trkpt>
      <trkpt lon="-117.323420" lat="33.977050"><ele>331.236528</ele><time>2024-01-27T22:15:07Z</time><extensions><speed>0.926023</speed><course>60.128437</course><hAcc>1.731977</hAcc><vAcc>0.828602</vAcc></extensions></trkpt>
      <trkpt lon="-117.323411" lat="33.977054"><ele>331.287218</ele><time>2024-01-27T22:15:08Z</time><extensions><speed>0.923716</speed><course>58.918813</course><hAcc>1.730779</hAcc><vAcc>0.828278</vAcc></extensions></trkpt>
      <trkpt lon="-117.323402" lat="33.977059"><ele>331.343147</ele><time>2024-01-27T22:15:09Z</time><extensions><speed>0.904849</speed><course>58.568126</course><hAcc>1.715354</hAcc><vAcc>0.827980</vAcc></extensions></trkpt>
      <trkpt lon="-117.323394" lat="33.977063"><ele>331.416089</ele><time>2024-01-27T22:15:10Z</time><extensions><speed>0.896270</speed><course>58.663894</course><hAcc>1.681196</hAcc><vAcc>0.827710</vAcc></extensions></trkpt>
      <trkpt lon="-117.323386" lat="33.977068"><ele>331.499093</ele><time>2024-01-27T22:15:11Z</time><extensions><speed>0.950586</speed><course>53.840903</course><hAcc>1.637395</hAcc><vAcc>0.827479</vAcc></extensions></trkpt>
      <trkpt lon="-117.323378" lat="33.977074"><ele>331.596131</ele><time>2024-01-27T22:15:12Z</time><extensions><speed>0.974130</speed><course>47.992804</course><hAcc>1.603604</hAcc><vAcc>0.827300</vAcc></extensions></trkpt>
      <trkpt lon="-117.323370" lat="33.977080"><ele>331.703162</ele><time>2024-01-27T22:15:13Z</time><extensions><speed>0.979338</speed><course>44.659593</course><hAcc>1.599273</hAcc><vAcc>0.827216</vAcc></extensions></trkpt>
      <trkpt lon="-117.323363" lat="33.977086"><ele>331.814123</ele><time>2024-01-27T22:15:14Z</time><extensions><speed>0.898188</speed><course>41.047996</course><hAcc>1.640939</hAcc><vAcc>0.827179</vAcc></extensions></trkpt>
      <trkpt lon="-117.323357" lat="33.977093"><ele>331.932133</ele><time>2024-01-27T22:15:15Z</time><extensions><speed>1.017034</speed><course>36.421728</course><hAcc>1.594472</hAcc><vAcc>0.827249</vAcc></extensions></trkpt>
      <trkpt lon="-117.323350" lat="33.977101"><ele>332.056617</ele><time>2024-01-27T22:15:16Z</time><extensions><speed>1.081029</speed><course>32.822853</course><hAcc>1.583230</hAcc><vAcc>0.827365</vAcc></extensions></trkpt>
      <trkpt lon="-117.323345" lat="33.977109"><ele>332.182650</ele><time>2024-01-27T22:15:17Z</time><extensions><speed>0.992993</speed><course>29.570758</course><hAcc>1.610772</hAcc><vAcc>0.827500</vAcc></extensions></trkpt>
      <trkpt lon="-117.323340" lat="33.977117"><ele>332.303180</ele><time>2024-01-27T22:15:18Z</time><extensions><speed>0.983737</speed><course>18.056285</course><hAcc>1.590030</hAcc><vAcc>0.827658</vAcc></extensions></trkpt>
      <trkpt lon="-117.323337" lat="33.977125"><ele>332.419568</ele><time>2024-01-27T22:15:19Z</time><extensions><speed>0.917441</speed><course>14.552952</course><hAcc>1.602909</hAcc><vAcc>0.827815</vAcc></extensions></trkpt>
      <trkpt lon="-117.323335" lat="33.977133"><ele>332.538104</ele><time>2024-01-27T22:15:20Z</time><extensions><speed>0.874122</speed><course>17.102753</course><hAcc>1.632613</hAcc><vAcc>0.827988</vAcc></extensions></trkpt>
      <trkpt lon="-117.323332" lat="33.977140"><ele>332.656236</ele><time>2024-01-27T22:15:21Z</time><extensions><speed>0.768672</speed><course>20.347266</course><hAcc>1.659201</hAcc><vAcc>0.828161</vAcc></extensions></trkpt>
      <trkpt lon="-117.323329" lat="33.977146"><ele>332.757138</ele><time>2024-01-27T22:15:22Z</time><extensions><speed>0.633765</speed><course>24.651440</course><hAcc>1.676516</hAcc><vAcc>0.828297</vAcc></extensions></trkpt>
      <trkpt lon="-117.323326" lat="33.977151"><ele>332.847483</ele><time>2024-01-27T22:15:23Z</time><extensions><speed>0.568820</speed><course>33.161838</course><hAcc>1.687249</hAcc><vAcc>0.828404</vAcc></extensions></trkpt>
      <trkpt lon="-117.323321" lat="33.977155"><ele>332.942489</ele><time>2024-01-27T22:15:24Z</time><extensions><speed>0.606099</speed><course>44.301189</course><hAcc>1.694738</hAcc><vAcc>0.828509</vAcc></extensions></trkpt>
      <trkpt lon="-117.323316" lat="33.977158"><ele>333.032602</ele><time>2024-01-27T22:15:25Z</time><extensions><speed>0.689645</speed><course>51.518339</course><hAcc>1.694974</hAcc><vAcc>0.828574</vAcc></extensions></trkpt>
      <trkpt lon="-117.323309" lat="33.977163"><ele>333.116531</ele><time>2024-01-27T22:15:26Z</time><extensions><speed>0.819746</speed><course>52.781595</course><hAcc>1.683735</hAcc><vAcc>0.828588</vAcc></extensions></trkpt>
      <trkpt lon="-117.323301" lat="33.977168"><ele>333.172280</ele><time>2024-01-27T22:15:27Z</time><extensions><speed>1.017841</speed><course>51.680785</course><hAcc>1.673920</hAcc><vAcc>0.828531</vAcc></extensions></trkpt>
      <trkpt lon="-117.323292" lat="33.977174"><ele>333.213131</ele><time>2024-01-27T22:15:28Z</time><extensions><speed>1.228422</speed><course>49.800782</course><hAcc>1.661964</hAcc><vAcc>0.828395</vAcc></extensions></trkpt>
      <trkpt lon="-117.323281" lat="33.977182"><ele>333.256675</ele><time>2024-01-27T22:15:29Z</time><extensions><speed>1.304028</speed><course>47.465634</course><hAcc>1.660719</hAcc><vAcc>0.828204</vAcc></extensions></trkpt>
      <trkpt lon="-117.323271" lat="33.977190"><ele>333.289218</ele><time>2024-01-27T22:15:30Z</time><extensions><speed>1.278255</speed><course>48.105079</course><hAcc>1.677611</hAcc><vAcc>0.827977</vAcc></extensions></trkpt>
      <trkpt lon="-117.323260" lat="33.977197"><ele>333.320568</ele><time>2024-01-27T22:15:31Z</time><extensions><speed>1.299035</speed><course>54.042963</course><hAcc>1.677535</hAcc><vAcc>0.827715</vAcc></extensions></trkpt>
      <trkpt lon="-117.323247" lat="33.977204"><ele>333.350829</ele><time>2024-01-27T22:15:32Z</time><extensions><speed>1.540929</speed><course>60.210741</course><hAcc>1.645960</hAcc><vAcc>0.827435</vAcc></extensions></trkpt>
      <trkpt lon="-117.323232" lat="33.977210"><ele>333.377117</ele><time>2024-01-27T22:15:33Z</time><extensions><speed>1.625843</speed><course>64.435651</course><hAcc>1.640294</hAcc><vAcc>0.827185</vAcc></extensions></trkpt>
      <trkpt lon="-117.323216" lat="33.977216"><ele>333.394933</ele><time>2024-01-27T22:15:34Z</time><extensions><speed>1.587998</speed><course>66.877053</course><hAcc>1.667057</hAcc><vAcc>0.826928</vAcc></extensions></trkpt>
      <trkpt lon="-117.323201" lat="33.977222"><ele>333.409747</ele><time>2024-01-27T22:15:35Z</time><extensions><speed>1.464916</speed><course>66.755942</course><hAcc>1.686130</hAcc><vAcc>0.826660</vAcc></extensions></trkpt>
      <trkpt lon="-117.323186" lat="33.977227"><ele>333.437202</ele><time>2024-01-27T22:15:36Z</time><extensions><speed>1.380011</speed><course>66.901360</course><hAcc>1.678077</hAcc><vAcc>0.826402</vAcc></extensions></trkpt>
      <trkpt lon="-117.323173" lat="33.977232"><ele>333.462869</ele><time>2024-01-27T22:15:37Z</time><extensions><speed>1.263245</speed><course>67.264472</course><hAcc>1.673059</hAcc><vAcc>0.826157</vAcc></extensions></trkpt>
      <trkpt lon="-117.323161" lat="33.977236"><ele>333.496348</ele><time>2024-01-27T22:15:38Z</time><extensions><speed>1.111778</speed><course>67.952566</course><hAcc>1.681226</hAcc><vAcc>0.825968</vAcc></extensions></trkpt>
      <trkpt lon="-117.323150" lat="33.977239"><ele>333.530861</ele><time>2024-01-27T22:15:39Z</time><extensions><speed>1.046913</speed><course>69.108982</course><hAcc>1.691025</hAcc><vAcc>0.825834</vAcc></extensions></trkpt>
      <trkpt lon="-117.323140" lat="33.977243"><ele>333.566729</ele><time>2024-01-27T22:15:40Z</time><extensions><speed>1.035094</speed><course>67.445362</course><hAcc>1.688322</hAcc><vAcc>0.825750</vAcc></extensions></trkpt>
      <trkpt lon="-117.323129" lat="33.977247"><ele>333.598102</ele><time>2024-01-27T22:15:41Z</time><extensions><speed>1.055245</speed><course>63.962705</course><hAcc>1.683548</hAcc><vAcc>0.825719</vAcc></extensions></trkpt>
      <trkpt lon="-117.323119" lat="33.977251"><ele>333.631128</ele><time>2024-01-27T22:15:42Z</time><extensions><speed>1.078472</speed><course>63.331952</course><hAcc>1.693549</hAcc><vAcc>0.825789</vAcc></extensions></trkpt>
      <trkpt lon="-117.323109" lat="33.977255"><ele>333.674524</ele><time>2024-01-27T22:15:43Z</time><extensions><speed>1.024501</speed><course>63.613774</course><hAcc>1.719492</hAcc><vAcc>0.825910</vAcc></extensions></trkpt>
      <trkpt lon="-117.323098" lat="33.977260"><ele>333.739657</ele><time>2024-01-27T22:15:44Z</time><extensions><speed>1.104536</speed><course>65.105548</course><hAcc>1.690838</hAcc><vAcc>0.826111</vAcc></extensions></trkpt>
      <trkpt lon="-117.323086" lat="33.977264"><ele>333.800736</ele><time>2024-01-27T22:15:45Z</time><extensions><speed>1.225847</speed><course>67.303801</course><hAcc>1.675133</hAcc><vAcc>0.826373</vAcc></extensions></trkpt>
      <trkpt lon="-117.323073" lat="33.977268"><ele>333.876497</ele><time>2024-01-27T22:15:46Z</time><extensions><speed>1.335186</speed><course>66.989614</course><hAcc>1.677512</hAcc><vAcc>0.826706</vAcc></extensions></trkpt>
      <trkpt lon="-117.323059" lat="33.977273"><ele>333.954932</ele><time>2024-01-27T22:15:47Z</time><extensions><speed>1.440125</speed><course>66.088271</course><hAcc>1.682429</hAcc><vAcc>0.827076</vAcc></extensions></trkpt>
      <trkpt lon="-117.323045" lat="33.977278"><ele>334.050294</ele><time>2024-01-27T22:15:48Z</time><extensions><speed>1.513632</speed><course>66.076623</course><hAcc>1.688435</hAcc><vAcc>0.827480</vAcc></extensions></trkpt>
      <trkpt lon="-117.323029" lat="33.977284"><ele>334.157080</ele><time>2024-01-27T22:15:49Z</time><extensions><speed>1.556265</speed><course>65.627411</course><hAcc>1.672310</hAcc><vAcc>0.827907</vAcc></extensions></trkpt>
      <trkpt lon="-117.323013" lat="33.977290"><ele>334.275678</ele><time>2024-01-27T22:15:50Z</time><extensions><speed>1.623569</speed><course>67.077757</course><hAcc>1.649269</hAcc><vAcc>0.828328</vAcc></extensions></trkpt>
      <trkpt lon="-117.322997" lat="33.977295"><ele>334.394554</ele><time>2024-01-27T22:15:51Z</time><extensions><speed>1.679704</speed><course>70.816733</course><hAcc>1.637447</hAcc><vAcc>0.828722</vAcc></extensions></trkpt>
      <trkpt lon="-117.322979" lat="33.977299"><ele>334.528931</ele><time>2024-01-27T22:15:52Z</time><extensions><speed>1.629058</speed><course>77.077562</course><hAcc>1.636475</hAcc><vAcc>0.829092</vAcc></extensions></trkpt>
      <trkpt lon="-117.322961" lat="33.977302"><ele>334.680713</ele><time>2024-01-27T22:15:53Z</time><extensions><speed>1.750788</speed><course>81.614467</course><hAcc>1.604272</hAcc><vAcc>0.829413</vAcc></extensions></trkpt>
      <trkpt lon="-117.322943" lat="33.977304"><ele>334.845141</ele><time>2024-01-27T22:15:54Z</time><extensions><speed>1.630734</speed><course>81.543970</course><hAcc>1.588997</hAcc><vAcc>0.829676</vAcc></extensions></trkpt>
      <trkpt lon="-117.322926" lat="33.977306"><ele>335.003729</ele><time>2024-01-27T22:15:55Z</time><extensions><speed>1.579238</speed><course>81.383851</course><hAcc>1.593244</hAcc><vAcc>0.829872</vAcc></extensions></trkpt>
      <trkpt lon="-117.322910" lat="33.977308"><ele>335.162580</ele><time>2024-01-27T22:15:56Z</time><extensions><speed>1.365961</speed><course>78.250546</course><hAcc>1.641639</hAcc><vAcc>0.829969</vAcc></extensions></trkpt>
      <trkpt lon="-117.322894" lat="33.977310"><ele>335.305118</ele><time>2024-01-27T22:15:57Z</time><extensions><speed>1.573751</speed><course>83.566830</course><hAcc>1.579842</hAcc><vAcc>0.829948</vAcc></extensions></trkpt>
      <trkpt lon="-117.322877" lat="33.977312"><ele>335.441295</ele><time>2024-01-27T22:15:58Z</time><extensions><speed>1.624576</speed><course>84.960725</course><hAcc>1.555221</hAcc><vAcc>0.829884</vAcc></extensions></trkpt>
      <trkpt lon="-117.322860" lat="33.977313"><ele>335.565225</ele><time>2024-01-27T22:15:59Z</time><extensions><speed>1.539356</speed><course>84.067983</course><hAcc>1.560595</hAcc><vAcc>0.829752</vAcc></extensions></trkpt>
      <trkpt lon="-117.322844" lat="33.977314"><ele>335.668484</ele><time>2024-01-27T22:16:00Z</time><extensions><speed>1.329883</speed><course>84.917722</course><hAcc>1.550394</hAcc><vAcc>0.829531</vAcc></extensions></trkpt>
      <trkpt lon="-117.322831" lat="33.977315"><ele>335.756143</ele><time>2024-01-27T22:16:01Z</time><extensions><speed>1.119966</speed><course>85.059714</course><hAcc>1.570506</hAcc><vAcc>0.829219</vAcc></extensions></trkpt>
      <trkpt lon="-117.322820" lat="33.977316"><ele>335.821746</ele><time>2024-01-27T22:16:02Z</time><extensions><speed>0.912635</speed><course>81.178885</course><hAcc>1.635859</hAcc><vAcc>0.828845</vAcc></extensions></trkpt>
      <trkpt lon="-117.322810" lat="33.977317"><ele>335.873673</ele><time>2024-01-27T22:16:03Z</time><extensions><speed>1.016830</speed><course>85.968744</course><hAcc>1.596190</hAcc><vAcc>0.828410</vAcc></extensions></trkpt>
      <trkpt lon="-117.322799" lat="33.977317"><ele>335.916343</ele><time>2024-01-27T22:16:04Z</time><extensions><speed>1.095430</speed><course>90.569899</course><hAcc>1.578741</hAcc><vAcc>0.827887</vAcc></extensions></trkpt>
      <trkpt lon="-117.322785" lat="33.977316"><ele>335.944396</ele><time>2024-01-27T22:16:05Z</time><extensions><speed>1.343798</speed><course>96.803715</course><hAcc>1.566697</hAcc><vAcc>0.827299</vAcc></extensions></trkpt>
      <trkpt lon="-117.322770" lat="33.977314"><ele>335.965439</ele><time>2024-01-27T22:16:06Z</time><extensions><speed>1.483681</speed><course>99.164284</course><hAcc>1.577051</hAcc><vAcc>0.826698</vAcc></extensions></trkpt>
      <trkpt lon="-117.322754" lat="33.977312"><ele>335.970385</ele><time>2024-01-27T22:16:07Z</time><extensions><speed>1.542881</speed><course>97.991032</course><hAcc>1.604083</hAcc><vAcc>0.826059</vAcc></extensions></trkpt>
      <trkpt lon="-117.322738" lat="33.977310"><ele>335.962829</ele><time>2024-01-27T22:16:08Z</time><extensions><speed>1.477978</speed><course>93.816292</course><hAcc>1.643226</hAcc><vAcc>0.825437</vAcc></extensions></trkpt>
      <trkpt lon="-117.322722" lat="33.977309"><ele>335.960514</ele><time>2024-01-27T22:16:09Z</time><extensions><speed>1.327097</speed><course>94.297222</course><hAcc>1.641821</hAcc><vAcc>0.824858</vAcc></extensions></trkpt>
      <trkpt lon="-117.322709" lat="33.977308"><ele>335.955927</ele><time>2024-01-27T22:16:10Z</time><extensions><speed>1.228508</speed><course>102.885632</course><hAcc>1.603835</hAcc><vAcc>0.824342</vAcc></extensions></trkpt>
      <trkpt lon="-117.322696" lat="33.977304"><ele>335.958682</ele><time>2024-01-27T22:16:11Z</time><extensions><speed>1.225594</speed><course>110.864830</course><hAcc>1.595590</hAcc><vAcc>0.823920</vAcc></extensions></trkpt>
      <trkpt lon="-117.322683" lat="33.977300"><ele>335.975485</ele><time>2024-01-27T22:16:12Z</time><extensions><speed>1.206096</speed><course>109.447915</course><hAcc>1.622775</hAcc><vAcc>0.823604</vAcc></extensions></trkpt>
      <trkpt lon="-117.322671" lat="33.977297"><ele>336.006041</ele><time>2024-01-27T22:16:13Z</time><extensions><speed>1.151315</speed><course>102.058053</course><hAcc>1.667346</hAcc><vAcc>0.823416</vAcc></extensions></trkpt>
      <trkpt lon="-117.322658" lat="33.977294"><ele>336.029638</ele><time>2024-01-27T22:16:14Z</time><extensions><speed>1.242628</speed><course>110.234578</course><hAcc>1.631962</hAcc><vAcc>0.823364</vAcc></extensions></trkpt>
      <trkpt lon="-117.322646" lat="33.977289"><ele>336.046027</ele><time>2024-01-27T22:16:15Z</time><extensions><speed>1.317595</speed><course>115.754676</course><hAcc>1.602402</hAcc><vAcc>0.823454</vAcc></extensions></trkpt>
      <trkpt lon="-117.322633" lat="33.977284"><ele>336.054949</ele><time>2024-01-27T22:16:16Z</time><extensions><speed>1.374092</speed><course>119.256294</course><hAcc>1.602118</hAcc><vAcc>0.823666</vAcc></extensions></trkpt>
      <trkpt lon="-117.322620" lat="33.977277"><ele>336.065426</ele><time>2024-01-27T22:16:17Z</time><extensions><speed>1.388991</speed><course>121.159035</course><hAcc>1.622246</hAcc><vAcc>0.823995</vAcc></extensions></trkpt>
      <trkpt lon="-117.322608" lat="33.977271"><ele>336.085469</ele><time>2024-01-27T22:16:18Z</time><extensions><speed>1.212699</speed><course>123.768123</course><hAcc>1.659573</hAcc><vAcc>0.824421</vAcc></extensions></trkpt>
      <trkpt lon="-117.322595" lat="33.977265"><ele>336.121092</ele><time>2024-01-27T22:16:19Z</time><extensions><speed>1.426785</speed><course>122.944602</course><hAcc>1.632794</hAcc><vAcc>0.824908</vAcc></extensions></trkpt>
      <trkpt lon="-117.322581" lat="33.977257"><ele>336.139413</ele><time>2024-01-27T22:16:20Z</time><extensions><speed>1.613810</speed><course>121.044850</course><hAcc>1.617906</hAcc><vAcc>0.825420</vAcc></extensions></trkpt>
      <trkpt lon="-117.322566" lat="33.977250"><ele>336.139257</ele><time>2024-01-27T22:16:21Z</time><extensions><speed>1.570764</speed><course>118.571787</course><hAcc>1.625833</hAcc><vAcc>0.825950</vAcc></extensions></trkpt>
      <trkpt lon="-117.322552" lat="33.977244"><ele>336.121176</ele><time>2024-01-27T22:16:22Z</time><extensions><speed>1.430764</speed><course>117.158385</course><hAcc>1.643817</hAcc><vAcc>0.826449</vAcc></extensions></trkpt>
      <trkpt lon="-117.322539" lat="33.977238"><ele>336.095262</ele><time>2024-01-27T22:16:23Z</time><extensions><speed>1.306610</speed><course>117.473706</course><hAcc>1.650839</hAcc><vAcc>0.826892</vAcc></extensions></trkpt>
      <trkpt lon="-117.322526" lat="33.977233"><ele>336.063999</ele><time>2024-01-27T22:16:24Z</time><extensions><speed>1.229022</speed><course>111.483639</course><hAcc>1.657800</hAcc><vAcc>0.827306</vAcc></extensions></trkpt>
      <trkpt lon="-117.322514" lat="33.977230"><ele>336.027125</ele><time>2024-01-27T22:16:25Z</time><extensions><speed>1.207302</speed><course>105.600672</course><hAcc>1.662250</hAcc><vAcc>0.827656</vAcc></extensions></trkpt>
      <trkpt lon="-117.322501" lat="33.977227"><ele>335.981372</ele><time>2024-01-27T22:16:26Z</time><extensions><speed>1.260213</speed><course>101.443873</course><hAcc>1.657688</hAcc><vAcc>0.827935</vAcc></extensions></trkpt>
      <trkpt lon="-117.322487" lat="33.977225"><ele>335.933401</ele><time>2024-01-27T22:16:27Z</time><extensions><speed>1.330297</speed><course>98.109274</course><hAcc>1.652440</hAcc><vAcc>0.828179</vAcc></extensions></trkpt>
      <trkpt lon="-117.322471" lat="33.977224"><ele>335.879762</ele><time>2024-01-27T22:16:28Z</time><extensions><speed>1.495020</speed><course>95.849048</course><hAcc>1.642895</hAcc><vAcc>0.828366</vAcc></extensions></trkpt>
      <trkpt lon="-117.322454" lat="33.977222"><ele>335.831434</ele><time>2024-01-27T22:16:29Z</time><extensions><speed>1.634254</speed><course>94.351290</course><hAcc>1.628931</hAcc><vAcc>0.828531</vAcc></extensions></trkpt>
      <trkpt lon="-117.322436" lat="33.977222"><ele>335.788014</ele><time>2024-01-27T22:16:30Z</time><extensions><speed>1.703306</speed><course>90.565649</course><hAcc>1.631871</hAcc><vAcc>0.828657</vAcc></extensions></trkpt>
      <trkpt lon="-117.322418" lat="33.977222"><ele>335.734578</ele><time>2024-01-27T22:16:31Z</time><extensions><speed>1.603812</speed><course>83.954896</course><hAcc>1.661362</hAcc><vAcc>0.828773</vAcc></extensions></trkpt>
      <trkpt lon="-117.322402" lat="33.977224"><ele>335.687392</ele><time>2024-01-27T22:16:32Z</time><extensions><speed>1.528498</speed><course>80.297586</course><hAcc>1.613948</hAcc><vAcc>0.828866</vAcc></extensions></trkpt>
      <trkpt lon="-117.322386" lat="33.977227"><ele>335.645690</ele><time>2024-01-27T22:16:33Z</time><extensions><speed>1.366215</speed><course>77.803809</course><hAcc>1.606690</hAcc><vAcc>0.828969</vAcc></extensions></trkpt>
      <trkpt lon="-117.322373" lat="33.977230"><ele>335.620481</ele><time>2024-01-27T22:16:34Z</time><extensions><speed>1.263865</speed><course>74.321969</course><hAcc>1.647048</hAcc><vAcc>0.829070</vAcc></extensions></trkpt>
      <trkpt lon="-117.322359" lat="33.977232"><ele>335.605418</ele><time>2024-01-27T22:16:35Z</time><extensions><speed>1.268473</speed><course>75.854424</course><hAcc>1.612215</hAcc><vAcc>0.829150</vAcc></extensions></trkpt>
      <trkpt lon="-117.322346" lat="33.977235"><ele>335.601480</ele><time>2024-01-27T22:16:36Z</time><extensions><speed>1.363324</speed><course>78.489031</course><hAcc>1.593049</hAcc><vAcc>0.829199</vAcc></extensions></trkpt>
      <trkpt lon="-117.322330" lat="33.977237"><ele>335.601361</ele><time>2024-01-27T22:16:37Z</time><extensions><speed>1.463314</speed><course>81.640367</course><hAcc>1.599419</hAcc><vAcc>0.829231</vAcc></extensions></trkpt>
      <trkpt lon="-117.322315" lat="33.977239"><ele>335.599904</ele><time>2024-01-27T22:16:38Z</time><extensions><speed>1.510213</speed><course>84.612666</course><hAcc>1.630738</hAcc><vAcc>0.829258</vAcc></extensions></trkpt>
      <trkpt lon="-117.322299" lat="33.977240"><ele>335.605517</ele><time>2024-01-27T22:16:39Z</time><extensions><speed>1.419476</speed><course>86.223605</course><hAcc>1.685303</hAcc><vAcc>0.829280</vAcc></extensions></trkpt>
      <trkpt lon="-117.322285" lat="33.977240"><ele>335.619242</ele><time>2024-01-27T22:16:40Z</time><extensions><speed>1.188578</speed><course>90.511284</course><hAcc>1.639090</hAcc><vAcc>0.829286</vAcc></extensions></trkpt>
      <trkpt lon="-117.322273" lat="33.977240"><ele>335.635269</ele><time>2024-01-27T22:16:41Z</time><extensions><speed>0.980648</speed><course>98.729531</course><hAcc>1.617007</hAcc><vAcc>0.829275</vAcc></extensions></trkpt>
      <trkpt lon="-117.322263" lat="33.977238"><ele>335.636818</ele><time>2024-01-27T22:16:42Z</time><extensions><speed>0.867826</speed><course>105.980513</course><hAcc>1.628195</hAcc><vAcc>0.829249</vAcc></extensions></trkpt>
      <trkpt lon="-117.322254" lat="33.977235"><ele>335.631766</ele><time>2024-01-27T22:16:43Z</time><extensions><speed>0.855063</speed><course>107.857851</course><hAcc>1.648469</hAcc><vAcc>0.829215</vAcc></extensions></trkpt>
      <trkpt lon="-117.322245" lat="33.977233"><ele>335.650387</ele><time>2024-01-27T22:16:44Z</time><extensions><speed>0.954684</speed><course>103.834066</course><hAcc>1.666457</hAcc><vAcc>0.829166</vAcc></extensions></trkpt>
      <trkpt lon="-117.322235" lat="33.977231"><ele>335.678859</ele><time>2024-01-27T22:16:45Z</time><extensions><speed>0.989853</speed><course>102.273945</course><hAcc>1.650337</hAcc><vAcc>0.829089</vAcc></extensions></trkpt>
      <trkpt lon="-117.322224" lat="33.977229"><ele>335.703048</ele><time>2024-01-27T22:16:46Z</time><extensions><speed>1.031709</speed><course>102.317831</course><hAcc>1.640857</hAcc><vAcc>0.828980</vAcc></extensions></trkpt>
      <trkpt lon="-117.322213" lat="33.977227"><ele>335.725310</ele><time>2024-01-27T22:16:47Z</time><extensions><speed>1.043876</speed><course>103.108497</course><hAcc>1.655553</hAcc><vAcc>0.828853</vAcc></extensions></trkpt>
      <trkpt lon="-117.322202" lat="33.977225"><ele>335.736761</ele><time>2024-01-27T22:16:48Z</time><extensions><speed>1.061735</speed><course>104.768357</course><hAcc>1.685490</hAcc><vAcc>0.828722</vAcc></extensions></trkpt>
      <trkpt lon="-117.322191" lat="33.977222"><ele>335.740313</ele><time>2024-01-27T22:16:49Z</time><extensions><speed>1.095685</speed><course>111.861615</course><hAcc>1.661340</hAcc><vAcc>0.828589</vAcc></extensions></trkpt>
      <trkpt lon="-117.322180" lat="33.977217"><ele>335.742761</ele><time>2024-01-27T22:16:50Z</time><extensions><speed>1.165483</speed><course>117.745674</course><hAcc>1.653943</hAcc><vAcc>0.828458</vAcc></extensions></trkpt>
      <trkpt lon="-117.322168" lat="33.977212"><ele>335.750490</ele><time>2024-01-27T22:16:51Z</time><extensions><speed>1.238756</speed><course>121.874350</course><hAcc>1.662901</hAcc><vAcc>0.828344</vAcc></extensions></trkpt>
      <trkpt lon="-117.322157" lat="33.977206"><ele>335.751186</ele><time>2024-01-27T22:16:52Z</time><extensions><speed>1.259236</speed><course>126.097762</course><hAcc>1.675216</hAcc><vAcc>0.828263</vAcc></extensions></trkpt>
      <trkpt lon="-117.322146" lat="33.977199"><ele>335.763807</ele><time>2024-01-27T22:16:53Z</time><extensions><speed>1.270129</speed><course>130.645778</course><hAcc>1.684443</hAcc><vAcc>0.828176</vAcc></extensions></trkpt>
      <trkpt lon="-117.322137" lat="33.977191"><ele>335.787760</ele><time>2024-01-27T22:16:54Z</time><extensions><speed>1.189479</speed><course>133.514470</course><hAcc>1.688540</hAcc><vAcc>0.828081</vAcc></extensions></trkpt>
      <trkpt lon="-117.322128" lat="33.977184"><ele>335.827054</ele><time>2024-01-27T22:16:55Z</time><extensions><speed>1.052300</speed><course>132.390349</course><hAcc>1.689010</hAcc><vAcc>0.827986</vAcc></extensions></trkpt>
      <trkpt lon="-117.322119" lat="33.977178"><ele>335.878374</ele><time>2024-01-27T22:16:56Z</time><extensions><speed>0.955934</speed><course>127.434832</course><hAcc>1.690478</hAcc><vAcc>0.827861</vAcc></extensions></trkpt>
      <trkpt lon="-117.322111" lat="33.977174"><ele>335.934060</ele><time>2024-01-27T22:16:57Z</time><extensions><speed>0.879982</speed><course>123.205201</course><hAcc>1.691044</hAcc><vAcc>0.827741</vAcc></extensions></trkpt>
      <trkpt lon="-117.322104" lat="33.977170"><ele>335.985620</ele><time>2024-01-27T22:16:58Z</time><extensions><speed>0.761143</speed><course>119.171007</course><hAcc>1.685572</hAcc><vAcc>0.827618</vAcc></extensions></trkpt>
      <trkpt lon="-117.322096" lat="33.977166"><ele>336.043442</ele><time>2024-01-27T22:16:59Z</time><extensions><speed>0.752475</speed><course>116.920515</course><hAcc>1.672925</hAcc><vAcc>0.827496</vAcc></extensions></trkpt>
      <trkpt lon="-117.322089" lat="33.977163"><ele>336.113009</ele><time>2024-01-27T22:17:00Z</time><extensions><speed>0.824068</speed><course>117.739570</course><hAcc>1.677015</hAcc><vAcc>0.827365</vAcc></extensions></trkpt>
      <trkpt lon="-117.322081" lat="33.977159"><ele>336.188714</ele><time>2024-01-27T22:17:01Z</time><extensions><speed>0.823065</speed><course>121.094858</course><hAcc>1.693945</hAcc><vAcc>0.827237</vAcc></extensions></trkpt>
      <trkpt lon="-117.322074" lat="33.977155"><ele>336.262047</ele><time>2024-01-27T22:17:02Z</time><extensions><speed>0.766355</speed><course>127.749307</course><hAcc>1.721193</hAcc><vAcc>0.827039</vAcc></extensions></trkpt>
      <trkpt lon="-117.322068" lat="33.977151"><ele>336.324027</ele><time>2024-01-27T22:17:03Z</time><extensions><speed>0.702185</speed><course>142.205123</course><hAcc>1.710078</hAcc><vAcc>0.826784</vAcc></extensions></trkpt>
      <trkpt lon="-117.322065" lat="33.977146"><ele>336.389483</ele><time>2024-01-27T22:17:04Z</time><extensions><speed>0.636141</speed><course>154.737438</course><hAcc>1.703203</hAcc><vAcc>0.826425</vAcc></extensions></trkpt>
      <trkpt lon="-117.322062" lat="33.977140"><ele>336.451494</ele><time>2024-01-27T22:17:05Z</time><extensions><speed>0.638241</speed><course>162.178187</course><hAcc>1.701272</hAcc><vAcc>0.825877</vAcc></extensions></trkpt>
      <trkpt lon="-117.322060" lat="33.977135"><ele>336.501240</ele><time>2024-01-27T22:17:06Z</time><extensions><speed>0.707757</speed><course>167.424605</course><hAcc>1.704696</hAcc><vAcc>0.824920</vAcc></extensions></trkpt>
      <trkpt lon="-117.322059" lat="33.977128"><ele>336.527671</ele><time>2024-01-27T22:17:07Z</time><extensions><speed>0.744522</speed><course>172.008876</course><hAcc>1.726161</hAcc><vAcc>0.823861</vAcc></extensions></trkpt>
      <trkpt lon="-117.322058" lat="33.977122"><ele>336.539501</ele><time>2024-01-27T22:17:08Z</time><extensions><speed>0.742094</speed><course>177.231679</course><hAcc>1.751353</hAcc><vAcc>0.822183</vAcc></extensions></trkpt>
      <trkpt lon="-117.322058" lat="33.977116"><ele>336.541043</ele><time>2024-01-27T22:17:09Z</time><extensions><speed>0.570225</speed><course>179.323027</course><hAcc>1.769357</hAcc><vAcc>0.820499</vAcc></extensions></trkpt>
      <trkpt lon="-117.322058" lat="33.977112"><ele>336.523881</ele><time>2024-01-27T22:17:10Z</time><extensions><speed>0.244685</speed><course>178.246247</course><hAcc>1.782140</hAcc><vAcc>0.818224</vAcc></extensions></trkpt>
      <trkpt lon="-117.322058" lat="33.977110"><ele>336.502288</ele><time>2024-01-27T22:17:11Z</time><extensions><speed>0.150361</speed><course>177.556056</course><hAcc>1.770439</hAcc><vAcc>0.815473</vAcc></extensions></trkpt>
      <trkpt lon="-117.322058" lat="33.977109"><ele>336.482900</ele><time>2024-01-27T22:17:12Z</time><extensions><speed>0.151088</speed><course>176.123883</course><hAcc>1.773752</hAcc><vAcc>0.812200</vAcc></extensions></trkpt>
      <trkpt lon="-117.322057" lat="33.977108"><ele>336.439688</ele><time>2024-01-27T22:17:13Z</time><extensions><speed>0.090496</speed><course>178.302663</course><hAcc>1.787498</hAcc><vAcc>0.808116</vAcc></extensions></trkpt>
      <trkpt lon="-117.322057" lat="33.977107"><ele>336.376961</ele><time>2024-01-27T22:17:14Z</time><extensions><speed>0.126887</speed><course>158.307282</course><hAcc>1.802799</hAcc><vAcc>0.802813</vAcc></extensions></trkpt>
      <trkpt lon="-117.322056" lat="33.977106"><ele>336.313125</ele><time>2024-01-27T22:17:15Z</time><extensions><speed>0.249591</speed><course>139.101190</course><hAcc>1.798745</hAcc><vAcc>0.796347</vAcc></extensions></trkpt>
      <trkpt lon="-117.322053" lat="33.977103"><ele>336.244837</ele><time>2024-01-27T22:17:16Z</time><extensions><speed>0.579257</speed><course>143.082697</course><hAcc>1.779060</hAcc><vAcc>0.788691</vAcc></extensions></trkpt>
      <trkpt lon="-117.322048" lat="33.977096"><ele>336.173256</ele><time>2024-01-27T22:17:17Z</time><extensions><speed>1.093242</speed><course>147.899735</course><hAcc>1.753678</hAcc><vAcc>0.780093</vAcc></extensions></trkpt>
      <trkpt lon="-117.322040" lat="33.977087"><ele>336.093476</ele><time>2024-01-27T22:17:18Z</time><extensions><speed>1.475539</speed><course>146.362459</course><hAcc>1.745300</hAcc><vAcc>0.769498</vAcc></extensions></trkpt>
      <trkpt lon="-117.322031" lat="33.977075"><ele>336.012639</ele><time>2024-01-27T22:17:19Z</time><extensions><speed>1.561840</speed><course>145.245095</course><hAcc>1.766942</hAcc><vAcc>0.756267</vAcc></extensions></trkpt>
      <trkpt lon="-117.322020" lat="33.977064"><ele>335.934574</ele><time>2024-01-27T22:17:20Z</time><extensions><speed>1.679262</speed><course>138.038790</course><hAcc>1.749788</hAcc><vAcc>0.740854</vAcc></extensions></trkpt>
      <trkpt lon="-117.322008" lat="33.977053"><ele>335.857697</ele><time>2024-01-27T22:17:21Z</time><extensions><speed>1.620567</speed><course>134.980548</course><hAcc>1.782576</hAcc><vAcc>0.721984</vAcc></extensions></trkpt>
      <trkpt lon="-117.321995" lat="33.977044"><ele>335.779539</ele><time>2024-01-27T22:17:22Z</time><extensions><speed>1.555635</speed><course>131.217200</course><hAcc>1.778266</hAcc><vAcc>0.699029</vAcc></extensions></trkpt>
      <trkpt lon="-117.321983" lat="33.977035"><ele>335.705087</ele><time>2024-01-27T22:17:23Z</time><extensions><speed>1.400880</speed><course>125.467189</course><hAcc>1.781431</hAcc><vAcc>0.671872</vAcc></extensions></trkpt>
      <trkpt lon="-117.321971" lat="33.977029"><ele>335.635959</ele><time>2024-01-27T22:17:24Z</time><extensions><speed>1.207309</speed><course>117.037068</course><hAcc>1.833195</hAcc><vAcc>0.640856</vAcc></extensions></trkpt>
      <trkpt lon="-117.321960" lat="33.977026"><ele>335.576846</ele><time>2024-01-27T22:17:25Z</time><extensions><speed>0.952866</speed><course>108.110311</course><hAcc>1.930723</hAcc><vAcc>0.606704</vAcc></extensions></trkpt>
      <trkpt lon="-117.321952" lat="33.977024"><ele>335.525992</ele><time>2024-01-27T22:17:26Z</time><extensions><speed>0.584761</speed><course>91.857910</course><hAcc>2.059548</hAcc><vAcc>0.570505</vAcc></extensions></trkpt>
      <trkpt lon="-117.321947" lat="33.977025"><ele>335.482011</ele><time>2024-01-27T22:17:27Z</time><extensions><speed>0.527408</speed><course>76.012020</course><hAcc>2.169489</hAcc><vAcc>0.533521</vAcc></extensions></trkpt>
      <trkpt lon="-117.321940" lat="33.977026"><ele>335.437558</ele><time>2024-01-27T22:17:28Z</time><extensions><speed>0.786553</speed><course>73.425023</course><hAcc>2.262268</hAcc><vAcc>0.497463</vAcc></extensions></trkpt>
      <trkpt lon="-117.321930" lat="33.977029"><ele>335.411374</ele><time>2024-01-27T22:17:29Z</time><extensions><speed>1.044619</speed><course>72.728296</course><hAcc>2.413645</hAcc><vAcc>0.464621</vAcc></extensions></trkpt>
      <trkpt lon="-117.321918" lat="33.977031"><ele>335.395992</ele><time>2024-01-27T22:17:30Z</time><extensions><speed>1.292136</speed><course>74.735876</course><hAcc>2.621839</hAcc><vAcc>0.437328</vAcc></extensions></trkpt>
      <trkpt lon="-117.321903" lat="33.977034"><ele>335.385093</ele><time>2024-01-27T22:17:31Z</time><extensions><speed>1.568948</speed><course>78.993145</course><hAcc>2.853315</hAcc><vAcc>0.416278</vAcc></extensions></trkpt>
      <trkpt lon="-117.321885" lat="33.977036"><ele>335.376197</ele><time>2024-01-27T22:17:32Z</time><extensions><speed>1.883294</speed><course>83.527648</course><hAcc>3.070255</hAcc><vAcc>0.401282</vAcc></extensions></trkpt>
      <trkpt lon="-117.321862" lat="33.977038"><ele>335.372291</ele><time>2024-01-27T22:17:33Z</time><extensions><speed>2.352150</speed><course>87.650895</course><hAcc>3.237592</hAcc><vAcc>0.391324</vAcc></extensions></trkpt>
      <trkpt lon="-117.321831" lat="33.977039"><ele>335.375550</ele><time>2024-01-27T22:17:34Z</time><extensions><speed>2.843395</speed><course>89.089533</course><hAcc>3.347177</hAcc><vAcc>0.385119</vAcc></extensions></trkpt>
      <trkpt lon="-117.321799" lat="33.977040"><ele>335.384629</ele><time>2024-01-27T22:17:35Z</time><extensions><speed>3.174148</speed><course>89.642290</course><hAcc>3.403300</hAcc><vAcc>0.381692</vAcc></extensions></trkpt>
      <trkpt lon="-117.321763" lat="33.977040"><ele>335.398621</ele><time>2024-01-27T22:17:36Z</time><extensions><speed>3.371742</speed><course>89.476043</course><hAcc>3.404989</hAcc><vAcc>0.380217</vAcc></extensions></trkpt>
      <trkpt lon="-117.321731" lat="33.977040"><ele>335.407759</ele><time>2024-01-27T22:17:37Z</time><extensions><speed>3.255164</speed><course>87.676165</course><hAcc>3.358531</hAcc><vAcc>0.380149</vAcc></extensions></trkpt>
      <trkpt lon="-117.321702" lat="33.977042"><ele>335.428567</ele><time>2024-01-27T22:17:38Z</time><extensions><speed>2.949662</speed><course>84.885516</course><hAcc>3.282874</hAcc><vAcc>0.381002</vAcc></extensions></trkpt>
      <trkpt lon="-117.321677" lat="33.977045"><ele>335.460206</ele><time>2024-01-27T22:17:39Z</time><extensions><speed>2.470945</speed><course>78.827440</course><hAcc>3.195539</hAcc><vAcc>0.382380</vAcc></extensions></trkpt>
      <trkpt lon="-117.321657" lat="33.977050"><ele>335.507672</ele><time>2024-01-27T22:17:40Z</time><extensions><speed>1.978950</speed><course>70.225553</course><hAcc>3.111396</hAcc><vAcc>0.383909</vAcc></extensions></trkpt>
      <trkpt lon="-117.321641" lat="33.977057"><ele>335.564614</ele><time>2024-01-27T22:17:41Z</time><extensions><speed>1.436140</speed><course>57.201078</course><hAcc>3.030050</hAcc><vAcc>0.385037</vAcc></extensions></trkpt>
      <trkpt lon="-117.321633" lat="33.977063"><ele>335.630400</ele><time>2024-01-27T22:17:42Z</time><extensions><speed>0.891285</speed><course>32.767477</course><hAcc>2.959195</hAcc><vAcc>0.385508</vAcc></extensions></trkpt>
      <trkpt lon="-117.321633" lat="33.977069"><ele>335.695038</ele><time>2024-01-27T22:17:43Z</time><extensions><speed>0.672694</speed><course>327.672993</course><hAcc>2.913197</hAcc><vAcc>0.385439</vAcc></extensions></trkpt>
      <trkpt lon="-117.321642" lat="33.977072"><ele>335.759393</ele><time>2024-01-27T22:17:44Z</time><extensions><speed>1.271770</speed><course>278.521817</course><hAcc>2.887788</hAcc><vAcc>0.385087</vAcc></extensions></trkpt>
      <trkpt lon="-117.321662" lat="33.977072"><ele>335.818354</ele><time>2024-01-27T22:17:45Z</time><extensions><speed>2.334617</speed><course>268.794995</course><hAcc>2.820911</hAcc><vAcc>0.384830</vAcc></extensions></trkpt>
      <trkpt lon="-117.321693" lat="33.977070"><ele>335.856257</ele><time>2024-01-27T22:17:46Z</time><extensions><speed>3.417710</speed><course>266.010159</course><hAcc>2.731005</hAcc><vAcc>0.384906</vAcc></extensions></trkpt>
      <trkpt lon="-117.321735" lat="33.977067"><ele>335.882119</ele><time>2024-01-27T22:17:47Z</time><extensions><speed>4.433910</speed><course>265.028392</course><hAcc>2.636049</hAcc><vAcc>0.385270</vAcc></extensions></trkpt>
      <trkpt lon="-117.321783" lat="33.977063"><ele>335.895339</ele><time>2024-01-27T22:17:48Z</time><extensions><speed>4.408398</speed><course>263.993134</course><hAcc>2.588428</hAcc><vAcc>0.385646</vAcc></extensions></trkpt>
      <trkpt lon="-117.321825" lat="33.977059"><ele>335.886592</ele><time>2024-01-27T22:17:49Z</time><extensions><speed>3.478969</speed><course>262.121904</course><hAcc>2.590639</hAcc><vAcc>0.385877</vAcc></extensions></trkpt>
      <trkpt lon="-117.321859" lat="33.977056"><ele>335.866141</ele><time>2024-01-27T22:17:50Z</time><extensions><speed>2.892397</speed><course>261.832687</course><hAcc>2.578084</hAcc><vAcc>0.385993</vAcc></extensions></trkpt>
      <trkpt lon="-117.321887" lat="33.977053"><ele>335.834735</ele><time>2024-01-27T22:17:51Z</time><extensions><speed>2.313689</speed><course>265.706480</course><hAcc>2.557552</hAcc><vAcc>0.385920</vAcc></extensions></trkpt>
      <trkpt lon="-117.321910" lat="33.977054"><ele>335.803729</ele><time>2024-01-27T22:17:52Z</time><extensions><speed>1.850140</speed><course>277.947125</course><hAcc>2.544705</hAcc><vAcc>0.385849</vAcc></extensions></trkpt>
      <trkpt lon="-117.321928" lat="33.977058"><ele>335.771032</ele><time>2024-01-27T22:17:53Z</time><extensions><speed>1.708615</speed><course>298.740740</course><hAcc>2.548602</hAcc><vAcc>0.385930</vAcc></extensions></trkpt>
      <trkpt lon="-117.321943" lat="33.977068"><ele>335.734157</ele><time>2024-01-27T22:17:54Z</time><extensions><speed>1.911379</speed><course>315.976459</course><hAcc>2.576565</hAcc><vAcc>0.386267</vAcc></extensions></trkpt>
      <trkpt lon="-117.321957" lat="33.977082"><ele>335.697949</ele><time>2024-01-27T22:17:55Z</time><extensions><speed>2.172720</speed><course>323.613625</course><hAcc>2.625249</hAcc><vAcc>0.386945</vAcc></extensions></trkpt>
      <trkpt lon="-117.321971" lat="33.977099"><ele>335.667190</ele><time>2024-01-27T22:17:56Z</time><extensions><speed>2.283483</speed><course>324.480651</course><hAcc>2.676715</hAcc><vAcc>0.387926</vAcc></extensions></trkpt>
      <trkpt lon="-117.321986" lat="33.977115"><ele>335.642567</ele><time>2024-01-27T22:17:57Z</time><extensions><speed>2.170953</speed><course>320.507512</course><hAcc>2.725812</hAcc><vAcc>0.389051</vAcc></extensions></trkpt>
      <trkpt lon="-117.322001" lat="33.977128"><ele>335.617013</ele><time>2024-01-27T22:17:58Z</time><extensions><speed>1.834107</speed><course>312.668873</course><hAcc>2.780425</hAcc><vAcc>0.389799</vAcc></extensions></trkpt>
      <trkpt lon="-117.322015" lat="33.977137"><ele>335.594164</ele><time>2024-01-27T22:17:59Z</time><extensions><speed>1.515238</speed><course>301.691430</course><hAcc>2.849915</hAcc><vAcc>0.389817</vAcc></extensions></trkpt>
      <trkpt lon="-117.322028" lat="33.977143"><ele>335.564409</ele><time>2024-01-27T22:18:00Z</time><extensions><speed>1.203780</speed><course>290.802892</course><hAcc>2.944292</hAcc><vAcc>0.388957</vAcc></extensions></trkpt>
      <trkpt lon="-117.322039" lat="33.977146"><ele>335.527674</ele><time>2024-01-27T22:18:01Z</time><extensions><speed>1.001910</speed><course>286.513419</course><hAcc>3.058706</hAcc><vAcc>0.387391</vAcc></extensions></trkpt>
      <trkpt lon="-117.322049" lat="33.977149"><ele>335.492234</ele><time>2024-01-27T22:18:02Z</time><extensions><speed>0.928803</speed><course>288.409655</course><hAcc>3.195459</hAcc><vAcc>0.385599</vAcc></extensions></trkpt>
      <trkpt lon="-117.322058" lat="33.977152"><ele>335.462631</ele><time>2024-01-27T22:18:03Z</time><extensions><speed>0.857022</speed><course>291.835259</course><hAcc>3.365733</hAcc><vAcc>0.384200</vAcc></extensions></trkpt>
      <trkpt lon="-117.322066" lat="33.977155"><ele>335.441302</ele><time>2024-01-27T22:18:04Z</time><extensions><speed>0.784691</speed><course>294.338435</course><hAcc>3.557298</hAcc><vAcc>0.383684</vAcc></extensions></trkpt>
      <trkpt lon="-117.322073" lat="33.977157"><ele>335.420651</ele><time>2024-01-27T22:18:05Z</time><extensions><speed>0.725138</speed><course>295.404517</course><hAcc>3.746338</hAcc><vAcc>0.384155</vAcc></extensions></trkpt>
      <trkpt lon="-117.322081" lat="33.977159"><ele>335.395390</ele><time>2024-01-27T22:18:06Z</time><extensions><speed>0.677206</speed><course>292.521659</course><hAcc>3.917496</hAcc><vAcc>0.385435</vAcc></extensions></trkpt>
      <trkpt lon="-117.322087" lat="33.977159"><ele>335.366944</ele><time>2024-01-27T22:18:07Z</time><extensions><speed>0.587859</speed><course>282.372733</course><hAcc>4.055786</hAcc><vAcc>0.387142</vAcc></extensions></trkpt>
      <trkpt lon="-117.322092" lat="33.977160"><ele>335.328426</ele><time>2024-01-27T22:18:08Z</time><extensions><speed>0.485751</speed><course>268.690443</course><hAcc>4.159193</hAcc><vAcc>0.388825</vAcc></extensions></trkpt>
      <trkpt lon="-117.322096" lat="33.977159"><ele>335.278342</ele><time>2024-01-27T22:18:09Z</time><extensions><speed>0.453128</speed><course>246.316028</course><hAcc>4.226597</hAcc><vAcc>0.390143</vAcc></extensions></trkpt>
      <trkpt lon="-117.322100" lat="33.977157"><ele>335.218685</ele><time>2024-01-27T22:18:10Z</time><extensions><speed>0.504255</speed><course>226.436997</course><hAcc>4.254200</hAcc><vAcc>0.390976</vAcc></extensions></trkpt>
      <trkpt lon="-117.322103" lat="33.977153"><ele>335.143854</ele><time>2024-01-27T22:18:11Z</time><extensions><speed>0.683259</speed><course>212.931358</course><hAcc>4.266110</hAcc><vAcc>0.391170</vAcc></extensions></trkpt>
      <trkpt lon="-117.322107" lat="33.977146"><ele>335.059724</ele><time>2024-01-27T22:18:12Z</time><extensions><speed>1.008630</speed><course>207.820196</course><hAcc>4.278474</hAcc><vAcc>0.390713</vAcc></extensions></trkpt>
      <trkpt lon="-117.322113" lat="33.977137"><ele>334.965883</ele><time>2024-01-27T22:18:13Z</time><extensions><speed>1.331836</speed><course>205.896230</course><hAcc>4.328108</hAcc><vAcc>0.389904</vAcc></extensions></trkpt>
      <trkpt lon="-117.322119" lat="33.977125"><ele>334.865915</ele><time>2024-01-27T22:18:14Z</time><extensions><speed>1.572602</speed><course>204.642910</course><hAcc>4.423657</hAcc><vAcc>0.388868</vAcc></extensions></trkpt>
      <trkpt lon="-117.322127" lat="33.977110"><ele>334.771977</ele><time>2024-01-27T22:18:15Z</time><extensions><speed>1.709325</speed><course>203.081581</course><hAcc>4.517386</hAcc><vAcc>0.387766</vAcc></extensions></trkpt>
      <trkpt lon="-117.322134" lat="33.977094"><ele>334.686381</ele><time>2024-01-27T22:18:16Z</time><extensions><speed>1.687751</speed><course>198.650965</course><hAcc>4.599767</hAcc><vAcc>0.386832</vAcc></extensions></trkpt>
      <trkpt lon="-117.322138" lat="33.977080"><ele>334.610320</ele><time>2024-01-27T22:18:17Z</time><extensions><speed>1.525619</speed><course>190.239615</course><hAcc>4.677188</hAcc><vAcc>0.386135</vAcc></extensions></trkpt>
      <trkpt lon="-117.322140" lat="33.977068"><ele>334.543737</ele><time>2024-01-27T22:18:18Z</time><extensions><speed>1.279313</speed><course>181.126546</course><hAcc>4.761770</hAcc><vAcc>0.385527</vAcc></extensions></trkpt>
      <trkpt lon="-117.322139" lat="33.977057"><ele>334.487730</ele><time>2024-01-27T22:18:19Z</time><extensions><speed>1.111199</speed><course>175.144871</course><hAcc>4.860481</hAcc><vAcc>0.385063</vAcc></extensions></trkpt>
      <trkpt lon="-117.322138" lat="33.977047"><ele>334.441708</ele><time>2024-01-27T22:18:20Z</time><extensions><speed>0.997679</speed><course>172.548290</course><hAcc>4.966432</hAcc><vAcc>0.384649</vAcc></extensions></trkpt>
      <trkpt lon="-117.322136" lat="33.977038"><ele>334.403666</ele><time>2024-01-27T22:18:21Z</time><extensions><speed>0.913639</speed><course>172.703761</course><hAcc>5.063604</hAcc><vAcc>0.384115</vAcc></extensions></trkpt>
      <trkpt lon="-117.322135" lat="33.977030"><ele>334.369278</ele><time>2024-01-27T22:18:22Z</time><extensions><speed>0.836280</speed><course>174.812393</course><hAcc>5.133491</hAcc><vAcc>0.382517</vAcc></extensions></trkpt>
      <trkpt lon="-117.322134" lat="33.977023"><ele>334.340516</ele><time>2024-01-27T22:18:23Z</time><extensions><speed>0.769102</speed><course>176.793454</course><hAcc>5.164886</hAcc><vAcc>0.380640</vAcc></extensions></trkpt>
      <trkpt lon="-117.322128" lat="33.977021"><ele>334.312890</ele><time>2024-01-27T22:18:24Z</time><extensions><speed>0.588725</speed><course>171.026062</course><hAcc>5.200682</hAcc><vAcc>0.379339</vAcc></extensions></trkpt>
      <trkpt lon="-117.322121" lat="33.977021"><ele>334.275728</ele><time>2024-01-27T22:18:25Z</time><extensions><speed>0.366504</speed><course>156.819906</course><hAcc>5.223836</hAcc><vAcc>0.377842</vAcc></extensions></trkpt>
      <trkpt lon="-117.322113" lat="33.977023"><ele>334.240384</ele><time>2024-01-27T22:18:26Z</time><extensions><speed>0.232857</speed><course>122.806079</course><hAcc>5.194214</hAcc><vAcc>0.376494</vAcc></extensions></trkpt>
      <trkpt lon="-117.322106" lat="33.977026"><ele>334.202585</ele><time>2024-01-27T22:18:27Z</time><extensions><speed>0.273524</speed><course>85.972804</course><hAcc>5.112610</hAcc><vAcc>0.375585</vAcc></extensions></trkpt>
      <trkpt lon="-117.322103" lat="33.977040"><ele>334.174486</ele><time>2024-01-27T22:18:28Z</time><extensions><speed>0.390704</speed><course>51.478075</course><hAcc>4.989077</hAcc><vAcc>0.374395</vAcc></extensions></trkpt>
      <trkpt lon="-117.322099" lat="33.977054"><ele>334.161522</ele><time>2024-01-27T22:18:29Z</time><extensions><speed>0.559115</speed><course>34.672870</course><hAcc>4.869548</hAcc><vAcc>0.373056</vAcc></extensions></trkpt>
      <trkpt lon="-117.322096" lat="33.977069"><ele>334.162905</ele><time>2024-01-27T22:18:30Z</time><extensions><speed>0.735289</speed><course>27.170984</course><hAcc>4.760794</hAcc><vAcc>0.372532</vAcc></extensions></trkpt>
      <trkpt lon="-117.322092" lat="33.977082"><ele>334.179100</ele><time>2024-01-27T22:18:31Z</time><extensions><speed>0.895308</speed><course>23.167835</course><hAcc>4.667656</hAcc><vAcc>0.372944</vAcc></extensions></trkpt>
      <trkpt lon="-117.322088" lat="33.977096"><ele>334.210256</ele><time>2024-01-27T22:18:32Z</time><extensions><speed>1.082286</speed><course>20.255798</course><hAcc>4.570199</hAcc><vAcc>0.374303</vAcc></extensions></trkpt>
      <trkpt lon="-117.322084" lat="33.977110"><ele>334.255746</ele><time>2024-01-27T22:18:33Z</time><extensions><speed>1.304182</speed><course>17.685612</course><hAcc>4.459012</hAcc><vAcc>0.376513</vAcc></extensions></trkpt>
      <trkpt lon="-117.322080" lat="33.977126"><ele>334.314636</ele><time>2024-01-27T22:18:34Z</time><extensions><speed>1.634790</speed><course>14.954874</course><hAcc>4.324475</hAcc><vAcc>0.379148</vAcc></extensions></trkpt>
      <trkpt lon="-117.322079" lat="33.977147"><ele>334.370401</ele><time>2024-01-27T22:18:35Z</time><extensions><speed>1.863935</speed><course>9.966784</course><hAcc>4.194242</hAcc><vAcc>0.381462</vAcc></extensions></trkpt>
      <trkpt lon="-117.322078" lat="33.977168"><ele>334.442923</ele><time>2024-01-27T22:18:36Z</time><extensions><speed>1.885792</speed><course>5.654253</course><hAcc>4.078039</hAcc><vAcc>0.382914</vAcc></extensions></trkpt>
      <trkpt lon="-117.322078" lat="33.977187"><ele>334.529935</ele><time>2024-01-27T22:18:37Z</time><extensions><speed>1.856812</speed><course>1.724224</course><hAcc>3.962278</hAcc><vAcc>0.383487</vAcc></extensions></trkpt>
      <trkpt lon="-117.322081" lat="33.977207"><ele>334.628768</ele><time>2024-01-27T22:18:38Z</time><extensions><speed>1.800477</speed><course>357.923634</course><hAcc>3.837131</hAcc><vAcc>0.383212</vAcc></extensions></trkpt>
      <trkpt lon="-117.322083" lat="33.977226"><ele>334.731474</ele><time>2024-01-27T22:18:39Z</time><extensions><speed>1.701964</speed><course>354.733334</course><hAcc>3.707508</hAcc><vAcc>0.382103</vAcc></extensions></trkpt>
      <trkpt lon="-117.322087" lat="33.977242"><ele>334.840349</ele><time>2024-01-27T22:18:40Z</time><extensions><speed>1.594620</speed><course>351.569346</course><hAcc>3.582493</hAcc><vAcc>0.380505</vAcc></extensions></trkpt>
      <trkpt lon="-117.322091" lat="33.977258"><ele>334.957375</ele><time>2024-01-27T22:18:41Z</time><extensions><speed>1.518582</speed><course>348.186236</course><hAcc>3.461010</hAcc><vAcc>0.378486</vAcc></extensions></trkpt>
      <trkpt lon="-117.322095" lat="33.977272"><ele>335.081441</ele><time>2024-01-27T22:18:42Z</time><extensions><speed>1.460632</speed><course>344.746010</course><hAcc>3.351208</hAcc><vAcc>0.376354</vAcc></extensions></trkpt>
      <trkpt lon="-117.322100" lat="33.977285"><ele>335.212232</ele><time>2024-01-27T22:18:43Z</time><extensions><speed>1.405963</speed><course>341.401914</course><hAcc>3.259394</hAcc><vAcc>0.374311</vAcc></extensions></trkpt>
      <trkpt lon="-117.322106" lat="33.977297"><ele>335.347958</ele><time>2024-01-27T22:18:44Z</time><extensions><speed>1.339128</speed><course>338.431674</course><hAcc>3.190828</hAcc><vAcc>0.372392</vAcc></extensions></trkpt>
      <trkpt lon="-117.322112" lat="33.977308"><ele>335.483688</ele><time>2024-01-27T22:18:45Z</time><extensions><speed>1.190185</speed><course>336.177461</course><hAcc>3.152791</hAcc><vAcc>0.370757</vAcc></extensions></trkpt>
      <trkpt lon="-117.322117" lat="33.977318"><ele>335.613957</ele><time>2024-01-27T22:18:46Z</time><extensions><speed>0.948051</speed><course>334.398430</course><hAcc>3.138490</hAcc><vAcc>0.369641</vAcc></extensions></trkpt>
      <trkpt lon="-117.322123" lat="33.977324"><ele>335.734722</ele><time>2024-01-27T22:18:47Z</time><extensions><speed>0.856941</speed><course>329.714199</course><hAcc>3.108353</hAcc><vAcc>0.369151</vAcc></extensions></trkpt>
      <trkpt lon="-117.322130" lat="33.977329"><ele>335.842870</ele><time>2024-01-27T22:18:48Z</time><extensions><speed>0.915416</speed><course>323.846187</course><hAcc>3.049400</hAcc><vAcc>0.369050</vAcc></extensions></trkpt>
      <trkpt lon="-117.322138" lat="33.977334"><ele>335.933301</ele><time>2024-01-27T22:18:49Z</time><extensions><speed>0.869016</speed><course>316.834176</course><hAcc>3.003006</hAcc><vAcc>0.369124</vAcc></extensions></trkpt>
      <trkpt lon="-117.322145" lat="33.977339"><ele>336.003297</ele><time>2024-01-27T22:18:50Z</time><extensions><speed>0.807054</speed><course>307.579503</course><hAcc>2.973806</hAcc><vAcc>0.368799</vAcc></extensions></trkpt>
      <trkpt lon="-117.322153" lat="33.977342"><ele>336.051930</ele><time>2024-01-27T22:18:51Z</time><extensions><speed>0.694609</speed><course>295.923279</course><hAcc>2.966728</hAcc><vAcc>0.368080</vAcc></extensions></trkpt>
      <trkpt lon="-117.322161" lat="33.977343"><ele>336.084217</ele><time>2024-01-27T22:18:52Z</time><extensions><speed>0.632746</speed><course>279.499551</course><hAcc>2.960347</hAcc><vAcc>0.367071</vAcc></extensions></trkpt>
      <trkpt lon="-117.322169" lat="33.977342"><ele>336.096098</ele><time>2024-01-27T22:18:53Z</time><extensions><speed>0.663816</speed><course>263.160501</course><hAcc>2.945941</hAcc><vAcc>0.366076</vAcc></extensions></trkpt>
      <trkpt lon="-117.322178" lat="33.977340"><ele>336.085038</ele><time>2024-01-27T22:18:54Z</time><extensions><speed>0.741080</speed><course>250.621578</course><hAcc>2.936279</hAcc><vAcc>0.365354</vAcc></extensions></trkpt>
      <trkpt lon="-117.322185" lat="33.977337"><ele>336.059749</ele><time>2024-01-27T22:18:55Z</time><extensions><speed>0.809518</speed><course>242.012958</course><hAcc>2.939003</hAcc><vAcc>0.365148</vAcc></extensions></trkpt>
      <trkpt lon="-117.322193" lat="33.977333"><ele>336.029697</ele><time>2024-01-27T22:18:56Z</time><extensions><speed>0.907346</speed><course>236.570755</course><hAcc>2.943770</hAcc><vAcc>0.365675</vAcc></extensions></trkpt>
      <trkpt lon="-117.322202" lat="33.977328"><ele>335.986361</ele><time>2024-01-27T22:18:57Z</time><extensions><speed>0.972451</speed><course>233.521954</course><hAcc>2.961916</hAcc><vAcc>0.367106</vAcc></extensions></trkpt>
      <trkpt lon="-117.322209" lat="33.977324"><ele>335.928859</ele><time>2024-01-27T22:18:58Z</time><extensions><speed>0.782490</speed><course>232.003893</course><hAcc>3.007306</hAcc><vAcc>0.369376</vAcc></extensions></trkpt>
      <trkpt lon="-117.322216" lat="33.977319"><ele>335.868022</ele><time>2024-01-27T22:18:59Z</time><extensions><speed>0.848185</speed><course>230.348008</course><hAcc>3.026763</hAcc><vAcc>0.372358</vAcc></extensions></trkpt>
      <trkpt lon="-117.322223" lat="33.977314"><ele>335.813311</ele><time>2024-01-27T22:19:00Z</time><extensions><speed>0.796891</speed><course>228.115677</course><hAcc>3.078625</hAcc><vAcc>0.375923</vAcc></extensions></trkpt>
      <trkpt lon="-117.322229" lat="33.977310"><ele>335.761163</ele><time>2024-01-27T22:19:01Z</time><extensions><speed>0.714599</speed><course>223.970056</course><hAcc>3.165285</hAcc><vAcc>0.379683</vAcc></extensions></trkpt>
      <trkpt lon="-117.322233" lat="33.977305"><ele>335.719404</ele><time>2024-01-27T22:19:02Z</time><extensions><speed>0.646225</speed><course>216.085569</course><hAcc>3.271474</hAcc><vAcc>0.383316</vAcc></extensions></trkpt>
      <trkpt lon="-117.322237" lat="33.977300"><ele>335.680029</ele><time>2024-01-27T22:19:03Z</time><extensions><speed>0.605032</speed><course>203.959718</course><hAcc>3.411196</hAcc><vAcc>0.386603</vAcc></extensions></trkpt>
      <trkpt lon="-117.322238" lat="33.977295"><ele>335.644692</ele><time>2024-01-27T22:19:04Z</time><extensions><speed>0.539270</speed><course>189.591228</course><hAcc>3.625004</hAcc><vAcc>0.389237</vAcc></extensions></trkpt>
      <trkpt lon="-117.322239" lat="33.977290"><ele>335.611447</ele><time>2024-01-27T22:19:05Z</time><extensions><speed>0.523289</speed><course>173.177419</course><hAcc>3.944723</hAcc><vAcc>0.392017</vAcc></extensions></trkpt>
      <trkpt lon="-117.322237" lat="33.977286"><ele>335.581390</ele><time>2024-01-27T22:19:06Z</time><extensions><speed>0.547340</speed><course>159.646800</course><hAcc>4.392386</hAcc><vAcc>0.393892</vAcc></extensions></trkpt>
      <trkpt lon="-117.322235" lat="33.977281"><ele>335.554310</ele><time>2024-01-27T22:19:07Z</time><extensions><speed>0.581307</speed><course>150.998009</course><hAcc>4.978263</hAcc><vAcc>0.395026</vAcc></extensions></trkpt>
      <trkpt lon="-117.322231" lat="33.977277"><ele>335.529121</ele><time>2024-01-27T22:19:08Z</time><extensions><speed>0.610571</speed><course>146.295032</course><hAcc>5.706340</hAcc><vAcc>0.396455</vAcc></extensions></trkpt>
      <trkpt lon="-117.322227" lat="33.977272"><ele>335.503119</ele><time>2024-01-27T22:19:09Z</time><extensions><speed>0.633212</speed><course>143.879049</course><hAcc>6.596644</hAcc><vAcc>0.400672</vAcc></extensions></trkpt>
      <trkpt lon="-117.322223" lat="33.977267"><ele>335.474331</ele><time>2024-01-27T22:19:10Z</time><extensions><speed>0.649570</speed><course>142.842545</course><hAcc>7.670608</hAcc><vAcc>0.412256</vAcc></extensions></trkpt>
      <trkpt lon="-117.322219" lat="33.977263"><ele>335.442174</ele><time>2024-01-27T22:19:11Z</time><extensions><speed>0.660339</speed><course>142.575245</course><hAcc>8.956281</hAcc><vAcc>0.438393</vAcc></extensions></trkpt>
      <trkpt lon="-117.322215" lat="33.977258"><ele>335.407409</ele><time>2024-01-27T22:19:12Z</time><extensions><speed>0.666307</speed><course>142.729407</course><hAcc>10.477088</hAcc><vAcc>0.487702</vAcc></extensions></trkpt>
      <trkpt lon="-117.322210" lat="33.977253"><ele>335.371258</ele><time>2024-01-27T22:19:13Z</time><extensions><speed>0.669122</speed><course>143.056301</course><hAcc>12.260489</hAcc><vAcc>0.567779</vAcc></extensions></trkpt>
      <trkpt lon="-117.322206" lat="33.977248"><ele>335.334722</ele><time>2024-01-27T22:19:14Z</time><extensions><speed>0.669591</speed><course>143.317341</course><hAcc>14.330406</hAcc><vAcc>0.682434</vAcc></extensions></trkpt>
    </trkseg>
  </trk>
</gpx>