<?xml version="1.0" encoding="UTF-8"?>
<gpx version="1.1" creator="Apple Health Export" xmlns="http://www.topografix.com/GPX/1/1" xmlns:xsi="http://www.w3.org/2001/XMLSchema-instance" xsi:schemaLocation="http://www.topografix.com/GPX/1/1 http://www.topografix.com/GPX/1/1/gpx.xsd">
  <metadata>
    <time>2026-01-11T07:58:12Z</time>
  </metadata>
  <trk>
    <name>Route 2025-04-23 7:43pm</name>
    <trkseg>
      <trkpt lon="-117.332797" lat="33.979654"><ele>315.991679</ele><time>2025-04-24T02:41:19Z</time><extensions><speed>0.010257</speed><course>153.649156</course><hAcc>6.065551</hAcc><vAcc>8.826572</vAcc></extensions></trkpt>
      <trkpt lon="-117.332797" lat="33.979643"><ele>316.041987</ele><time>2025-04-24T02:41:20Z</time><extensions><speed>0.022671</speed><course>159.050471</course><hAcc>5.649900</hAcc><vAcc>8.243306</vAcc></extensions></trkpt>
      <trkpt lon="-117.332797" lat="33.979635"><ele>316.082992</ele><time>2025-04-24T02:41:21Z</time><extensions><speed>0.038547</speed><course>162.822350</course><hAcc>5.311654</hAcc><vAcc>7.741016</vAcc></extensions></trkpt>
      <trkpt lon="-117.332798" lat="33.979627"><ele>316.116127</ele><time>2025-04-24T02:41:22Z</time><extensions><speed>0.057640</speed><course>166.032747</course><hAcc>5.008224</hAcc><vAcc>7.315128</vAcc></extensions></trkpt>
      <trkpt lon="-117.332802" lat="33.979619"><ele>316.415506</ele><time>2025-04-24T02:41:23Z</time><extensions><speed>0.098757</speed><course>172.158096</course><hAcc>4.757282</hAcc><vAcc>3.795899</vAcc></extensions></trkpt>
      <trkpt lon="-117.332819" lat="33.979606"><ele>316.420664</ele><time>2025-04-24T02:41:24Z</time><extensions><speed>0.130502</speed><course>185.324160</course><hAcc>4.319822</hAcc><vAcc>3.242984</vAcc></extensions></trkpt>
      <trkpt lon="-117.332830" lat="33.979598"><ele>316.426736</ele><time>2025-04-24T02:41:25Z</time><extensions><speed>0.221259</speed><course>191.725490</course><hAcc>3.984011</hAcc><vAcc>2.904025</vAcc></extensions></trkpt>
      <trkpt lon="-117.332838" lat="33.979591"><ele>316.443081</ele><time>2025-04-24T02:41:26Z</time><extensions><speed>0.326784</speed><course>196.622441</course><hAcc>3.660302</hAcc><vAcc>2.632953</vAcc></extensions></trkpt>
      <trkpt lon="-117.332846" lat="33.979583"><ele>316.452883</ele><time>2025-04-24T02:41:27Z</time><extensions><speed>0.398708</speed><course>201.625040</course><hAcc>3.367997</hAcc><vAcc>2.394166</vAcc></extensions></trkpt>
      <trkpt lon="-117.332853" lat="33.979577"><ele>316.466132</ele><time>2025-04-24T02:41:28Z</time><extensions><speed>0.360088</speed><course>207.706530</course><hAcc>3.132754</hAcc><vAcc>2.175440</vAcc></extensions></trkpt>
      <trkpt lon="-117.332859" lat="33.979571"><ele>316.478203</ele><time>2025-04-24T02:41:29Z</time><extensions><speed>0.413272</speed><course>214.588434</course><hAcc>2.910940</hAcc><vAcc>1.972321</vAcc></extensions></trkpt>
      <trkpt lon="-117.332866" lat="33.979565"><ele>316.490981</ele><time>2025-04-24T02:41:30Z</time><extensions><speed>0.587795</speed><course>221.521580</course><hAcc>2.654888</hAcc><vAcc>1.783574</vAcc></extensions></trkpt>
      <trkpt lon="-117.332872" lat="33.979560"><ele>316.503256</ele><time>2025-04-24T02:41:31Z</time><extensions><speed>0.483216</speed><course>233.275402</course><hAcc>2.436176</hAcc><vAcc>1.609492</vAcc></extensions></trkpt>
      <trkpt lon="-117.332879" lat="33.979556"><ele>316.516368</ele><time>2025-04-24T02:41:32Z</time><extensions><speed>0.567850</speed><course>261.159165</course><hAcc>2.237976</hAcc><vAcc>1.451235</vAcc></extensions></trkpt>
      <trkpt lon="-117.332889" lat="33.979557"><ele>316.525046</ele><time>2025-04-24T02:41:33Z</time><extensions><speed>1.077475</speed><course>300.821512</course><hAcc>2.087713</hAcc><vAcc>1.310632</vAcc></extensions></trkpt>
      <trkpt lon="-117.332905" lat="33.979563"><ele>316.538178</ele><time>2025-04-24T02:41:35Z</time><extensions><speed>1.230325</speed><course>299.093224</course><hAcc>1.977634</hAcc><vAcc>1.146055</vAcc></extensions></trkpt>
      <trkpt lon="-117.332918" lat="33.979567"><ele>316.548297</ele><time>2025-04-24T02:41:36Z</time><extensions><speed>1.232736</speed><course>295.864219</course><hAcc>1.887482</hAcc><vAcc>1.046191</vAcc></extensions></trkpt>
      <trkpt lon="-117.332931" lat="33.979571"><ele>316.558190</ele><time>2025-04-24T02:41:37Z</time><extensions><speed>1.165481</speed><course>295.380239</course><hAcc>1.805206</hAcc><vAcc>0.965642</vAcc></extensions></trkpt>
      <trkpt lon="-117.332943" lat="33.979574"><ele>316.566615</ele><time>2025-04-24T02:41:38Z</time><extensions><speed>1.154672</speed><course>289.905412</course><hAcc>1.739044</hAcc><vAcc>0.902927</vAcc></extensions></trkpt>
      <trkpt lon="-117.332955" lat="33.979577"><ele>316.572104</ele><time>2025-04-24T02:41:39Z</time><extensions><speed>1.110878</speed><course>280.578066</course><hAcc>1.684969</hAcc><vAcc>0.855898</vAcc></extensions></trkpt>
      <trkpt lon="-117.332967" lat="33.979578"><ele>316.573911</ele><time>2025-04-24T02:41:40Z</time><extensions><speed>1.103149</speed><course>278.884027</course><hAcc>1.639336</hAcc><vAcc>0.821990</vAcc></extensions></trkpt>
      <trkpt lon="-117.332979" lat="33.979579"><ele>316.572735</ele><time>2025-04-24T02:41:41Z</time><extensions><speed>1.089147</speed><course>280.526597</course><hAcc>1.602407</hAcc><vAcc>0.798521</vAcc></extensions></trkpt>
      <trkpt lon="-117.332990" lat="33.979580"><ele>316.569264</ele><time>2025-04-24T02:41:42Z</time><extensions><speed>0.996334</speed><course>279.290519</course><hAcc>1.572514</hAcc><vAcc>0.782950</vAcc></extensions></trkpt>
      <trkpt lon="-117.333004" lat="33.979577"><ele>316.558844</ele><time>2025-04-24T02:41:43Z</time><extensions><speed>1.092253</speed><course>276.929003</course><hAcc>1.533877</hAcc><vAcc>0.773070</vAcc></extensions></trkpt>
      <trkpt lon="-117.333017" lat="33.979577"><ele>316.546979</ele><time>2025-04-24T02:41:44Z</time><extensions><speed>1.033531</speed><course>281.048446</course><hAcc>1.522004</hAcc><vAcc>0.768581</vAcc></extensions></trkpt>
      <trkpt lon="-117.333029" lat="33.979577"><ele>316.535400</ele><time>2025-04-24T02:41:45Z</time><extensions><speed>1.037028</speed><course>278.534972</course><hAcc>1.508577</hAcc><vAcc>0.767402</vAcc></extensions></trkpt>
      <trkpt lon="-117.333041" lat="33.979577"><ele>316.518442</ele><time>2025-04-24T02:41:46Z</time><extensions><speed>1.002600</speed><course>276.304108</course><hAcc>1.507313</hAcc><vAcc>0.769292</vAcc></extensions></trkpt>
      <trkpt lon="-117.333052" lat="33.979577"><ele>316.496745</ele><time>2025-04-24T02:41:47Z</time><extensions><speed>1.010769</speed><course>272.728243</course><hAcc>1.512985</hAcc><vAcc>0.773008</vAcc></extensions></trkpt>
      <trkpt lon="-117.333064" lat="33.979577"><ele>316.462894</ele><time>2025-04-24T02:41:48Z</time><extensions><speed>0.992195</speed><course>274.720268</course><hAcc>1.532327</hAcc><vAcc>0.777119</vAcc></extensions></trkpt>
      <trkpt lon="-117.333075" lat="33.979577"><ele>316.431080</ele><time>2025-04-24T02:41:49Z</time><extensions><speed>0.942445</speed><course>272.947066</course><hAcc>1.560543</hAcc><vAcc>0.782182</vAcc></extensions></trkpt>
      <trkpt lon="-117.333085" lat="33.979577"><ele>316.399718</ele><time>2025-04-24T02:41:50Z</time><extensions><speed>0.952932</speed><course>269.827577</course><hAcc>1.593954</hAcc><vAcc>0.788449</vAcc></extensions></trkpt>
      <trkpt lon="-117.333096" lat="33.979576"><ele>316.359381</ele><time>2025-04-24T02:41:51Z</time><extensions><speed>1.067729</speed><course>262.649392</course><hAcc>1.618677</hAcc><vAcc>0.795897</vAcc></extensions></trkpt>
      <trkpt lon="-117.333108" lat="33.979575"><ele>316.318982</ele><time>2025-04-24T02:41:52Z</time><extensions><speed>1.202564</speed><course>258.078734</course><hAcc>1.643679</hAcc><vAcc>0.803958</vAcc></extensions></trkpt>
      <trkpt lon="-117.333123" lat="33.979569"><ele>316.271480</ele><time>2025-04-24T02:41:53Z</time><extensions><speed>1.940516</speed><course>237.898613</course><hAcc>1.631219</hAcc><vAcc>0.811889</vAcc></extensions></trkpt>
      <trkpt lon="-117.333142" lat="33.979559"><ele>316.220911</ele><time>2025-04-24T02:41:54Z</time><extensions><speed>2.060252</speed><course>235.893390</course><hAcc>1.697828</hAcc><vAcc>0.819714</vAcc></extensions></trkpt>
      <trkpt lon="-117.333160" lat="33.979549"><ele>316.165568</ele><time>2025-04-24T02:41:55Z</time><extensions><speed>1.882317</speed><course>241.301050</course><hAcc>1.791524</hAcc><vAcc>0.827529</vAcc></extensions></trkpt>
      <trkpt lon="-117.333177" lat="33.979542"><ele>316.113487</ele><time>2025-04-24T02:41:56Z</time><extensions><speed>1.654880</speed><course>247.293580</course><hAcc>1.845806</hAcc><vAcc>0.835050</vAcc></extensions></trkpt>
      <trkpt lon="-117.333193" lat="33.979537"><ele>316.058596</ele><time>2025-04-24T02:41:57Z</time><extensions><speed>1.545692</speed><course>250.870130</course><hAcc>1.862622</hAcc><vAcc>0.841946</vAcc></extensions></trkpt>
      <trkpt lon="-117.333208" lat="33.979532"><ele>316.004253</ele><time>2025-04-24T02:41:58Z</time><extensions><speed>1.460262</speed><course>251.104453</course><hAcc>1.866340</hAcc><vAcc>0.847932</vAcc></extensions></trkpt>
      <trkpt lon="-117.333222" lat="33.979528"><ele>315.953110</ele><time>2025-04-24T02:41:59Z</time><extensions><speed>1.348187</speed><course>246.613006</course><hAcc>1.875061</hAcc><vAcc>0.853592</vAcc></extensions></trkpt>
      <trkpt lon="-117.333234" lat="33.979522"><ele>315.907738</ele><time>2025-04-24T02:42:00Z</time><extensions><speed>1.197087</speed><course>237.012160</course><hAcc>1.888013</hAcc><vAcc>0.859256</vAcc></extensions></trkpt>
      <trkpt lon="-117.333243" lat="33.979515"><ele>315.867647</ele><time>2025-04-24T02:42:01Z</time><extensions><speed>1.076011</speed><course>225.714374</course><hAcc>1.898972</hAcc><vAcc>0.864918</vAcc></extensions></trkpt>
      <trkpt lon="-117.333250" lat="33.979508"><ele>315.831375</ele><time>2025-04-24T02:42:02Z</time><extensions><speed>1.005856</speed><course>214.590110</course><hAcc>1.936635</hAcc><vAcc>0.870437</vAcc></extensions></trkpt>
      <trkpt lon="-117.333256" lat="33.979500"><ele>315.794357</ele><time>2025-04-24T02:42:03Z</time><extensions><speed>0.981837</speed><course>206.505227</course><hAcc>1.976065</hAcc><vAcc>0.876718</vAcc></extensions></trkpt>
      <trkpt lon="-117.333260" lat="33.979492"><ele>315.760772</ele><time>2025-04-24T02:42:04Z</time><extensions><speed>1.057033</speed><course>202.557085</course><hAcc>2.005527</hAcc><vAcc>0.883634</vAcc></extensions></trkpt>
      <trkpt lon="-117.333264" lat="33.979482"><ele>315.734012</ele><time>2025-04-24T02:42:04Z</time><extensions><speed>1.189285</speed><course>201.156705</course><hAcc>2.034698</hAcc><vAcc>0.890771</vAcc></extensions></trkpt>
      <trkpt lon="-117.333270" lat="33.979472"><ele>315.713512</ele><time>2025-04-24T02:42:05Z</time><extensions><speed>1.276651</speed><course>204.014215</course><hAcc>2.069238</hAcc><vAcc>0.898888</vAcc></extensions></trkpt>
      <trkpt lon="-117.333275" lat="33.979461"><ele>315.693072</ele><time>2025-04-24T02:42:06Z</time><extensions><speed>1.329847</speed><course>202.214118</course><hAcc>2.076772</hAcc><vAcc>0.905604</vAcc></extensions></trkpt>
      <trkpt lon="-117.333281" lat="33.979451"><ele>315.681182</ele><time>2025-04-24T02:42:07Z</time><extensions><speed>1.294042</speed><course>201.044802</course><hAcc>2.078425</hAcc><vAcc>0.911211</vAcc></extensions></trkpt>
      <trkpt lon="-117.333286" lat="33.979440"><ele>315.677505</ele><time>2025-04-24T02:42:08Z</time><extensions><speed>1.260530</speed><course>200.475057</course><hAcc>2.083252</hAcc><vAcc>0.914794</vAcc></extensions></trkpt>
      <trkpt lon="-117.333291" lat="33.979430"><ele>315.668773</ele><time>2025-04-24T02:42:09Z</time><extensions><speed>1.214079</speed><course>200.212940</course><hAcc>2.084091</hAcc><vAcc>0.917400</vAcc></extensions></trkpt>
      <trkpt lon="-117.333296" lat="33.979420"><ele>315.666636</ele><time>2025-04-24T02:42:10Z</time><extensions><speed>1.175174</speed><course>203.725514</course><hAcc>2.081911</hAcc><vAcc>0.918715</vAcc></extensions></trkpt>
      <trkpt lon="-117.333303" lat="33.979411"><ele>315.663748</ele><time>2025-04-24T02:42:11Z</time><extensions><speed>1.149314</speed><course>210.600870</course><hAcc>2.103877</hAcc><vAcc>0.919246</vAcc></extensions></trkpt>
      <trkpt lon="-117.333310" lat="33.979403"><ele>315.661618</ele><time>2025-04-24T02:42:12Z</time><extensions><speed>1.117702</speed><course>225.438157</course><hAcc>2.117264</hAcc><vAcc>0.919536</vAcc></extensions></trkpt>
      <trkpt lon="-117.333321" lat="33.979397"><ele>315.655380</ele><time>2025-04-24T02:42:13Z</time><extensions><speed>1.226590</speed><course>247.514171</course><hAcc>2.121985</hAcc><vAcc>0.919073</vAcc></extensions></trkpt>
      <trkpt lon="-117.333335" lat="33.979395"><ele>315.648764</ele><time>2025-04-24T02:42:14Z</time><extensions><speed>1.417195</speed><course>263.190341</course><hAcc>2.123422</hAcc><vAcc>0.917709</vAcc></extensions></trkpt>
      <trkpt lon="-117.333351" lat="33.979394"><ele>315.633634</ele><time>2025-04-24T02:42:15Z</time><extensions><speed>1.468136</speed><course>272.244110</course><hAcc>2.119389</hAcc><vAcc>0.916074</vAcc></extensions></trkpt>
      <trkpt lon="-117.333367" lat="33.979396"><ele>315.613247</ele><time>2025-04-24T02:42:16Z</time><extensions><speed>1.499363</speed><course>279.091690</course><hAcc>2.110877</hAcc><vAcc>0.914108</vAcc></extensions></trkpt>
      <trkpt lon="-117.333384" lat="33.979398"><ele>315.575841</ele><time>2025-04-24T02:42:17Z</time><extensions><speed>1.533128</speed><course>281.067572</course><hAcc>2.101005</hAcc><vAcc>0.911973</vAcc></extensions></trkpt>
      <trkpt lon="-117.333400" lat="33.979401"><ele>315.531984</ele><time>2025-04-24T02:42:18Z</time><extensions><speed>1.551779</speed><course>280.620873</course><hAcc>2.092291</hAcc><vAcc>0.910012</vAcc></extensions></trkpt>
      <trkpt lon="-117.333417" lat="33.979403"><ele>315.474963</ele><time>2025-04-24T02:42:19Z</time><extensions><speed>1.556626</speed><course>281.397779</course><hAcc>2.086635</hAcc><vAcc>0.908703</vAcc></extensions></trkpt>
      <trkpt lon="-117.333434" lat="33.979406"><ele>315.435803</ele><time>2025-04-24T02:42:20Z</time><extensions><speed>1.593551</speed><course>281.096369</course><hAcc>2.081652</hAcc><vAcc>0.907940</vAcc></extensions></trkpt>
      <trkpt lon="-117.333450" lat="33.979409"><ele>315.404244</ele><time>2025-04-24T02:42:21Z</time><extensions><speed>1.583352</speed><course>280.909375</course><hAcc>2.075884</hAcc><vAcc>0.907926</vAcc></extensions></trkpt>
      <trkpt lon="-117.333467" lat="33.979411"><ele>315.375422</ele><time>2025-04-24T02:42:22Z</time><extensions><speed>1.492922</speed><course>280.778885</course><hAcc>2.068877</hAcc><vAcc>0.907851</vAcc></extensions></trkpt>
      <trkpt lon="-117.333482" lat="33.979414"><ele>315.340180</ele><time>2025-04-24T02:42:23Z</time><extensions><speed>1.452393</speed><course>279.545926</course><hAcc>2.061817</hAcc><vAcc>0.908480</vAcc></extensions></trkpt>
      <trkpt lon="-117.333498" lat="33.979416"><ele>315.306066</ele><time>2025-04-24T02:42:24Z</time><extensions><speed>1.430795</speed><course>276.866681</course><hAcc>2.053728</hAcc><vAcc>0.908414</vAcc></extensions></trkpt>
      <trkpt lon="-117.333513" lat="33.979417"><ele>315.265349</ele><time>2025-04-24T02:42:25Z</time><extensions><speed>1.390154</speed><course>274.544030</course><hAcc>2.042467</hAcc><vAcc>0.908329</vAcc></extensions></trkpt>
      <trkpt lon="-117.333528" lat="33.979418"><ele>315.239933</ele><time>2025-04-24T02:42:26Z</time><extensions><speed>1.323634</speed><course>273.271473</course><hAcc>2.028407</hAcc><vAcc>0.907919</vAcc></extensions></trkpt>
      <trkpt lon="-117.333542" lat="33.979418"><ele>315.192886</ele><time>2025-04-24T02:42:27Z</time><extensions><speed>1.296342</speed><course>274.317655</course><hAcc>2.013105</hAcc><vAcc>0.911635</vAcc></extensions></trkpt>
      <trkpt lon="-117.333556" lat="33.979419"><ele>315.129895</ele><time>2025-04-24T02:42:28Z</time><extensions><speed>1.285276</speed><course>274.471938</course><hAcc>1.997691</hAcc><vAcc>0.915606</vAcc></extensions></trkpt>
      <trkpt lon="-117.333570" lat="33.979420"><ele>315.063269</ele><time>2025-04-24T02:42:29Z</time><extensions><speed>1.294365</speed><course>274.157347</course><hAcc>1.982011</hAcc><vAcc>0.919875</vAcc></extensions></trkpt>
      <trkpt lon="-117.333584" lat="33.979420"><ele>314.999029</ele><time>2025-04-24T02:42:30Z</time><extensions><speed>1.309667</speed><course>269.128509</course><hAcc>1.966590</hAcc><vAcc>0.924316</vAcc></extensions></trkpt>
      <trkpt lon="-117.333598" lat="33.979420"><ele>314.952458</ele><time>2025-04-24T02:42:31Z</time><extensions><speed>1.258471</speed><course>269.793509</course><hAcc>1.951554</hAcc><vAcc>0.929571</vAcc></extensions></trkpt>
      <trkpt lon="-117.333611" lat="33.979420"><ele>314.905118</ele><time>2025-04-24T02:42:32Z</time><extensions><speed>1.215381</speed><course>271.222034</course><hAcc>1.923797</hAcc><vAcc>0.936536</vAcc></extensions></trkpt>
      <trkpt lon="-117.333625" lat="33.979421"><ele>314.863330</ele><time>2025-04-24T02:42:33Z</time><extensions><speed>1.222853</speed><course>273.311883</course><hAcc>1.896747</hAcc><vAcc>0.944388</vAcc></extensions></trkpt>
      <trkpt lon="-117.333638" lat="33.979422"><ele>314.818385</ele><time>2025-04-24T02:42:34Z</time><extensions><speed>1.281421</speed><course>273.736179</course><hAcc>1.872348</hAcc><vAcc>0.954456</vAcc></extensions></trkpt>
      <trkpt lon="-117.333653" lat="33.979423"><ele>314.793854</ele><time>2025-04-24T02:42:35Z</time><extensions><speed>1.364330</speed><course>274.945478</course><hAcc>1.849207</hAcc><vAcc>0.965238</vAcc></extensions></trkpt>
      <trkpt lon="-117.333668" lat="33.979423"><ele>314.776278</ele><time>2025-04-24T02:42:36Z</time><extensions><speed>1.381327</speed><course>274.196703</course><hAcc>1.834767</hAcc><vAcc>0.975827</vAcc></extensions></trkpt>
      <trkpt lon="-117.333683" lat="33.979424"><ele>314.757658</ele><time>2025-04-24T02:42:37Z</time><extensions><speed>1.343235</speed><course>275.137848</course><hAcc>1.832688</hAcc><vAcc>0.985952</vAcc></extensions></trkpt>
      <trkpt lon="-117.333697" lat="33.979425"><ele>314.739293</ele><time>2025-04-24T02:42:38Z</time><extensions><speed>1.271077</speed><course>272.739961</course><hAcc>1.815497</hAcc><vAcc>0.994422</vAcc></extensions></trkpt>
      <trkpt lon="-117.333711" lat="33.979426"><ele>314.731625</ele><time>2025-04-24T02:42:39Z</time><extensions><speed>1.185686</speed><course>270.948888</course><hAcc>1.793219</hAcc><vAcc>1.002721</vAcc></extensions></trkpt>
      <trkpt lon="-117.333723" lat="33.979426"><ele>314.738308</ele><time>2025-04-24T02:42:40Z</time><extensions><speed>1.102002</speed><course>270.990318</course><hAcc>1.769749</hAcc><vAcc>1.010058</vAcc></extensions></trkpt>
      <trkpt lon="-117.333735" lat="33.979426"><ele>314.736562</ele><time>2025-04-24T02:42:41Z</time><extensions><speed>1.093855</speed><course>271.915066</course><hAcc>1.743180</hAcc><vAcc>1.015938</vAcc></extensions></trkpt>
      <trkpt lon="-117.333747" lat="33.979426"><ele>314.706693</ele><time>2025-04-24T02:42:42Z</time><extensions><speed>1.091770</speed><course>272.969345</course><hAcc>1.748432</hAcc><vAcc>1.019536</vAcc></extensions></trkpt>
      <trkpt lon="-117.333760" lat="33.979427"><ele>314.707261</ele><time>2025-04-24T02:42:43Z</time><extensions><speed>1.206157</speed><course>272.860756</course><hAcc>1.733412</hAcc><vAcc>1.020422</vAcc></extensions></trkpt>
      <trkpt lon="-117.333773" lat="33.979427"><ele>314.707176</ele><time>2025-04-24T02:42:44Z</time><extensions><speed>1.279657</speed><course>270.727431</course><hAcc>1.713254</hAcc><vAcc>1.018258</vAcc></extensions></trkpt>
      <trkpt lon="-117.333788" lat="33.979427"><ele>314.727569</ele><time>2025-04-24T02:42:45Z</time><extensions><speed>1.384174</speed><course>269.066547</course><hAcc>1.692490</hAcc><vAcc>1.013422</vAcc></extensions></trkpt>
      <trkpt lon="-117.333803" lat="33.979427"><ele>314.758007</ele><time>2025-04-24T02:42:46Z</time><extensions><speed>1.447119</speed><course>268.439761</course><hAcc>1.677695</hAcc><vAcc>1.006350</vAcc></extensions></trkpt>
      <trkpt lon="-117.333819" lat="33.979426"><ele>314.785541</ele><time>2025-04-24T02:42:47Z</time><extensions><speed>1.451084</speed><course>268.657262</course><hAcc>1.663176</hAcc><vAcc>0.997903</vAcc></extensions></trkpt>
      <trkpt lon="-117.333834" lat="33.979426"><ele>314.806741</ele><time>2025-04-24T02:42:48Z</time><extensions><speed>1.351215</speed><course>268.634947</course><hAcc>1.651290</hAcc><vAcc>0.988600</vAcc></extensions></trkpt>
      <trkpt lon="-117.333849" lat="33.979426"><ele>314.827678</ele><time>2025-04-24T02:42:49Z</time><extensions><speed>1.366432</speed><course>269.557618</course><hAcc>1.642052</hAcc><vAcc>0.978829</vAcc></extensions></trkpt>
      <trkpt lon="-117.333864" lat="33.979426"><ele>314.844278</ele><time>2025-04-24T02:42:50Z</time><extensions><speed>1.324026</speed><course>270.466899</course><hAcc>1.632212</hAcc><vAcc>0.968093</vAcc></extensions></trkpt>
      <trkpt lon="-117.333878" lat="33.979426"><ele>314.867784</ele><time>2025-04-24T02:42:51Z</time><extensions><speed>1.368555</speed><course>270.731050</course><hAcc>1.613738</hAcc><vAcc>0.956790</vAcc></extensions></trkpt>
      <trkpt lon="-117.333893" lat="33.979426"><ele>314.906774</ele><time>2025-04-24T02:42:52Z</time><extensions><speed>1.393289</speed><course>271.929526</course><hAcc>1.592401</hAcc><vAcc>0.945152</vAcc></extensions></trkpt>
      <trkpt lon="-117.333908" lat="33.979427"><ele>314.942332</ele><time>2025-04-24T02:42:53Z</time><extensions><speed>1.329279</speed><course>270.891911</course><hAcc>1.583867</hAcc><vAcc>0.933369</vAcc></extensions></trkpt>
      <trkpt lon="-117.333922" lat="33.979427"><ele>314.953310</ele><time>2025-04-24T02:42:54Z</time><extensions><speed>1.268042</speed><course>271.978265</course><hAcc>1.564829</hAcc><vAcc>0.921757</vAcc></extensions></trkpt>
      <trkpt lon="-117.333936" lat="33.979427"><ele>314.959066</ele><time>2025-04-24T02:42:55Z</time><extensions><speed>1.294720</speed><course>273.263721</course><hAcc>1.543125</hAcc><vAcc>0.909739</vAcc></extensions></trkpt>
      <trkpt lon="-117.333950" lat="33.979428"><ele>314.965228</ele><time>2025-04-24T02:42:56Z</time><extensions><speed>1.387987</speed><course>273.889077</course><hAcc>1.524815</hAcc><vAcc>0.898012</vAcc></extensions></trkpt>
      <trkpt lon="-117.333966" lat="33.979429"><ele>314.975151</ele><time>2025-04-24T02:42:57Z</time><extensions><speed>1.446091</speed><course>274.340306</course><hAcc>1.515586</hAcc><vAcc>0.887885</vAcc></extensions></trkpt>
      <trkpt lon="-117.333981" lat="33.979430"><ele>314.981202</ele><time>2025-04-24T02:42:58Z</time><extensions><speed>1.424532</speed><course>271.924493</course><hAcc>1.500613</hAcc><vAcc>0.879054</vAcc></extensions></trkpt>
      <trkpt lon="-117.333997" lat="33.979430"><ele>314.988539</ele><time>2025-04-24T02:42:59Z</time><extensions><speed>1.414984</speed><course>271.436582</course><hAcc>1.490204</hAcc><vAcc>0.871723</vAcc></extensions></trkpt>
      <trkpt lon="-117.334012" lat="33.979430"><ele>314.999676</ele><time>2025-04-24T02:43:00Z</time><extensions><speed>1.376288</speed><course>270.555782</course><hAcc>1.485998</hAcc><vAcc>0.865311</vAcc></extensions></trkpt>
      <trkpt lon="-117.334027" lat="33.979431"><ele>315.013863</ele><time>2025-04-24T02:43:01Z</time><extensions><speed>1.379514</speed><course>274.626264</course><hAcc>1.485880</hAcc><vAcc>0.860061</vAcc></extensions></trkpt>
      <trkpt lon="-117.334042" lat="33.979432"><ele>315.026750</ele><time>2025-04-24T02:43:02Z</time><extensions><speed>1.415673</speed><course>275.136253</course><hAcc>1.486181</hAcc><vAcc>0.855830</vAcc></extensions></trkpt>
      <trkpt lon="-117.334057" lat="33.979432"><ele>315.042796</ele><time>2025-04-24T02:43:03Z</time><extensions><speed>1.385558</speed><course>272.423415</course><hAcc>1.483387</hAcc><vAcc>0.852639</vAcc></extensions></trkpt>
      <trkpt lon="-117.334071" lat="33.979433"><ele>315.073224</ele><time>2025-04-24T02:43:04Z</time><extensions><speed>1.266062</speed><course>268.851777</course><hAcc>1.469703</hAcc><vAcc>0.850354</vAcc></extensions></trkpt>
      <trkpt lon="-117.334084" lat="33.979432"><ele>315.079360</ele><time>2025-04-24T02:43:05Z</time><extensions><speed>1.153245</speed><course>266.733024</course><hAcc>1.449173</hAcc><vAcc>0.849774</vAcc></extensions></trkpt>
      <trkpt lon="-117.334097" lat="33.979432"><ele>315.082897</ele><time>2025-04-24T02:43:06Z</time><extensions><speed>1.163867</speed><course>268.164980</course><hAcc>1.429288</hAcc><vAcc>0.849838</vAcc></extensions></trkpt>
      <trkpt lon="-117.334110" lat="33.979431"><ele>315.073817</ele><time>2025-04-24T02:43:07Z</time><extensions><speed>1.264545</speed><course>269.734793</course><hAcc>1.412564</hAcc><vAcc>0.850766</vAcc></extensions></trkpt>
      <trkpt lon="-117.334124" lat="33.979432"><ele>315.058965</ele><time>2025-04-24T02:43:08Z</time><extensions><speed>1.346447</speed><course>271.861874</course><hAcc>1.407094</hAcc><vAcc>0.852435</vAcc></extensions></trkpt>
      <trkpt lon="-117.334138" lat="33.979432"><ele>315.035069</ele><time>2025-04-24T02:43:09Z</time><extensions><speed>1.279434</speed><course>271.405546</course><hAcc>1.423253</hAcc><vAcc>0.855078</vAcc></extensions></trkpt>
      <trkpt lon="-117.334151" lat="33.979432"><ele>314.996649</ele><time>2025-04-24T02:43:10Z</time><extensions><speed>1.181770</speed><course>269.689949</course><hAcc>1.395668</hAcc><vAcc>0.858654</vAcc></extensions></trkpt>
      <trkpt lon="-117.334164" lat="33.979432"><ele>314.940004</ele><time>2025-04-24T02:43:11Z</time><extensions><speed>1.195387</speed><course>268.004539</course><hAcc>1.386053</hAcc><vAcc>0.862237</vAcc></extensions></trkpt>
      <trkpt lon="-117.334177" lat="33.979431"><ele>314.880949</ele><time>2025-04-24T02:43:12Z</time><extensions><speed>1.186227</speed><course>265.092481</course><hAcc>1.384354</hAcc><vAcc>0.866695</vAcc></extensions></trkpt>
      <trkpt lon="-117.334190" lat="33.979430"><ele>314.810263</ele><time>2025-04-24T02:43:13Z</time><extensions><speed>1.153065</speed><course>265.247139</course><hAcc>1.377368</hAcc><vAcc>0.870932</vAcc></extensions></trkpt>
      <trkpt lon="-117.334202" lat="33.979430"><ele>314.727450</ele><time>2025-04-24T02:43:14Z</time><extensions><speed>1.198272</speed><course>267.171404</course><hAcc>1.383156</hAcc><vAcc>0.874113</vAcc></extensions></trkpt>
      <trkpt lon="-117.334215" lat="33.979430"><ele>314.634542</ele><time>2025-04-24T02:43:15Z</time><extensions><speed>1.196508</speed><course>273.010835</course><hAcc>1.414978</hAcc><vAcc>0.877232</vAcc></extensions></trkpt>
      <trkpt lon="-117.334228" lat="33.979430"><ele>314.530290</ele><time>2025-04-24T02:43:16Z</time><extensions><speed>1.044674</speed><course>273.835003</course><hAcc>1.388787</hAcc><vAcc>0.880245</vAcc></extensions></trkpt>
      <trkpt lon="-117.334239" lat="33.979431"><ele>314.422495</ele><time>2025-04-24T02:43:17Z</time><extensions><speed>1.039162</speed><course>273.500238</course><hAcc>1.388488</hAcc><vAcc>0.882344</vAcc></extensions></trkpt>
      <trkpt lon="-117.334250" lat="33.979431"><ele>314.314353</ele><time>2025-04-24T02:43:18Z</time><extensions><speed>1.041141</speed><course>272.185046</course><hAcc>1.408230</hAcc><vAcc>0.884722</vAcc></extensions></trkpt>
      <trkpt lon="-117.334261" lat="33.979432"><ele>314.204933</ele><time>2025-04-24T02:43:19Z</time><extensions><speed>0.999643</speed><course>273.517510</course><hAcc>1.424194</hAcc><vAcc>0.886543</vAcc></extensions></trkpt>
      <trkpt lon="-117.334272" lat="33.979432"><ele>314.102562</ele><time>2025-04-24T02:43:20Z</time><extensions><speed>1.036051</speed><course>275.108725</course><hAcc>1.427481</hAcc><vAcc>0.888033</vAcc></extensions></trkpt>
      <trkpt lon="-117.334284" lat="33.979433"><ele>314.010747</ele><time>2025-04-24T02:43:21Z</time><extensions><speed>1.210232</speed><course>274.211587</course><hAcc>1.433485</hAcc><vAcc>0.888093</vAcc></extensions></trkpt>
      <trkpt lon="-117.334298" lat="33.979434"><ele>313.926153</ele><time>2025-04-24T02:43:22Z</time><extensions><speed>1.396536</speed><course>272.714154</course><hAcc>1.451485</hAcc><vAcc>0.887928</vAcc></extensions></trkpt>
      <trkpt lon="-117.334314" lat="33.979434"><ele>313.846414</ele><time>2025-04-24T02:43:23Z</time><extensions><speed>1.418378</speed><course>272.513792</course><hAcc>1.450107</hAcc><vAcc>0.887781</vAcc></extensions></trkpt>
      <trkpt lon="-117.334329" lat="33.979435"><ele>313.777759</ele><time>2025-04-24T02:43:24Z</time><extensions><speed>1.396743</speed><course>272.407331</course><hAcc>1.438908</hAcc><vAcc>0.887246</vAcc></extensions></trkpt>
      <trkpt lon="-117.334344" lat="33.979435"><ele>313.725787</ele><time>2025-04-24T02:43:25Z</time><extensions><speed>1.371604</speed><course>271.930461</course><hAcc>1.428288</hAcc><vAcc>0.886023</vAcc></extensions></trkpt>
      <trkpt lon="-117.334359" lat="33.979436"><ele>313.684602</ele><time>2025-04-24T02:43:26Z</time><extensions><speed>1.384807</speed><course>272.308103</course><hAcc>1.422090</hAcc><vAcc>0.884679</vAcc></extensions></trkpt>
      <trkpt lon="-117.334374" lat="33.979436"><ele>313.650561</ele><time>2025-04-24T02:43:27Z</time><extensions><speed>1.333215</speed><course>270.856339</course><hAcc>1.421551</hAcc><vAcc>0.882905</vAcc></extensions></trkpt>
      <trkpt lon="-117.334388" lat="33.979436"><ele>313.623876</ele><time>2025-04-24T02:43:28Z</time><extensions><speed>1.354805</speed><course>268.284590</course><hAcc>1.422212</hAcc><vAcc>0.880696</vAcc></extensions></trkpt>
      <trkpt lon="-117.334403" lat="33.979435"><ele>313.607048</ele><time>2025-04-24T02:43:29Z</time><extensions><speed>1.298507</speed><course>264.241152</course><hAcc>1.421983</hAcc><vAcc>0.878142</vAcc></extensions></trkpt>
      <trkpt lon="-117.334416" lat="33.979434"><ele>313.599669</ele><time>2025-04-24T02:43:30Z</time><extensions><speed>1.214139</speed><course>263.067729</course><hAcc>1.421949</hAcc><vAcc>0.875102</vAcc></extensions></trkpt>
      <trkpt lon="-117.334429" lat="33.979433"><ele>313.588802</ele><time>2025-04-24T02:43:31Z</time><extensions><speed>1.139461</speed><course>267.278257</course><hAcc>1.412221</hAcc><vAcc>0.871827</vAcc></extensions></trkpt>
      <trkpt lon="-117.334442" lat="33.979433"><ele>313.584497</ele><time>2025-04-24T02:43:32Z</time><extensions><speed>1.194053</speed><course>270.736656</course><hAcc>1.407839</hAcc><vAcc>0.868751</vAcc></extensions></trkpt>
      <trkpt lon="-117.334455" lat="33.979433"><ele>313.579962</ele><time>2025-04-24T02:43:33Z</time><extensions><speed>1.250671</speed><course>271.503830</course><hAcc>1.407262</hAcc><vAcc>0.865273</vAcc></extensions></trkpt>
      <trkpt lon="-117.334468" lat="33.979433"><ele>313.582966</ele><time>2025-04-24T02:43:34Z</time><extensions><speed>1.239296</speed><course>270.203536</course><hAcc>1.402851</hAcc><vAcc>0.861427</vAcc></extensions></trkpt>
      <trkpt lon="-117.334481" lat="33.979433"><ele>313.577598</ele><time>2025-04-24T02:43:35Z</time><extensions><speed>1.167751</speed><course>267.871014</course><hAcc>1.396356</hAcc><vAcc>0.857648</vAcc></extensions></trkpt>
      <trkpt lon="-117.334494" lat="33.979433"><ele>313.574186</ele><time>2025-04-24T02:43:36Z</time><extensions><speed>1.193093</speed><course>268.557508</course><hAcc>1.391763</hAcc><vAcc>0.853730</vAcc></extensions></trkpt>
      <trkpt lon="-117.334507" lat="33.979433"><ele>313.576955</ele><time>2025-04-24T02:43:37Z</time><extensions><speed>1.209991</speed><course>269.752734</course><hAcc>1.386005</hAcc><vAcc>0.849424</vAcc></extensions></trkpt>
      <trkpt lon="-117.334520" lat="33.979433"><ele>313.576823</ele><time>2025-04-24T02:43:38Z</time><extensions><speed>1.228116</speed><course>271.436993</course><hAcc>1.379783</hAcc><vAcc>0.852527</vAcc></extensions></trkpt>
      <trkpt lon="-117.334534" lat="33.979433"><ele>313.575415</ele><time>2025-04-24T02:43:39Z</time><extensions><speed>1.238234</speed><course>272.351488</course><hAcc>1.377005</hAcc><vAcc>0.860183</vAcc></extensions></trkpt>
      <trkpt lon="-117.334547" lat="33.979434"><ele>313.572654</ele><time>2025-04-24T02:43:40Z</time><extensions><speed>1.212723</speed><course>273.203602</course><hAcc>1.377526</hAcc><vAcc>0.874802</vAcc></extensions></trkpt>
      <trkpt lon="-117.334559" lat="33.979434"><ele>313.568658</ele><time>2025-04-24T02:43:41Z</time><extensions><speed>1.079612</speed><course>275.419613</course><hAcc>1.380411</hAcc><vAcc>0.899362</vAcc></extensions></trkpt>
      <trkpt lon="-117.334571" lat="33.979435"><ele>313.563701</ele><time>2025-04-24T02:43:42Z</time><extensions><speed>1.124640</speed><course>273.755928</course><hAcc>1.394137</hAcc><vAcc>0.937256</vAcc></extensions></trkpt>
      <trkpt lon="-117.334583" lat="33.979436"><ele>313.558096</ele><time>2025-04-24T02:43:43Z</time><extensions><speed>1.135214</speed><course>271.958110</course><hAcc>1.417410</hAcc><vAcc>0.992026</vAcc></extensions></trkpt>
      <trkpt lon="-117.334596" lat="33.979436"><ele>313.552119</ele><time>2025-04-24T02:43:44Z</time><extensions><speed>1.140564</speed><course>270.416976</course><hAcc>1.465278</hAcc><vAcc>1.066999</vAcc></extensions></trkpt>
      <trkpt lon="-117.334608" lat="33.979436"><ele>313.546015</ele><time>2025-04-24T02:43:45Z</time><extensions><speed>1.159971</speed><course>269.024934</course><hAcc>1.548524</hAcc><vAcc>1.164900</vAcc></extensions></trkpt>
      <trkpt lon="-117.334621" lat="33.979436"><ele>313.539972</ele><time>2025-04-24T02:43:47Z</time><extensions><speed>1.236606</speed><course>271.718654</course><hAcc>1.702302</hAcc><vAcc>1.287592</vAcc></extensions></trkpt>
      <trkpt lon="-117.334635" lat="33.979436"><ele>313.534039</ele><time>2025-04-24T02:43:48Z</time><extensions><speed>1.284446</speed><course>273.729383</course><hAcc>1.974153</hAcc><vAcc>1.436009</vAcc></extensions></trkpt>
    </trkseg>
  </trk>
</gpx>