<?xml version="1.0" encoding="UTF-8"?>
<gpx version="1.1" creator="Apple Health Export" xmlns="http://www.topografix.com/GPX/1/1" xmlns:xsi="http://www.w3.org/2001/XMLSchema-instance" xsi:schemaLocation="http://www.topografix.com/GPX/1/1 http://www.topografix.com/GPX/1/1/gpx.xsd">
  <metadata>
    <time>2026-01-11T07:58:08Z</time>
  </metadata>
  <trk>
    <name>Route 2025-03-21 10:34am</name>
    <trkseg>
      <trkpt lon="-117.331232" lat="33.978579"><ele>319.057429</ele><time>2025-03-21T17:28:13Z</time><extensions><speed>4.643391</speed><course>179.354309</course><hAcc>1.464194</hAcc><vAcc>1.438631</vAcc></extensions></trkpt>
      <trkpt lon="-117.331231" lat="33.978537"><ele>319.094888</ele><time>2025-03-21T17:28:14Z</time><extensions><speed>4.522855</speed><course>177.433766</course><hAcc>1.301765</hAcc><vAcc>1.252903</vAcc></extensions></trkpt>
      <trkpt lon="-117.331228" lat="33.978497"><ele>319.132611</ele><time>2025-03-21T17:28:15Z</time><extensions><speed>4.509934</speed><course>176.192935</course><hAcc>1.200533</hAcc><vAcc>1.108417</vAcc></extensions></trkpt>
      <trkpt lon="-117.331225" lat="33.978457"><ele>319.168773</ele><time>2025-03-21T17:28:16Z</time><extensions><speed>4.292164</speed><course>175.958692</course><hAcc>1.139235</hAcc><vAcc>0.999258</vAcc></extensions></trkpt>
      <trkpt lon="-117.331223" lat="33.978419"><ele>319.203250</ele><time>2025-03-21T17:28:17Z</time><extensions><speed>4.223982</speed><course>178.549489</course><hAcc>1.099602</hAcc><vAcc>0.920133</vAcc></extensions></trkpt>
      <trkpt lon="-117.331222" lat="33.978381"><ele>319.235877</ele><time>2025-03-21T17:28:18Z</time><extensions><speed>4.192052</speed><course>179.745138</course><hAcc>1.067289</hAcc><vAcc>0.866231</vAcc></extensions></trkpt>
      <trkpt lon="-117.331222" lat="33.978344"><ele>319.266552</ele><time>2025-03-21T17:28:19Z</time><extensions><speed>3.833850</speed><course>179.817869</course><hAcc>1.056392</hAcc><vAcc>0.832623</vAcc></extensions></trkpt>
      <trkpt lon="-117.331222" lat="33.978309"><ele>319.294824</ele><time>2025-03-21T17:28:20Z</time><extensions><speed>4.012857</speed><course>179.037437</course><hAcc>1.044761</hAcc><vAcc>0.814827</vAcc></extensions></trkpt>
      <trkpt lon="-117.331221" lat="33.978272"><ele>319.319616</ele><time>2025-03-21T17:28:21Z</time><extensions><speed>4.027598</speed><course>179.050024</course><hAcc>1.040328</hAcc><vAcc>0.809050</vAcc></extensions></trkpt>
      <trkpt lon="-117.331222" lat="33.978235"><ele>319.336892</ele><time>2025-03-21T17:28:22Z</time><extensions><speed>4.141025</speed><course>182.469231</course><hAcc>1.042436</hAcc><vAcc>0.808534</vAcc></extensions></trkpt>
      <trkpt lon="-117.331224" lat="33.978198"><ele>319.349519</ele><time>2025-03-21T17:28:23Z</time><extensions><speed>4.189434</speed><course>184.314136</course><hAcc>1.053963</hAcc><vAcc>0.813145</vAcc></extensions></trkpt>
      <trkpt lon="-117.331226" lat="33.978161"><ele>319.354084</ele><time>2025-03-21T17:28:24Z</time><extensions><speed>4.079929</speed><course>180.619678</course><hAcc>1.073032</hAcc><vAcc>0.821334</vAcc></extensions></trkpt>
      <trkpt lon="-117.331225" lat="33.978124"><ele>319.355025</ele><time>2025-03-21T17:28:25Z</time><extensions><speed>4.071741</speed><course>177.248497</course><hAcc>1.099284</hAcc><vAcc>0.831842</vAcc></extensions></trkpt>
      <trkpt lon="-117.331223" lat="33.978088"><ele>319.349002</ele><time>2025-03-21T17:28:26Z</time><extensions><speed>4.061447</speed><course>176.959008</course><hAcc>1.130802</hAcc><vAcc>0.843273</vAcc></extensions></trkpt>
      <trkpt lon="-117.331222" lat="33.978052"><ele>319.336469</ele><time>2025-03-21T17:28:27Z</time><extensions><speed>3.988810</speed><course>179.131099</course><hAcc>1.167409</hAcc><vAcc>0.855874</vAcc></extensions></trkpt>
      <trkpt lon="-117.331222" lat="33.978017"><ele>319.313044</ele><time>2025-03-21T17:28:28Z</time><extensions><speed>3.987172</speed><course>181.906449</course><hAcc>1.195715</hAcc><vAcc>0.863067</vAcc></extensions></trkpt>
      <trkpt lon="-117.331225" lat="33.977981"><ele>319.284992</ele><time>2025-03-21T17:28:29Z</time><extensions><speed>4.137042</speed><course>186.024144</course><hAcc>1.215397</hAcc><vAcc>0.870490</vAcc></extensions></trkpt>
      <trkpt lon="-117.331230" lat="33.977943"><ele>319.253701</ele><time>2025-03-21T17:28:30Z</time><extensions><speed>4.404593</speed><course>185.700213</course><hAcc>1.228212</hAcc><vAcc>0.877403</vAcc></extensions></trkpt>
      <trkpt lon="-117.331233" lat="33.977904"><ele>319.218875</ele><time>2025-03-21T17:28:31Z</time><extensions><speed>4.555819</speed><course>180.748472</course><hAcc>1.236289</hAcc><vAcc>0.883583</vAcc></extensions></trkpt>
      <trkpt lon="-117.331233" lat="33.977864"><ele>319.174006</ele><time>2025-03-21T17:28:32Z</time><extensions><speed>4.544194</speed><course>178.884478</course><hAcc>1.239862</hAcc><vAcc>0.888561</vAcc></extensions></trkpt>
      <trkpt lon="-117.331232" lat="33.977824"><ele>319.126029</ele><time>2025-03-21T17:28:33Z</time><extensions><speed>4.482889</speed><course>179.355130</course><hAcc>1.239276</hAcc><vAcc>0.892315</vAcc></extensions></trkpt>
      <trkpt lon="-117.331231" lat="33.977787"><ele>319.072454</ele><time>2025-03-21T17:28:34Z</time><extensions><speed>3.971887</speed><course>177.415714</course><hAcc>1.239741</hAcc><vAcc>0.894137</vAcc></extensions></trkpt>
      <trkpt lon="-117.331227" lat="33.977754"><ele>319.017825</ele><time>2025-03-21T17:28:35Z</time><extensions><speed>3.490123</speed><course>171.842515</course><hAcc>1.238117</hAcc><vAcc>0.893834</vAcc></extensions></trkpt>
      <trkpt lon="-117.331224" lat="33.977723"><ele>318.938334</ele><time>2025-03-21T17:28:36Z</time><extensions><speed>3.448853</speed><course>178.966416</course><hAcc>1.231093</hAcc><vAcc>0.890511</vAcc></extensions></trkpt>
      <trkpt lon="-117.331224" lat="33.977692"><ele>318.856932</ele><time>2025-03-21T17:28:37Z</time><extensions><speed>3.437224</speed><course>181.203467</course><hAcc>1.225318</hAcc><vAcc>0.886346</vAcc></extensions></trkpt>
      <trkpt lon="-117.331225" lat="33.977662"><ele>318.776778</ele><time>2025-03-21T17:28:38Z</time><extensions><speed>3.300027</speed><course>182.303771</course><hAcc>1.223314</hAcc><vAcc>0.881338</vAcc></extensions></trkpt>
      <trkpt lon="-117.331226" lat="33.977633"><ele>318.693230</ele><time>2025-03-21T17:28:39Z</time><extensions><speed>3.126153</speed><course>182.960603</course><hAcc>1.226106</hAcc><vAcc>0.875526</vAcc></extensions></trkpt>
      <trkpt lon="-117.331228" lat="33.977607"><ele>318.603683</ele><time>2025-03-21T17:28:40Z</time><extensions><speed>2.837601</speed><course>181.476522</course><hAcc>1.235752</hAcc><vAcc>0.868846</vAcc></extensions></trkpt>
      <trkpt lon="-117.331229" lat="33.977581"><ele>318.507098</ele><time>2025-03-21T17:28:41Z</time><extensions><speed>2.815207</speed><course>183.283839</course><hAcc>1.248807</hAcc><vAcc>0.861149</vAcc></extensions></trkpt>
      <trkpt lon="-117.331231" lat="33.977556"><ele>318.403999</ele><time>2025-03-21T17:28:42Z</time><extensions><speed>2.685678</speed><course>184.188411</course><hAcc>1.270406</hAcc><vAcc>0.852335</vAcc></extensions></trkpt>
      <trkpt lon="-117.331231" lat="33.977533"><ele>318.300769</ele><time>2025-03-21T17:28:43Z</time><extensions><speed>2.464282</speed><course>177.410637</course><hAcc>1.299712</hAcc><vAcc>0.842458</vAcc></extensions></trkpt>
      <trkpt lon="-117.331230" lat="33.977511"><ele>318.191448</ele><time>2025-03-21T17:28:44Z</time><extensions><speed>2.527127</speed><course>177.766669</course><hAcc>1.330868</hAcc><vAcc>0.831765</vAcc></extensions></trkpt>
      <trkpt lon="-117.331229" lat="33.977484"><ele>318.084243</ele><time>2025-03-21T17:28:45Z</time><extensions><speed>3.312457</speed><course>178.604635</course><hAcc>1.356689</hAcc><vAcc>0.820690</vAcc></extensions></trkpt>
      <trkpt lon="-117.331229" lat="33.977453"><ele>317.972841</ele><time>2025-03-21T17:28:46Z</time><extensions><speed>3.619695</speed><course>179.428969</course><hAcc>1.380938</hAcc><vAcc>0.809774</vAcc></extensions></trkpt>
      <trkpt lon="-117.331228" lat="33.977419"><ele>317.861738</ele><time>2025-03-21T17:28:47Z</time><extensions><speed>4.010757</speed><course>179.308905</course><hAcc>1.505181</hAcc><vAcc>0.799544</vAcc></extensions></trkpt>
      <trkpt lon="-117.331228" lat="33.977381"><ele>317.751182</ele><time>2025-03-21T17:28:48Z</time><extensions><speed>4.377841</speed><course>179.861592</course><hAcc>1.620007</hAcc><vAcc>0.790384</vAcc></extensions></trkpt>
      <trkpt lon="-117.331229" lat="33.977340"><ele>317.642402</ele><time>2025-03-21T17:28:49Z</time><extensions><speed>4.640064</speed><course>181.678310</course><hAcc>1.674743</hAcc><vAcc>0.783275</vAcc></extensions></trkpt>
      <trkpt lon="-117.331231" lat="33.977298"><ele>317.533370</ele><time>2025-03-21T17:28:50Z</time><extensions><speed>4.744250</speed><course>183.749527</course><hAcc>1.680611</hAcc><vAcc>0.777861</vAcc></extensions></trkpt>
      <trkpt lon="-117.331235" lat="33.977256"><ele>317.423983</ele><time>2025-03-21T17:28:51Z</time><extensions><speed>4.650538</speed><course>184.713936</course><hAcc>1.661548</hAcc><vAcc>0.774078</vAcc></extensions></trkpt>
      <trkpt lon="-117.331238" lat="33.977216"><ele>317.324206</ele><time>2025-03-21T17:28:52Z</time><extensions><speed>4.300252</speed><course>184.037559</course><hAcc>1.635628</hAcc><vAcc>0.771773</vAcc></extensions></trkpt>
      <trkpt lon="-117.331241" lat="33.977178"><ele>317.224966</ele><time>2025-03-21T17:28:53Z</time><extensions><speed>4.021958</speed><course>182.861044</course><hAcc>1.613419</hAcc><vAcc>0.770913</vAcc></extensions></trkpt>
      <trkpt lon="-117.331243" lat="33.977143"><ele>317.127561</ele><time>2025-03-21T17:28:54Z</time><extensions><speed>3.859310</speed><course>182.137713</course><hAcc>1.594537</hAcc><vAcc>0.771090</vAcc></extensions></trkpt>
      <trkpt lon="-117.331244" lat="33.977108"><ele>317.037555</ele><time>2025-03-21T17:28:55Z</time><extensions><speed>3.722546</speed><course>181.074729</course><hAcc>1.579583</hAcc><vAcc>0.772162</vAcc></extensions></trkpt>
      <trkpt lon="-117.331245" lat="33.977076"><ele>316.953691</ele><time>2025-03-21T17:28:56Z</time><extensions><speed>3.497102</speed><course>181.058512</course><hAcc>1.571497</hAcc><vAcc>0.773819</vAcc></extensions></trkpt>
      <trkpt lon="-117.331246" lat="33.977045"><ele>316.869361</ele><time>2025-03-21T17:28:57Z</time><extensions><speed>3.230283</speed><course>183.476626</course><hAcc>1.560516</hAcc><vAcc>0.775977</vAcc></extensions></trkpt>
      <trkpt lon="-117.331248" lat="33.977017"><ele>316.788593</ele><time>2025-03-21T17:28:58Z</time><extensions><speed>3.107757</speed><course>182.523803</course><hAcc>1.544868</hAcc><vAcc>0.778514</vAcc></extensions></trkpt>
      <trkpt lon="-117.331249" lat="33.976988"><ele>316.710822</ele><time>2025-03-21T17:28:59Z</time><extensions><speed>3.115994</speed><course>179.884058</course><hAcc>1.533038</hAcc><vAcc>0.780662</vAcc></extensions></trkpt>
      <trkpt lon="-117.331248" lat="33.976960"><ele>316.631691</ele><time>2025-03-21T17:29:00Z</time><extensions><speed>3.163285</speed><course>175.545082</course><hAcc>1.506924</hAcc><vAcc>0.782419</vAcc></extensions></trkpt>
      <trkpt lon="-117.331244" lat="33.976930"><ele>316.553806</ele><time>2025-03-21T17:29:01Z</time><extensions><speed>3.429365</speed><course>173.996958</course><hAcc>1.476451</hAcc><vAcc>0.783774</vAcc></extensions></trkpt>
      <trkpt lon="-117.331242" lat="33.976898"><ele>316.470936</ele><time>2025-03-21T17:29:02Z</time><extensions><speed>3.659990</speed><course>178.680042</course><hAcc>1.447838</hAcc><vAcc>0.784747</vAcc></extensions></trkpt>
      <trkpt lon="-117.331242" lat="33.976864"><ele>316.391118</ele><time>2025-03-21T17:29:03Z</time><extensions><speed>3.896784</speed><course>182.479228</course><hAcc>1.423557</hAcc><vAcc>0.785675</vAcc></extensions></trkpt>
      <trkpt lon="-117.331245" lat="33.976828"><ele>316.310071</ele><time>2025-03-21T17:29:04Z</time><extensions><speed>4.144087</speed><course>183.487066</course><hAcc>1.403947</hAcc><vAcc>0.786251</vAcc></extensions></trkpt>
      <trkpt lon="-117.331248" lat="33.976789"><ele>316.232067</ele><time>2025-03-21T17:29:05Z</time><extensions><speed>4.481458</speed><course>184.008925</course><hAcc>1.390192</hAcc><vAcc>0.786773</vAcc></extensions></trkpt>
      <trkpt lon="-117.331251" lat="33.976748"><ele>316.153093</ele><time>2025-03-21T17:29:06Z</time><extensions><speed>4.690195</speed><course>183.966839</course><hAcc>1.380261</hAcc><vAcc>0.787593</vAcc></extensions></trkpt>
      <trkpt lon="-117.331255" lat="33.976705"><ele>316.080146</ele><time>2025-03-21T17:29:07Z</time><extensions><speed>4.891090</speed><course>183.876799</course><hAcc>1.375875</hAcc><vAcc>0.788874</vAcc></extensions></trkpt>
      <trkpt lon="-117.331258" lat="33.976661"><ele>316.005550</ele><time>2025-03-21T17:29:08Z</time><extensions><speed>4.870184</speed><course>183.497923</course><hAcc>1.377408</hAcc><vAcc>0.790463</vAcc></extensions></trkpt>
      <trkpt lon="-117.331261" lat="33.976617"><ele>315.931921</ele><time>2025-03-21T17:29:09Z</time><extensions><speed>4.793147</speed><course>182.400324</course><hAcc>1.385218</hAcc><vAcc>0.792247</vAcc></extensions></trkpt>
      <trkpt lon="-117.331262" lat="33.976574"><ele>315.859900</ele><time>2025-03-21T17:29:10Z</time><extensions><speed>4.840291</speed><course>179.773397</course><hAcc>1.402639</hAcc><vAcc>0.794132</vAcc></extensions></trkpt>
      <trkpt lon="-117.331260" lat="33.976529"><ele>315.793524</ele><time>2025-03-21T17:29:11Z</time><extensions><speed>5.153286</speed><course>177.603948</course><hAcc>1.421219</hAcc><vAcc>0.795871</vAcc></extensions></trkpt>
      <trkpt lon="-117.331258" lat="33.976482"><ele>315.735886</ele><time>2025-03-21T17:29:12Z</time><extensions><speed>5.207007</speed><course>176.481231</course><hAcc>1.443762</hAcc><vAcc>0.797177</vAcc></extensions></trkpt>
      <trkpt lon="-117.331253" lat="33.976435"><ele>315.688954</ele><time>2025-03-21T17:29:13Z</time><extensions><speed>5.103295</speed><course>175.116688</course><hAcc>1.459113</hAcc><vAcc>0.798002</vAcc></extensions></trkpt>
      <trkpt lon="-117.331249" lat="33.976390"><ele>315.652029</ele><time>2025-03-21T17:29:14Z</time><extensions><speed>5.012757</speed><course>174.952290</course><hAcc>1.461296</hAcc><vAcc>0.798158</vAcc></extensions></trkpt>
      <trkpt lon="-117.331245" lat="33.976345"><ele>315.623733</ele><time>2025-03-21T17:29:15Z</time><extensions><speed>4.982039</speed><course>176.785189</course><hAcc>1.455601</hAcc><vAcc>0.797531</vAcc></extensions></trkpt>
      <trkpt lon="-117.331243" lat="33.976301"><ele>315.604708</ele><time>2025-03-21T17:29:16Z</time><extensions><speed>4.707903</speed><course>178.770467</course><hAcc>1.449003</hAcc><vAcc>0.796073</vAcc></extensions></trkpt>
      <trkpt lon="-117.331241" lat="33.976259"><ele>315.595797</ele><time>2025-03-21T17:29:17Z</time><extensions><speed>4.540120</speed><course>178.234769</course><hAcc>1.435871</hAcc><vAcc>0.793798</vAcc></extensions></trkpt>
      <trkpt lon="-117.331240" lat="33.976219"><ele>315.595726</ele><time>2025-03-21T17:29:18Z</time><extensions><speed>4.431329</speed><course>177.529636</course><hAcc>1.421744</hAcc><vAcc>0.790783</vAcc></extensions></trkpt>
      <trkpt lon="-117.331238" lat="33.976179"><ele>315.609898</ele><time>2025-03-21T17:29:19Z</time><extensions><speed>4.431805</speed><course>178.924036</course><hAcc>1.406776</hAcc><vAcc>0.787184</vAcc></extensions></trkpt>
      <trkpt lon="-117.331238" lat="33.976139"><ele>315.635067</ele><time>2025-03-21T17:29:20Z</time><extensions><speed>4.456154</speed><course>180.514379</course><hAcc>1.391487</hAcc><vAcc>0.783214</vAcc></extensions></trkpt>
      <trkpt lon="-117.331238" lat="33.976099"><ele>315.674821</ele><time>2025-03-21T17:29:21Z</time><extensions><speed>4.394477</speed><course>180.794231</course><hAcc>1.378658</hAcc><vAcc>0.779115</vAcc></extensions></trkpt>
      <trkpt lon="-117.331239" lat="33.976060"><ele>315.721690</ele><time>2025-03-21T17:29:22Z</time><extensions><speed>4.323522</speed><course>180.072707</course><hAcc>1.365640</hAcc><vAcc>0.775124</vAcc></extensions></trkpt>
      <trkpt lon="-117.331239" lat="33.976021"><ele>315.771470</ele><time>2025-03-21T17:29:23Z</time><extensions><speed>4.363971</speed><course>180.637618</course><hAcc>1.356274</hAcc><vAcc>0.771437</vAcc></extensions></trkpt>
      <trkpt lon="-117.331240" lat="33.975982"><ele>315.822418</ele><time>2025-03-21T17:29:24Z</time><extensions><speed>4.313635</speed><course>180.808682</course><hAcc>1.347388</hAcc><vAcc>0.768180</vAcc></extensions></trkpt>
      <trkpt lon="-117.331241" lat="33.975943"><ele>315.874417</ele><time>2025-03-21T17:29:25Z</time><extensions><speed>4.289955</speed><course>181.562862</course><hAcc>1.341277</hAcc><vAcc>0.765537</vAcc></extensions></trkpt>
      <trkpt lon="-117.331242" lat="33.975905"><ele>315.927012</ele><time>2025-03-21T17:29:26Z</time><extensions><speed>4.119504</speed><course>181.927321</course><hAcc>1.337209</hAcc><vAcc>0.763612</vAcc></extensions></trkpt>
      <trkpt lon="-117.331245" lat="33.975869"><ele>315.983424</ele><time>2025-03-21T17:29:27Z</time><extensions><speed>3.916585</speed><course>184.354052</course><hAcc>1.334673</hAcc><vAcc>0.762745</vAcc></extensions></trkpt>
      <trkpt lon="-117.331250" lat="33.975836"><ele>316.044514</ele><time>2025-03-21T17:29:28Z</time><extensions><speed>3.542408</speed><course>190.627050</course><hAcc>1.331884</hAcc><vAcc>0.762991</vAcc></extensions></trkpt>
      <trkpt lon="-117.331260" lat="33.975807"><ele>316.107245</ele><time>2025-03-21T17:29:29Z</time><extensions><speed>3.206412</speed><course>204.181751</course><hAcc>1.327095</hAcc><vAcc>0.764664</vAcc></extensions></trkpt>
      <trkpt lon="-117.331279" lat="33.975783"><ele>316.166708</ele><time>2025-03-21T17:29:30Z</time><extensions><speed>3.244866</speed><course>224.199782</course><hAcc>1.323211</hAcc><vAcc>0.767985</vAcc></extensions></trkpt>
      <trkpt lon="-117.331310" lat="33.975767"><ele>316.229537</ele><time>2025-03-21T17:29:31Z</time><extensions><speed>3.577769</speed><course>248.115834</course><hAcc>1.322107</hAcc><vAcc>0.773091</vAcc></extensions></trkpt>
      <trkpt lon="-117.331349" lat="33.975759"><ele>316.294512</ele><time>2025-03-21T17:29:32Z</time><extensions><speed>4.019121</speed><course>264.721441</course><hAcc>1.328433</hAcc><vAcc>0.779872</vAcc></extensions></trkpt>
      <trkpt lon="-117.331394" lat="33.975758"><ele>316.359937</ele><time>2025-03-21T17:29:33Z</time><extensions><speed>4.246514</speed><course>272.530864</course><hAcc>1.344006</hAcc><vAcc>0.788969</vAcc></extensions></trkpt>
      <trkpt lon="-117.331439" lat="33.975760"><ele>316.439540</ele><time>2025-03-21T17:29:34Z</time><extensions><speed>4.128343</speed><course>274.207921</course><hAcc>1.363937</hAcc><vAcc>0.800113</vAcc></extensions></trkpt>
      <trkpt lon="-117.331480" lat="33.975763"><ele>316.498231</ele><time>2025-03-21T17:29:35Z</time><extensions><speed>3.584255</speed><course>273.372238</course><hAcc>1.388937</hAcc><vAcc>0.813048</vAcc></extensions></trkpt>
      <trkpt lon="-117.331515" lat="33.975764"><ele>316.545306</ele><time>2025-03-21T17:29:36Z</time><extensions><speed>2.861004</speed><course>269.947185</course><hAcc>1.417551</hAcc><vAcc>0.827793</vAcc></extensions></trkpt>
      <trkpt lon="-117.331543" lat="33.975763"><ele>316.602058</ele><time>2025-03-21T17:29:37Z</time><extensions><speed>2.372685</speed><course>266.653231</course><hAcc>1.444159</hAcc><vAcc>0.843595</vAcc></extensions></trkpt>
      <trkpt lon="-117.331567" lat="33.975761"><ele>316.671615</ele><time>2025-03-21T17:29:38Z</time><extensions><speed>2.041408</speed><course>265.386178</course><hAcc>1.468164</hAcc><vAcc>0.859545</vAcc></extensions></trkpt>
      <trkpt lon="-117.331588" lat="33.975760"><ele>316.731937</ele><time>2025-03-21T17:29:39Z</time><extensions><speed>1.792138</speed><course>266.125336</course><hAcc>1.487557</hAcc><vAcc>0.874679</vAcc></extensions></trkpt>
      <trkpt lon="-117.331607" lat="33.975759"><ele>316.792547</ele><time>2025-03-21T17:29:40Z</time><extensions><speed>1.690408</speed><course>268.707075</course><hAcc>1.505121</hAcc><vAcc>0.888790</vAcc></extensions></trkpt>
      <trkpt lon="-117.331625" lat="33.975759"><ele>316.851349</ele><time>2025-03-21T17:29:41Z</time><extensions><speed>1.656347</speed><course>267.203632</course><hAcc>1.517669</hAcc><vAcc>0.901745</vAcc></extensions></trkpt>
      <trkpt lon="-117.331643" lat="33.975758"><ele>316.903263</ele><time>2025-03-21T17:29:42Z</time><extensions><speed>1.667477</speed><course>264.402995</course><hAcc>1.525439</hAcc><vAcc>0.912662</vAcc></extensions></trkpt>
      <trkpt lon="-117.331661" lat="33.975756"><ele>316.947767</ele><time>2025-03-21T17:29:43Z</time><extensions><speed>1.693952</speed><course>264.209804</course><hAcc>1.537682</hAcc><vAcc>0.921807</vAcc></extensions></trkpt>
      <trkpt lon="-117.331679" lat="33.975755"><ele>316.988430</ele><time>2025-03-21T17:29:44Z</time><extensions><speed>1.592783</speed><course>267.448349</course><hAcc>1.553880</hAcc><vAcc>0.929303</vAcc></extensions></trkpt>
      <trkpt lon="-117.331696" lat="33.975754"><ele>317.021232</ele><time>2025-03-21T17:29:45Z</time><extensions><speed>1.726491</speed><course>267.805186</course><hAcc>1.560120</hAcc><vAcc>0.935093</vAcc></extensions></trkpt>
      <trkpt lon="-117.331715" lat="33.975754"><ele>317.032766</ele><time>2025-03-21T17:29:46Z</time><extensions><speed>1.972235</speed><course>267.015550</course><hAcc>1.562508</hAcc><vAcc>0.937717</vAcc></extensions></trkpt>
      <trkpt lon="-117.331739" lat="33.975753"><ele>317.047523</ele><time>2025-03-21T17:29:47Z</time><extensions><speed>2.407481</speed><course>267.695365</course><hAcc>1.561371</hAcc><vAcc>0.938569</vAcc></extensions></trkpt>
      <trkpt lon="-117.331767" lat="33.975752"><ele>317.052101</ele><time>2025-03-21T17:29:48Z</time><extensions><speed>2.874651</speed><course>269.514783</course><hAcc>1.565260</hAcc><vAcc>0.937521</vAcc></extensions></trkpt>
      <trkpt lon="-117.331800" lat="33.975752"><ele>317.048661</ele><time>2025-03-21T17:29:49Z</time><extensions><speed>3.214154</speed><course>269.944187</course><hAcc>1.572136</hAcc><vAcc>0.934752</vAcc></extensions></trkpt>
      <trkpt lon="-117.331834" lat="33.975752"><ele>317.036090</ele><time>2025-03-21T17:29:50Z</time><extensions><speed>3.089130</speed><course>268.639963</course><hAcc>1.578270</hAcc><vAcc>0.930387</vAcc></extensions></trkpt>
      <trkpt lon="-117.331865" lat="33.975751"><ele>317.017067</ele><time>2025-03-21T17:29:51Z</time><extensions><speed>2.717509</speed><course>268.058258</course><hAcc>1.578863</hAcc><vAcc>0.924949</vAcc></extensions></trkpt>
      <trkpt lon="-117.331892" lat="33.975750"><ele>316.991610</ele><time>2025-03-21T17:29:52Z</time><extensions><speed>2.262942</speed><course>266.490040</course><hAcc>1.576001</hAcc><vAcc>0.918731</vAcc></extensions></trkpt>
      <trkpt lon="-117.331913" lat="33.975749"><ele>316.970526</ele><time>2025-03-21T17:29:53Z</time><extensions><speed>1.662471</speed><course>263.775959</course><hAcc>1.583349</hAcc><vAcc>0.912436</vAcc></extensions></trkpt>
      <trkpt lon="-117.331926" lat="33.975747"><ele>316.942304</ele><time>2025-03-21T17:29:54Z</time><extensions><speed>0.850841</speed><course>256.198951</course><hAcc>1.604638</hAcc><vAcc>0.905910</vAcc></extensions></trkpt>
      <trkpt lon="-117.331931" lat="33.975746"><ele>316.911361</ele><time>2025-03-21T17:29:55Z</time><extensions><speed>0.049636</speed><course>174.622131</course><hAcc>1.603650</hAcc><vAcc>0.898951</vAcc></extensions></trkpt>
      <trkpt lon="-117.331929" lat="33.975746"><ele>316.876518</ele><time>2025-03-21T17:29:56Z</time><extensions><speed>0.393991</speed><course>89.896693</course><hAcc>1.591343</hAcc><vAcc>0.892040</vAcc></extensions></trkpt>
      <trkpt lon="-117.331924" lat="33.975745"><ele>316.837772</ele><time>2025-03-21T17:29:57Z</time><extensions><speed>0.514346</speed><course>94.266224</course><hAcc>1.602901</hAcc><vAcc>0.886780</vAcc></extensions></trkpt>
      <trkpt lon="-117.331918" lat="33.975744"><ele>316.804129</ele><time>2025-03-21T17:29:58Z</time><extensions><speed>0.515656</speed><course>110.548248</course><hAcc>1.613151</hAcc><vAcc>0.881981</vAcc></extensions></trkpt>
      <trkpt lon="-117.331914" lat="33.975741"><ele>316.768971</ele><time>2025-03-21T17:29:59Z</time><extensions><speed>0.577519</speed><course>139.612193</course><hAcc>1.604230</hAcc><vAcc>0.878853</vAcc></extensions></trkpt>
      <trkpt lon="-117.331910" lat="33.975734"><ele>316.748962</ele><time>2025-03-21T17:30:00Z</time><extensions><speed>0.856351</speed><course>162.126591</course><hAcc>1.580328</hAcc><vAcc>0.877647</vAcc></extensions></trkpt>
      <trkpt lon="-117.331908" lat="33.975724"><ele>316.720431</ele><time>2025-03-21T17:30:01Z</time><extensions><speed>1.362881</speed><course>174.031404</course><hAcc>1.554137</hAcc><vAcc>0.878280</vAcc></extensions></trkpt>
      <trkpt lon="-117.331907" lat="33.975707"><ele>316.641412</ele><time>2025-03-21T17:30:02Z</time><extensions><speed>2.101147</speed><course>179.985081</course><hAcc>1.538631</hAcc><vAcc>0.878926</vAcc></extensions></trkpt>
      <trkpt lon="-117.331907" lat="33.975683"><ele>316.552425</ele><time>2025-03-21T17:30:03Z</time><extensions><speed>3.052628</speed><course>179.632890</course><hAcc>1.506891</hAcc><vAcc>0.880966</vAcc></extensions></trkpt>
      <trkpt lon="-117.331907" lat="33.975650"><ele>316.421401</ele><time>2025-03-21T17:30:04Z</time><extensions><speed>3.894811</speed><course>179.538909</course><hAcc>1.471602</hAcc><vAcc>0.881720</vAcc></extensions></trkpt>
      <trkpt lon="-117.331907" lat="33.975612"><ele>316.320535</ele><time>2025-03-21T17:30:05Z</time><extensions><speed>4.270624</speed><course>180.430728</course><hAcc>1.437708</hAcc><vAcc>0.884091</vAcc></extensions></trkpt>
      <trkpt lon="-117.331907" lat="33.975574"><ele>316.223209</ele><time>2025-03-21T17:30:06Z</time><extensions><speed>3.990661</speed><course>180.739719</course><hAcc>1.426667</hAcc><vAcc>0.888155</vAcc></extensions></trkpt>
      <trkpt lon="-117.331908" lat="33.975546"><ele>316.140610</ele><time>2025-03-21T17:30:07Z</time><extensions><speed>2.226869</speed><course>181.171263</course><hAcc>1.449846</hAcc><vAcc>0.893624</vAcc></extensions></trkpt>
      <trkpt lon="-117.331909" lat="33.975517"><ele>316.059381</ele><time>2025-03-21T17:30:08Z</time><extensions><speed>4.003136</speed><course>181.697956</course><hAcc>1.415304</hAcc><vAcc>0.900405</vAcc></extensions></trkpt>
      <trkpt lon="-117.331910" lat="33.975486"><ele>315.963589</ele><time>2025-03-21T17:30:09Z</time><extensions><speed>2.769397</speed><course>181.685591</course><hAcc>1.431548</hAcc><vAcc>0.908385</vAcc></extensions></trkpt>
      <trkpt lon="-117.331911" lat="33.975458"><ele>315.871353</ele><time>2025-03-21T17:30:10Z</time><extensions><speed>3.459754</speed><course>181.294341</course><hAcc>1.432391</hAcc><vAcc>0.917043</vAcc></extensions></trkpt>
      <trkpt lon="-117.331912" lat="33.975430"><ele>315.802255</ele><time>2025-03-21T17:30:11Z</time><extensions><speed>2.624970</speed><course>180.662666</course><hAcc>1.470656</hAcc><vAcc>0.926127</vAcc></extensions></trkpt>
      <trkpt lon="-117.331911" lat="33.975401"><ele>315.742228</ele><time>2025-03-21T17:30:12Z</time><extensions><speed>3.548332</speed><course>178.483314</course><hAcc>1.485817</hAcc><vAcc>0.936386</vAcc></extensions></trkpt>
      <trkpt lon="-117.331910" lat="33.975370"><ele>315.692902</ele><time>2025-03-21T17:30:13Z</time><extensions><speed>3.366728</speed><course>176.860806</course><hAcc>1.535214</hAcc><vAcc>0.947952</vAcc></extensions></trkpt>
      <trkpt lon="-117.331907" lat="33.975331"><ele>315.650692</ele><time>2025-03-21T17:30:14Z</time><extensions><speed>5.102514</speed><course>175.619253</course><hAcc>1.576663</hAcc><vAcc>0.961946</vAcc></extensions></trkpt>
      <trkpt lon="-117.331902" lat="33.975282"><ele>315.631660</ele><time>2025-03-21T17:30:15Z</time><extensions><speed>5.380335</speed><course>175.505015</course><hAcc>1.655925</hAcc><vAcc>0.977779</vAcc></extensions></trkpt>
      <trkpt lon="-117.331898" lat="33.975232"><ele>315.631357</ele><time>2025-03-21T17:30:16Z</time><extensions><speed>5.375690</speed><course>176.921989</course><hAcc>1.747010</hAcc><vAcc>0.994535</vAcc></extensions></trkpt>
      <trkpt lon="-117.331897" lat="33.975181"><ele>315.643920</ele><time>2025-03-21T17:30:17Z</time><extensions><speed>5.444935</speed><course>179.889534</course><hAcc>1.820262</hAcc><vAcc>1.012920</vAcc></extensions></trkpt>
      <trkpt lon="-117.331898" lat="33.975128"><ele>315.658424</ele><time>2025-03-21T17:30:18Z</time><extensions><speed>5.576520</speed><course>181.120035</course><hAcc>1.866932</hAcc><vAcc>1.030311</vAcc></extensions></trkpt>
      <trkpt lon="-117.331899" lat="33.975074"><ele>315.706847</ele><time>2025-03-21T17:30:19Z</time><extensions><speed>5.603408</speed><course>180.856176</course><hAcc>1.885039</hAcc><vAcc>1.047705</vAcc></extensions></trkpt>
      <trkpt lon="-117.331900" lat="33.975020"><ele>315.792954</ele><time>2025-03-21T17:30:20Z</time><extensions><speed>5.613616</speed><course>181.123691</course><hAcc>1.879165</hAcc><vAcc>1.063476</vAcc></extensions></trkpt>
      <trkpt lon="-117.331901" lat="33.974969"><ele>315.891284</ele><time>2025-03-21T17:30:21Z</time><extensions><speed>5.054668</speed><course>181.469117</course><hAcc>1.869439</hAcc><vAcc>1.077296</vAcc></extensions></trkpt>
      <trkpt lon="-117.331902" lat="33.974931"><ele>316.015947</ele><time>2025-03-21T17:30:22Z</time><extensions><speed>3.086437</speed><course>181.185139</course><hAcc>1.875397</hAcc><vAcc>1.089494</vAcc></extensions></trkpt>
      <trkpt lon="-117.331903" lat="33.974903"><ele>316.148115</ele><time>2025-03-21T17:30:23Z</time><extensions><speed>2.708218</speed><course>180.846092</course><hAcc>1.856784</hAcc><vAcc>1.098157</vAcc></extensions></trkpt>
      <trkpt lon="-117.331904" lat="33.974878"><ele>316.290463</ele><time>2025-03-21T17:30:24Z</time><extensions><speed>2.488441</speed><course>181.214043</course><hAcc>1.843711</hAcc><vAcc>1.103868</vAcc></extensions></trkpt>
      <trkpt lon="-117.331904" lat="33.974850"><ele>316.413670</ele><time>2025-03-21T17:30:25Z</time><extensions><speed>3.530860</speed><course>181.143584</course><hAcc>1.816057</hAcc><vAcc>1.106786</vAcc></extensions></trkpt>
      <trkpt lon="-117.331905" lat="33.974822"><ele>316.526610</ele><time>2025-03-21T17:30:26Z</time><extensions><speed>2.516290</speed><course>181.208234</course><hAcc>1.834759</hAcc><vAcc>1.106479</vAcc></extensions></trkpt>
      <trkpt lon="-117.331906" lat="33.974794"><ele>316.655146</ele><time>2025-03-21T17:30:27Z</time><extensions><speed>3.651540</speed><course>180.976676</course><hAcc>1.818682</hAcc><vAcc>1.106233</vAcc></extensions></trkpt>
      <trkpt lon="-117.331907" lat="33.974750"><ele>316.790982</ele><time>2025-03-21T17:30:28Z</time><extensions><speed>5.812108</speed><course>181.243547</course><hAcc>1.798616</hAcc><vAcc>1.106173</vAcc></extensions></trkpt>
      <trkpt lon="-117.331908" lat="33.974695"><ele>316.926534</ele><time>2025-03-21T17:30:29Z</time><extensions><speed>6.380594</speed><course>181.141083</course><hAcc>1.803529</hAcc><vAcc>1.106026</vAcc></extensions></trkpt>
      <trkpt lon="-117.331910" lat="33.974637"><ele>317.048413</ele><time>2025-03-21T17:30:30Z</time><extensions><speed>6.235186</speed><course>181.215386</course><hAcc>1.813107</hAcc><vAcc>1.103983</vAcc></extensions></trkpt>
      <trkpt lon="-117.331911" lat="33.974579"><ele>317.170257</ele><time>2025-03-21T17:30:31Z</time><extensions><speed>6.158004</speed><course>181.536590</course><hAcc>1.814199</hAcc><vAcc>1.101457</vAcc></extensions></trkpt>
      <trkpt lon="-117.331913" lat="33.974524"><ele>317.299543</ele><time>2025-03-21T17:30:32Z</time><extensions><speed>5.995649</speed><course>181.475719</course><hAcc>1.803533</hAcc><vAcc>1.097060</vAcc></extensions></trkpt>
      <trkpt lon="-117.331914" lat="33.974470"><ele>317.431144</ele><time>2025-03-21T17:30:33Z</time><extensions><speed>5.810979</speed><course>180.941974</course><hAcc>1.779980</hAcc><vAcc>1.092240</vAcc></extensions></trkpt>
      <trkpt lon="-117.331915" lat="33.974418"><ele>317.557102</ele><time>2025-03-21T17:30:34Z</time><extensions><speed>5.559275</speed><course>180.278180</course><hAcc>1.744194</hAcc><vAcc>1.087289</vAcc></extensions></trkpt>
      <trkpt lon="-117.331914" lat="33.974368"><ele>317.671798</ele><time>2025-03-21T17:30:35Z</time><extensions><speed>5.501543</speed><course>179.220694</course><hAcc>1.701562</hAcc><vAcc>1.083625</vAcc></extensions></trkpt>
      <trkpt lon="-117.331913" lat="33.974321"><ele>317.786862</ele><time>2025-03-21T17:30:36Z</time><extensions><speed>4.687303</speed><course>179.617583</course><hAcc>1.671201</hAcc><vAcc>1.081489</vAcc></extensions></trkpt>
      <trkpt lon="-117.331913" lat="33.974288"><ele>317.896153</ele><time>2025-03-21T17:30:37Z</time><extensions><speed>2.732458</speed><course>179.015077</course><hAcc>1.674028</hAcc><vAcc>1.082256</vAcc></extensions></trkpt>
      <trkpt lon="-117.331912" lat="33.974265"><ele>317.989620</ele><time>2025-03-21T17:30:38Z</time><extensions><speed>2.323077</speed><course>176.464907</course><hAcc>1.666592</hAcc><vAcc>1.084300</vAcc></extensions></trkpt>
      <trkpt lon="-117.331910" lat="33.974245"><ele>318.072646</ele><time>2025-03-21T17:30:39Z</time><extensions><speed>2.048794</speed><course>176.362765</course><hAcc>1.676258</hAcc><vAcc>1.087404</vAcc></extensions></trkpt>
      <trkpt lon="-117.331908" lat="33.974219"><ele>318.136950</ele><time>2025-03-21T17:30:40Z</time><extensions><speed>3.659408</speed><course>174.437104</course><hAcc>1.644210</hAcc><vAcc>1.091525</vAcc></extensions></trkpt>
      <trkpt lon="-117.331904" lat="33.974183"><ele>318.201332</ele><time>2025-03-21T17:30:41Z</time><extensions><speed>4.437155</speed><course>173.261501</course><hAcc>1.650026</hAcc><vAcc>1.097067</vAcc></extensions></trkpt>
      <trkpt lon="-117.331897" lat="33.974145"><ele>318.254983</ele><time>2025-03-21T17:30:42Z</time><extensions><speed>4.042940</speed><course>169.042432</course><hAcc>1.685375</hAcc><vAcc>1.103816</vAcc></extensions></trkpt>
      <trkpt lon="-117.331887" lat="33.974111"><ele>318.296802</ele><time>2025-03-21T17:30:43Z</time><extensions><speed>3.732702</speed><course>162.946388</course><hAcc>1.725293</hAcc><vAcc>1.111197</vAcc></extensions></trkpt>
      <trkpt lon="-117.331874" lat="33.974080"><ele>318.341092</ele><time>2025-03-21T17:30:44Z</time><extensions><speed>3.651285</speed><course>158.318521</course><hAcc>1.762683</hAcc><vAcc>1.120376</vAcc></extensions></trkpt>
      <trkpt lon="-117.331860" lat="33.974048"><ele>318.387794</ele><time>2025-03-21T17:30:45Z</time><extensions><speed>3.871147</speed><course>159.762271</course><hAcc>1.798618</hAcc><vAcc>1.130369</vAcc></extensions></trkpt>
      <trkpt lon="-117.331849" lat="33.974014"><ele>318.440225</ele><time>2025-03-21T17:30:46Z</time><extensions><speed>3.955096</speed><course>170.404804</course><hAcc>1.833461</hAcc><vAcc>1.139841</vAcc></extensions></trkpt>
      <trkpt lon="-117.331846" lat="33.973978"><ele>318.488044</ele><time>2025-03-21T17:30:47Z</time><extensions><speed>4.152081</speed><course>183.996084</course><hAcc>1.866108</hAcc><vAcc>1.149310</vAcc></extensions></trkpt>
      <trkpt lon="-117.331855" lat="33.973941"><ele>318.519029</ele><time>2025-03-21T17:30:48Z</time><extensions><speed>4.284638</speed><course>199.109060</course><hAcc>1.895474</hAcc><vAcc>1.155673</vAcc></extensions></trkpt>
      <trkpt lon="-117.331876" lat="33.973906"><ele>318.565526</ele><time>2025-03-21T17:30:49Z</time><extensions><speed>4.460820</speed><course>213.801789</course><hAcc>1.921588</hAcc><vAcc>1.161126</vAcc></extensions></trkpt>
      <trkpt lon="-117.331907" lat="33.973874"><ele>318.597400</ele><time>2025-03-21T17:30:50Z</time><extensions><speed>4.586280</speed><course>225.254702</course><hAcc>1.944287</hAcc><vAcc>1.165752</vAcc></extensions></trkpt>
      <trkpt lon="-117.331944" lat="33.973846"><ele>318.620493</ele><time>2025-03-21T17:30:51Z</time><extensions><speed>4.677835</speed><course>229.566378</course><hAcc>1.961674</hAcc><vAcc>1.171329</vAcc></extensions></trkpt>
      <trkpt lon="-117.331980" lat="33.973818"><ele>318.645796</ele><time>2025-03-21T17:30:52Z</time><extensions><speed>4.398825</speed><course>224.806920</course><hAcc>1.973641</hAcc><vAcc>1.175263</vAcc></extensions></trkpt>
      <trkpt lon="-117.332008" lat="33.973789"><ele>318.660402</ele><time>2025-03-21T17:30:53Z</time><extensions><speed>3.962390</speed><course>213.860379</course><hAcc>1.980166</hAcc><vAcc>1.177306</vAcc></extensions></trkpt>
      <trkpt lon="-117.332028" lat="33.973757"><ele>318.701398</ele><time>2025-03-21T17:30:54Z</time><extensions><speed>3.927374</speed><course>201.033634</course><hAcc>1.983250</hAcc><vAcc>1.176336</vAcc></extensions></trkpt>
      <trkpt lon="-117.332039" lat="33.973723"><ele>318.722572</ele><time>2025-03-21T17:30:55Z</time><extensions><speed>4.086222</speed><course>190.014119</course><hAcc>1.984726</hAcc><vAcc>1.174259</vAcc></extensions></trkpt>
      <trkpt lon="-117.332044" lat="33.973686"><ele>318.749142</ele><time>2025-03-21T17:30:56Z</time><extensions><speed>4.205771</speed><course>183.456073</course><hAcc>1.983334</hAcc><vAcc>1.175088</vAcc></extensions></trkpt>
      <trkpt lon="-117.332045" lat="33.973648"><ele>318.775277</ele><time>2025-03-21T17:30:57Z</time><extensions><speed>4.205222</speed><course>179.833267</course><hAcc>1.979224</hAcc><vAcc>1.175425</vAcc></extensions></trkpt>
      <trkpt lon="-117.332044" lat="33.973609"><ele>318.795239</ele><time>2025-03-21T17:30:58Z</time><extensions><speed>4.209355</speed><course>178.499828</course><hAcc>1.971286</hAcc><vAcc>1.172405</vAcc></extensions></trkpt>
      <trkpt lon="-117.332041" lat="33.973570"><ele>318.795679</ele><time>2025-03-21T17:30:59Z</time><extensions><speed>4.245314</speed><course>176.062801</course><hAcc>1.957162</hAcc><vAcc>1.164881</vAcc></extensions></trkpt>
      <trkpt lon="-117.332035" lat="33.973531"><ele>318.783567</ele><time>2025-03-21T17:31:00Z</time><extensions><speed>4.208130</speed><course>172.005193</course><hAcc>1.936172</hAcc><vAcc>1.155954</vAcc></extensions></trkpt>
      <trkpt lon="-117.332026" lat="33.973493"><ele>318.769183</ele><time>2025-03-21T17:31:01Z</time><extensions><speed>4.258380</speed><course>168.255052</course><hAcc>1.911621</hAcc><vAcc>1.146484</vAcc></extensions></trkpt>
      <trkpt lon="-117.332015" lat="33.973455"><ele>318.754257</ele><time>2025-03-21T17:31:02Z</time><extensions><speed>4.255779</speed><course>164.866098</course><hAcc>1.878432</hAcc><vAcc>1.138316</vAcc></extensions></trkpt>
      <trkpt lon="-117.332002" lat="33.973418"><ele>318.753781</ele><time>2025-03-21T17:31:03Z</time><extensions><speed>4.142864</speed><course>163.386958</course><hAcc>1.836470</hAcc><vAcc>1.132387</vAcc></extensions></trkpt>
      <trkpt lon="-117.331989" lat="33.973384"><ele>318.736956</ele><time>2025-03-21T17:31:04Z</time><extensions><speed>3.801580</speed><course>161.363785</course><hAcc>1.790214</hAcc><vAcc>1.126727</vAcc></extensions></trkpt>
      <trkpt lon="-117.331975" lat="33.973354"><ele>318.713785</ele><time>2025-03-21T17:31:05Z</time><extensions><speed>3.255813</speed><course>155.636841</course><hAcc>1.755835</hAcc><vAcc>1.120787</vAcc></extensions></trkpt>
      <trkpt lon="-117.331961" lat="33.973332"><ele>318.680261</ele><time>2025-03-21T17:31:06Z</time><extensions><speed>2.231239</speed><course>148.444325</course><hAcc>1.756636</hAcc><vAcc>1.114724</vAcc></extensions></trkpt>
      <trkpt lon="-117.331948" lat="33.973316"><ele>318.647633</ele><time>2025-03-21T17:31:07Z</time><extensions><speed>1.864647</speed><course>145.425955</course><hAcc>1.765467</hAcc><vAcc>1.108183</vAcc></extensions></trkpt>
      <trkpt lon="-117.331931" lat="33.973296"><ele>318.587579</ele><time>2025-03-21T17:31:08Z</time><extensions><speed>3.461283</speed><course>144.463498</course><hAcc>1.716347</hAcc><vAcc>1.101063</vAcc></extensions></trkpt>
      <trkpt lon="-117.331906" lat="33.973267"><ele>318.540962</ele><time>2025-03-21T17:31:09Z</time><extensions><speed>4.492509</speed><course>143.564853</course><hAcc>1.697029</hAcc><vAcc>1.094112</vAcc></extensions></trkpt>
      <trkpt lon="-117.331876" lat="33.973234"><ele>318.514987</ele><time>2025-03-21T17:31:10Z</time><extensions><speed>4.605960</speed><course>143.129211</course><hAcc>1.702748</hAcc><vAcc>1.086592</vAcc></extensions></trkpt>
      <trkpt lon="-117.331846" lat="33.973201"><ele>318.489199</ele><time>2025-03-21T17:31:11Z</time><extensions><speed>4.541202</speed><course>142.401812</course><hAcc>1.713180</hAcc><vAcc>1.080391</vAcc></extensions></trkpt>
      <trkpt lon="-117.331816" lat="33.973168"><ele>318.460770</ele><time>2025-03-21T17:31:12Z</time><extensions><speed>4.495998</speed><course>143.679318</course><hAcc>1.726662</hAcc><vAcc>1.075041</vAcc></extensions></trkpt>
      <trkpt lon="-117.331788" lat="33.973134"><ele>318.439955</ele><time>2025-03-21T17:31:13Z</time><extensions><speed>4.568651</speed><course>146.045469</course><hAcc>1.734281</hAcc><vAcc>1.069589</vAcc></extensions></trkpt>
      <trkpt lon="-117.331761" lat="33.973100"><ele>318.401668</ele><time>2025-03-21T17:31:14Z</time><extensions><speed>4.493288</speed><course>148.023744</course><hAcc>1.731311</hAcc><vAcc>1.064255</vAcc></extensions></trkpt>
      <trkpt lon="-117.331734" lat="33.973065"><ele>318.380100</ele><time>2025-03-21T17:31:15Z</time><extensions><speed>4.626299</speed><course>146.696347</course><hAcc>1.721019</hAcc><vAcc>1.059965</vAcc></extensions></trkpt>
      <trkpt lon="-117.331706" lat="33.973030"><ele>318.395035</ele><time>2025-03-21T17:31:16Z</time><extensions><speed>4.640032</speed><course>145.719962</course><hAcc>1.708863</hAcc><vAcc>1.055237</vAcc></extensions></trkpt>
      <trkpt lon="-117.331677" lat="33.972995"><ele>318.417648</ele><time>2025-03-21T17:31:17Z</time><extensions><speed>4.737366</speed><course>144.912301</course><hAcc>1.690417</hAcc><vAcc>1.051267</vAcc></extensions></trkpt>
      <trkpt lon="-117.331647" lat="33.972959"><ele>318.442136</ele><time>2025-03-21T17:31:18Z</time><extensions><speed>4.824920</speed><course>144.648984</course><hAcc>1.670560</hAcc><vAcc>1.049064</vAcc></extensions></trkpt>
      <trkpt lon="-117.331616" lat="33.972924"><ele>318.464866</ele><time>2025-03-21T17:31:19Z</time><extensions><speed>4.714302</speed><course>143.059622</course><hAcc>1.653855</hAcc><vAcc>1.047642</vAcc></extensions></trkpt>
      <trkpt lon="-117.331586" lat="33.972891"><ele>318.492156</ele><time>2025-03-21T17:31:20Z</time><extensions><speed>4.468299</speed><course>142.214604</course><hAcc>1.641183</hAcc><vAcc>1.048569</vAcc></extensions></trkpt>
      <trkpt lon="-117.331556" lat="33.972859"><ele>318.539045</ele><time>2025-03-21T17:31:21Z</time><extensions><speed>4.458884</speed><course>142.938487</course><hAcc>1.629137</hAcc><vAcc>1.052736</vAcc></extensions></trkpt>
      <trkpt lon="-117.331527" lat="33.972826"><ele>318.579162</ele><time>2025-03-21T17:31:22Z</time><extensions><speed>4.553560</speed><course>144.576249</course><hAcc>1.618163</hAcc><vAcc>1.059709</vAcc></extensions></trkpt>
      <trkpt lon="-117.331499" lat="33.972792"><ele>318.642585</ele><time>2025-03-21T17:31:23Z</time><extensions><speed>4.631452</speed><course>146.452804</course><hAcc>1.613179</hAcc><vAcc>1.070663</vAcc></extensions></trkpt>
      <trkpt lon="-117.331472" lat="33.972757"><ele>318.718599</ele><time>2025-03-21T17:31:24Z</time><extensions><speed>4.543547</speed><course>147.451274</course><hAcc>1.619778</hAcc><vAcc>1.083621</vAcc></extensions></trkpt>
      <trkpt lon="-117.331445" lat="33.972722"><ele>318.804879</ele><time>2025-03-21T17:31:25Z</time><extensions><speed>4.700112</speed><course>146.556954</course><hAcc>1.633931</hAcc><vAcc>1.098368</vAcc></extensions></trkpt>
      <trkpt lon="-117.331415" lat="33.972685"><ele>318.899548</ele><time>2025-03-21T17:31:26Z</time><extensions><speed>5.107016</speed><course>145.938347</course><hAcc>1.654589</hAcc><vAcc>1.113514</vAcc></extensions></trkpt>
      <trkpt lon="-117.331383" lat="33.972647"><ele>319.001336</ele><time>2025-03-21T17:31:27Z</time><extensions><speed>5.104905</speed><course>144.734570</course><hAcc>1.692876</hAcc><vAcc>1.129082</vAcc></extensions></trkpt>
      <trkpt lon="-117.331352" lat="33.972610"><ele>319.116183</ele><time>2025-03-21T17:31:28Z</time><extensions><speed>4.921002</speed><course>144.153899</course><hAcc>1.742223</hAcc><vAcc>1.144456</vAcc></extensions></trkpt>
      <trkpt lon="-117.331321" lat="33.972575"><ele>319.239054</ele><time>2025-03-21T17:31:29Z</time><extensions><speed>4.817899</speed><course>144.232386</course><hAcc>1.794734</hAcc><vAcc>1.159663</vAcc></extensions></trkpt>
      <trkpt lon="-117.331290" lat="33.972539"><ele>319.352846</ele><time>2025-03-21T17:31:30Z</time><extensions><speed>4.859961</speed><course>144.372857</course><hAcc>1.849142</hAcc><vAcc>1.173680</vAcc></extensions></trkpt>
      <trkpt lon="-117.331260" lat="33.972503"><ele>319.470359</ele><time>2025-03-21T17:31:31Z</time><extensions><speed>4.748972</speed><course>145.007824</course><hAcc>1.903755</hAcc><vAcc>1.184738</vAcc></extensions></trkpt>
      <trkpt lon="-117.331230" lat="33.972468"><ele>319.597705</ele><time>2025-03-21T17:31:32Z</time><extensions><speed>4.797843</speed><course>145.458348</course><hAcc>1.954627</hAcc><vAcc>1.193828</vAcc></extensions></trkpt>
      <trkpt lon="-117.331199" lat="33.972431"><ele>319.718580</ele><time>2025-03-21T17:31:33Z</time><extensions><speed>5.115093</speed><course>145.945977</course><hAcc>1.993548</hAcc><vAcc>1.202485</vAcc></extensions></trkpt>
      <trkpt lon="-117.331168" lat="33.972392"><ele>319.838289</ele><time>2025-03-21T17:31:34Z</time><extensions><speed>5.242944</speed><course>145.480376</course><hAcc>2.014808</hAcc><vAcc>1.209860</vAcc></extensions></trkpt>
      <trkpt lon="-117.331135" lat="33.972353"><ele>319.954444</ele><time>2025-03-21T17:31:35Z</time><extensions><speed>5.269210</speed><course>145.459100</course><hAcc>2.019814</hAcc><vAcc>1.215136</vAcc></extensions></trkpt>
      <trkpt lon="-117.331103" lat="33.972314"><ele>320.058618</ele><time>2025-03-21T17:31:36Z</time><extensions><speed>5.223055</speed><course>145.236135</course><hAcc>2.012022</hAcc><vAcc>1.218399</vAcc></extensions></trkpt>
      <trkpt lon="-117.331070" lat="33.972276"><ele>320.161263</ele><time>2025-03-21T17:31:37Z</time><extensions><speed>5.177920</speed><course>145.294520</course><hAcc>1.996793</hAcc><vAcc>1.218958</vAcc></extensions></trkpt>
      <trkpt lon="-117.331038" lat="33.972238"><ele>320.251527</ele><time>2025-03-21T17:31:38Z</time><extensions><speed>5.099744</speed><course>145.042411</course><hAcc>1.980792</hAcc><vAcc>1.216190</vAcc></extensions></trkpt>
      <trkpt lon="-117.331007" lat="33.972202"><ele>320.329297</ele><time>2025-03-21T17:31:39Z</time><extensions><speed>4.805963</speed><course>143.952139</course><hAcc>1.969719</hAcc><vAcc>1.213005</vAcc></extensions></trkpt>
      <trkpt lon="-117.330976" lat="33.972169"><ele>320.410859</ele><time>2025-03-21T17:31:40Z</time><extensions><speed>4.649110</speed><course>141.403854</course><hAcc>1.956228</hAcc><vAcc>1.208136</vAcc></extensions></trkpt>
      <trkpt lon="-117.330942" lat="33.972137"><ele>320.489404</ele><time>2025-03-21T17:31:41Z</time><extensions><speed>4.785466</speed><course>137.477829</course><hAcc>1.938516</hAcc><vAcc>1.201795</vAcc></extensions></trkpt>
      <trkpt lon="-117.330904" lat="33.972107"><ele>320.569424</ele><time>2025-03-21T17:31:42Z</time><extensions><speed>4.840341</speed><course>130.511197</course><hAcc>1.924994</hAcc><vAcc>1.194156</vAcc></extensions></trkpt>
      <trkpt lon="-117.330862" lat="33.972081"><ele>320.631290</ele><time>2025-03-21T17:31:43Z</time><extensions><speed>4.784032</speed><course>121.280706</course><hAcc>1.919081</hAcc><vAcc>1.185832</vAcc></extensions></trkpt>
      <trkpt lon="-117.330815" lat="33.972062"><ele>320.678236</ele><time>2025-03-21T17:31:44Z</time><extensions><speed>4.797818</speed><course>111.468197</course><hAcc>1.914643</hAcc><vAcc>1.177943</vAcc></extensions></trkpt>
      <trkpt lon="-117.330764" lat="33.972050"><ele>320.709505</ele><time>2025-03-21T17:31:45Z</time><extensions><speed>4.913200</speed><course>102.628994</course><hAcc>1.906406</hAcc><vAcc>1.170017</vAcc></extensions></trkpt>
      <trkpt lon="-117.330711" lat="33.972043"><ele>320.738784</ele><time>2025-03-21T17:31:46Z</time><extensions><speed>5.000364</speed><course>95.547175</course><hAcc>1.892124</hAcc><vAcc>1.160294</vAcc></extensions></trkpt>
      <trkpt lon="-117.330657" lat="33.972040"><ele>320.759688</ele><time>2025-03-21T17:31:47Z</time><extensions><speed>5.037775</speed><course>91.075351</course><hAcc>1.871581</hAcc><vAcc>1.149844</vAcc></extensions></trkpt>
      <trkpt lon="-117.330603" lat="33.972040"><ele>320.779301</ele><time>2025-03-21T17:31:48Z</time><extensions><speed>4.949401</speed><course>88.282771</course><hAcc>1.849355</hAcc><vAcc>1.140732</vAcc></extensions></trkpt>
      <trkpt lon="-117.330551" lat="33.972042"><ele>320.801192</ele><time>2025-03-21T17:31:49Z</time><extensions><speed>4.660945</speed><course>87.435248</course><hAcc>1.831726</hAcc><vAcc>1.131872</vAcc></extensions></trkpt>
      <trkpt lon="-117.330501" lat="33.972044"><ele>320.828287</ele><time>2025-03-21T17:31:50Z</time><extensions><speed>4.515858</speed><course>88.573810</course><hAcc>1.808227</hAcc><vAcc>1.122645</vAcc></extensions></trkpt>
      <trkpt lon="-117.330451" lat="33.972044"><ele>320.858395</ele><time>2025-03-21T17:31:51Z</time><extensions><speed>4.556293</speed><course>90.156724</course><hAcc>1.784554</hAcc><vAcc>1.112782</vAcc></extensions></trkpt>
      <trkpt lon="-117.330402" lat="33.972044"><ele>320.893981</ele><time>2025-03-21T17:31:52Z</time><extensions><speed>4.578397</speed><course>90.082611</course><hAcc>1.760315</hAcc><vAcc>1.102273</vAcc></extensions></trkpt>
      <trkpt lon="-117.330352" lat="33.972044"><ele>320.929704</ele><time>2025-03-21T17:31:53Z</time><extensions><speed>4.469349</speed><course>89.443127</course><hAcc>1.742984</hAcc><vAcc>1.091309</vAcc></extensions></trkpt>
      <trkpt lon="-117.330305" lat="33.972045"><ele>320.964050</ele><time>2025-03-21T17:31:54Z</time><extensions><speed>4.201454</speed><course>88.628579</course><hAcc>1.726228</hAcc><vAcc>1.080021</vAcc></extensions></trkpt>
      <trkpt lon="-117.330261" lat="33.972045"><ele>320.998610</ele><time>2025-03-21T17:31:55Z</time><extensions><speed>3.981520</speed><course>90.016509</course><hAcc>1.708583</hAcc><vAcc>1.068121</vAcc></extensions></trkpt>
      <trkpt lon="-117.330219" lat="33.972045"><ele>321.047484</ele><time>2025-03-21T17:31:56Z</time><extensions><speed>3.631979</speed><course>91.522490</course><hAcc>1.694300</hAcc><vAcc>1.055116</vAcc></extensions></trkpt>
      <trkpt lon="-117.330181" lat="33.972044"><ele>321.115377</ele><time>2025-03-21T17:31:57Z</time><extensions><speed>3.302964</speed><course>92.566433</course><hAcc>1.682265</hAcc><vAcc>1.042185</vAcc></extensions></trkpt>
      <trkpt lon="-117.330146" lat="33.972042"><ele>321.186489</ele><time>2025-03-21T17:31:58Z</time><extensions><speed>3.156044</speed><course>93.165144</course><hAcc>1.666786</hAcc><vAcc>1.029668</vAcc></extensions></trkpt>
      <trkpt lon="-117.330111" lat="33.972041"><ele>321.256108</ele><time>2025-03-21T17:31:59Z</time><extensions><speed>3.217064</speed><course>93.327723</course><hAcc>1.653084</hAcc><vAcc>1.017082</vAcc></extensions></trkpt>
      <trkpt lon="-117.330074" lat="33.972039"><ele>321.317692</ele><time>2025-03-21T17:32:00Z</time><extensions><speed>3.476343</speed><course>93.099772</course><hAcc>1.642567</hAcc><vAcc>1.004612</vAcc></extensions></trkpt>
      <trkpt lon="-117.330035" lat="33.972037"><ele>321.384499</ele><time>2025-03-21T17:32:01Z</time><extensions><speed>3.743622</speed><course>93.469354</course><hAcc>1.627495</hAcc><vAcc>0.992572</vAcc></extensions></trkpt>
      <trkpt lon="-117.329993" lat="33.972035"><ele>321.454291</ele><time>2025-03-21T17:32:02Z</time><extensions><speed>3.930919</speed><course>93.935360</course><hAcc>1.610425</hAcc><vAcc>0.980831</vAcc></extensions></trkpt>
      <trkpt lon="-117.329950" lat="33.972032"><ele>321.527387</ele><time>2025-03-21T17:32:03Z</time><extensions><speed>3.962075</speed><course>95.492104</course><hAcc>1.597886</hAcc><vAcc>0.969238</vAcc></extensions></trkpt>
      <trkpt lon="-117.329907" lat="33.972029"><ele>321.607646</ele><time>2025-03-21T17:32:04Z</time><extensions><speed>3.935413</speed><course>96.212671</course><hAcc>1.590771</hAcc><vAcc>0.958230</vAcc></extensions></trkpt>
      <trkpt lon="-117.329865" lat="33.972025"><ele>321.688140</ele><time>2025-03-21T17:32:05Z</time><extensions><speed>3.924970</speed><course>94.928892</course><hAcc>1.585261</hAcc><vAcc>0.948038</vAcc></extensions></trkpt>
      <trkpt lon="-117.329821" lat="33.972023"><ele>321.771315</ele><time>2025-03-21T17:32:06Z</time><extensions><speed>4.111663</speed><course>92.516362</course><hAcc>1.580403</hAcc><vAcc>0.939032</vAcc></extensions></trkpt>
      <trkpt lon="-117.329775" lat="33.972021"><ele>321.849024</ele><time>2025-03-21T17:32:07Z</time><extensions><speed>4.365794</speed><course>90.622705</course><hAcc>1.575364</hAcc><vAcc>0.931013</vAcc></extensions></trkpt>
      <trkpt lon="-117.329726" lat="33.972021"><ele>321.921369</ele><time>2025-03-21T17:32:08Z</time><extensions><speed>4.705318</speed><course>88.619085</course><hAcc>1.571327</hAcc><vAcc>0.924563</vAcc></extensions></trkpt>
      <trkpt lon="-117.329675" lat="33.972022"><ele>321.986640</ele><time>2025-03-21T17:32:09Z</time><extensions><speed>4.747074</speed><course>87.890047</course><hAcc>1.570338</hAcc><vAcc>0.918881</vAcc></extensions></trkpt>
      <trkpt lon="-117.329624" lat="33.972024"><ele>322.042687</ele><time>2025-03-21T17:32:10Z</time><extensions><speed>4.723030</speed><course>87.977284</course><hAcc>1.564827</hAcc><vAcc>0.914156</vAcc></extensions></trkpt>
      <trkpt lon="-117.329574" lat="33.972024"><ele>322.093105</ele><time>2025-03-21T17:32:11Z</time><extensions><speed>4.617744</speed><course>90.135802</course><hAcc>1.558962</hAcc><vAcc>0.909881</vAcc></extensions></trkpt>
      <trkpt lon="-117.329525" lat="33.972021"><ele>322.130766</ele><time>2025-03-21T17:32:12Z</time><extensions><speed>4.474997</speed><course>96.229408</course><hAcc>1.554029</hAcc><vAcc>0.905295</vAcc></extensions></trkpt>
      <trkpt lon="-117.329478" lat="33.972013"><ele>322.162992</ele><time>2025-03-21T17:32:13Z</time><extensions><speed>4.397856</speed><course>107.547416</course><hAcc>1.543539</hAcc><vAcc>0.901254</vAcc></extensions></trkpt>
      <trkpt lon="-117.329436" lat="33.971996"><ele>322.189578</ele><time>2025-03-21T17:32:14Z</time><extensions><speed>4.279692</speed><course>123.938140</course><hAcc>1.534838</hAcc><vAcc>0.897237</vAcc></extensions></trkpt>
      <trkpt lon="-117.329402" lat="33.971969"><ele>322.201980</ele><time>2025-03-21T17:32:15Z</time><extensions><speed>4.521805</speed><course>142.758937</course><hAcc>1.525950</hAcc><vAcc>0.893721</vAcc></extensions></trkpt>
      <trkpt lon="-117.329377" lat="33.971932"><ele>322.200834</ele><time>2025-03-21T17:32:16Z</time><extensions><speed>4.755919</speed><course>157.071450</course><hAcc>1.520326</hAcc><vAcc>0.890408</vAcc></extensions></trkpt>
      <trkpt lon="-117.329362" lat="33.971891"><ele>322.179794</ele><time>2025-03-21T17:32:17Z</time><extensions><speed>4.871199</speed><course>169.004867</course><hAcc>1.512349</hAcc><vAcc>0.886600</vAcc></extensions></trkpt>
      <trkpt lon="-117.329356" lat="33.971847"><ele>322.152819</ele><time>2025-03-21T17:32:18Z</time><extensions><speed>4.974087</speed><course>177.253417</course><hAcc>1.505581</hAcc><vAcc>0.882565</vAcc></extensions></trkpt>
      <trkpt lon="-117.329356" lat="33.971801"><ele>322.113637</ele><time>2025-03-21T17:32:19Z</time><extensions><speed>5.139713</speed><course>181.993789</course><hAcc>1.498021</hAcc><vAcc>0.878160</vAcc></extensions></trkpt>
      <trkpt lon="-117.329358" lat="33.971755"><ele>322.066674</ele><time>2025-03-21T17:32:20Z</time><extensions><speed>5.076169</speed><course>183.793838</course><hAcc>1.492539</hAcc><vAcc>0.873615</vAcc></extensions></trkpt>
      <trkpt lon="-117.329362" lat="33.971710"><ele>322.026561</ele><time>2025-03-21T17:32:21Z</time><extensions><speed>4.892544</speed><course>183.237986</course><hAcc>1.485063</hAcc><vAcc>0.868900</vAcc></extensions></trkpt>
      <trkpt lon="-117.329364" lat="33.971667"><ele>321.999159</ele><time>2025-03-21T17:32:22Z</time><extensions><speed>4.596606</speed><course>181.413464</course><hAcc>1.473836</hAcc><vAcc>0.864118</vAcc></extensions></trkpt>
      <trkpt lon="-117.329364" lat="33.971626"><ele>321.964369</ele><time>2025-03-21T17:32:23Z</time><extensions><speed>4.468247</speed><course>180.150997</course><hAcc>1.465207</hAcc><vAcc>0.859290</vAcc></extensions></trkpt>
      <trkpt lon="-117.329363" lat="33.971586"><ele>321.934145</ele><time>2025-03-21T17:32:24Z</time><extensions><speed>4.449260</speed><course>178.048084</course><hAcc>1.458755</hAcc><vAcc>0.854423</vAcc></extensions></trkpt>
      <trkpt lon="-117.329360" lat="33.971546"><ele>321.912912</ele><time>2025-03-21T17:32:25Z</time><extensions><speed>4.293653</speed><course>174.716315</course><hAcc>1.454137</hAcc><vAcc>0.849240</vAcc></extensions></trkpt>
      <trkpt lon="-117.329354" lat="33.971508"><ele>321.886307</ele><time>2025-03-21T17:32:26Z</time><extensions><speed>4.226303</speed><course>169.750774</course><hAcc>1.443016</hAcc><vAcc>0.844067</vAcc></extensions></trkpt>
      <trkpt lon="-117.329343" lat="33.971471"><ele>321.867470</ele><time>2025-03-21T17:32:27Z</time><extensions><speed>4.202770</speed><course>163.412939</course><hAcc>1.432147</hAcc><vAcc>0.839049</vAcc></extensions></trkpt>
      <trkpt lon="-117.329328" lat="33.971435"><ele>321.860283</ele><time>2025-03-21T17:32:28Z</time><extensions><speed>4.211698</speed><course>156.550297</course><hAcc>1.422984</hAcc><vAcc>0.833931</vAcc></extensions></trkpt>
      <trkpt lon="-117.329308" lat="33.971402"><ele>321.862663</ele><time>2025-03-21T17:32:29Z</time><extensions><speed>4.151091</speed><course>150.478708</course><hAcc>1.415367</hAcc><vAcc>0.828633</vAcc></extensions></trkpt>
      <trkpt lon="-117.329284" lat="33.971369"><ele>321.875871</ele><time>2025-03-21T17:32:30Z</time><extensions><speed>4.202510</speed><course>147.776685</course><hAcc>1.406544</hAcc><vAcc>0.823341</vAcc></extensions></trkpt>
      <trkpt lon="-117.329260" lat="33.971337"><ele>321.906083</ele><time>2025-03-21T17:32:31Z</time><extensions><speed>4.241595</speed><course>148.846987</course><hAcc>1.399440</hAcc><vAcc>0.818270</vAcc></extensions></trkpt>
      <trkpt lon="-117.329238" lat="33.971304"><ele>321.948961</ele><time>2025-03-21T17:32:32Z</time><extensions><speed>4.243272</speed><course>151.712003</course><hAcc>1.396449</hAcc><vAcc>0.813357</vAcc></extensions></trkpt>
      <trkpt lon="-117.329217" lat="33.971269"><ele>322.000846</ele><time>2025-03-21T17:32:33Z</time><extensions><speed>4.253444</speed><course>155.474674</course><hAcc>1.393620</hAcc><vAcc>0.808764</vAcc></extensions></trkpt>
      <trkpt lon="-117.329199" lat="33.971234"><ele>322.058880</ele><time>2025-03-21T17:32:34Z</time><extensions><speed>4.271327</speed><course>157.696561</course><hAcc>1.390421</hAcc><vAcc>0.804633</vAcc></extensions></trkpt>
      <trkpt lon="-117.329182" lat="33.971197"><ele>322.119882</ele><time>2025-03-21T17:32:35Z</time><extensions><speed>4.418910</speed><course>159.867004</course><hAcc>1.389121</hAcc><vAcc>0.801169</vAcc></extensions></trkpt>
      <trkpt lon="-117.329166" lat="33.971160"><ele>322.188347</ele><time>2025-03-21T17:32:36Z</time><extensions><speed>4.419930</speed><course>161.380930</course><hAcc>1.394420</hAcc><vAcc>0.798353</vAcc></extensions></trkpt>
      <trkpt lon="-117.329151" lat="33.971122"><ele>322.262324</ele><time>2025-03-21T17:32:37Z</time><extensions><speed>4.423570</speed><course>163.282795</course><hAcc>1.400704</hAcc><vAcc>0.795823</vAcc></extensions></trkpt>
      <trkpt lon="-117.329138" lat="33.971083"><ele>322.340156</ele><time>2025-03-21T17:32:38Z</time><extensions><speed>4.524213</speed><course>163.630342</course><hAcc>1.401331</hAcc><vAcc>0.794062</vAcc></extensions></trkpt>
      <trkpt lon="-117.329123" lat="33.971044"><ele>322.422435</ele><time>2025-03-21T17:32:39Z</time><extensions><speed>4.539244</speed><course>162.816237</course><hAcc>1.396810</hAcc><vAcc>0.792991</vAcc></extensions></trkpt>
      <trkpt lon="-117.329109" lat="33.971005"><ele>322.493386</ele><time>2025-03-21T17:32:40Z</time><extensions><speed>4.473294</speed><course>162.240519</course><hAcc>1.392475</hAcc><vAcc>0.792462</vAcc></extensions></trkpt>
      <trkpt lon="-117.329094" lat="33.970967"><ele>322.567884</ele><time>2025-03-21T17:32:41Z</time><extensions><speed>4.461673</speed><course>163.028726</course><hAcc>1.388653</hAcc><vAcc>0.792631</vAcc></extensions></trkpt>
      <trkpt lon="-117.329081" lat="33.970928"><ele>322.643521</ele><time>2025-03-21T17:32:42Z</time><extensions><speed>4.535343</speed><course>164.965629</course><hAcc>1.384678</hAcc><vAcc>0.793358</vAcc></extensions></trkpt>
      <trkpt lon="-117.329069" lat="33.970888"><ele>322.717559</ele><time>2025-03-21T17:32:43Z</time><extensions><speed>4.559082</speed><course>166.403131</course><hAcc>1.382447</hAcc><vAcc>0.794834</vAcc></extensions></trkpt>
      <trkpt lon="-117.329058" lat="33.970848"><ele>322.790373</ele><time>2025-03-21T17:32:44Z</time><extensions><speed>4.572121</speed><course>168.059305</course><hAcc>1.384552</hAcc><vAcc>0.797069</vAcc></extensions></trkpt>
      <trkpt lon="-117.329049" lat="33.970807"><ele>322.862809</ele><time>2025-03-21T17:32:45Z</time><extensions><speed>4.590353</speed><course>170.275586</course><hAcc>1.388286</hAcc><vAcc>0.800148</vAcc></extensions></trkpt>
      <trkpt lon="-117.329041" lat="33.970766"><ele>322.933274</ele><time>2025-03-21T17:32:46Z</time><extensions><speed>4.640460</speed><course>172.039161</course><hAcc>1.394567</hAcc><vAcc>0.804298</vAcc></extensions></trkpt>
      <trkpt lon="-117.329034" lat="33.970725"><ele>323.002679</ele><time>2025-03-21T17:32:47Z</time><extensions><speed>4.682568</speed><course>172.866115</course><hAcc>1.403136</hAcc><vAcc>0.809434</vAcc></extensions></trkpt>
      <trkpt lon="-117.329028" lat="33.970683"><ele>323.070758</ele><time>2025-03-21T17:32:48Z</time><extensions><speed>4.563077</speed><course>171.948177</course><hAcc>1.416516</hAcc><vAcc>0.815574</vAcc></extensions></trkpt>
      <trkpt lon="-117.329021" lat="33.970644"><ele>323.140062</ele><time>2025-03-21T17:32:49Z</time><extensions><speed>4.321373</speed><course>172.016571</course><hAcc>1.436307</hAcc><vAcc>0.822714</vAcc></extensions></trkpt>
      <trkpt lon="-117.329015" lat="33.970606"><ele>323.201385</ele><time>2025-03-21T17:32:50Z</time><extensions><speed>4.089845</speed><course>172.246212</course><hAcc>1.458105</hAcc><vAcc>0.831000</vAcc></extensions></trkpt>
      <trkpt lon="-117.329009" lat="33.970570"><ele>323.249165</ele><time>2025-03-21T17:32:51Z</time><extensions><speed>3.920296</speed><course>171.207229</course><hAcc>1.480674</hAcc><vAcc>0.840975</vAcc></extensions></trkpt>
      <trkpt lon="-117.329002" lat="33.970536"><ele>323.295667</ele><time>2025-03-21T17:32:52Z</time><extensions><speed>3.867141</speed><course>170.491826</course><hAcc>1.504670</hAcc><vAcc>0.853265</vAcc></extensions></trkpt>
      <trkpt lon="-117.328995" lat="33.970502"><ele>323.326443</ele><time>2025-03-21T17:32:53Z</time><extensions><speed>3.873640</speed><course>170.436168</course><hAcc>1.531059</hAcc><vAcc>0.867057</vAcc></extensions></trkpt>
      <trkpt lon="-117.328988" lat="33.970467"><ele>323.357102</ele><time>2025-03-21T17:32:54Z</time><extensions><speed>3.918080</speed><course>171.475617</course><hAcc>1.559451</hAcc><vAcc>0.881084</vAcc></extensions></trkpt>
      <trkpt lon="-117.328982" lat="33.970433"><ele>323.391099</ele><time>2025-03-21T17:32:55Z</time><extensions><speed>3.921006</speed><course>171.220300</course><hAcc>1.588059</hAcc><vAcc>0.895597</vAcc></extensions></trkpt>
      <trkpt lon="-117.328975" lat="33.970399"><ele>323.420212</ele><time>2025-03-21T17:32:56Z</time><extensions><speed>3.838850</speed><course>169.375694</course><hAcc>1.614669</hAcc><vAcc>0.909701</vAcc></extensions></trkpt>
      <trkpt lon="-117.328967" lat="33.970366"><ele>323.443527</ele><time>2025-03-21T17:32:57Z</time><extensions><speed>3.737295</speed><course>167.182797</course><hAcc>1.637912</hAcc><vAcc>0.923661</vAcc></extensions></trkpt>
      <trkpt lon="-117.328957" lat="33.970335"><ele>323.465821</ele><time>2025-03-21T17:32:58Z</time><extensions><speed>3.480635</speed><course>162.872364</course><hAcc>1.658298</hAcc><vAcc>0.936839</vAcc></extensions></trkpt>
      <trkpt lon="-117.328944" lat="33.970308"><ele>323.497246</ele><time>2025-03-21T17:32:59Z</time><extensions><speed>3.014217</speed><course>152.189931</course><hAcc>1.679158</hAcc><vAcc>0.948319</vAcc></extensions></trkpt>
      <trkpt lon="-117.328926" lat="33.970288"><ele>323.537262</ele><time>2025-03-21T17:33:00Z</time><extensions><speed>2.576965</speed><course>129.310633</course><hAcc>1.703078</hAcc><vAcc>0.958442</vAcc></extensions></trkpt>
      <trkpt lon="-117.328901" lat="33.970278"><ele>323.581793</ele><time>2025-03-21T17:33:01Z</time><extensions><speed>2.590796</speed><course>102.987209</course><hAcc>1.730653</hAcc><vAcc>0.968336</vAcc></extensions></trkpt>
      <trkpt lon="-117.328872" lat="33.970278"><ele>323.633785</ele><time>2025-03-21T17:33:02Z</time><extensions><speed>2.835684</speed><course>80.443672</course><hAcc>1.758350</hAcc><vAcc>0.978177</vAcc></extensions></trkpt>
      <trkpt lon="-117.328842" lat="33.970287"><ele>323.691353</ele><time>2025-03-21T17:33:03Z</time><extensions><speed>3.108530</speed><course>60.614069</course><hAcc>1.779386</hAcc><vAcc>0.986952</vAcc></extensions></trkpt>
      <trkpt lon="-117.328817" lat="33.970305"><ele>323.765237</ele><time>2025-03-21T17:33:04Z</time><extensions><speed>3.236669</speed><course>38.858538</course><hAcc>1.789241</hAcc><vAcc>0.993980</vAcc></extensions></trkpt>
      <trkpt lon="-117.328797" lat="33.970331"><ele>323.856192</ele><time>2025-03-21T17:33:05Z</time><extensions><speed>3.591413</speed><course>24.456590</course><hAcc>1.789311</hAcc><vAcc>0.999097</vAcc></extensions></trkpt>
      <trkpt lon="-117.328782" lat="33.970361"><ele>323.975015</ele><time>2025-03-21T17:33:06Z</time><extensions><speed>3.760023</speed><course>22.310180</course><hAcc>1.781105</hAcc><vAcc>1.002543</vAcc></extensions></trkpt>
      <trkpt lon="-117.328762" lat="33.970390"><ele>324.106140</ele><time>2025-03-21T17:33:07Z</time><extensions><speed>3.618804</speed><course>36.540164</course><hAcc>1.770196</hAcc><vAcc>1.005109</vAcc></extensions></trkpt>
      <trkpt lon="-117.328735" lat="33.970413"><ele>324.243060</ele><time>2025-03-21T17:33:08Z</time><extensions><speed>3.608917</speed><course>54.829695</course><hAcc>1.760892</hAcc><vAcc>1.007486</vAcc></extensions></trkpt>
      <trkpt lon="-117.328700" lat="33.970428"><ele>324.391768</ele><time>2025-03-21T17:33:09Z</time><extensions><speed>3.728326</speed><course>70.090671</course><hAcc>1.756257</hAcc><vAcc>1.010474</vAcc></extensions></trkpt>
      <trkpt lon="-117.328661" lat="33.970436"><ele>324.541383</ele><time>2025-03-21T17:33:10Z</time><extensions><speed>3.819646</speed><course>80.933578</course><hAcc>1.757698</hAcc><vAcc>1.015252</vAcc></extensions></trkpt>
      <trkpt lon="-117.328620" lat="33.970440"><ele>324.694877</ele><time>2025-03-21T17:33:11Z</time><extensions><speed>3.844731</speed><course>87.991100</course><hAcc>1.763579</hAcc><vAcc>1.022722</vAcc></extensions></trkpt>
      <trkpt lon="-117.328578" lat="33.970439"><ele>324.868813</ele><time>2025-03-21T17:33:12Z</time><extensions><speed>3.880888</speed><course>92.614531</course><hAcc>1.776383</hAcc><vAcc>1.030720</vAcc></extensions></trkpt>
      <trkpt lon="-117.328536" lat="33.970437"><ele>325.049288</ele><time>2025-03-21T17:33:13Z</time><extensions><speed>3.875140</speed><course>94.909371</course><hAcc>1.787795</hAcc><vAcc>1.038013</vAcc></extensions></trkpt>
      <trkpt lon="-117.328494" lat="33.970434"><ele>325.237370</ele><time>2025-03-21T17:33:14Z</time><extensions><speed>3.794049</speed><course>95.799514</course><hAcc>1.792963</hAcc><vAcc>1.044231</vAcc></extensions></trkpt>
      <trkpt lon="-117.328455" lat="33.970431"><ele>325.418093</ele><time>2025-03-21T17:33:15Z</time><extensions><speed>3.533077</speed><course>96.470036</course><hAcc>1.793288</hAcc><vAcc>1.049891</vAcc></extensions></trkpt>
      <trkpt lon="-117.328418" lat="33.970427"><ele>325.604219</ele><time>2025-03-21T17:33:16Z</time><extensions><speed>3.241045</speed><course>96.826951</course><hAcc>1.792550</hAcc><vAcc>1.054530</vAcc></extensions></trkpt>
      <trkpt lon="-117.328385" lat="33.970425"><ele>325.792845</ele><time>2025-03-21T17:33:17Z</time><extensions><speed>2.882725</speed><course>94.577109</course><hAcc>1.794510</hAcc><vAcc>1.059443</vAcc></extensions></trkpt>
      <trkpt lon="-117.328355" lat="33.970424"><ele>325.971464</ele><time>2025-03-21T17:33:18Z</time><extensions><speed>2.713444</speed><course>90.142833</course><hAcc>1.800209</hAcc><vAcc>1.064906</vAcc></extensions></trkpt>
      <trkpt lon="-117.328325" lat="33.970425"><ele>326.163254</ele><time>2025-03-21T17:33:19Z</time><extensions><speed>2.811857</speed><course>84.136298</course><hAcc>1.809363</hAcc><vAcc>1.068926</vAcc></extensions></trkpt>
      <trkpt lon="-117.328293" lat="33.970429"><ele>326.322172</ele><time>2025-03-21T17:33:20Z</time><extensions><speed>3.206080</speed><course>77.677333</course><hAcc>1.820501</hAcc><vAcc>1.073634</vAcc></extensions></trkpt>
      <trkpt lon="-117.328258" lat="33.970438"><ele>326.479068</ele><time>2025-03-21T17:33:21Z</time><extensions><speed>3.646250</speed><course>70.760011</course><hAcc>1.830514</hAcc><vAcc>1.077950</vAcc></extensions></trkpt>
      <trkpt lon="-117.328220" lat="33.970450"><ele>326.633199</ele><time>2025-03-21T17:33:22Z</time><extensions><speed>3.876142</speed><course>67.101715</course><hAcc>1.832215</hAcc><vAcc>1.080918</vAcc></extensions></trkpt>
      <trkpt lon="-117.328182" lat="33.970465"><ele>326.797614</ele><time>2025-03-21T17:33:23Z</time><extensions><speed>3.988569</speed><course>64.278263</course><hAcc>1.824379</hAcc><vAcc>1.083485</vAcc></extensions></trkpt>
      <trkpt lon="-117.328143" lat="33.970481"><ele>326.956222</ele><time>2025-03-21T17:33:24Z</time><extensions><speed>4.005662</speed><course>62.145372</course><hAcc>1.809995</hAcc><vAcc>1.086434</vAcc></extensions></trkpt>
      <trkpt lon="-117.328105" lat="33.970498"><ele>327.116914</ele><time>2025-03-21T17:33:25Z</time><extensions><speed>4.059392</speed><course>61.806164</course><hAcc>1.794482</hAcc><vAcc>1.088174</vAcc></extensions></trkpt>
      <trkpt lon="-117.328067" lat="33.970515"><ele>327.265937</ele><time>2025-03-21T17:33:26Z</time><extensions><speed>3.973653</speed><course>60.763449</course><hAcc>1.783543</hAcc><vAcc>1.086122</vAcc></extensions></trkpt>
      <trkpt lon="-117.328029" lat="33.970532"><ele>327.365212</ele><time>2025-03-21T17:33:27Z</time><extensions><speed>3.991277</speed><course>61.433793</course><hAcc>1.774842</hAcc><vAcc>1.079633</vAcc></extensions></trkpt>
      <trkpt lon="-117.327994" lat="33.970550"><ele>327.424913</ele><time>2025-03-21T17:33:28Z</time><extensions><speed>3.767441</speed><course>54.381729</course><hAcc>1.767452</hAcc><vAcc>1.068672</vAcc></extensions></trkpt>
      <trkpt lon="-117.327965" lat="33.970573"><ele>327.491206</ele><time>2025-03-21T17:33:29Z</time><extensions><speed>3.730746</speed><course>39.228139</course><hAcc>1.767152</hAcc><vAcc>1.061207</vAcc></extensions></trkpt>
      <trkpt lon="-117.327944" lat="33.970601"><ele>327.575832</ele><time>2025-03-21T17:33:30Z</time><extensions><speed>3.727323</speed><course>26.223105</course><hAcc>1.775704</hAcc><vAcc>1.055271</vAcc></extensions></trkpt>
      <trkpt lon="-117.327928" lat="33.970630"><ele>327.657890</ele><time>2025-03-21T17:33:31Z</time><extensions><speed>3.406183</speed><course>24.389197</course><hAcc>1.784049</hAcc><vAcc>1.050649</vAcc></extensions></trkpt>
      <trkpt lon="-117.327910" lat="33.970655"><ele>327.725944</ele><time>2025-03-21T17:33:32Z</time><extensions><speed>3.037423</speed><course>36.842581</course><hAcc>1.788495</hAcc><vAcc>1.045217</vAcc></extensions></trkpt>
      <trkpt lon="-117.327887" lat="33.970672"><ele>327.799626</ele><time>2025-03-21T17:33:33Z</time><extensions><speed>2.821164</speed><course>61.727511</course><hAcc>1.790498</hAcc><vAcc>1.039469</vAcc></extensions></trkpt>
      <trkpt lon="-117.327860" lat="33.970679"><ele>327.863113</ele><time>2025-03-21T17:33:34Z</time><extensions><speed>2.738748</speed><course>82.160097</course><hAcc>1.796847</hAcc><vAcc>1.030646</vAcc></extensions></trkpt>
      <trkpt lon="-117.327832" lat="33.970680"><ele>327.930985</ele><time>2025-03-21T17:33:35Z</time><extensions><speed>2.493501</speed><course>95.043305</course><hAcc>1.802467</hAcc><vAcc>1.013940</vAcc></extensions></trkpt>
      <trkpt lon="-117.327808" lat="33.970677"><ele>327.979423</ele><time>2025-03-21T17:33:36Z</time><extensions><speed>1.976242</speed><course>105.690481</course><hAcc>1.811673</hAcc><vAcc>0.997859</vAcc></extensions></trkpt>
      <trkpt lon="-117.327794" lat="33.970672"><ele>328.028835</ele><time>2025-03-21T17:33:37Z</time><extensions><speed>0.900739</speed><course>125.467887</course><hAcc>1.828387</hAcc><vAcc>0.981948</vAcc></extensions></trkpt>
      <trkpt lon="-117.327791" lat="33.970668"><ele>328.073796</ele><time>2025-03-21T17:33:38Z</time><extensions><speed>0.408085</speed><course>209.738937</course><hAcc>1.849937</hAcc><vAcc>0.966071</vAcc></extensions></trkpt>
      <trkpt lon="-117.327794" lat="33.970665"><ele>328.125300</ele><time>2025-03-21T17:33:39Z</time><extensions><speed>0.485372</speed><course>236.047502</course><hAcc>1.850952</hAcc><vAcc>0.950100</vAcc></extensions></trkpt>
      <trkpt lon="-117.327799" lat="33.970663"><ele>328.174792</ele><time>2025-03-21T17:33:40Z</time><extensions><speed>0.433688</speed><course>247.821959</course><hAcc>1.896907</hAcc><vAcc>0.933801</vAcc></extensions></trkpt>
      <trkpt lon="-117.327803" lat="33.970662"><ele>328.222593</ele><time>2025-03-21T17:33:41Z</time><extensions><speed>0.450535</speed><course>250.643964</course><hAcc>1.944323</hAcc><vAcc>0.916908</vAcc></extensions></trkpt>
      <trkpt lon="-117.327808" lat="33.970660"><ele>328.268891</ele><time>2025-03-21T17:33:42Z</time><extensions><speed>0.480499</speed><course>247.211990</course><hAcc>1.988692</hAcc><vAcc>0.899287</vAcc></extensions></trkpt>
      <trkpt lon="-117.327812" lat="33.970659"><ele>328.313690</ele><time>2025-03-21T17:33:43Z</time><extensions><speed>0.399027</speed><course>250.712553</course><hAcc>2.030377</hAcc><vAcc>0.881046</vAcc></extensions></trkpt>
      <trkpt lon="-117.327816" lat="33.970658"><ele>328.353960</ele><time>2025-03-21T17:33:44Z</time><extensions><speed>0.365309</speed><course>248.398527</course><hAcc>2.054250</hAcc><vAcc>0.862580</vAcc></extensions></trkpt>
      <trkpt lon="-117.327820" lat="33.970656"><ele>328.391779</ele><time>2025-03-21T17:33:45Z</time><extensions><speed>0.358139</speed><course>239.777326</course><hAcc>2.070812</hAcc><vAcc>0.844550</vAcc></extensions></trkpt>
      <trkpt lon="-117.327823" lat="33.970655"><ele>328.428901</ele><time>2025-03-21T17:33:46Z</time><extensions><speed>0.352321</speed><course>227.858082</course><hAcc>2.089884</hAcc><vAcc>0.827703</vAcc></extensions></trkpt>
      <trkpt lon="-117.327825" lat="33.970652"><ele>328.463716</ele><time>2025-03-21T17:33:47Z</time><extensions><speed>0.321441</speed><course>214.939326</course><hAcc>2.116935</hAcc><vAcc>0.812620</vAcc></extensions></trkpt>
      <trkpt lon="-117.327826" lat="33.970650"><ele>328.496063</ele><time>2025-03-21T17:33:48Z</time><extensions><speed>0.267589</speed><course>200.930329</course><hAcc>2.146742</hAcc><vAcc>0.799623</vAcc></extensions></trkpt>
      <trkpt lon="-117.327827" lat="33.970648"><ele>328.524663</ele><time>2025-03-21T17:33:49Z</time><extensions><speed>0.182435</speed><course>178.468870</course><hAcc>2.167585</hAcc><vAcc>0.788811</vAcc></extensions></trkpt>
      <trkpt lon="-117.327826" lat="33.970647"><ele>328.549005</ele><time>2025-03-21T17:33:50Z</time><extensions><speed>0.128060</speed><course>124.198346</course><hAcc>2.179050</hAcc><vAcc>0.780105</vAcc></extensions></trkpt>
      <trkpt lon="-117.327825" lat="33.970646"><ele>328.571042</ele><time>2025-03-21T17:33:51Z</time><extensions><speed>0.186508</speed><course>95.246790</course><hAcc>2.171187</hAcc><vAcc>0.773315</vAcc></extensions></trkpt>
      <trkpt lon="-117.327822" lat="33.970646"><ele>328.589679</ele><time>2025-03-21T17:33:52Z</time><extensions><speed>0.260869</speed><course>90.762048</course><hAcc>2.164627</hAcc><vAcc>0.768178</vAcc></extensions></trkpt>
      <trkpt lon="-117.327819" lat="33.970646"><ele>328.606149</ele><time>2025-03-21T17:33:53Z</time><extensions><speed>0.322983</speed><course>94.995190</course><hAcc>2.172919</hAcc><vAcc>0.764476</vAcc></extensions></trkpt>
      <trkpt lon="-117.327815" lat="33.970645"><ele>328.620275</ele><time>2025-03-21T17:33:54Z</time><extensions><speed>0.357399</speed><course>106.752081</course><hAcc>2.194939</hAcc><vAcc>0.761878</vAcc></extensions></trkpt>
      <trkpt lon="-117.327812" lat="33.970644"><ele>328.632607</ele><time>2025-03-21T17:33:55Z</time><extensions><speed>0.354330</speed><course>118.466809</course><hAcc>2.242712</hAcc><vAcc>0.760095</vAcc></extensions></trkpt>
      <trkpt lon="-117.327809" lat="33.970643"><ele>328.640250</ele><time>2025-03-21T17:33:56Z</time><extensions><speed>0.311618</speed><course>127.328057</course><hAcc>2.314517</hAcc><vAcc>0.758939</vAcc></extensions></trkpt>
      <trkpt lon="-117.327806" lat="33.970641"><ele>328.644919</ele><time>2025-03-21T17:33:57Z</time><extensions><speed>0.250315</speed><course>128.264184</course><hAcc>2.385846</hAcc><vAcc>0.758240</vAcc></extensions></trkpt>
      <trkpt lon="-117.327805" lat="33.970640"><ele>328.647809</ele><time>2025-03-21T17:33:58Z</time><extensions><speed>0.192120</speed><course>132.513671</course><hAcc>2.437057</hAcc><vAcc>0.757856</vAcc></extensions></trkpt>
      <trkpt lon="-117.327804" lat="33.970640"><ele>328.652628</ele><time>2025-03-21T17:33:59Z</time><extensions><speed>0.132177</speed><course>136.980034</course><hAcc>2.493183</hAcc><vAcc>0.757697</vAcc></extensions></trkpt>
      <trkpt lon="-117.327803" lat="33.970640"><ele>328.654668</ele><time>2025-03-21T17:34:00Z</time><extensions><speed>0.030213</speed><course>107.289298</course><hAcc>2.583015</hAcc><vAcc>0.757698</vAcc></extensions></trkpt>
      <trkpt lon="-117.327804" lat="33.970641"><ele>328.655789</ele><time>2025-03-21T17:34:01Z</time><extensions><speed>0.122486</speed><course>343.594498</course><hAcc>2.694438</hAcc><vAcc>0.757826</vAcc></extensions></trkpt>
      <trkpt lon="-117.327805" lat="33.970643"><ele>328.656163</ele><time>2025-03-21T17:34:02Z</time><extensions><speed>0.280873</speed><course>337.002382</course><hAcc>2.827523</hAcc><vAcc>0.758073</vAcc></extensions></trkpt>
      <trkpt lon="-117.327807" lat="33.970647"><ele>328.655653</ele><time>2025-03-21T17:34:03Z</time><extensions><speed>0.510406</speed><course>334.541543</course><hAcc>2.954485</hAcc><vAcc>0.758044</vAcc></extensions></trkpt>
      <trkpt lon="-117.327810" lat="33.970653"><ele>328.654575</ele><time>2025-03-21T17:34:04Z</time><extensions><speed>0.733285</speed><course>333.329432</course><hAcc>3.069240</hAcc><vAcc>0.757393</vAcc></extensions></trkpt>
      <trkpt lon="-117.327814" lat="33.970660"><ele>328.653106</ele><time>2025-03-21T17:34:05Z</time><extensions><speed>0.912707</speed><course>332.899945</course><hAcc>3.177149</hAcc><vAcc>0.756997</vAcc></extensions></trkpt>
      <trkpt lon="-117.327819" lat="33.970668"><ele>328.648302</ele><time>2025-03-21T17:34:06Z</time><extensions><speed>0.992017</speed><course>332.643712</course><hAcc>3.280258</hAcc><vAcc>0.756977</vAcc></extensions></trkpt>
      <trkpt lon="-117.327824" lat="33.970676"><ele>328.641559</ele><time>2025-03-21T17:34:07Z</time><extensions><speed>0.891983</speed><course>332.222248</course><hAcc>3.383683</hAcc><vAcc>0.756942</vAcc></extensions></trkpt>
      <trkpt lon="-117.327828" lat="33.970682"><ele>328.631685</ele><time>2025-03-21T17:34:08Z</time><extensions><speed>0.581104</speed><course>334.478417</course><hAcc>3.475243</hAcc><vAcc>0.756886</vAcc></extensions></trkpt>
      <trkpt lon="-117.327830" lat="33.970686"><ele>328.620107</ele><time>2025-03-21T17:34:09Z</time><extensions><speed>0.409689</speed><course>335.979116</course><hAcc>3.506577</hAcc><vAcc>0.756864</vAcc></extensions></trkpt>
      <trkpt lon="-117.327832" lat="33.970689"><ele>328.612005</ele><time>2025-03-21T17:34:10Z</time><extensions><speed>0.289844</speed><course>337.431469</course><hAcc>3.511357</hAcc><vAcc>0.756835</vAcc></extensions></trkpt>
      <trkpt lon="-117.327833" lat="33.970691"><ele>328.600501</ele><time>2025-03-21T17:34:11Z</time><extensions><speed>0.240717</speed><course>335.971864</course><hAcc>3.503692</hAcc><vAcc>0.756803</vAcc></extensions></trkpt>
      <trkpt lon="-117.327834" lat="33.970693"><ele>328.594126</ele><time>2025-03-21T17:34:12Z</time><extensions><speed>0.203089</speed><course>330.722740</course><hAcc>3.498606</hAcc><vAcc>0.756764</vAcc></extensions></trkpt>
      <trkpt lon="-117.327835" lat="33.970695"><ele>328.581773</ele><time>2025-03-21T17:34:13Z</time><extensions><speed>0.227361</speed><course>321.840569</course><hAcc>3.491855</hAcc><vAcc>0.756743</vAcc></extensions></trkpt>
      <trkpt lon="-117.327837" lat="33.970696"><ele>328.569499</ele><time>2025-03-21T17:34:14Z</time><extensions><speed>0.209058</speed><course>318.342890</course><hAcc>3.540727</hAcc><vAcc>0.756739</vAcc></extensions></trkpt>
      <trkpt lon="-117.327838" lat="33.970697"><ele>328.558314</ele><time>2025-03-21T17:34:15Z</time><extensions><speed>0.191433</speed><course>307.297381</course><hAcc>3.642978</hAcc><vAcc>0.756740</vAcc></extensions></trkpt>
      <trkpt lon="-117.327840" lat="33.970698"><ele>328.550546</ele><time>2025-03-21T17:34:16Z</time><extensions><speed>0.205497</speed><course>288.292652</course><hAcc>3.782338</hAcc><vAcc>0.756717</vAcc></extensions></trkpt>
      <trkpt lon="-117.327843" lat="33.970699"><ele>328.540758</ele><time>2025-03-21T17:34:17Z</time><extensions><speed>0.243182</speed><course>273.687127</course><hAcc>3.970649</hAcc><vAcc>0.761801</vAcc></extensions></trkpt>
      <trkpt lon="-117.327845" lat="33.970699"><ele>328.531739</ele><time>2025-03-21T17:34:18Z</time><extensions><speed>0.277962</speed><course>264.380471</course><hAcc>4.237342</hAcc><vAcc>0.770562</vAcc></extensions></trkpt>
      <trkpt lon="-117.327849" lat="33.970698"><ele>328.523653</ele><time>2025-03-21T17:34:19Z</time><extensions><speed>0.315705</speed><course>257.513079</course><hAcc>4.613622</hAcc><vAcc>0.785192</vAcc></extensions></trkpt>
      <trkpt lon="-117.327852" lat="33.970697"><ele>328.516556</ele><time>2025-03-21T17:34:20Z</time><extensions><speed>0.355356</speed><course>252.775672</course><hAcc>5.122385</hAcc><vAcc>0.808516</vAcc></extensions></trkpt>
      <trkpt lon="-117.327856" lat="33.970696"><ele>328.510329</ele><time>2025-03-21T17:34:21Z</time><extensions><speed>0.393602</speed><course>249.796038</course><hAcc>5.783524</hAcc><vAcc>0.844095</vAcc></extensions></trkpt>
      <trkpt lon="-117.327860" lat="33.970695"><ele>328.504834</ele><time>2025-03-21T17:34:22Z</time><extensions><speed>0.426037</speed><course>248.160552</course><hAcc>6.612673</hAcc><vAcc>0.895690</vAcc></extensions></trkpt>
      <trkpt lon="-117.327865" lat="33.970693"><ele>328.499922</ele><time>2025-03-21T17:34:23Z</time><extensions><speed>0.451827</speed><course>247.404973</course><hAcc>7.630974</hAcc><vAcc>0.967108</vAcc></extensions></trkpt>
      <trkpt lon="-117.327869" lat="33.970692"><ele>328.495507</ele><time>2025-03-21T17:34:24Z</time><extensions><speed>0.466071</speed><course>247.122879</course><hAcc>8.860352</hAcc><vAcc>1.061263</vAcc></extensions></trkpt>
      <trkpt lon="-117.327874" lat="33.970690"><ele>328.491446</ele><time>2025-03-21T17:34:25Z</time><extensions><speed>0.471535</speed><course>247.020943</course><hAcc>10.339336</hAcc><vAcc>1.181007</vAcc></extensions></trkpt>
      <trkpt lon="-117.327878" lat="33.970689"><ele>328.487598</ele><time>2025-03-21T17:34:26Z</time><extensions><speed>0.473518</speed><course>246.960394</course><hAcc>12.095147</hAcc><vAcc>1.326658</vAcc></extensions></trkpt>
    </trkseg>
  </trk>
</gpx>