<?xml version="1.0" encoding="UTF-8"?>
<gpx version="1.1" creator="Apple Health Export" xmlns="http://www.topografix.com/GPX/1/1" xmlns:xsi="http://www.w3.org/2001/XMLSchema-instance" xsi:schemaLocation="http://www.topografix.com/GPX/1/1 http://www.topografix.com/GPX/1/1/gpx.xsd">
  <metadata>
    <time>2026-01-11T07:57:39Z</time>
  </metadata>
  <trk>
    <name>Route 2025-02-24 7:04pm</name>
    <trkseg>
      <trkpt lon="-117.331603" lat="33.979224"><ele>318.135847</ele><time>2025-02-25T02:58:19Z</time><extensions><speed>2.234037</speed><course>85.765807</course><hAcc>2.734684</hAcc><vAcc>1.495671</vAcc></extensions></trkpt>
      <trkpt lon="-117.331582" lat="33.979226"><ele>318.150492</ele><time>2025-02-25T02:58:20Z</time><extensions><speed>1.913457</speed><course>87.594934</course><hAcc>2.529160</hAcc><vAcc>1.303964</vAcc></extensions></trkpt>
      <trkpt lon="-117.331553" lat="33.979229"><ele>318.175327</ele><time>2025-02-25T02:58:22Z</time><extensions><speed>1.717042</speed><course>82.090970</course><hAcc>2.335353</hAcc><vAcc>1.091546</vAcc></extensions></trkpt>
      <trkpt lon="-117.331536" lat="33.979231"><ele>318.184461</ele><time>2025-02-25T02:58:23Z</time><extensions><speed>1.604999</speed><course>84.644275</course><hAcc>2.226353</hAcc><vAcc>0.989867</vAcc></extensions></trkpt>
      <trkpt lon="-117.331520" lat="33.979233"><ele>318.189511</ele><time>2025-02-25T02:58:24Z</time><extensions><speed>1.575731</speed><course>84.314429</course><hAcc>2.128711</hAcc><vAcc>0.915581</vAcc></extensions></trkpt>
      <trkpt lon="-117.331504" lat="33.979234"><ele>318.194631</ele><time>2025-02-25T02:58:25Z</time><extensions><speed>1.535223</speed><course>87.902628</course><hAcc>2.043660</hAcc><vAcc>0.863274</vAcc></extensions></trkpt>
      <trkpt lon="-117.331489" lat="33.979235"><ele>318.201743</ele><time>2025-02-25T02:58:26Z</time><extensions><speed>1.486489</speed><course>87.341416</course><hAcc>1.969190</hAcc><vAcc>0.827825</vAcc></extensions></trkpt>
      <trkpt lon="-117.331474" lat="33.979236"><ele>318.215930</ele><time>2025-02-25T02:58:27Z</time><extensions><speed>1.372826</speed><course>90.154145</course><hAcc>1.899306</hAcc><vAcc>0.804678</vAcc></extensions></trkpt>
      <trkpt lon="-117.331460" lat="33.979236"><ele>318.232413</ele><time>2025-02-25T02:58:28Z</time><extensions><speed>1.333624</speed><course>92.877955</course><hAcc>1.834258</hAcc><vAcc>0.790066</vAcc></extensions></trkpt>
      <trkpt lon="-117.331446" lat="33.979236"><ele>318.261924</ele><time>2025-02-25T02:58:29Z</time><extensions><speed>1.215843</speed><course>93.407718</course><hAcc>1.776035</hAcc><vAcc>0.781079</vAcc></extensions></trkpt>
      <trkpt lon="-117.331434" lat="33.979235"><ele>318.293656</ele><time>2025-02-25T02:58:30Z</time><extensions><speed>1.172784</speed><course>92.994716</course><hAcc>1.721339</hAcc><vAcc>0.775610</vAcc></extensions></trkpt>
      <trkpt lon="-117.331421" lat="33.979235"><ele>318.326272</ele><time>2025-02-25T02:58:31Z</time><extensions><speed>1.135867</speed><course>91.532689</course><hAcc>1.683415</hAcc><vAcc>0.772219</vAcc></extensions></trkpt>
      <trkpt lon="-117.331409" lat="33.979236"><ele>318.359453</ele><time>2025-02-25T02:58:32Z</time><extensions><speed>1.211141</speed><course>84.760060</course><hAcc>1.677707</hAcc><vAcc>0.769976</vAcc></extensions></trkpt>
      <trkpt lon="-117.331396" lat="33.979237"><ele>318.402405</ele><time>2025-02-25T02:58:33Z</time><extensions><speed>1.189794</speed><course>83.143257</course><hAcc>1.631152</hAcc><vAcc>0.768320</vAcc></extensions></trkpt>
      <trkpt lon="-117.331384" lat="33.979239"><ele>318.445844</ele><time>2025-02-25T02:58:34Z</time><extensions><speed>1.173018</speed><course>82.484097</course><hAcc>1.592087</hAcc><vAcc>0.766937</vAcc></extensions></trkpt>
      <trkpt lon="-117.331371" lat="33.979240"><ele>318.489086</ele><time>2025-02-25T02:58:35Z</time><extensions><speed>1.188654</speed><course>85.731903</course><hAcc>1.574064</hAcc><vAcc>0.765675</vAcc></extensions></trkpt>
      <trkpt lon="-117.331359" lat="33.979241"><ele>318.531372</ele><time>2025-02-25T02:58:36Z</time><extensions><speed>1.212175</speed><course>93.236153</course><hAcc>1.554853</hAcc><vAcc>0.764474</vAcc></extensions></trkpt>
      <trkpt lon="-117.331346" lat="33.979241"><ele>318.568489</ele><time>2025-02-25T02:58:37Z</time><extensions><speed>1.224081</speed><course>94.064253</course><hAcc>1.535114</hAcc><vAcc>0.763326</vAcc></extensions></trkpt>
      <trkpt lon="-117.331333" lat="33.979240"><ele>318.603914</ele><time>2025-02-25T02:58:38Z</time><extensions><speed>1.210745</speed><course>93.107827</course><hAcc>1.512693</hAcc><vAcc>0.762245</vAcc></extensions></trkpt>
      <trkpt lon="-117.331320" lat="33.979240"><ele>318.633938</ele><time>2025-02-25T02:58:39Z</time><extensions><speed>1.225339</speed><course>92.438582</course><hAcc>1.511991</hAcc><vAcc>0.761254</vAcc></extensions></trkpt>
      <trkpt lon="-117.331307" lat="33.979240"><ele>318.661351</ele><time>2025-02-25T02:58:40Z</time><extensions><speed>1.202717</speed><course>91.884066</course><hAcc>1.496771</hAcc><vAcc>0.760368</vAcc></extensions></trkpt>
      <trkpt lon="-117.331294" lat="33.979240"><ele>318.685009</ele><time>2025-02-25T02:58:41Z</time><extensions><speed>1.231197</speed><course>93.491012</course><hAcc>1.504501</hAcc><vAcc>0.759598</vAcc></extensions></trkpt>
      <trkpt lon="-117.331281" lat="33.979240"><ele>318.700989</ele><time>2025-02-25T02:58:42Z</time><extensions><speed>1.204508</speed><course>92.985713</course><hAcc>1.494066</hAcc><vAcc>0.758947</vAcc></extensions></trkpt>
      <trkpt lon="-117.331267" lat="33.979241"><ele>318.660455</ele><time>2025-02-25T02:58:43Z</time><extensions><speed>1.216181</speed><course>100.360379</course><hAcc>1.485875</hAcc><vAcc>0.758411</vAcc></extensions></trkpt>
      <trkpt lon="-117.331253" lat="33.979241"><ele>318.604640</ele><time>2025-02-25T02:58:44Z</time><extensions><speed>1.221268</speed><course>101.453721</course><hAcc>1.467722</hAcc><vAcc>0.757980</vAcc></extensions></trkpt>
      <trkpt lon="-117.331239" lat="33.979240"><ele>318.533874</ele><time>2025-02-25T02:58:45Z</time><extensions><speed>1.226757</speed><course>95.318917</course><hAcc>1.445193</hAcc><vAcc>0.757643</vAcc></extensions></trkpt>
      <trkpt lon="-117.331225" lat="33.979240"><ele>318.447198</ele><time>2025-02-25T02:58:46Z</time><extensions><speed>1.212164</speed><course>93.003916</course><hAcc>1.458376</hAcc><vAcc>0.757384</vAcc></extensions></trkpt>
      <trkpt lon="-117.331212" lat="33.979241"><ele>318.346862</ele><time>2025-02-25T02:58:47Z</time><extensions><speed>1.226634</speed><course>83.233898</course><hAcc>1.463159</hAcc><vAcc>0.757194</vAcc></extensions></trkpt>
      <trkpt lon="-117.331199" lat="33.979244"><ele>318.238904</ele><time>2025-02-25T02:58:48Z</time><extensions><speed>1.267314</speed><course>78.004123</course><hAcc>1.470722</hAcc><vAcc>0.757061</vAcc></extensions></trkpt>
      <trkpt lon="-117.331186" lat="33.979246"><ele>318.119020</ele><time>2025-02-25T02:58:49Z</time><extensions><speed>1.275048</speed><course>76.036795</course><hAcc>1.483284</hAcc><vAcc>0.756966</vAcc></extensions></trkpt>
      <trkpt lon="-117.331172" lat="33.979249"><ele>317.995304</ele><time>2025-02-25T02:58:50Z</time><extensions><speed>1.275242</speed><course>76.817256</course><hAcc>1.499881</hAcc><vAcc>0.756902</vAcc></extensions></trkpt>
      <trkpt lon="-117.331159" lat="33.979251"><ele>317.874099</ele><time>2025-02-25T02:58:51Z</time><extensions><speed>1.264467</speed><course>85.672675</course><hAcc>1.518860</hAcc><vAcc>0.757023</vAcc></extensions></trkpt>
      <trkpt lon="-117.331145" lat="33.979253"><ele>317.757589</ele><time>2025-02-25T02:58:52Z</time><extensions><speed>1.289722</speed><course>80.626157</course><hAcc>1.529990</hAcc><vAcc>0.757074</vAcc></extensions></trkpt>
      <trkpt lon="-117.331130" lat="33.979256"><ele>317.661072</ele><time>2025-02-25T02:58:53Z</time><extensions><speed>1.507820</speed><course>70.304986</course><hAcc>1.499645</hAcc><vAcc>0.757151</vAcc></extensions></trkpt>
      <trkpt lon="-117.331115" lat="33.979261"><ele>317.584769</ele><time>2025-02-25T02:58:54Z</time><extensions><speed>1.497938</speed><course>68.825724</course><hAcc>1.556962</hAcc><vAcc>0.757259</vAcc></extensions></trkpt>
      <trkpt lon="-117.331101" lat="33.979265"><ele>317.537513</ele><time>2025-02-25T02:58:55Z</time><extensions><speed>1.380467</speed><course>69.807574</course><hAcc>1.653729</hAcc><vAcc>0.757447</vAcc></extensions></trkpt>
      <trkpt lon="-117.331087" lat="33.979269"><ele>317.521321</ele><time>2025-02-25T02:58:56Z</time><extensions><speed>1.251403</speed><course>69.151155</course><hAcc>1.727120</hAcc><vAcc>0.757759</vAcc></extensions></trkpt>
      <trkpt lon="-117.331075" lat="33.979273"><ele>317.540004</ele><time>2025-02-25T02:58:57Z</time><extensions><speed>1.141806</speed><course>68.832894</course><hAcc>1.777395</hAcc><vAcc>0.758163</vAcc></extensions></trkpt>
      <trkpt lon="-117.331064" lat="33.979277"><ele>317.598297</ele><time>2025-02-25T02:58:58Z</time><extensions><speed>1.091058</speed><course>72.621271</course><hAcc>1.793994</hAcc><vAcc>0.758559</vAcc></extensions></trkpt>
      <trkpt lon="-117.331053" lat="33.979279"><ele>317.684362</ele><time>2025-02-25T02:58:59Z</time><extensions><speed>1.113437</speed><course>74.332530</course><hAcc>1.781422</hAcc><vAcc>0.759010</vAcc></extensions></trkpt>
      <trkpt lon="-117.331040" lat="33.979282"><ele>317.796732</ele><time>2025-02-25T02:59:00Z</time><extensions><speed>1.243648</speed><course>79.573805</course><hAcc>1.775376</hAcc><vAcc>0.759413</vAcc></extensions></trkpt>
      <trkpt lon="-117.331027" lat="33.979284"><ele>317.932644</ele><time>2025-02-25T02:59:01Z</time><extensions><speed>1.289628</speed><course>79.928094</course><hAcc>1.758901</hAcc><vAcc>0.759798</vAcc></extensions></trkpt>
      <trkpt lon="-117.331013" lat="33.979286"><ele>318.093803</ele><time>2025-02-25T02:59:02Z</time><extensions><speed>1.188550</speed><course>79.717934</course><hAcc>1.736115</hAcc><vAcc>0.760142</vAcc></extensions></trkpt>
      <trkpt lon="-117.331001" lat="33.979288"><ele>318.280436</ele><time>2025-02-25T02:59:03Z</time><extensions><speed>1.113536</speed><course>79.181711</course><hAcc>1.715036</hAcc><vAcc>0.760435</vAcc></extensions></trkpt>
      <trkpt lon="-117.330989" lat="33.979289"><ele>318.489217</ele><time>2025-02-25T02:59:04Z</time><extensions><speed>1.065912</speed><course>82.299374</course><hAcc>1.698867</hAcc><vAcc>0.760668</vAcc></extensions></trkpt>
      <trkpt lon="-117.330978" lat="33.979290"><ele>318.710252</ele><time>2025-02-25T02:59:05Z</time><extensions><speed>1.004792</speed><course>89.649288</course><hAcc>1.686847</hAcc><vAcc>0.760815</vAcc></extensions></trkpt>
      <trkpt lon="-117.330967" lat="33.979290"><ele>318.937690</ele><time>2025-02-25T02:59:06Z</time><extensions><speed>1.003354</speed><course>87.564327</course><hAcc>1.677792</hAcc><vAcc>0.760844</vAcc></extensions></trkpt>
      <trkpt lon="-117.330956" lat="33.979292"><ele>319.159595</ele><time>2025-02-25T02:59:07Z</time><extensions><speed>1.084509</speed><course>73.784191</course><hAcc>1.670965</hAcc><vAcc>0.761831</vAcc></extensions></trkpt>
      <trkpt lon="-117.330945" lat="33.979295"><ele>319.380829</ele><time>2025-02-25T02:59:08Z</time><extensions><speed>1.190274</speed><course>67.008179</course><hAcc>1.663362</hAcc><vAcc>0.762993</vAcc></extensions></trkpt>
      <trkpt lon="-117.330933" lat="33.979300"><ele>319.598260</ele><time>2025-02-25T02:59:09Z</time><extensions><speed>1.223447</speed><course>67.498930</course><hAcc>1.648451</hAcc><vAcc>0.765181</vAcc></extensions></trkpt>
      <trkpt lon="-117.330920" lat="33.979304"><ele>319.800169</ele><time>2025-02-25T02:59:10Z</time><extensions><speed>1.283314</speed><course>66.115469</course><hAcc>1.624084</hAcc><vAcc>0.767823</vAcc></extensions></trkpt>
      <trkpt lon="-117.330907" lat="33.979309"><ele>319.990073</ele><time>2025-02-25T02:59:11Z</time><extensions><speed>1.397763</speed><course>66.348783</course><hAcc>1.618717</hAcc><vAcc>0.771924</vAcc></extensions></trkpt>
      <trkpt lon="-117.330893" lat="33.979314"><ele>320.163617</ele><time>2025-02-25T02:59:12Z</time><extensions><speed>1.469209</speed><course>68.600654</course><hAcc>1.603191</hAcc><vAcc>0.776413</vAcc></extensions></trkpt>
      <trkpt lon="-117.330877" lat="33.979319"><ele>320.309663</ele><time>2025-02-25T02:59:13Z</time><extensions><speed>1.502674</speed><course>71.914885</course><hAcc>1.576818</hAcc><vAcc>0.781918</vAcc></extensions></trkpt>
      <trkpt lon="-117.330862" lat="33.979322"><ele>320.449132</ele><time>2025-02-25T02:59:14Z</time><extensions><speed>1.532115</speed><course>76.949288</course><hAcc>1.543728</hAcc><vAcc>0.787850</vAcc></extensions></trkpt>
      <trkpt lon="-117.330845" lat="33.979325"><ele>320.571819</ele><time>2025-02-25T02:59:15Z</time><extensions><speed>1.492210</speed><course>82.223313</course><hAcc>1.505446</hAcc><vAcc>0.794703</vAcc></extensions></trkpt>
      <trkpt lon="-117.330830" lat="33.979327"><ele>320.674686</ele><time>2025-02-25T02:59:16Z</time><extensions><speed>1.445050</speed><course>84.526124</course><hAcc>1.471982</hAcc><vAcc>0.802048</vAcc></extensions></trkpt>
      <trkpt lon="-117.330814" lat="33.979328"><ele>320.743742</ele><time>2025-02-25T02:59:17Z</time><extensions><speed>1.388433</speed><course>82.712790</course><hAcc>1.459890</hAcc><vAcc>0.809544</vAcc></extensions></trkpt>
      <trkpt lon="-117.330799" lat="33.979330"><ele>320.792391</ele><time>2025-02-25T02:59:18Z</time><extensions><speed>1.449516</speed><course>80.284536</course><hAcc>1.437089</hAcc><vAcc>0.816842</vAcc></extensions></trkpt>
      <trkpt lon="-117.330784" lat="33.979333"><ele>320.845648</ele><time>2025-02-25T02:59:19Z</time><extensions><speed>1.366602</speed><course>79.786343</course><hAcc>1.417871</hAcc><vAcc>0.823452</vAcc></extensions></trkpt>
      <trkpt lon="-117.330769" lat="33.979335"><ele>320.893334</ele><time>2025-02-25T02:59:20Z</time><extensions><speed>1.463122</speed><course>81.251216</course><hAcc>1.387475</hAcc><vAcc>0.829177</vAcc></extensions></trkpt>
      <trkpt lon="-117.330754" lat="33.979337"><ele>320.930908</ele><time>2025-02-25T02:59:21Z</time><extensions><speed>1.362236</speed><course>84.099106</course><hAcc>1.382902</hAcc><vAcc>0.833863</vAcc></extensions></trkpt>
      <trkpt lon="-117.330738" lat="33.979338"><ele>320.968017</ele><time>2025-02-25T02:59:22Z</time><extensions><speed>1.468195</speed><course>82.451851</course><hAcc>1.368361</hAcc><vAcc>0.837864</vAcc></extensions></trkpt>
      <trkpt lon="-117.330723" lat="33.979340"><ele>321.012210</ele><time>2025-02-25T02:59:23Z</time><extensions><speed>1.396091</speed><course>81.981882</course><hAcc>1.376170</hAcc><vAcc>0.841053</vAcc></extensions></trkpt>
      <trkpt lon="-117.330708" lat="33.979342"><ele>321.053814</ele><time>2025-02-25T02:59:24Z</time><extensions><speed>1.478500</speed><course>80.504099</course><hAcc>1.373167</hAcc><vAcc>0.843902</vAcc></extensions></trkpt>
      <trkpt lon="-117.330692" lat="33.979344"><ele>321.094263</ele><time>2025-02-25T02:59:25Z</time><extensions><speed>1.432520</speed><course>80.424344</course><hAcc>1.388750</hAcc><vAcc>0.846630</vAcc></extensions></trkpt>
      <trkpt lon="-117.330677" lat="33.979346"><ele>321.138618</ele><time>2025-02-25T02:59:26Z</time><extensions><speed>1.322517</speed><course>79.584637</course><hAcc>1.400546</hAcc><vAcc>0.849066</vAcc></extensions></trkpt>
      <trkpt lon="-117.330664" lat="33.979349"><ele>321.193599</ele><time>2025-02-25T02:59:27Z</time><extensions><speed>1.292425</speed><course>75.156215</course><hAcc>1.396520</hAcc><vAcc>0.851668</vAcc></extensions></trkpt>
      <trkpt lon="-117.330650" lat="33.979352"><ele>321.253351</ele><time>2025-02-25T02:59:28Z</time><extensions><speed>1.344027</speed><course>74.907381</course><hAcc>1.408693</hAcc><vAcc>0.854288</vAcc></extensions></trkpt>
      <trkpt lon="-117.330635" lat="33.979355"><ele>321.317970</ele><time>2025-02-25T02:59:29Z</time><extensions><speed>1.449431</speed><course>76.129342</course><hAcc>1.422222</hAcc><vAcc>0.856753</vAcc></extensions></trkpt>
      <trkpt lon="-117.330620" lat="33.979358"><ele>321.390385</ele><time>2025-02-25T02:59:30Z</time><extensions><speed>1.486926</speed><course>77.321623</course><hAcc>1.424481</hAcc><vAcc>0.858772</vAcc></extensions></trkpt>
      <trkpt lon="-117.330604" lat="33.979361"><ele>321.477978</ele><time>2025-02-25T02:59:31Z</time><extensions><speed>1.451219</speed><course>79.340971</course><hAcc>1.419442</hAcc><vAcc>0.860951</vAcc></extensions></trkpt>
      <trkpt lon="-117.330589" lat="33.979363"><ele>321.571088</ele><time>2025-02-25T02:59:32Z</time><extensions><speed>1.398515</speed><course>83.586087</course><hAcc>1.412419</hAcc><vAcc>0.864134</vAcc></extensions></trkpt>
      <trkpt lon="-117.330574" lat="33.979364"><ele>321.664957</ele><time>2025-02-25T02:59:33Z</time><extensions><speed>1.378581</speed><course>87.205694</course><hAcc>1.402530</hAcc><vAcc>0.867387</vAcc></extensions></trkpt>
      <trkpt lon="-117.330559" lat="33.979364"><ele>321.775750</ele><time>2025-02-25T02:59:34Z</time><extensions><speed>1.388864</speed><course>89.283485</course><hAcc>1.401651</hAcc><vAcc>0.870271</vAcc></extensions></trkpt>
      <trkpt lon="-117.330544" lat="33.979364"><ele>321.873043</ele><time>2025-02-25T02:59:35Z</time><extensions><speed>1.384279</speed><course>89.250686</course><hAcc>1.411395</hAcc><vAcc>0.872324</vAcc></extensions></trkpt>
      <trkpt lon="-117.330529" lat="33.979364"><ele>321.952750</ele><time>2025-02-25T02:59:36Z</time><extensions><speed>1.372933</speed><course>88.960224</course><hAcc>1.409975</hAcc><vAcc>0.874643</vAcc></extensions></trkpt>
      <trkpt lon="-117.330514" lat="33.979365"><ele>322.038430</ele><time>2025-02-25T02:59:37Z</time><extensions><speed>1.367694</speed><course>88.688636</course><hAcc>1.409232</hAcc><vAcc>0.877172</vAcc></extensions></trkpt>
      <trkpt lon="-117.330499" lat="33.979365"><ele>322.126947</ele><time>2025-02-25T02:59:38Z</time><extensions><speed>1.340490</speed><course>88.021989</course><hAcc>1.414845</hAcc><vAcc>0.879751</vAcc></extensions></trkpt>
      <trkpt lon="-117.330485" lat="33.979366"><ele>322.189164</ele><time>2025-02-25T02:59:39Z</time><extensions><speed>1.351539</speed><course>85.181528</course><hAcc>1.420407</hAcc><vAcc>0.881919</vAcc></extensions></trkpt>
      <trkpt lon="-117.330470" lat="33.979367"><ele>322.242385</ele><time>2025-02-25T02:59:40Z</time><extensions><speed>1.368421</speed><course>81.563491</course><hAcc>1.424494</hAcc><vAcc>0.884803</vAcc></extensions></trkpt>
      <trkpt lon="-117.330456" lat="33.979369"><ele>322.269835</ele><time>2025-02-25T02:59:41Z</time><extensions><speed>1.332968</speed><course>80.923634</course><hAcc>1.431668</hAcc><vAcc>0.886722</vAcc></extensions></trkpt>
      <trkpt lon="-117.330442" lat="33.979371"><ele>322.297374</ele><time>2025-02-25T02:59:42Z</time><extensions><speed>1.263086</speed><course>84.040213</course><hAcc>1.441518</hAcc><vAcc>0.888967</vAcc></extensions></trkpt>
      <trkpt lon="-117.330428" lat="33.979371"><ele>322.315796</ele><time>2025-02-25T02:59:43Z</time><extensions><speed>1.274750</speed><course>88.930384</course><hAcc>1.438602</hAcc><vAcc>0.891342</vAcc></extensions></trkpt>
      <trkpt lon="-117.330414" lat="33.979371"><ele>322.324771</ele><time>2025-02-25T02:59:44Z</time><extensions><speed>1.271966</speed><course>92.149192</course><hAcc>1.435239</hAcc><vAcc>0.893886</vAcc></extensions></trkpt>
      <trkpt lon="-117.330401" lat="33.979371"><ele>322.320390</ele><time>2025-02-25T02:59:45Z</time><extensions><speed>1.248698</speed><course>91.916036</course><hAcc>1.435724</hAcc><vAcc>0.895810</vAcc></extensions></trkpt>
      <trkpt lon="-117.330387" lat="33.979371"><ele>322.303176</ele><time>2025-02-25T02:59:46Z</time><extensions><speed>1.296063</speed><course>89.128900</course><hAcc>1.434153</hAcc><vAcc>0.897333</vAcc></extensions></trkpt>
      <trkpt lon="-117.330372" lat="33.979371"><ele>322.288796</ele><time>2025-02-25T02:59:47Z</time><extensions><speed>1.393614</speed><course>90.229499</course><hAcc>1.443221</hAcc><vAcc>0.898888</vAcc></extensions></trkpt>
      <trkpt lon="-117.330357" lat="33.979371"><ele>322.280225</ele><time>2025-02-25T02:59:48Z</time><extensions><speed>1.403076</speed><course>88.982322</course><hAcc>1.443156</hAcc><vAcc>0.900543</vAcc></extensions></trkpt>
      <trkpt lon="-117.330342" lat="33.979371"><ele>322.282066</ele><time>2025-02-25T02:59:49Z</time><extensions><speed>1.392761</speed><course>87.231484</course><hAcc>1.439624</hAcc><vAcc>0.902377</vAcc></extensions></trkpt>
      <trkpt lon="-117.330327" lat="33.979372"><ele>322.288890</ele><time>2025-02-25T02:59:50Z</time><extensions><speed>1.325881</speed><course>85.392514</course><hAcc>1.445818</hAcc><vAcc>0.904024</vAcc></extensions></trkpt>
      <trkpt lon="-117.330313" lat="33.979372"><ele>322.304016</ele><time>2025-02-25T02:59:51Z</time><extensions><speed>1.314147</speed><course>88.524683</course><hAcc>1.441395</hAcc><vAcc>0.905820</vAcc></extensions></trkpt>
      <trkpt lon="-117.330299" lat="33.979372"><ele>322.316710</ele><time>2025-02-25T02:59:52Z</time><extensions><speed>1.290097</speed><course>93.507269</course><hAcc>1.448691</hAcc><vAcc>0.907708</vAcc></extensions></trkpt>
      <trkpt lon="-117.330285" lat="33.979371"><ele>322.332823</ele><time>2025-02-25T02:59:53Z</time><extensions><speed>1.238023</speed><course>95.504034</course><hAcc>1.452030</hAcc><vAcc>0.909234</vAcc></extensions></trkpt>
      <trkpt lon="-117.330272" lat="33.979369"><ele>322.352928</ele><time>2025-02-25T02:59:54Z</time><extensions><speed>1.199449</speed><course>97.270205</course><hAcc>1.448860</hAcc><vAcc>0.909527</vAcc></extensions></trkpt>
      <trkpt lon="-117.330259" lat="33.979368"><ele>322.381404</ele><time>2025-02-25T02:59:55Z</time><extensions><speed>1.230667</speed><course>98.898715</course><hAcc>1.433938</hAcc><vAcc>0.909020</vAcc></extensions></trkpt>
      <trkpt lon="-117.330245" lat="33.979366"><ele>322.429977</ele><time>2025-02-25T02:59:56Z</time><extensions><speed>1.321863</speed><course>100.925516</course><hAcc>1.420379</hAcc><vAcc>0.908696</vAcc></extensions></trkpt>
      <trkpt lon="-117.330231" lat="33.979363"><ele>322.491111</ele><time>2025-02-25T02:59:57Z</time><extensions><speed>1.348031</speed><course>102.481312</course><hAcc>1.410727</hAcc><vAcc>0.907707</vAcc></extensions></trkpt>
      <trkpt lon="-117.330216" lat="33.979360"><ele>322.552570</ele><time>2025-02-25T02:59:58Z</time><extensions><speed>1.417546</speed><course>102.941619</course><hAcc>1.396345</hAcc><vAcc>0.906109</vAcc></extensions></trkpt>
      <trkpt lon="-117.330201" lat="33.979357"><ele>322.624868</ele><time>2025-02-25T02:59:59Z</time><extensions><speed>1.463168</speed><course>104.472677</course><hAcc>1.383187</hAcc><vAcc>0.903885</vAcc></extensions></trkpt>
      <trkpt lon="-117.330186" lat="33.979354"><ele>322.699705</ele><time>2025-02-25T03:00:00Z</time><extensions><speed>1.455751</speed><course>105.896384</course><hAcc>1.380193</hAcc><vAcc>0.901117</vAcc></extensions></trkpt>
      <trkpt lon="-117.330172" lat="33.979350"><ele>322.772742</ele><time>2025-02-25T03:00:01Z</time><extensions><speed>1.342440</speed><course>104.391256</course><hAcc>1.390573</hAcc><vAcc>0.897775</vAcc></extensions></trkpt>
      <trkpt lon="-117.330158" lat="33.979348"><ele>322.840413</ele><time>2025-02-25T03:00:02Z</time><extensions><speed>1.251831</speed><course>102.115280</course><hAcc>1.400783</hAcc><vAcc>0.895028</vAcc></extensions></trkpt>
      <trkpt lon="-117.330145" lat="33.979345"><ele>322.908890</ele><time>2025-02-25T03:00:03Z</time><extensions><speed>1.228860</speed><course>103.213189</course><hAcc>1.387108</hAcc><vAcc>0.891100</vAcc></extensions></trkpt>
      <trkpt lon="-117.330132" lat="33.979342"><ele>322.985406</ele><time>2025-02-25T03:00:04Z</time><extensions><speed>1.243019</speed><course>105.123994</course><hAcc>1.373189</hAcc><vAcc>0.886674</vAcc></extensions></trkpt>
      <trkpt lon="-117.330119" lat="33.979339"><ele>323.074911</ele><time>2025-02-25T03:00:05Z</time><extensions><speed>1.262626</speed><course>103.986578</course><hAcc>1.382057</hAcc><vAcc>0.882078</vAcc></extensions></trkpt>
      <trkpt lon="-117.330105" lat="33.979337"><ele>323.157013</ele><time>2025-02-25T03:00:06Z</time><extensions><speed>1.285637</speed><course>101.743989</course><hAcc>1.389731</hAcc><vAcc>0.877615</vAcc></extensions></trkpt>
      <trkpt lon="-117.330091" lat="33.979335"><ele>323.232475</ele><time>2025-02-25T03:00:07Z</time><extensions><speed>1.317550</speed><course>100.938910</course><hAcc>1.387287</hAcc><vAcc>0.873389</vAcc></extensions></trkpt>
      <trkpt lon="-117.330077" lat="33.979332"><ele>323.301818</ele><time>2025-02-25T03:00:08Z</time><extensions><speed>1.326966</speed><course>101.339101</course><hAcc>1.378828</hAcc><vAcc>0.869835</vAcc></extensions></trkpt>
      <trkpt lon="-117.330063" lat="33.979330"><ele>323.362548</ele><time>2025-02-25T03:00:09Z</time><extensions><speed>1.344406</speed><course>98.207259</course><hAcc>1.369114</hAcc><vAcc>0.866042</vAcc></extensions></trkpt>
      <trkpt lon="-117.330049" lat="33.979329"><ele>323.429007</ele><time>2025-02-25T03:00:10Z</time><extensions><speed>1.287142</speed><course>96.027555</course><hAcc>1.362200</hAcc><vAcc>0.861440</vAcc></extensions></trkpt>
      <trkpt lon="-117.330035" lat="33.979327"><ele>323.484744</ele><time>2025-02-25T03:00:11Z</time><extensions><speed>1.254530</speed><course>98.147406</course><hAcc>1.356867</hAcc><vAcc>0.857396</vAcc></extensions></trkpt>
      <trkpt lon="-117.330022" lat="33.979325"><ele>323.523325</ele><time>2025-02-25T03:00:12Z</time><extensions><speed>1.167186</speed><course>99.116781</course><hAcc>1.376040</hAcc><vAcc>0.854040</vAcc></extensions></trkpt>
      <trkpt lon="-117.330010" lat="33.979324"><ele>323.549657</ele><time>2025-02-25T03:00:13Z</time><extensions><speed>1.107784</speed><course>100.840994</course><hAcc>1.351253</hAcc><vAcc>0.849497</vAcc></extensions></trkpt>
      <trkpt lon="-117.329998" lat="33.979322"><ele>323.579596</ele><time>2025-02-25T03:00:14Z</time><extensions><speed>1.123433</speed><course>101.675414</course><hAcc>1.338964</hAcc><vAcc>0.844443</vAcc></extensions></trkpt>
      <trkpt lon="-117.329986" lat="33.979320"><ele>323.595695</ele><time>2025-02-25T03:00:15Z</time><extensions><speed>1.193532</speed><course>99.695608</course><hAcc>1.326978</hAcc><vAcc>0.838971</vAcc></extensions></trkpt>
      <trkpt lon="-117.329973" lat="33.979318"><ele>323.598220</ele><time>2025-02-25T03:00:16Z</time><extensions><speed>1.199526</speed><course>96.757635</course><hAcc>1.318197</hAcc><vAcc>0.833049</vAcc></extensions></trkpt>
      <trkpt lon="-117.329960" lat="33.979317"><ele>323.599797</ele><time>2025-02-25T03:00:17Z</time><extensions><speed>1.239808</speed><course>94.187010</course><hAcc>1.314032</hAcc><vAcc>0.826680</vAcc></extensions></trkpt>
      <trkpt lon="-117.329946" lat="33.979316"><ele>323.603457</ele><time>2025-02-25T03:00:18Z</time><extensions><speed>1.301138</speed><course>94.706869</course><hAcc>1.316679</hAcc><vAcc>0.819915</vAcc></extensions></trkpt>
      <trkpt lon="-117.329932" lat="33.979315"><ele>323.606218</ele><time>2025-02-25T03:00:19Z</time><extensions><speed>1.386722</speed><course>99.401845</course><hAcc>1.281635</hAcc><vAcc>0.812873</vAcc></extensions></trkpt>
      <trkpt lon="-117.329917" lat="33.979312"><ele>323.607476</ele><time>2025-02-25T03:00:20Z</time><extensions><speed>1.374489</speed><course>104.613617</course><hAcc>1.250642</hAcc><vAcc>0.805751</vAcc></extensions></trkpt>
      <trkpt lon="-117.329904" lat="33.979309"><ele>323.620762</ele><time>2025-02-25T03:00:21Z</time><extensions><speed>1.271374</speed><course>107.498765</course><hAcc>1.255064</hAcc><vAcc>0.798754</vAcc></extensions></trkpt>
      <trkpt lon="-117.329891" lat="33.979306"><ele>323.642971</ele><time>2025-02-25T03:00:22Z</time><extensions><speed>1.132936</speed><course>105.341412</course><hAcc>1.288735</hAcc><vAcc>0.792029</vAcc></extensions></trkpt>
      <trkpt lon="-117.329879" lat="33.979303"><ele>323.672855</ele><time>2025-02-25T03:00:23Z</time><extensions><speed>1.181325</speed><course>101.317562</course><hAcc>1.243671</hAcc><vAcc>0.785708</vAcc></extensions></trkpt>
      <trkpt lon="-117.329866" lat="33.979302"><ele>323.706618</ele><time>2025-02-25T03:00:24Z</time><extensions><speed>1.228598</speed><course>95.282043</course><hAcc>1.229129</hAcc><vAcc>0.779956</vAcc></extensions></trkpt>
      <trkpt lon="-117.329852" lat="33.979301"><ele>323.745611</ele><time>2025-02-25T03:00:25Z</time><extensions><speed>1.267130</speed><course>92.062311</course><hAcc>1.222219</hAcc><vAcc>0.774907</vAcc></extensions></trkpt>
      <trkpt lon="-117.329838" lat="33.979301"><ele>323.795188</ele><time>2025-02-25T03:00:26Z</time><extensions><speed>1.311776</speed><course>91.335962</course><hAcc>1.216556</hAcc><vAcc>0.770625</vAcc></extensions></trkpt>
      <trkpt lon="-117.329824" lat="33.979301"><ele>323.852152</ele><time>2025-02-25T03:00:27Z</time><extensions><speed>1.338145</speed><course>90.401626</course><hAcc>1.211381</hAcc><vAcc>0.767105</vAcc></extensions></trkpt>
      <trkpt lon="-117.329810" lat="33.979301"><ele>323.917713</ele><time>2025-02-25T03:00:28Z</time><extensions><speed>1.353489</speed><course>88.835991</course><hAcc>1.201656</hAcc><vAcc>0.764295</vAcc></extensions></trkpt>
      <trkpt lon="-117.329796" lat="33.979301"><ele>323.985015</ele><time>2025-02-25T03:00:29Z</time><extensions><speed>1.211897</speed><course>84.420572</course><hAcc>1.216341</hAcc><vAcc>0.762116</vAcc></extensions></trkpt>
      <trkpt lon="-117.329783" lat="33.979303"><ele>324.058095</ele><time>2025-02-25T03:00:30Z</time><extensions><speed>1.193061</speed><course>80.613140</course><hAcc>1.196412</hAcc><vAcc>0.760473</vAcc></extensions></trkpt>
      <trkpt lon="-117.329770" lat="33.979305"><ele>324.140028</ele><time>2025-02-25T03:00:31Z</time><extensions><speed>1.223918</speed><course>80.522068</course><hAcc>1.180110</hAcc><vAcc>0.759268</vAcc></extensions></trkpt>
      <trkpt lon="-117.329757" lat="33.979306"><ele>324.221901</ele><time>2025-02-25T03:00:32Z</time><extensions><speed>1.254916</speed><course>84.357619</course><hAcc>1.175894</hAcc><vAcc>0.758409</vAcc></extensions></trkpt>
      <trkpt lon="-117.329743" lat="33.979307"><ele>324.300115</ele><time>2025-02-25T03:00:33Z</time><extensions><speed>1.154506</speed><course>88.039945</course><hAcc>1.179279</hAcc><vAcc>0.757816</vAcc></extensions></trkpt>
      <trkpt lon="-117.329731" lat="33.979307"><ele>324.371345</ele><time>2025-02-25T03:00:34Z</time><extensions><speed>1.082199</speed><course>88.541044</course><hAcc>1.202702</hAcc><vAcc>0.757419</vAcc></extensions></trkpt>
      <trkpt lon="-117.329718" lat="33.979308"><ele>324.436734</ele><time>2025-02-25T03:00:35Z</time><extensions><speed>1.309909</speed><course>87.543344</course><hAcc>1.171628</hAcc><vAcc>0.757164</vAcc></extensions></trkpt>
      <trkpt lon="-117.329704" lat="33.979308"><ele>324.506239</ele><time>2025-02-25T03:00:36Z</time><extensions><speed>1.401433</speed><course>87.314607</course><hAcc>1.164153</hAcc><vAcc>0.757005</vAcc></extensions></trkpt>
      <trkpt lon="-117.329689" lat="33.979309"><ele>324.566300</ele><time>2025-02-25T03:00:37Z</time><extensions><speed>1.389018</speed><course>85.611856</course><hAcc>1.152854</hAcc><vAcc>0.756912</vAcc></extensions></trkpt>
      <trkpt lon="-117.329674" lat="33.979310"><ele>324.622656</ele><time>2025-02-25T03:00:38Z</time><extensions><speed>1.311957</speed><course>83.759869</course><hAcc>1.138687</hAcc><vAcc>0.756859</vAcc></extensions></trkpt>
      <trkpt lon="-117.329661" lat="33.979311"><ele>324.675409</ele><time>2025-02-25T03:00:39Z</time><extensions><speed>1.207705</speed><course>85.264382</course><hAcc>1.152089</hAcc><vAcc>0.756831</vAcc></extensions></trkpt>
      <trkpt lon="-117.329647" lat="33.979312"><ele>324.726531</ele><time>2025-02-25T03:00:40Z</time><extensions><speed>1.255339</speed><course>88.244582</course><hAcc>1.151626</hAcc><vAcc>0.756817</vAcc></extensions></trkpt>
      <trkpt lon="-117.329634" lat="33.979312"><ele>324.772689</ele><time>2025-02-25T03:00:41Z</time><extensions><speed>1.272669</speed><course>90.864734</course><hAcc>1.132047</hAcc><vAcc>0.756810</vAcc></extensions></trkpt>
      <trkpt lon="-117.329620" lat="33.979312"><ele>324.813780</ele><time>2025-02-25T03:00:42Z</time><extensions><speed>1.298689</speed><course>91.553871</course><hAcc>1.149972</hAcc><vAcc>0.756805</vAcc></extensions></trkpt>
      <trkpt lon="-117.329606" lat="33.979311"><ele>324.857833</ele><time>2025-02-25T03:00:43Z</time><extensions><speed>1.288879</speed><course>92.955057</course><hAcc>1.148584</hAcc><vAcc>0.756801</vAcc></extensions></trkpt>
      <trkpt lon="-117.329592" lat="33.979311"><ele>324.899459</ele><time>2025-02-25T03:00:44Z</time><extensions><speed>1.207010</speed><course>92.445139</course><hAcc>1.168132</hAcc><vAcc>0.756797</vAcc></extensions></trkpt>
      <trkpt lon="-117.329579" lat="33.979310"><ele>324.948071</ele><time>2025-02-25T03:00:45Z</time><extensions><speed>1.200982</speed><course>92.564937</course><hAcc>1.157128</hAcc><vAcc>0.756791</vAcc></extensions></trkpt>
      <trkpt lon="-117.329566" lat="33.979310"><ele>325.001965</ele><time>2025-02-25T03:00:46Z</time><extensions><speed>1.215884</speed><course>90.494851</course><hAcc>1.143734</hAcc><vAcc>0.756786</vAcc></extensions></trkpt>
      <trkpt lon="-117.329553" lat="33.979310"><ele>325.050670</ele><time>2025-02-25T03:00:47Z</time><extensions><speed>1.178731</speed><course>88.763686</course><hAcc>1.153982</hAcc><vAcc>0.756780</vAcc></extensions></trkpt>
      <trkpt lon="-117.329541" lat="33.979310"><ele>325.100475</ele><time>2025-02-25T03:00:48Z</time><extensions><speed>1.114536</speed><course>88.484699</course><hAcc>1.185596</hAcc><vAcc>0.756774</vAcc></extensions></trkpt>
      <trkpt lon="-117.329528" lat="33.979311"><ele>325.143120</ele><time>2025-02-25T03:00:49Z</time><extensions><speed>1.215890</speed><course>87.604047</course><hAcc>1.156110</hAcc><vAcc>0.756768</vAcc></extensions></trkpt>
      <trkpt lon="-117.329515" lat="33.979311"><ele>325.184117</ele><time>2025-02-25T03:00:50Z</time><extensions><speed>1.232887</speed><course>86.473850</course><hAcc>1.147871</hAcc><vAcc>0.756763</vAcc></extensions></trkpt>
      <trkpt lon="-117.329502" lat="33.979312"><ele>325.225655</ele><time>2025-02-25T03:00:51Z</time><extensions><speed>1.223789</speed><course>86.203693</course><hAcc>1.152223</hAcc><vAcc>0.756759</vAcc></extensions></trkpt>
      <trkpt lon="-117.329489" lat="33.979313"><ele>325.264509</ele><time>2025-02-25T03:00:52Z</time><extensions><speed>1.208803</speed><course>86.856103</course><hAcc>1.153780</hAcc><vAcc>0.756755</vAcc></extensions></trkpt>
      <trkpt lon="-117.329475" lat="33.979313"><ele>325.301388</ele><time>2025-02-25T03:00:53Z</time><extensions><speed>1.260288</speed><course>87.906534</course><hAcc>1.156773</hAcc><vAcc>0.756752</vAcc></extensions></trkpt>
      <trkpt lon="-117.329461" lat="33.979313"><ele>325.332221</ele><time>2025-02-25T03:00:54Z</time><extensions><speed>1.298967</speed><course>88.757354</course><hAcc>1.168146</hAcc><vAcc>0.756750</vAcc></extensions></trkpt>
      <trkpt lon="-117.329447" lat="33.979314"><ele>325.362031</ele><time>2025-02-25T03:00:55Z</time><extensions><speed>1.299553</speed><course>89.640805</course><hAcc>1.173546</hAcc><vAcc>0.756748</vAcc></extensions></trkpt>
      <trkpt lon="-117.329434" lat="33.979314"><ele>325.394908</ele><time>2025-02-25T03:00:56Z</time><extensions><speed>1.224123</speed><course>88.129704</course><hAcc>1.166611</hAcc><vAcc>0.756746</vAcc></extensions></trkpt>
      <trkpt lon="-117.329421" lat="33.979314"><ele>325.420491</ele><time>2025-02-25T03:00:57Z</time><extensions><speed>1.119170</speed><course>86.298323</course><hAcc>1.181618</hAcc><vAcc>0.756793</vAcc></extensions></trkpt>
      <trkpt lon="-117.329409" lat="33.979315"><ele>325.443407</ele><time>2025-02-25T03:00:58Z</time><extensions><speed>1.152622</speed><course>88.481084</course><hAcc>1.209313</hAcc><vAcc>0.756814</vAcc></extensions></trkpt>
      <trkpt lon="-117.329395" lat="33.979315"><ele>325.463787</ele><time>2025-02-25T03:00:59Z</time><extensions><speed>1.257272</speed><course>90.670930</course><hAcc>1.246912</hAcc><vAcc>0.756839</vAcc></extensions></trkpt>
      <trkpt lon="-117.329381" lat="33.979315"><ele>325.477354</ele><time>2025-02-25T03:01:00Z</time><extensions><speed>1.414246</speed><course>91.277912</course><hAcc>1.228590</hAcc><vAcc>0.756869</vAcc></extensions></trkpt>
      <trkpt lon="-117.329366" lat="33.979314"><ele>325.484359</ele><time>2025-02-25T03:01:01Z</time><extensions><speed>1.394485</speed><course>90.349199</course><hAcc>1.235086</hAcc><vAcc>0.756903</vAcc></extensions></trkpt>
      <trkpt lon="-117.329351" lat="33.979314"><ele>325.490176</ele><time>2025-02-25T03:01:02Z</time><extensions><speed>1.397561</speed><course>89.346103</course><hAcc>1.233831</hAcc><vAcc>0.756940</vAcc></extensions></trkpt>
      <trkpt lon="-117.329336" lat="33.979314"><ele>325.492210</ele><time>2025-02-25T03:01:03Z</time><extensions><speed>1.327125</speed><course>90.457024</course><hAcc>1.231959</hAcc><vAcc>0.756978</vAcc></extensions></trkpt>
      <trkpt lon="-117.329322" lat="33.979314"><ele>325.490252</ele><time>2025-02-25T03:01:04Z</time><extensions><speed>1.312209</speed><course>90.943460</course><hAcc>1.225253</hAcc><vAcc>0.757014</vAcc></extensions></trkpt>
      <trkpt lon="-117.329307" lat="33.979314"><ele>325.491807</ele><time>2025-02-25T03:01:05Z</time><extensions><speed>1.313665</speed><course>90.586803</course><hAcc>1.215757</hAcc><vAcc>0.757046</vAcc></extensions></trkpt>
      <trkpt lon="-117.329293" lat="33.979314"><ele>325.483584</ele><time>2025-02-25T03:01:06Z</time><extensions><speed>1.319438</speed><course>91.079152</course><hAcc>1.210119</hAcc><vAcc>0.757067</vAcc></extensions></trkpt>
      <trkpt lon="-117.329279" lat="33.979314"><ele>325.463175</ele><time>2025-02-25T03:01:07Z</time><extensions><speed>1.326204</speed><course>92.767490</course><hAcc>1.220873</hAcc><vAcc>0.757073</vAcc></extensions></trkpt>
      <trkpt lon="-117.329264" lat="33.979312"><ele>325.428482</ele><time>2025-02-25T03:01:08Z</time><extensions><speed>1.376506</speed><course>97.692352</course><hAcc>1.188398</hAcc><vAcc>0.757061</vAcc></extensions></trkpt>
      <trkpt lon="-117.329249" lat="33.979310"><ele>325.390539</ele><time>2025-02-25T03:01:09Z</time><extensions><speed>1.396526</speed><course>100.629420</course><hAcc>1.174970</hAcc><vAcc>0.757033</vAcc></extensions></trkpt>
      <trkpt lon="-117.329235" lat="33.979308"><ele>325.348980</ele><time>2025-02-25T03:01:10Z</time><extensions><speed>1.278808</speed><course>99.942868</course><hAcc>1.184827</hAcc><vAcc>0.756997</vAcc></extensions></trkpt>
      <trkpt lon="-117.329221" lat="33.979306"><ele>325.298911</ele><time>2025-02-25T03:01:11Z</time><extensions><speed>1.312729</speed><course>97.259678</course><hAcc>1.172384</hAcc><vAcc>0.756958</vAcc></extensions></trkpt>
      <trkpt lon="-117.329208" lat="33.979305"><ele>325.250786</ele><time>2025-02-25T03:01:12Z</time><extensions><speed>1.255304</speed><course>93.007706</course><hAcc>1.187165</hAcc><vAcc>0.756918</vAcc></extensions></trkpt>
      <trkpt lon="-117.329194" lat="33.979305"><ele>325.192038</ele><time>2025-02-25T03:01:13Z</time><extensions><speed>1.235635</speed><course>89.868966</course><hAcc>1.172344</hAcc><vAcc>0.756882</vAcc></extensions></trkpt>
      <trkpt lon="-117.329181" lat="33.979305"><ele>325.122468</ele><time>2025-02-25T03:01:14Z</time><extensions><speed>1.218838</speed><course>90.977996</course><hAcc>1.170243</hAcc><vAcc>0.756850</vAcc></extensions></trkpt>
      <trkpt lon="-117.329168" lat="33.979304"><ele>325.044858</ele><time>2025-02-25T03:01:15Z</time><extensions><speed>1.136751</speed><course>94.681586</course><hAcc>1.169649</hAcc><vAcc>0.756822</vAcc></extensions></trkpt>
      <trkpt lon="-117.329156" lat="33.979303"><ele>324.967847</ele><time>2025-02-25T03:01:16Z</time><extensions><speed>1.156183</speed><course>97.881198</course><hAcc>1.167825</hAcc><vAcc>0.756800</vAcc></extensions></trkpt>
      <trkpt lon="-117.329143" lat="33.979301"><ele>324.886301</ele><time>2025-02-25T03:01:17Z</time><extensions><speed>1.276128</speed><course>103.929147</course><hAcc>1.155169</hAcc><vAcc>0.756783</vAcc></extensions></trkpt>
      <trkpt lon="-117.329129" lat="33.979297"><ele>324.802216</ele><time>2025-02-25T03:01:18Z</time><extensions><speed>1.445939</speed><course>111.994750</course><hAcc>1.140008</hAcc><vAcc>0.756770</vAcc></extensions></trkpt>
      <trkpt lon="-117.329115" lat="33.979291"><ele>324.707268</ele><time>2025-02-25T03:01:19Z</time><extensions><speed>1.444390</speed><course>121.651004</course><hAcc>1.139011</hAcc><vAcc>0.756761</vAcc></extensions></trkpt>
      <trkpt lon="-117.329103" lat="33.979283"><ele>324.614904</ele><time>2025-02-25T03:01:20Z</time><extensions><speed>1.452774</speed><course>132.741219</course><hAcc>1.137580</hAcc><vAcc>0.756754</vAcc></extensions></trkpt>
      <trkpt lon="-117.329092" lat="33.979273"><ele>324.519503</ele><time>2025-02-25T03:01:21Z</time><extensions><speed>1.587067</speed><course>146.562301</course><hAcc>1.136251</hAcc><vAcc>0.756749</vAcc></extensions></trkpt>
      <trkpt lon="-117.329084" lat="33.979260"><ele>324.417379</ele><time>2025-02-25T03:01:22Z</time><extensions><speed>1.601477</speed><course>158.096725</course><hAcc>1.146451</hAcc><vAcc>0.756746</vAcc></extensions></trkpt>
      <trkpt lon="-117.329078" lat="33.979247"><ele>324.310469</ele><time>2025-02-25T03:01:23Z</time><extensions><speed>1.648694</speed><course>163.401782</course><hAcc>1.142379</hAcc><vAcc>0.756744</vAcc></extensions></trkpt>
      <trkpt lon="-117.329073" lat="33.979232"><ele>324.197218</ele><time>2025-02-25T03:01:24Z</time><extensions><speed>1.617004</speed><course>165.269893</course><hAcc>1.145709</hAcc><vAcc>0.756743</vAcc></extensions></trkpt>
      <trkpt lon="-117.329069" lat="33.979218"><ele>324.085435</ele><time>2025-02-25T03:01:25Z</time><extensions><speed>1.581681</speed><course>164.217561</course><hAcc>1.157433</hAcc><vAcc>0.756743</vAcc></extensions></trkpt>
      <trkpt lon="-117.329064" lat="33.979205"><ele>323.977172</ele><time>2025-02-25T03:01:26Z</time><extensions><speed>1.526889</speed><course>162.772898</course><hAcc>1.171307</hAcc><vAcc>0.756743</vAcc></extensions></trkpt>
      <trkpt lon="-117.329059" lat="33.979192"><ele>323.871577</ele><time>2025-02-25T03:01:27Z</time><extensions><speed>1.491887</speed><course>162.770048</course><hAcc>1.171325</hAcc><vAcc>0.756743</vAcc></extensions></trkpt>
      <trkpt lon="-117.329054" lat="33.979179"><ele>323.771258</ele><time>2025-02-25T03:01:28Z</time><extensions><speed>1.431235</speed><course>161.220658</course><hAcc>1.169599</hAcc><vAcc>0.756743</vAcc></extensions></trkpt>
      <trkpt lon="-117.329049" lat="33.979168"><ele>323.672603</ele><time>2025-02-25T03:01:29Z</time><extensions><speed>1.370878</speed><course>160.659391</course><hAcc>1.171847</hAcc><vAcc>0.756743</vAcc></extensions></trkpt>
      <trkpt lon="-117.329044" lat="33.979156"><ele>323.585236</ele><time>2025-02-25T03:01:30Z</time><extensions><speed>1.375276</speed><course>160.283208</course><hAcc>1.169055</hAcc><vAcc>0.756743</vAcc></extensions></trkpt>
      <trkpt lon="-117.329039" lat="33.979144"><ele>323.517642</ele><time>2025-02-25T03:01:31Z</time><extensions><speed>1.367246</speed><course>157.378120</course><hAcc>1.163406</hAcc><vAcc>0.756743</vAcc></extensions></trkpt>
      <trkpt lon="-117.329033" lat="33.979133"><ele>323.454234</ele><time>2025-02-25T03:01:32Z</time><extensions><speed>1.350131</speed><course>154.335163</course><hAcc>1.153274</hAcc><vAcc>0.756743</vAcc></extensions></trkpt>
      <trkpt lon="-117.329027" lat="33.979122"><ele>323.402068</ele><time>2025-02-25T03:01:33Z</time><extensions><speed>1.359956</speed><course>153.335140</course><hAcc>1.153591</hAcc><vAcc>0.756743</vAcc></extensions></trkpt>
      <trkpt lon="-117.329020" lat="33.979112"><ele>323.371245</ele><time>2025-02-25T03:01:34Z</time><extensions><speed>1.247576</speed><course>153.128571</course><hAcc>1.170098</hAcc><vAcc>0.756743</vAcc></extensions></trkpt>
      <trkpt lon="-117.329014" lat="33.979102"><ele>323.355383</ele><time>2025-02-25T03:01:35Z</time><extensions><speed>1.202247</speed><course>151.204667</course><hAcc>1.145532</hAcc><vAcc>0.756743</vAcc></extensions></trkpt>
      <trkpt lon="-117.329008" lat="33.979092"><ele>323.357995</ele><time>2025-02-25T03:01:36Z</time><extensions><speed>1.213361</speed><course>150.463641</course><hAcc>1.138619</hAcc><vAcc>0.756743</vAcc></extensions></trkpt>
      <trkpt lon="-117.329001" lat="33.979083"><ele>323.388625</ele><time>2025-02-25T03:01:37Z</time><extensions><speed>1.282167</speed><course>150.515568</course><hAcc>1.137867</hAcc><vAcc>0.756743</vAcc></extensions></trkpt>
      <trkpt lon="-117.328994" lat="33.979072"><ele>323.429578</ele><time>2025-02-25T03:01:38Z</time><extensions><speed>1.374429</speed><course>150.375106</course><hAcc>1.131901</hAcc><vAcc>0.756743</vAcc></extensions></trkpt>
      <trkpt lon="-117.328986" lat="33.979061"><ele>323.477418</ele><time>2025-02-25T03:01:39Z</time><extensions><speed>1.483701</speed><course>150.422139</course><hAcc>1.128298</hAcc><vAcc>0.756743</vAcc></extensions></trkpt>
      <trkpt lon="-117.328978" lat="33.979050"><ele>323.534757</ele><time>2025-02-25T03:01:40Z</time><extensions><speed>1.484897</speed><course>148.314368</course><hAcc>1.143035</hAcc><vAcc>0.756743</vAcc></extensions></trkpt>
      <trkpt lon="-117.328969" lat="33.979039"><ele>323.591561</ele><time>2025-02-25T03:01:41Z</time><extensions><speed>1.448786</speed><course>142.071040</course><hAcc>1.126326</hAcc><vAcc>0.756743</vAcc></extensions></trkpt>
      <trkpt lon="-117.328959" lat="33.979029"><ele>323.650665</ele><time>2025-02-25T03:01:42Z</time><extensions><speed>1.398090</speed><course>134.732280</course><hAcc>1.109588</hAcc><vAcc>0.756743</vAcc></extensions></trkpt>
      <trkpt lon="-117.328948" lat="33.979021"><ele>323.709568</ele><time>2025-02-25T03:01:43Z</time><extensions><speed>1.343281</speed><course>132.677650</course><hAcc>1.114487</hAcc><vAcc>0.756743</vAcc></extensions></trkpt>
      <trkpt lon="-117.328938" lat="33.979012"><ele>323.770924</ele><time>2025-02-25T03:01:44Z</time><extensions><speed>1.257153</speed><course>135.494805</course><hAcc>1.152461</hAcc><vAcc>0.756743</vAcc></extensions></trkpt>
      <trkpt lon="-117.328928" lat="33.979005"><ele>323.832952</ele><time>2025-02-25T03:01:45Z</time><extensions><speed>1.202552</speed><course>132.051309</course><hAcc>1.122884</hAcc><vAcc>0.756743</vAcc></extensions></trkpt>
      <trkpt lon="-117.328919" lat="33.978998"><ele>323.889932</ele><time>2025-02-25T03:01:46Z</time><extensions><speed>1.185486</speed><course>130.703143</course><hAcc>1.123054</hAcc><vAcc>0.756743</vAcc></extensions></trkpt>
      <trkpt lon="-117.328909" lat="33.978990"><ele>323.940873</ele><time>2025-02-25T03:01:47Z</time><extensions><speed>1.268932</speed><course>132.244941</course><hAcc>1.138577</hAcc><vAcc>0.756743</vAcc></extensions></trkpt>
      <trkpt lon="-117.328899" lat="33.978982"><ele>323.986163</ele><time>2025-02-25T03:01:48Z</time><extensions><speed>1.236876</speed><course>135.730660</course><hAcc>1.149346</hAcc><vAcc>0.756743</vAcc></extensions></trkpt>
      <trkpt lon="-117.328890" lat="33.978974"><ele>324.025675</ele><time>2025-02-25T03:01:49Z</time><extensions><speed>1.207312</speed><course>139.404034</course><hAcc>1.151252</hAcc><vAcc>0.756743</vAcc></extensions></trkpt>
      <trkpt lon="-117.328882" lat="33.978966"><ele>324.075549</ele><time>2025-02-25T03:01:50Z</time><extensions><speed>1.167759</speed><course>139.896828</course><hAcc>1.153634</hAcc><vAcc>0.756743</vAcc></extensions></trkpt>
      <trkpt lon="-117.328874" lat="33.978958"><ele>324.120779</ele><time>2025-02-25T03:01:51Z</time><extensions><speed>1.156701</speed><course>146.162092</course><hAcc>1.147158</hAcc><vAcc>0.756742</vAcc></extensions></trkpt>
      <trkpt lon="-117.328868" lat="33.978948"><ele>324.165086</ele><time>2025-02-25T03:01:52Z</time><extensions><speed>1.198986</speed><course>158.148842</course><hAcc>1.141387</hAcc><vAcc>0.756743</vAcc></extensions></trkpt>
      <trkpt lon="-117.328864" lat="33.978938"><ele>324.208065</ele><time>2025-02-25T03:01:53Z</time><extensions><speed>1.303845</speed><course>168.003387</course><hAcc>1.133019</hAcc><vAcc>0.756742</vAcc></extensions></trkpt>
      <trkpt lon="-117.328862" lat="33.978925"><ele>324.251381</ele><time>2025-02-25T03:01:54Z</time><extensions><speed>1.410052</speed><course>172.674838</course><hAcc>1.136424</hAcc><vAcc>0.756983</vAcc></extensions></trkpt>
      <trkpt lon="-117.328860" lat="33.978913"><ele>324.297266</ele><time>2025-02-25T03:01:55Z</time><extensions><speed>1.325507</speed><course>174.812516</course><hAcc>1.138423</hAcc><vAcc>0.757306</vAcc></extensions></trkpt>
      <trkpt lon="-117.328859" lat="33.978901"><ele>324.347936</ele><time>2025-02-25T03:01:56Z</time><extensions><speed>1.311001</speed><course>176.451024</course><hAcc>1.117139</hAcc><vAcc>0.757533</vAcc></extensions></trkpt>
      <trkpt lon="-117.328858" lat="33.978889"><ele>324.407024</ele><time>2025-02-25T03:01:57Z</time><extensions><speed>1.343203</speed><course>176.136313</course><hAcc>1.113892</hAcc><vAcc>0.757800</vAcc></extensions></trkpt>
      <trkpt lon="-117.328857" lat="33.978877"><ele>324.474066</ele><time>2025-02-25T03:01:58Z</time><extensions><speed>1.406379</speed><course>176.422998</course><hAcc>1.116860</hAcc><vAcc>0.758186</vAcc></extensions></trkpt>
      <trkpt lon="-117.328856" lat="33.978864"><ele>324.541473</ele><time>2025-02-25T03:01:59Z</time><extensions><speed>1.455367</speed><course>175.382171</course><hAcc>1.116756</hAcc><vAcc>0.758558</vAcc></extensions></trkpt>
      <trkpt lon="-117.328855" lat="33.978851"><ele>324.597825</ele><time>2025-02-25T03:02:00Z</time><extensions><speed>1.434819</speed><course>175.408196</course><hAcc>1.113185</hAcc><vAcc>0.759699</vAcc></extensions></trkpt>
      <trkpt lon="-117.328853" lat="33.978838"><ele>324.655540</ele><time>2025-02-25T03:02:01Z</time><extensions><speed>1.476280</speed><course>175.215922</course><hAcc>1.098595</hAcc><vAcc>0.760743</vAcc></extensions></trkpt>
      <trkpt lon="-117.328852" lat="33.978825"><ele>324.727356</ele><time>2025-02-25T03:02:02Z</time><extensions><speed>1.388481</speed><course>176.524472</course><hAcc>1.114824</hAcc><vAcc>0.762133</vAcc></extensions></trkpt>
      <trkpt lon="-117.328851" lat="33.978813"><ele>324.795382</ele><time>2025-02-25T03:02:03Z</time><extensions><speed>1.388041</speed><course>175.558150</course><hAcc>1.105520</hAcc><vAcc>0.763527</vAcc></extensions></trkpt>
      <trkpt lon="-117.328850" lat="33.978801"><ele>324.860964</ele><time>2025-02-25T03:02:04Z</time><extensions><speed>1.272882</speed><course>176.603787</course><hAcc>1.145004</hAcc><vAcc>0.765282</vAcc></extensions></trkpt>
      <trkpt lon="-117.328849" lat="33.978789"><ele>324.934563</ele><time>2025-02-25T03:02:05Z</time><extensions><speed>1.299971</speed><course>175.574614</course><hAcc>1.133670</hAcc><vAcc>0.767454</vAcc></extensions></trkpt>
      <trkpt lon="-117.328848" lat="33.978777"><ele>325.006398</ele><time>2025-02-25T03:02:06Z</time><extensions><speed>1.328369</speed><course>175.210828</course><hAcc>1.137802</hAcc><vAcc>0.769885</vAcc></extensions></trkpt>
      <trkpt lon="-117.328847" lat="33.978765"><ele>325.081096</ele><time>2025-02-25T03:02:07Z</time><extensions><speed>1.309099</speed><course>175.449311</course><hAcc>1.148752</hAcc><vAcc>0.772264</vAcc></extensions></trkpt>
      <trkpt lon="-117.328846" lat="33.978754"><ele>325.153813</ele><time>2025-02-25T03:02:08Z</time><extensions><speed>1.285561</speed><course>177.444820</course><hAcc>1.159653</hAcc><vAcc>0.774776</vAcc></extensions></trkpt>
      <trkpt lon="-117.328845" lat="33.978742"><ele>325.224951</ele><time>2025-02-25T03:02:09Z</time><extensions><speed>1.304582</speed><course>177.898028</course><hAcc>1.172029</hAcc><vAcc>0.777585</vAcc></extensions></trkpt>
      <trkpt lon="-117.328845" lat="33.978730"><ele>325.292539</ele><time>2025-02-25T03:02:10Z</time><extensions><speed>1.285201</speed><course>178.179932</course><hAcc>1.205645</hAcc><vAcc>0.780391</vAcc></extensions></trkpt>
      <trkpt lon="-117.328844" lat="33.978719"><ele>325.352300</ele><time>2025-02-25T03:02:11Z</time><extensions><speed>1.284041</speed><course>177.009652</course><hAcc>1.179659</hAcc><vAcc>0.783545</vAcc></extensions></trkpt>
      <trkpt lon="-117.328843" lat="33.978708"><ele>325.405412</ele><time>2025-02-25T03:02:12Z</time><extensions><speed>1.210262</speed><course>173.478323</course><hAcc>1.180182</hAcc><vAcc>0.786928</vAcc></extensions></trkpt>
      <trkpt lon="-117.328842" lat="33.978697"><ele>325.450947</ele><time>2025-02-25T03:02:13Z</time><extensions><speed>1.259477</speed><course>173.288311</course><hAcc>1.184550</hAcc><vAcc>0.790628</vAcc></extensions></trkpt>
      <trkpt lon="-117.328840" lat="33.978685"><ele>325.484428</ele><time>2025-02-25T03:02:14Z</time><extensions><speed>1.278620</speed><course>174.369297</course><hAcc>1.208115</hAcc><vAcc>0.794265</vAcc></extensions></trkpt>
      <trkpt lon="-117.328839" lat="33.978674"><ele>325.503069</ele><time>2025-02-25T03:02:15Z</time><extensions><speed>1.178896</speed><course>177.961016</course><hAcc>1.244671</hAcc><vAcc>0.797004</vAcc></extensions></trkpt>
      <trkpt lon="-117.328838" lat="33.978663"><ele>325.509632</ele><time>2025-02-25T03:02:16Z</time><extensions><speed>1.268548</speed><course>175.280413</course><hAcc>1.227830</hAcc><vAcc>0.799560</vAcc></extensions></trkpt>
      <trkpt lon="-117.328837" lat="33.978652"><ele>325.509552</ele><time>2025-02-25T03:02:17Z</time><extensions><speed>1.310637</speed><course>175.437627</course><hAcc>1.232166</hAcc><vAcc>0.802392</vAcc></extensions></trkpt>
      <trkpt lon="-117.328836" lat="33.978640"><ele>325.493260</ele><time>2025-02-25T03:02:18Z</time><extensions><speed>1.340316</speed><course>176.644061</course><hAcc>1.241712</hAcc><vAcc>0.805544</vAcc></extensions></trkpt>
      <trkpt lon="-117.328835" lat="33.978628"><ele>325.470100</ele><time>2025-02-25T03:02:19Z</time><extensions><speed>1.319411</speed><course>178.226193</course><hAcc>1.241657</hAcc><vAcc>0.809084</vAcc></extensions></trkpt>
      <trkpt lon="-117.328835" lat="33.978616"><ele>325.444359</ele><time>2025-02-25T03:02:20Z</time><extensions><speed>1.312357</speed><course>177.186811</course><hAcc>1.229089</hAcc><vAcc>0.812115</vAcc></extensions></trkpt>
      <trkpt lon="-117.328834" lat="33.978604"><ele>325.408560</ele><time>2025-02-25T03:02:21Z</time><extensions><speed>1.268567</speed><course>176.808775</course><hAcc>1.221395</hAcc><vAcc>0.814756</vAcc></extensions></trkpt>
      <trkpt lon="-117.328833" lat="33.978593"><ele>325.368952</ele><time>2025-02-25T03:02:22Z</time><extensions><speed>1.152375</speed><course>176.233699</course><hAcc>1.218752</hAcc><vAcc>0.817911</vAcc></extensions></trkpt>
      <trkpt lon="-117.328832" lat="33.978583"><ele>325.306238</ele><time>2025-02-25T03:02:23Z</time><extensions><speed>1.185912</speed><course>175.204601</course><hAcc>1.227183</hAcc><vAcc>0.819885</vAcc></extensions></trkpt>
      <trkpt lon="-117.328831" lat="33.978572"><ele>325.257724</ele><time>2025-02-25T03:02:24Z</time><extensions><speed>1.202728</speed><course>173.847560</course><hAcc>1.242215</hAcc><vAcc>0.822206</vAcc></extensions></trkpt>
      <trkpt lon="-117.328829" lat="33.978562"><ele>325.215091</ele><time>2025-02-25T03:02:25Z</time><extensions><speed>1.160207</speed><course>169.825933</course><hAcc>1.215620</hAcc><vAcc>0.825588</vAcc></extensions></trkpt>
      <trkpt lon="-117.328827" lat="33.978552"><ele>325.172004</ele><time>2025-02-25T03:02:26Z</time><extensions><speed>1.119995</speed><course>165.957283</course><hAcc>1.235980</hAcc><vAcc>0.829889</vAcc></extensions></trkpt>
      <trkpt lon="-117.328823" lat="33.978542"><ele>325.119250</ele><time>2025-02-25T03:02:27Z</time><extensions><speed>1.089477</speed><course>160.981652</course><hAcc>1.275444</hAcc><vAcc>0.834369</vAcc></extensions></trkpt>
      <trkpt lon="-117.328819" lat="33.978533"><ele>325.047575</ele><time>2025-02-25T03:02:28Z</time><extensions><speed>1.089217</speed><course>156.838695</course><hAcc>1.309207</hAcc><vAcc>0.839258</vAcc></extensions></trkpt>
      <trkpt lon="-117.328814" lat="33.978524"><ele>324.965075</ele><time>2025-02-25T03:02:29Z</time><extensions><speed>1.120734</speed><course>155.281281</course><hAcc>1.344377</hAcc><vAcc>0.845379</vAcc></extensions></trkpt>
      <trkpt lon="-117.328809" lat="33.978516"><ele>324.891710</ele><time>2025-02-25T03:02:30Z</time><extensions><speed>0.919501</speed><course>152.535306</course><hAcc>1.369880</hAcc><vAcc>0.852864</vAcc></extensions></trkpt>
      <trkpt lon="-117.328805" lat="33.978509"><ele>324.799683</ele><time>2025-02-25T03:02:31Z</time><extensions><speed>0.629955</speed><course>148.706248</course><hAcc>1.388109</hAcc><vAcc>0.861198</vAcc></extensions></trkpt>
      <trkpt lon="-117.328802" lat="33.978505"><ele>324.699111</ele><time>2025-02-25T03:02:32Z</time><extensions><speed>0.506279</speed><course>149.330629</course><hAcc>1.411516</hAcc><vAcc>0.871040</vAcc></extensions></trkpt>
      <trkpt lon="-117.328800" lat="33.978501"><ele>324.589416</ele><time>2025-02-25T03:02:33Z</time><extensions><speed>0.500274</speed><course>157.812788</course><hAcc>1.437542</hAcc><vAcc>0.882008</vAcc></extensions></trkpt>
      <trkpt lon="-117.328798" lat="33.978496"><ele>324.479897</ele><time>2025-02-25T03:02:34Z</time><extensions><speed>0.601521</speed><course>165.383612</course><hAcc>1.471094</hAcc><vAcc>0.893511</vAcc></extensions></trkpt>
      <trkpt lon="-117.328796" lat="33.978491"><ele>324.372996</ele><time>2025-02-25T03:02:35Z</time><extensions><speed>0.674871</speed><course>160.940640</course><hAcc>1.498522</hAcc><vAcc>0.905631</vAcc></extensions></trkpt>
      <trkpt lon="-117.328792" lat="33.978485"><ele>324.270135</ele><time>2025-02-25T03:02:36Z</time><extensions><speed>0.737476</speed><course>149.854924</course><hAcc>1.532333</hAcc><vAcc>0.918446</vAcc></extensions></trkpt>
      <trkpt lon="-117.328787" lat="33.978479"><ele>324.172012</ele><time>2025-02-25T03:02:37Z</time><extensions><speed>0.828159</speed><course>138.818309</course><hAcc>1.562162</hAcc><vAcc>0.931445</vAcc></extensions></trkpt>
      <trkpt lon="-117.328781" lat="33.978474"><ele>324.094304</ele><time>2025-02-25T03:02:38Z</time><extensions><speed>0.859511</speed><course>131.192022</course><hAcc>1.574061</hAcc><vAcc>0.944765</vAcc></extensions></trkpt>
      <trkpt lon="-117.328774" lat="33.978469"><ele>324.040998</ele><time>2025-02-25T03:02:39Z</time><extensions><speed>0.778667</speed><course>129.849663</course><hAcc>1.601803</hAcc><vAcc>0.958005</vAcc></extensions></trkpt>
      <trkpt lon="-117.328768" lat="33.978464"><ele>324.003697</ele><time>2025-02-25T03:02:40Z</time><extensions><speed>0.818363</speed><course>135.526966</course><hAcc>1.639165</hAcc><vAcc>0.971046</vAcc></extensions></trkpt>
      <trkpt lon="-117.328762" lat="33.978459"><ele>323.973672</ele><time>2025-02-25T03:02:41Z</time><extensions><speed>0.840098</speed><course>142.175655</course><hAcc>1.683811</hAcc><vAcc>0.984019</vAcc></extensions></trkpt>
      <trkpt lon="-117.328756" lat="33.978452"><ele>323.967700</ele><time>2025-02-25T03:02:42Z</time><extensions><speed>0.871576</speed><course>147.100598</course><hAcc>1.719900</hAcc><vAcc>0.997289</vAcc></extensions></trkpt>
      <trkpt lon="-117.328751" lat="33.978446"><ele>323.969823</ele><time>2025-02-25T03:02:43Z</time><extensions><speed>0.848416</speed><course>148.847269</course><hAcc>1.754042</hAcc><vAcc>1.010388</vAcc></extensions></trkpt>
      <trkpt lon="-117.328746" lat="33.978440"><ele>323.986883</ele><time>2025-02-25T03:02:44Z</time><extensions><speed>0.794385</speed><course>144.803149</course><hAcc>1.793394</hAcc><vAcc>1.022808</vAcc></extensions></trkpt>
      <trkpt lon="-117.328741" lat="33.978434"><ele>324.026139</ele><time>2025-02-25T03:02:45Z</time><extensions><speed>0.784090</speed><course>140.532057</course><hAcc>1.843135</hAcc><vAcc>1.033556</vAcc></extensions></trkpt>
      <trkpt lon="-117.328735" lat="33.978429"><ele>324.088407</ele><time>2025-02-25T03:02:46Z</time><extensions><speed>0.743891</speed><course>131.468020</course><hAcc>1.891299</hAcc><vAcc>1.044080</vAcc></extensions></trkpt>
      <trkpt lon="-117.328728" lat="33.978425"><ele>324.180122</ele><time>2025-02-25T03:02:47Z</time><extensions><speed>0.724238</speed><course>120.806644</course><hAcc>1.928259</hAcc><vAcc>1.054330</vAcc></extensions></trkpt>
      <trkpt lon="-117.328721" lat="33.978422"><ele>324.290108</ele><time>2025-02-25T03:02:48Z</time><extensions><speed>0.773933</speed><course>116.610133</course><hAcc>1.967509</hAcc><vAcc>1.063547</vAcc></extensions></trkpt>
      <trkpt lon="-117.328713" lat="33.978419"><ele>324.418776</ele><time>2025-02-25T03:02:49Z</time><extensions><speed>0.818489</speed><course>116.902836</course><hAcc>2.014269</hAcc><vAcc>1.072510</vAcc></extensions></trkpt>
      <trkpt lon="-117.328705" lat="33.978415"><ele>324.546736</ele><time>2025-02-25T03:02:50Z</time><extensions><speed>0.843111</speed><course>118.179618</course><hAcc>2.058150</hAcc><vAcc>1.079573</vAcc></extensions></trkpt>
      <trkpt lon="-117.328697" lat="33.978412"><ele>324.689010</ele><time>2025-02-25T03:02:51Z</time><extensions><speed>0.835401</speed><course>119.399970</course><hAcc>2.093366</hAcc><vAcc>1.085127</vAcc></extensions></trkpt>
      <trkpt lon="-117.328690" lat="33.978408"><ele>324.853464</ele><time>2025-02-25T03:02:52Z</time><extensions><speed>0.793061</speed><course>120.304669</course><hAcc>2.118563</hAcc><vAcc>1.088976</vAcc></extensions></trkpt>
      <trkpt lon="-117.328682" lat="33.978404"><ele>325.023137</ele><time>2025-02-25T03:02:53Z</time><extensions><speed>0.733869</speed><course>120.904786</course><hAcc>2.132353</hAcc><vAcc>1.092897</vAcc></extensions></trkpt>
      <trkpt lon="-117.328676" lat="33.978401"><ele>325.193066</ele><time>2025-02-25T03:02:54Z</time><extensions><speed>0.672021</speed><course>121.449013</course><hAcc>2.136590</hAcc><vAcc>1.096041</vAcc></extensions></trkpt>
      <trkpt lon="-117.328670" lat="33.978398"><ele>325.352268</ele><time>2025-02-25T03:02:55Z</time><extensions><speed>0.585804</speed><course>120.613097</course><hAcc>2.136482</hAcc><vAcc>1.098427</vAcc></extensions></trkpt>
      <trkpt lon="-117.328665" lat="33.978395"><ele>325.509582</ele><time>2025-02-25T03:02:56Z</time><extensions><speed>0.566219</speed><course>123.845037</course><hAcc>2.130745</hAcc><vAcc>1.100658</vAcc></extensions></trkpt>
      <trkpt lon="-117.328660" lat="33.978392"><ele>325.654547</ele><time>2025-02-25T03:02:57Z</time><extensions><speed>0.531195</speed><course>126.566477</course><hAcc>2.127459</hAcc><vAcc>1.102712</vAcc></extensions></trkpt>
      <trkpt lon="-117.328655" lat="33.978390"><ele>325.793804</ele><time>2025-02-25T03:02:58Z</time><extensions><speed>0.471078</speed><course>129.070098</course><hAcc>2.130583</hAcc><vAcc>1.104487</vAcc></extensions></trkpt>
      <trkpt lon="-117.328652" lat="33.978387"><ele>325.916615</ele><time>2025-02-25T03:02:59Z</time><extensions><speed>0.405908</speed><course>132.331067</course><hAcc>2.139746</hAcc><vAcc>1.105348</vAcc></extensions></trkpt>
      <trkpt lon="-117.328649" lat="33.978384"><ele>326.015127</ele><time>2025-02-25T03:03:00Z</time><extensions><speed>0.343888</speed><course>136.790913</course><hAcc>2.151218</hAcc><vAcc>1.104341</vAcc></extensions></trkpt>
      <trkpt lon="-117.328647" lat="33.978382"><ele>326.087999</ele><time>2025-02-25T03:03:01Z</time><extensions><speed>0.342655</speed><course>144.353131</course><hAcc>2.154001</hAcc><vAcc>1.102921</vAcc></extensions></trkpt>
      <trkpt lon="-117.328645" lat="33.978379"><ele>326.146960</ele><time>2025-02-25T03:03:02Z</time><extensions><speed>0.376286</speed><course>151.174012</course><hAcc>2.155979</hAcc><vAcc>1.103012</vAcc></extensions></trkpt>
      <trkpt lon="-117.328643" lat="33.978376"><ele>326.191851</ele><time>2025-02-25T03:03:03Z</time><extensions><speed>0.321784</speed><course>154.446125</course><hAcc>2.168514</hAcc><vAcc>1.102353</vAcc></extensions></trkpt>
      <trkpt lon="-117.328642" lat="33.978373"><ele>326.224452</ele><time>2025-02-25T03:03:04Z</time><extensions><speed>0.295530</speed><course>158.389031</course><hAcc>2.183647</hAcc><vAcc>1.101521</vAcc></extensions></trkpt>
      <trkpt lon="-117.328640" lat="33.978370"><ele>326.244830</ele><time>2025-02-25T03:03:05Z</time><extensions><speed>0.332344</speed><course>161.977252</course><hAcc>2.189891</hAcc><vAcc>1.100336</vAcc></extensions></trkpt>
      <trkpt lon="-117.328639" lat="33.978367"><ele>326.240889</ele><time>2025-02-25T03:03:06Z</time><extensions><speed>0.327965</speed><course>164.600433</course><hAcc>2.190646</hAcc><vAcc>1.099054</vAcc></extensions></trkpt>
      <trkpt lon="-117.328638" lat="33.978364"><ele>326.234410</ele><time>2025-02-25T03:03:07Z</time><extensions><speed>0.383487</speed><course>166.668448</course><hAcc>2.180983</hAcc><vAcc>1.097199</vAcc></extensions></trkpt>
      <trkpt lon="-117.328637" lat="33.978361"><ele>326.228222</ele><time>2025-02-25T03:03:08Z</time><extensions><speed>0.379065</speed><course>169.003595</course><hAcc>2.172310</hAcc><vAcc>1.094346</vAcc></extensions></trkpt>
      <trkpt lon="-117.328636" lat="33.978357"><ele>326.216483</ele><time>2025-02-25T03:03:09Z</time><extensions><speed>0.421783</speed><course>169.490560</course><hAcc>2.159808</hAcc><vAcc>1.091945</vAcc></extensions></trkpt>
      <trkpt lon="-117.328635" lat="33.978354"><ele>326.201877</ele><time>2025-02-25T03:03:10Z</time><extensions><speed>0.422375</speed><course>168.518156</course><hAcc>2.151710</hAcc><vAcc>1.092374</vAcc></extensions></trkpt>
      <trkpt lon="-117.328634" lat="33.978350"><ele>326.182634</ele><time>2025-02-25T03:03:11Z</time><extensions><speed>0.369241</speed><course>165.975074</course><hAcc>2.159447</hAcc><vAcc>1.093170</vAcc></extensions></trkpt>
      <trkpt lon="-117.328633" lat="33.978347"><ele>326.160317</ele><time>2025-02-25T03:03:12Z</time><extensions><speed>0.233254</speed><course>159.969574</course><hAcc>2.178065</hAcc><vAcc>1.094013</vAcc></extensions></trkpt>
      <trkpt lon="-117.328632" lat="33.978346"><ele>326.136307</ele><time>2025-02-25T03:03:13Z</time><extensions><speed>0.227089</speed><course>148.544604</course><hAcc>2.155683</hAcc><vAcc>1.095110</vAcc></extensions></trkpt>
      <trkpt lon="-117.328630" lat="33.978344"><ele>326.111780</ele><time>2025-02-25T03:03:14Z</time><extensions><speed>0.238868</speed><course>136.779030</course><hAcc>2.139585</hAcc><vAcc>1.096451</vAcc></extensions></trkpt>
      <trkpt lon="-117.328628" lat="33.978343"><ele>326.091233</ele><time>2025-02-25T03:03:15Z</time><extensions><speed>0.269894</speed><course>126.462988</course><hAcc>2.138426</hAcc><vAcc>1.098907</vAcc></extensions></trkpt>
      <trkpt lon="-117.328625" lat="33.978341"><ele>326.071828</ele><time>2025-02-25T03:03:16Z</time><extensions><speed>0.308494</speed><course>120.665503</course><hAcc>2.141869</hAcc><vAcc>1.102807</vAcc></extensions></trkpt>
      <trkpt lon="-117.328622" lat="33.978340"><ele>326.056757</ele><time>2025-02-25T03:03:17Z</time><extensions><speed>0.354683</speed><course>119.934331</course><hAcc>2.143728</hAcc><vAcc>1.108035</vAcc></extensions></trkpt>
      <trkpt lon="-117.328618" lat="33.978338"><ele>326.052845</ele><time>2025-02-25T03:03:18Z</time><extensions><speed>0.328087</speed><course>113.658934</course><hAcc>2.150275</hAcc><vAcc>1.114175</vAcc></extensions></trkpt>
      <trkpt lon="-117.328615" lat="33.978338"><ele>326.068615</ele><time>2025-02-25T03:03:19Z</time><extensions><speed>0.252004</speed><course>100.100293</course><hAcc>2.164617</hAcc><vAcc>1.118620</vAcc></extensions></trkpt>
      <trkpt lon="-117.328613" lat="33.978337"><ele>326.067694</ele><time>2025-02-25T03:03:20Z</time><extensions><speed>0.203573</speed><course>90.009642</course><hAcc>2.182363</hAcc><vAcc>1.119995</vAcc></extensions></trkpt>
      <trkpt lon="-117.328611" lat="33.978338"><ele>326.051082</ele><time>2025-02-25T03:03:21Z</time><extensions><speed>0.145484</speed><course>81.233333</course><hAcc>2.212820</hAcc><vAcc>1.123669</vAcc></extensions></trkpt>
      <trkpt lon="-117.328610" lat="33.978338"><ele>326.031623</ele><time>2025-02-25T03:03:22Z</time><extensions><speed>0.134458</speed><course>73.467465</course><hAcc>2.214972</hAcc><vAcc>1.130290</vAcc></extensions></trkpt>
      <trkpt lon="-117.328608" lat="33.978339"><ele>325.994587</ele><time>2025-02-25T03:03:23Z</time><extensions><speed>0.161749</speed><course>68.588666</course><hAcc>2.192116</hAcc><vAcc>1.136960</vAcc></extensions></trkpt>
      <trkpt lon="-117.328607" lat="33.978339"><ele>325.948318</ele><time>2025-02-25T03:03:24Z</time><extensions><speed>0.170158</speed><course>68.027449</course><hAcc>2.189959</hAcc><vAcc>1.141388</vAcc></extensions></trkpt>
      <trkpt lon="-117.328605" lat="33.978340"><ele>325.894091</ele><time>2025-02-25T03:03:25Z</time><extensions><speed>0.161188</speed><course>76.225530</course><hAcc>2.206268</hAcc><vAcc>1.141707</vAcc></extensions></trkpt>
      <trkpt lon="-117.328604" lat="33.978341"><ele>325.829233</ele><time>2025-02-25T03:03:26Z</time><extensions><speed>0.134080</speed><course>78.665152</course><hAcc>2.226621</hAcc><vAcc>1.140185</vAcc></extensions></trkpt>
      <trkpt lon="-117.328603" lat="33.978341"><ele>325.759308</ele><time>2025-02-25T03:03:27Z</time><extensions><speed>0.131400</speed><course>108.755514</course><hAcc>2.234767</hAcc><vAcc>1.137410</vAcc></extensions></trkpt>
      <trkpt lon="-117.328602" lat="33.978340"><ele>325.677097</ele><time>2025-02-25T03:03:28Z</time><extensions><speed>0.132481</speed><course>118.781380</course><hAcc>2.232156</hAcc><vAcc>1.131187</vAcc></extensions></trkpt>
      <trkpt lon="-117.328601" lat="33.978340"><ele>325.582276</ele><time>2025-02-25T03:03:29Z</time><extensions><speed>0.138668</speed><course>105.896176</course><hAcc>2.220783</hAcc><vAcc>1.122396</vAcc></extensions></trkpt>
      <trkpt lon="-117.328600" lat="33.978340"><ele>325.469427</ele><time>2025-02-25T03:03:30Z</time><extensions><speed>0.213853</speed><course>86.674178</course><hAcc>2.206484</hAcc><vAcc>1.110862</vAcc></extensions></trkpt>
      <trkpt lon="-117.328597" lat="33.978341"><ele>325.323549</ele><time>2025-02-25T03:03:31Z</time><extensions><speed>0.393604</speed><course>74.450846</course><hAcc>2.198043</hAcc><vAcc>1.094124</vAcc></extensions></trkpt>
      <trkpt lon="-117.328593" lat="33.978342"><ele>325.168533</ele><time>2025-02-25T03:03:32Z</time><extensions><speed>0.425833</speed><course>65.981066</course><hAcc>2.185612</hAcc><vAcc>1.074460</vAcc></extensions></trkpt>
      <trkpt lon="-117.328589" lat="33.978344"><ele>325.004815</ele><time>2025-02-25T03:03:33Z</time><extensions><speed>0.420849</speed><course>59.188316</course><hAcc>2.162471</hAcc><vAcc>1.054620</vAcc></extensions></trkpt>
      <trkpt lon="-117.328586" lat="33.978346"><ele>324.842057</ele><time>2025-02-25T03:03:34Z</time><extensions><speed>0.430581</speed><course>62.691417</course><hAcc>2.157258</hAcc><vAcc>1.033782</vAcc></extensions></trkpt>
      <trkpt lon="-117.328582" lat="33.978348"><ele>324.663198</ele><time>2025-02-25T03:03:35Z</time><extensions><speed>0.468227</speed><course>71.511119</course><hAcc>2.162827</hAcc><vAcc>1.011634</vAcc></extensions></trkpt>
      <trkpt lon="-117.328578" lat="33.978349"><ele>324.475367</ele><time>2025-02-25T03:03:36Z</time><extensions><speed>0.177443</speed><course>66.336609</course><hAcc>2.166304</hAcc><vAcc>0.988185</vAcc></extensions></trkpt>
      <trkpt lon="-117.328578" lat="33.978349"><ele>324.289865</ele><time>2025-02-25T03:03:37Z</time><extensions><speed>0.110460</speed><course>242.639984</course><hAcc>2.181869</hAcc><vAcc>0.963658</vAcc></extensions></trkpt>
      <trkpt lon="-117.328580" lat="33.978349"><ele>324.105515</ele><time>2025-02-25T03:03:38Z</time><extensions><speed>0.296220</speed><course>267.949191</course><hAcc>2.162907</hAcc><vAcc>0.938448</vAcc></extensions></trkpt>
      <trkpt lon="-117.328584" lat="33.978349"><ele>323.931980</ele><time>2025-02-25T03:03:39Z</time><extensions><speed>0.405145</speed><course>272.211648</course><hAcc>2.152440</hAcc><vAcc>0.913103</vAcc></extensions></trkpt>
      <trkpt lon="-117.328589" lat="33.978349"><ele>323.758928</ele><time>2025-02-25T03:03:40Z</time><extensions><speed>0.423847</speed><course>274.793124</course><hAcc>2.167389</hAcc><vAcc>0.888286</vAcc></extensions></trkpt>
      <trkpt lon="-117.328593" lat="33.978350"><ele>323.590608</ele><time>2025-02-25T03:03:41Z</time><extensions><speed>0.381524</speed><course>276.155086</course><hAcc>2.189648</hAcc><vAcc>0.864736</vAcc></extensions></trkpt>
      <trkpt lon="-117.328597" lat="33.978350"><ele>323.437237</ele><time>2025-02-25T03:03:42Z</time><extensions><speed>0.317571</speed><course>269.719194</course><hAcc>2.206003</hAcc><vAcc>0.843175</vAcc></extensions></trkpt>
      <trkpt lon="-117.328600" lat="33.978350"><ele>323.292513</ele><time>2025-02-25T03:03:43Z</time><extensions><speed>0.259416</speed><course>263.283219</course><hAcc>2.227479</hAcc><vAcc>0.824168</vAcc></extensions></trkpt>
      <trkpt lon="-117.328602" lat="33.978349"><ele>323.155809</ele><time>2025-02-25T03:03:44Z</time><extensions><speed>0.175204</speed><course>259.898179</course><hAcc>2.240466</hAcc><vAcc>0.808007</vAcc></extensions></trkpt>
      <trkpt lon="-117.328603" lat="33.978349"><ele>323.037345</ele><time>2025-02-25T03:03:45Z</time><extensions><speed>0.053730</speed><course>230.734378</course><hAcc>2.250855</hAcc><vAcc>0.794725</vAcc></extensions></trkpt>
      <trkpt lon="-117.328603" lat="33.978349"><ele>322.929697</ele><time>2025-02-25T03:03:46Z</time><extensions><speed>0.125576</speed><course>110.055469</course><hAcc>2.263333</hAcc><vAcc>0.784156</vAcc></extensions></trkpt>
      <trkpt lon="-117.328601" lat="33.978348"><ele>322.835866</ele><time>2025-02-25T03:03:47Z</time><extensions><speed>0.283465</speed><course>102.320866</course><hAcc>2.283125</hAcc><vAcc>0.776005</vAcc></extensions></trkpt>
      <trkpt lon="-117.328597" lat="33.978348"><ele>322.745995</ele><time>2025-02-25T03:03:48Z</time><extensions><speed>0.432633</speed><course>101.259236</course><hAcc>2.306655</hAcc><vAcc>0.769909</vAcc></extensions></trkpt>
      <trkpt lon="-117.328592" lat="33.978347"><ele>322.676903</ele><time>2025-02-25T03:03:49Z</time><extensions><speed>0.475554</speed><course>102.164356</course><hAcc>2.345707</hAcc><vAcc>0.765491</vAcc></extensions></trkpt>
      <trkpt lon="-117.328588" lat="33.978346"><ele>322.616904</ele><time>2025-02-25T03:03:50Z</time><extensions><speed>0.392083</speed><course>105.635931</course><hAcc>2.392997</hAcc><vAcc>0.762390</vAcc></extensions></trkpt>
      <trkpt lon="-117.328585" lat="33.978345"><ele>322.566351</ele><time>2025-02-25T03:03:51Z</time><extensions><speed>0.215202</speed><course>129.089268</course><hAcc>2.445130</hAcc><vAcc>0.760286</vAcc></extensions></trkpt>
      <trkpt lon="-117.328583" lat="33.978343"><ele>322.521979</ele><time>2025-02-25T03:03:52Z</time><extensions><speed>0.293697</speed><course>158.846756</course><hAcc>2.488733</hAcc><vAcc>0.758912</vAcc></extensions></trkpt>
      <trkpt lon="-117.328582" lat="33.978340"><ele>322.487976</ele><time>2025-02-25T03:03:53Z</time><extensions><speed>0.465975</speed><course>166.409926</course><hAcc>2.543807</hAcc><vAcc>0.758052</vAcc></extensions></trkpt>
      <trkpt lon="-117.328581" lat="33.978335"><ele>322.462812</ele><time>2025-02-25T03:03:54Z</time><extensions><speed>0.687844</speed><course>163.051586</course><hAcc>2.620720</hAcc><vAcc>0.757540</vAcc></extensions></trkpt>
      <trkpt lon="-117.328578" lat="33.978328"><ele>322.439785</ele><time>2025-02-25T03:03:55Z</time><extensions><speed>0.830566</speed><course>160.772269</course><hAcc>2.720697</hAcc><vAcc>0.757254</vAcc></extensions></trkpt>
      <trkpt lon="-117.328574" lat="33.978320"><ele>322.421773</ele><time>2025-02-25T03:03:56Z</time><extensions><speed>0.987516</speed><course>157.878487</course><hAcc>2.828380</hAcc><vAcc>0.757105</vAcc></extensions></trkpt>
      <trkpt lon="-117.328570" lat="33.978312"><ele>322.410867</ele><time>2025-02-25T03:03:57Z</time><extensions><speed>0.993575</speed><course>153.705148</course><hAcc>2.960482</hAcc><vAcc>0.757035</vAcc></extensions></trkpt>
      <trkpt lon="-117.328566" lat="33.978305"><ele>322.370518</ele><time>2025-02-25T03:03:58Z</time><extensions><speed>0.893764</speed><course>147.924753</course><hAcc>3.124680</hAcc><vAcc>0.757004</vAcc></extensions></trkpt>
      <trkpt lon="-117.328563" lat="33.978300"><ele>322.348003</ele><time>2025-02-25T03:03:59Z</time><extensions><speed>0.667178</speed><course>141.069139</course><hAcc>3.325341</hAcc><vAcc>0.756991</vAcc></extensions></trkpt>
      <trkpt lon="-117.328561" lat="33.978297"><ele>322.329108</ele><time>2025-02-25T03:04:00Z</time><extensions><speed>0.366708</speed><course>135.111794</course><hAcc>3.565350</hAcc><vAcc>0.756981</vAcc></extensions></trkpt>
      <trkpt lon="-117.328561" lat="33.978296"><ele>322.313857</ele><time>2025-02-25T03:04:01Z</time><extensions><speed>0.062345</speed><course>176.062882</course><hAcc>3.847735</hAcc><vAcc>0.757044</vAcc></extensions></trkpt>
      <trkpt lon="-117.328565" lat="33.978296"><ele>322.297879</ele><time>2025-02-25T03:04:02Z</time><extensions><speed>0.340549</speed><course>287.526035</course><hAcc>4.180570</hAcc><vAcc>0.757114</vAcc></extensions></trkpt>
      <trkpt lon="-117.328572" lat="33.978298"><ele>322.288040</ele><time>2025-02-25T03:04:03Z</time><extensions><speed>0.734223</speed><course>289.805808</course><hAcc>4.557976</hAcc><vAcc>0.757195</vAcc></extensions></trkpt>
      <trkpt lon="-117.328583" lat="33.978301"><ele>322.272714</ele><time>2025-02-25T03:04:04Z</time><extensions><speed>1.085832</speed><course>290.142970</course><hAcc>4.970684</hAcc><vAcc>0.757287</vAcc></extensions></trkpt>
      <trkpt lon="-117.328596" lat="33.978305"><ele>322.258292</ele><time>2025-02-25T03:04:05Z</time><extensions><speed>1.311861</speed><course>290.613078</course><hAcc>5.436932</hAcc><vAcc>0.762420</vAcc></extensions></trkpt>
      <trkpt lon="-117.328610" lat="33.978310"><ele>322.243895</ele><time>2025-02-25T03:04:06Z</time><extensions><speed>1.440194</speed><course>291.283910</course><hAcc>5.941992</hAcc><vAcc>0.771184</vAcc></extensions></trkpt>
      <trkpt lon="-117.328624" lat="33.978315"><ele>322.229832</ele><time>2025-02-25T03:04:07Z</time><extensions><speed>1.452736</speed><course>292.372343</course><hAcc>6.477063</hAcc><vAcc>0.785718</vAcc></extensions></trkpt>
      <trkpt lon="-117.328638" lat="33.978320"><ele>322.216664</ele><time>2025-02-25T03:04:08Z</time><extensions><speed>1.364950</speed><course>294.154379</course><hAcc>7.022726</hAcc><vAcc>0.808858</vAcc></extensions></trkpt>
      <trkpt lon="-117.328651" lat="33.978324"><ele>322.204918</ele><time>2025-02-25T03:04:09Z</time><extensions><speed>1.167397</speed><course>294.531757</course><hAcc>7.548333</hAcc><vAcc>0.844064</vAcc></extensions></trkpt>
      <trkpt lon="-117.328661" lat="33.978328"><ele>322.194613</ele><time>2025-02-25T03:04:10Z</time><extensions><speed>1.019450</speed><course>293.666102</course><hAcc>8.051402</hAcc><vAcc>0.895153</vAcc></extensions></trkpt>
      <trkpt lon="-117.328672" lat="33.978332"><ele>322.184961</ele><time>2025-02-25T03:04:11Z</time><extensions><speed>0.928867</speed><course>293.191606</course><hAcc>8.626432</hAcc><vAcc>0.969871</vAcc></extensions></trkpt>
      <trkpt lon="-117.328680" lat="33.978335"><ele>322.176552</ele><time>2025-02-25T03:04:12Z</time><extensions><speed>0.882450</speed><course>293.183703</course><hAcc>9.308323</hAcc><vAcc>1.064052</vAcc></extensions></trkpt>
      <trkpt lon="-117.328689" lat="33.978338"><ele>322.168477</ele><time>2025-02-25T03:04:13Z</time><extensions><speed>0.846963</speed><course>293.440826</course><hAcc>10.220135</hAcc><vAcc>1.183807</vAcc></extensions></trkpt>
      <trkpt lon="-117.328697" lat="33.978341"><ele>322.160528</ele><time>2025-02-25T03:04:14Z</time><extensions><speed>0.826657</speed><course>293.667339</course><hAcc>11.439181</hAcc><vAcc>1.329875</vAcc></extensions></trkpt>
    </trkseg>
  </trk>
</gpx>