<?xml version="1.0" encoding="UTF-8"?>
<gpx version="1.1" creator="Apple Health Export" xmlns="http://www.topografix.com/GPX/1/1" xmlns:xsi="http://www.w3.org/2001/XMLSchema-instance" xsi:schemaLocation="http://www.topografix.com/GPX/1/1 http://www.topografix.com/GPX/1/1/gpx.xsd">
  <metadata>
    <time>2026-01-11T07:58:11Z</time>
  </metadata>
  <trk>
    <name>Route 2025-04-21 8:11pm</name>
    <trkseg>
      <trkpt lon="-117.331659" lat="33.979441"><ele>318.209426</ele><time>2025-04-22T03:07:52Z</time><extensions><speed>0.258688</speed><course>267.896345</course><hAcc>4.000140</hAcc><vAcc>1.632966</vAcc></extensions></trkpt>
      <trkpt lon="-117.331664" lat="33.979440"><ele>318.186501</ele><time>2025-04-22T03:07:53Z</time><extensions><speed>0.562679</speed><course>268.392593</course><hAcc>3.541938</hAcc><vAcc>1.412894</vAcc></extensions></trkpt>
      <trkpt lon="-117.331674" lat="33.979439"><ele>318.158370</ele><time>2025-04-22T03:07:54Z</time><extensions><speed>1.288215</speed><course>269.161174</course><hAcc>3.225738</hAcc><vAcc>1.236220</vAcc></extensions></trkpt>
      <trkpt lon="-117.331690" lat="33.979438"><ele>318.124408</ele><time>2025-04-22T03:07:55Z</time><extensions><speed>1.423314</speed><course>269.156920</course><hAcc>2.993269</hAcc><vAcc>1.097587</vAcc></extensions></trkpt>
      <trkpt lon="-117.331704" lat="33.979438"><ele>318.090214</ele><time>2025-04-22T03:07:55Z</time><extensions><speed>1.403683</speed><course>265.273735</course><hAcc>2.794070</hAcc><vAcc>0.998682</vAcc></extensions></trkpt>
      <trkpt lon="-117.331719" lat="33.979436"><ele>318.050366</ele><time>2025-04-22T03:07:56Z</time><extensions><speed>1.293363</speed><course>263.572943</course><hAcc>2.619086</hAcc><vAcc>0.919739</vAcc></extensions></trkpt>
      <trkpt lon="-117.331733" lat="33.979435"><ele>318.007264</ele><time>2025-04-22T03:07:57Z</time><extensions><speed>1.268218</speed><course>263.115904</course><hAcc>2.458055</hAcc><vAcc>0.863936</vAcc></extensions></trkpt>
      <trkpt lon="-117.331746" lat="33.979434"><ele>317.960932</ele><time>2025-04-22T03:07:58Z</time><extensions><speed>1.224839</speed><course>266.081754</course><hAcc>2.315965</hAcc><vAcc>0.826156</vAcc></extensions></trkpt>
      <trkpt lon="-117.331760" lat="33.979433"><ele>317.911659</ele><time>2025-04-22T03:07:59Z</time><extensions><speed>1.202227</speed><course>266.525858</course><hAcc>2.194372</hAcc><vAcc>0.801690</vAcc></extensions></trkpt>
      <trkpt lon="-117.331773" lat="33.979433"><ele>317.859012</ele><time>2025-04-22T03:08:00Z</time><extensions><speed>1.207179</speed><course>269.174265</course><hAcc>2.084724</hAcc><vAcc>0.786541</vAcc></extensions></trkpt>
      <trkpt lon="-117.331787" lat="33.979433"><ele>317.803244</ele><time>2025-04-22T03:08:01Z</time><extensions><speed>1.240851</speed><course>271.100337</course><hAcc>1.999697</hAcc><vAcc>0.777554</vAcc></extensions></trkpt>
      <trkpt lon="-117.331800" lat="33.979432"><ele>317.741990</ele><time>2025-04-22T03:08:02Z</time><extensions><speed>1.291965</speed><course>267.539916</course><hAcc>1.905409</hAcc><vAcc>0.772411</vAcc></extensions></trkpt>
      <trkpt lon="-117.331814" lat="33.979431"><ele>317.678541</ele><time>2025-04-22T03:08:03Z</time><extensions><speed>1.299352</speed><course>264.808532</course><hAcc>1.818798</hAcc><vAcc>0.769509</vAcc></extensions></trkpt>
      <trkpt lon="-117.331828" lat="33.979430"><ele>317.612759</ele><time>2025-04-22T03:08:04Z</time><extensions><speed>1.296753</speed><course>265.501621</course><hAcc>1.741267</hAcc><vAcc>0.767805</vAcc></extensions></trkpt>
      <trkpt lon="-117.331841" lat="33.979429"><ele>317.544851</ele><time>2025-04-22T03:08:05Z</time><extensions><speed>1.295843</speed><course>270.457799</course><hAcc>1.689386</hAcc><vAcc>0.766666</vAcc></extensions></trkpt>
      <trkpt lon="-117.331855" lat="33.979429"><ele>317.474586</ele><time>2025-04-22T03:08:06Z</time><extensions><speed>1.264718</speed><course>271.148726</course><hAcc>1.632985</hAcc><vAcc>0.765740</vAcc></extensions></trkpt>
      <trkpt lon="-117.331868" lat="33.979430"><ele>317.410467</ele><time>2025-04-22T03:08:07Z</time><extensions><speed>1.296519</speed><course>273.376296</course><hAcc>1.590850</hAcc><vAcc>0.764855</vAcc></extensions></trkpt>
      <trkpt lon="-117.331882" lat="33.979431"><ele>317.346611</ele><time>2025-04-22T03:08:08Z</time><extensions><speed>1.298886</speed><course>275.089103</course><hAcc>1.551951</hAcc><vAcc>0.763949</vAcc></extensions></trkpt>
      <trkpt lon="-117.331896" lat="33.979432"><ele>317.282900</ele><time>2025-04-22T03:08:09Z</time><extensions><speed>1.319885</speed><course>274.668510</course><hAcc>1.513864</hAcc><vAcc>0.763022</vAcc></extensions></trkpt>
      <trkpt lon="-117.331910" lat="33.979432"><ele>317.219548</ele><time>2025-04-22T03:08:10Z</time><extensions><speed>1.303422</speed><course>269.922899</course><hAcc>1.487194</hAcc><vAcc>0.762098</vAcc></extensions></trkpt>
      <trkpt lon="-117.331924" lat="33.979432"><ele>317.155990</ele><time>2025-04-22T03:08:11Z</time><extensions><speed>1.299170</speed><course>266.932909</course><hAcc>1.464436</hAcc><vAcc>0.761210</vAcc></extensions></trkpt>
      <trkpt lon="-117.331938" lat="33.979431"><ele>317.093701</ele><time>2025-04-22T03:08:12Z</time><extensions><speed>1.289451</speed><course>268.150125</course><hAcc>1.445616</hAcc><vAcc>0.760388</vAcc></extensions></trkpt>
      <trkpt lon="-117.331951" lat="33.979431"><ele>317.033167</ele><time>2025-04-22T03:08:13Z</time><extensions><speed>1.232649</speed><course>269.652089</course><hAcc>1.425183</hAcc><vAcc>0.759653</vAcc></extensions></trkpt>
      <trkpt lon="-117.331965" lat="33.979429"><ele>316.964510</ele><time>2025-04-22T03:08:14Z</time><extensions><speed>1.169093</speed><course>267.476172</course><hAcc>1.397208</hAcc><vAcc>0.759017</vAcc></extensions></trkpt>
      <trkpt lon="-117.331979" lat="33.979427"><ele>316.896768</ele><time>2025-04-22T03:08:15Z</time><extensions><speed>1.215858</speed><course>267.049215</course><hAcc>1.397046</hAcc><vAcc>0.758483</vAcc></extensions></trkpt>
      <trkpt lon="-117.331992" lat="33.979425"><ele>316.835433</ele><time>2025-04-22T03:08:16Z</time><extensions><speed>1.217555</speed><course>261.779406</course><hAcc>1.378033</hAcc><vAcc>0.758046</vAcc></extensions></trkpt>
      <trkpt lon="-117.332005" lat="33.979423"><ele>316.767819</ele><time>2025-04-22T03:08:17Z</time><extensions><speed>1.222149</speed><course>260.133788</course><hAcc>1.383963</hAcc><vAcc>0.758402</vAcc></extensions></trkpt>
      <trkpt lon="-117.332019" lat="33.979422"><ele>316.690960</ele><time>2025-04-22T03:08:18Z</time><extensions><speed>1.256577</speed><course>263.404973</course><hAcc>1.377467</hAcc><vAcc>0.758933</vAcc></extensions></trkpt>
      <trkpt lon="-117.332032" lat="33.979421"><ele>316.606684</ele><time>2025-04-22T03:08:19Z</time><extensions><speed>1.274797</speed><course>264.593681</course><hAcc>1.378524</hAcc><vAcc>0.760464</vAcc></extensions></trkpt>
      <trkpt lon="-117.332046" lat="33.979419"><ele>316.520140</ele><time>2025-04-22T03:08:20Z</time><extensions><speed>1.282862</speed><course>263.713407</course><hAcc>1.387232</hAcc><vAcc>0.762174</vAcc></extensions></trkpt>
      <trkpt lon="-117.332060" lat="33.979418"><ele>316.436202</ele><time>2025-04-22T03:08:21Z</time><extensions><speed>1.277099</speed><course>262.345381</course><hAcc>1.413661</hAcc><vAcc>0.763762</vAcc></extensions></trkpt>
      <trkpt lon="-117.332073" lat="33.979417"><ele>316.346983</ele><time>2025-04-22T03:08:22Z</time><extensions><speed>1.260297</speed><course>264.330565</course><hAcc>1.433612</hAcc><vAcc>0.765835</vAcc></extensions></trkpt>
      <trkpt lon="-117.332087" lat="33.979415"><ele>316.258357</ele><time>2025-04-22T03:08:23Z</time><extensions><speed>1.283128</speed><course>260.664570</course><hAcc>1.416640</hAcc><vAcc>0.768677</vAcc></extensions></trkpt>
      <trkpt lon="-117.332101" lat="33.979413"><ele>316.172346</ele><time>2025-04-22T03:08:24Z</time><extensions><speed>1.316811</speed><course>253.514369</course><hAcc>1.345393</hAcc><vAcc>0.772378</vAcc></extensions></trkpt>
      <trkpt lon="-117.332114" lat="33.979410"><ele>316.088604</ele><time>2025-04-22T03:08:25Z</time><extensions><speed>1.243706</speed><course>255.562950</course><hAcc>1.319291</hAcc><vAcc>0.776842</vAcc></extensions></trkpt>
      <trkpt lon="-117.332127" lat="33.979407"><ele>316.005809</ele><time>2025-04-22T03:08:26Z</time><extensions><speed>1.164462</speed><course>260.045034</course><hAcc>1.324242</hAcc><vAcc>0.782003</vAcc></extensions></trkpt>
      <trkpt lon="-117.332139" lat="33.979406"><ele>315.924912</ele><time>2025-04-22T03:08:27Z</time><extensions><speed>1.126319</speed><course>266.369516</course><hAcc>1.343447</hAcc><vAcc>0.787524</vAcc></extensions></trkpt>
      <trkpt lon="-117.332151" lat="33.979405"><ele>315.843573</ele><time>2025-04-22T03:08:28Z</time><extensions><speed>1.088518</speed><course>267.932015</course><hAcc>1.342660</hAcc><vAcc>0.793348</vAcc></extensions></trkpt>
      <trkpt lon="-117.332162" lat="33.979405"><ele>315.760700</ele><time>2025-04-22T03:08:29Z</time><extensions><speed>1.040482</speed><course>269.170343</course><hAcc>1.343975</hAcc><vAcc>0.799774</vAcc></extensions></trkpt>
      <trkpt lon="-117.332174" lat="33.979405"><ele>315.685781</ele><time>2025-04-22T03:08:30Z</time><extensions><speed>1.053152</speed><course>268.479432</course><hAcc>1.349509</hAcc><vAcc>0.806777</vAcc></extensions></trkpt>
      <trkpt lon="-117.332185" lat="33.979404"><ele>315.615384</ele><time>2025-04-22T03:08:31Z</time><extensions><speed>1.105596</speed><course>266.726059</course><hAcc>1.351587</hAcc><vAcc>0.814265</vAcc></extensions></trkpt>
      <trkpt lon="-117.332197" lat="33.979404"><ele>315.550416</ele><time>2025-04-22T03:08:32Z</time><extensions><speed>1.105060</speed><course>265.709078</course><hAcc>1.356566</hAcc><vAcc>0.822322</vAcc></extensions></trkpt>
      <trkpt lon="-117.332209" lat="33.979403"><ele>315.481248</ele><time>2025-04-22T03:08:33Z</time><extensions><speed>1.093291</speed><course>267.441210</course><hAcc>1.365770</hAcc><vAcc>0.831047</vAcc></extensions></trkpt>
      <trkpt lon="-117.332221" lat="33.979403"><ele>315.406940</ele><time>2025-04-22T03:08:34Z</time><extensions><speed>1.084043</speed><course>267.689073</course><hAcc>1.376175</hAcc><vAcc>0.840734</vAcc></extensions></trkpt>
      <trkpt lon="-117.332233" lat="33.979402"><ele>315.333124</ele><time>2025-04-22T03:08:35Z</time><extensions><speed>1.108867</speed><course>265.844643</course><hAcc>1.387769</hAcc><vAcc>0.851311</vAcc></extensions></trkpt>
      <trkpt lon="-117.332245" lat="33.979401"><ele>315.261724</ele><time>2025-04-22T03:08:36Z</time><extensions><speed>1.117171</speed><course>265.204508</course><hAcc>1.399981</hAcc><vAcc>0.863015</vAcc></extensions></trkpt>
      <trkpt lon="-117.332257" lat="33.979400"><ele>315.189902</ele><time>2025-04-22T03:08:37Z</time><extensions><speed>1.110213</speed><course>266.374285</course><hAcc>1.412365</hAcc><vAcc>0.874920</vAcc></extensions></trkpt>
      <trkpt lon="-117.332270" lat="33.979400"><ele>315.110609</ele><time>2025-04-22T03:08:38Z</time><extensions><speed>1.154715</speed><course>266.666589</course><hAcc>1.425148</hAcc><vAcc>0.887154</vAcc></extensions></trkpt>
      <trkpt lon="-117.332283" lat="33.979399"><ele>315.043926</ele><time>2025-04-22T03:08:39Z</time><extensions><speed>1.228923</speed><course>266.529384</course><hAcc>1.440390</hAcc><vAcc>0.899741</vAcc></extensions></trkpt>
      <trkpt lon="-117.332296" lat="33.979398"><ele>314.975060</ele><time>2025-04-22T03:08:40Z</time><extensions><speed>1.258525</speed><course>267.961377</course><hAcc>1.457333</hAcc><vAcc>0.911870</vAcc></extensions></trkpt>
      <trkpt lon="-117.332310" lat="33.979398"><ele>314.907303</ele><time>2025-04-22T03:08:41Z</time><extensions><speed>1.268784</speed><course>269.714294</course><hAcc>1.471101</hAcc><vAcc>0.924231</vAcc></extensions></trkpt>
      <trkpt lon="-117.332324" lat="33.979398"><ele>314.837598</ele><time>2025-04-22T03:08:42Z</time><extensions><speed>1.257643</speed><course>270.501229</course><hAcc>1.480554</hAcc><vAcc>0.935951</vAcc></extensions></trkpt>
      <trkpt lon="-117.332337" lat="33.979398"><ele>314.769876</ele><time>2025-04-22T03:08:43Z</time><extensions><speed>1.249404</speed><course>268.914605</course><hAcc>1.482896</hAcc><vAcc>0.947745</vAcc></extensions></trkpt>
      <trkpt lon="-117.332351" lat="33.979397"><ele>314.700806</ele><time>2025-04-22T03:08:44Z</time><extensions><speed>1.270548</speed><course>267.701933</course><hAcc>1.489464</hAcc><vAcc>0.958772</vAcc></extensions></trkpt>
      <trkpt lon="-117.332365" lat="33.979397"><ele>314.632154</ele><time>2025-04-22T03:08:45Z</time><extensions><speed>1.288641</speed><course>266.520190</course><hAcc>1.507788</hAcc><vAcc>0.970332</vAcc></extensions></trkpt>
      <trkpt lon="-117.332379" lat="33.979396"><ele>314.566075</ele><time>2025-04-22T03:08:46Z</time><extensions><speed>1.320574</speed><course>265.549921</course><hAcc>1.523445</hAcc><vAcc>0.981673</vAcc></extensions></trkpt>
      <trkpt lon="-117.332393" lat="33.979395"><ele>314.506125</ele><time>2025-04-22T03:08:47Z</time><extensions><speed>1.345794</speed><course>266.493159</course><hAcc>1.531256</hAcc><vAcc>0.994386</vAcc></extensions></trkpt>
      <trkpt lon="-117.332408" lat="33.979394"><ele>314.449481</ele><time>2025-04-22T03:08:48Z</time><extensions><speed>1.358458</speed><course>266.679508</course><hAcc>1.534944</hAcc><vAcc>1.007087</vAcc></extensions></trkpt>
      <trkpt lon="-117.332422" lat="33.979393"><ele>314.402562</ele><time>2025-04-22T03:08:49Z</time><extensions><speed>1.343972</speed><course>264.881030</course><hAcc>1.539885</hAcc><vAcc>1.019387</vAcc></extensions></trkpt>
      <trkpt lon="-117.332436" lat="33.979392"><ele>314.351655</ele><time>2025-04-22T03:08:50Z</time><extensions><speed>1.245174</speed><course>264.301483</course><hAcc>1.545813</hAcc><vAcc>1.032006</vAcc></extensions></trkpt>
      <trkpt lon="-117.332449" lat="33.979391"><ele>314.305309</ele><time>2025-04-22T03:08:51Z</time><extensions><speed>1.131001</speed><course>263.645820</course><hAcc>1.555339</hAcc><vAcc>1.044171</vAcc></extensions></trkpt>
      <trkpt lon="-117.332461" lat="33.979389"><ele>314.264118</ele><time>2025-04-22T03:08:52Z</time><extensions><speed>1.099605</speed><course>257.653274</course><hAcc>1.567607</hAcc><vAcc>1.055591</vAcc></extensions></trkpt>
      <trkpt lon="-117.332472" lat="33.979386"><ele>314.228735</ele><time>2025-04-22T03:08:53Z</time><extensions><speed>1.082863</speed><course>250.164420</course><hAcc>1.582332</hAcc><vAcc>1.066586</vAcc></extensions></trkpt>
      <trkpt lon="-117.332483" lat="33.979382"><ele>314.197423</ele><time>2025-04-22T03:08:54Z</time><extensions><speed>1.095037</speed><course>243.758035</course><hAcc>1.604557</hAcc><vAcc>1.078051</vAcc></extensions></trkpt>
      <trkpt lon="-117.332494" lat="33.979377"><ele>314.169787</ele><time>2025-04-22T03:08:55Z</time><extensions><speed>1.067831</speed><course>239.655665</course><hAcc>1.635653</hAcc><vAcc>1.089402</vAcc></extensions></trkpt>
      <trkpt lon="-117.332504" lat="33.979372"><ele>314.136579</ele><time>2025-04-22T03:08:56Z</time><extensions><speed>1.150291</speed><course>241.420624</course><hAcc>1.671237</hAcc><vAcc>1.099615</vAcc></extensions></trkpt>
      <trkpt lon="-117.332515" lat="33.979367"><ele>314.108181</ele><time>2025-04-22T03:08:57Z</time><extensions><speed>1.206363</speed><course>246.354638</course><hAcc>1.708410</hAcc><vAcc>1.108989</vAcc></extensions></trkpt>
      <trkpt lon="-117.332527" lat="33.979363"><ele>314.078034</ele><time>2025-04-22T03:08:58Z</time><extensions><speed>1.173589</speed><course>252.613322</course><hAcc>1.744919</hAcc><vAcc>1.117991</vAcc></extensions></trkpt>
      <trkpt lon="-117.332540" lat="33.979361"><ele>314.049315</ele><time>2025-04-22T03:08:59Z</time><extensions><speed>1.142346</speed><course>255.937165</course><hAcc>1.774967</hAcc><vAcc>1.125553</vAcc></extensions></trkpt>
      <trkpt lon="-117.332551" lat="33.979358"><ele>314.028059</ele><time>2025-04-22T03:09:00Z</time><extensions><speed>1.102973</speed><course>259.676033</course><hAcc>1.800762</hAcc><vAcc>1.131960</vAcc></extensions></trkpt>
      <trkpt lon="-117.332563" lat="33.979357"><ele>313.998900</ele><time>2025-04-22T03:09:01Z</time><extensions><speed>1.056685</speed><course>261.098925</course><hAcc>1.816037</hAcc><vAcc>1.137406</vAcc></extensions></trkpt>
      <trkpt lon="-117.332574" lat="33.979355"><ele>313.967763</ele><time>2025-04-22T03:09:02Z</time><extensions><speed>1.040996</speed><course>260.211365</course><hAcc>1.825499</hAcc><vAcc>1.141630</vAcc></extensions></trkpt>
      <trkpt lon="-117.332585" lat="33.979354"><ele>313.922587</ele><time>2025-04-22T03:09:03Z</time><extensions><speed>1.064087</speed><course>259.833826</course><hAcc>1.834369</hAcc><vAcc>1.145690</vAcc></extensions></trkpt>
      <trkpt lon="-117.332597" lat="33.979353"><ele>313.884415</ele><time>2025-04-22T03:09:04Z</time><extensions><speed>1.045716</speed><course>262.938325</course><hAcc>1.842654</hAcc><vAcc>1.150473</vAcc></extensions></trkpt>
      <trkpt lon="-117.332608" lat="33.979352"><ele>313.844330</ele><time>2025-04-22T03:09:05Z</time><extensions><speed>1.020217</speed><course>266.406629</course><hAcc>1.848553</hAcc><vAcc>1.155470</vAcc></extensions></trkpt>
      <trkpt lon="-117.332618" lat="33.979352"><ele>313.819418</ele><time>2025-04-22T03:09:06Z</time><extensions><speed>1.047522</speed><course>268.410328</course><hAcc>1.852798</hAcc><vAcc>1.158784</vAcc></extensions></trkpt>
      <trkpt lon="-117.332630" lat="33.979352"><ele>313.822085</ele><time>2025-04-22T03:09:07Z</time><extensions><speed>1.072331</speed><course>270.781543</course><hAcc>1.862135</hAcc><vAcc>1.162432</vAcc></extensions></trkpt>
      <trkpt lon="-117.332641" lat="33.979353"><ele>313.823489</ele><time>2025-04-22T03:09:08Z</time><extensions><speed>1.043274</speed><course>273.619950</course><hAcc>1.871100</hAcc><vAcc>1.166836</vAcc></extensions></trkpt>
      <trkpt lon="-117.332652" lat="33.979354"><ele>313.842853</ele><time>2025-04-22T03:09:09Z</time><extensions><speed>1.030386</speed><course>276.855977</course><hAcc>1.880755</hAcc><vAcc>1.171334</vAcc></extensions></trkpt>
      <trkpt lon="-117.332662" lat="33.979356"><ele>313.856246</ele><time>2025-04-22T03:09:10Z</time><extensions><speed>0.964521</speed><course>282.762221</course><hAcc>1.891793</hAcc><vAcc>1.175413</vAcc></extensions></trkpt>
      <trkpt lon="-117.332672" lat="33.979358"><ele>313.884559</ele><time>2025-04-22T03:09:11Z</time><extensions><speed>0.900279</speed><course>287.288900</course><hAcc>1.902811</hAcc><vAcc>1.177649</vAcc></extensions></trkpt>
      <trkpt lon="-117.332681" lat="33.979361"><ele>313.934367</ele><time>2025-04-22T03:09:12Z</time><extensions><speed>0.857550</speed><course>291.510307</course><hAcc>1.912573</hAcc><vAcc>1.178774</vAcc></extensions></trkpt>
      <trkpt lon="-117.332689" lat="33.979364"><ele>313.992703</ele><time>2025-04-22T03:09:13Z</time><extensions><speed>0.815356</speed><course>295.473699</course><hAcc>1.919066</hAcc><vAcc>1.179174</vAcc></extensions></trkpt>
      <trkpt lon="-117.332697" lat="33.979368"><ele>314.042858</ele><time>2025-04-22T03:09:14Z</time><extensions><speed>0.783781</speed><course>300.706802</course><hAcc>1.931101</hAcc><vAcc>1.177922</vAcc></extensions></trkpt>
      <trkpt lon="-117.332704" lat="33.979371"><ele>314.099122</ele><time>2025-04-22T03:09:15Z</time><extensions><speed>0.791437</speed><course>305.489506</course><hAcc>1.930110</hAcc><vAcc>1.176483</vAcc></extensions></trkpt>
      <trkpt lon="-117.332712" lat="33.979376"><ele>314.173968</ele><time>2025-04-22T03:09:16Z</time><extensions><speed>0.803985</speed><course>303.941057</course><hAcc>1.923886</hAcc><vAcc>1.174897</vAcc></extensions></trkpt>
      <trkpt lon="-117.332719" lat="33.979380"><ele>314.275658</ele><time>2025-04-22T03:09:17Z</time><extensions><speed>0.848852</speed><course>303.860711</course><hAcc>1.899159</hAcc><vAcc>1.171119</vAcc></extensions></trkpt>
      <trkpt lon="-117.332728" lat="33.979384"><ele>314.367888</ele><time>2025-04-22T03:09:18Z</time><extensions><speed>0.956613</speed><course>302.429822</course><hAcc>1.890816</hAcc><vAcc>1.165196</vAcc></extensions></trkpt>
      <trkpt lon="-117.332737" lat="33.979389"><ele>314.451830</ele><time>2025-04-22T03:09:19Z</time><extensions><speed>1.101729</speed><course>298.384565</course><hAcc>1.894491</hAcc><vAcc>1.156898</vAcc></extensions></trkpt>
      <trkpt lon="-117.332748" lat="33.979394"><ele>314.547500</ele><time>2025-04-22T03:09:20Z</time><extensions><speed>1.137091</speed><course>293.258207</course><hAcc>1.882738</hAcc><vAcc>1.147553</vAcc></extensions></trkpt>
      <trkpt lon="-117.332760" lat="33.979398"><ele>314.648049</ele><time>2025-04-22T03:09:21Z</time><extensions><speed>1.128742</speed><course>285.024034</course><hAcc>1.861419</hAcc><vAcc>1.136773</vAcc></extensions></trkpt>
      <trkpt lon="-117.332772" lat="33.979400"><ele>314.726517</ele><time>2025-04-22T03:09:22Z</time><extensions><speed>1.221049</speed><course>279.320312</course><hAcc>1.836934</hAcc><vAcc>1.124408</vAcc></extensions></trkpt>
      <trkpt lon="-117.332785" lat="33.979401"><ele>314.802375</ele><time>2025-04-22T03:09:23Z</time><extensions><speed>1.189819</speed><course>275.458404</course><hAcc>1.812961</hAcc><vAcc>1.112109</vAcc></extensions></trkpt>
      <trkpt lon="-117.332797" lat="33.979402"><ele>314.865199</ele><time>2025-04-22T03:09:24Z</time><extensions><speed>1.079031</speed><course>273.037031</course><hAcc>1.781657</hAcc><vAcc>1.100271</vAcc></extensions></trkpt>
      <trkpt lon="-117.332809" lat="33.979402"><ele>314.914898</ele><time>2025-04-22T03:09:25Z</time><extensions><speed>1.050048</speed><course>271.180246</course><hAcc>1.765639</hAcc><vAcc>1.088858</vAcc></extensions></trkpt>
      <trkpt lon="-117.332821" lat="33.979403"><ele>314.985442</ele><time>2025-04-22T03:09:26Z</time><extensions><speed>1.121691</speed><course>271.021587</course><hAcc>1.756780</hAcc><vAcc>1.078171</vAcc></extensions></trkpt>
      <trkpt lon="-117.332833" lat="33.979403"><ele>315.069289</ele><time>2025-04-22T03:09:27Z</time><extensions><speed>1.160775</speed><course>273.636159</course><hAcc>1.737495</hAcc><vAcc>1.067923</vAcc></extensions></trkpt>
      <trkpt lon="-117.332846" lat="33.979404"><ele>315.127966</ele><time>2025-04-22T03:09:28Z</time><extensions><speed>1.166372</speed><course>277.785939</course><hAcc>1.716299</hAcc><vAcc>1.058385</vAcc></extensions></trkpt>
      <trkpt lon="-117.332858" lat="33.979406"><ele>315.166378</ele><time>2025-04-22T03:09:29Z</time><extensions><speed>1.125812</speed><course>283.083178</course><hAcc>1.701542</hAcc><vAcc>1.048859</vAcc></extensions></trkpt>
      <trkpt lon="-117.332869" lat="33.979408"><ele>315.203409</ele><time>2025-04-22T03:09:30Z</time><extensions><speed>0.996590</speed><course>285.953283</course><hAcc>1.690916</hAcc><vAcc>1.038127</vAcc></extensions></trkpt>
      <trkpt lon="-117.332879" lat="33.979410"><ele>315.228159</ele><time>2025-04-22T03:09:31Z</time><extensions><speed>0.911440</speed><course>277.731348</course><hAcc>1.665390</hAcc><vAcc>1.027035</vAcc></extensions></trkpt>
      <trkpt lon="-117.332889" lat="33.979410"><ele>315.243472</ele><time>2025-04-22T03:09:32Z</time><extensions><speed>0.938066</speed><course>270.489012</course><hAcc>1.638336</hAcc><vAcc>1.016977</vAcc></extensions></trkpt>
      <trkpt lon="-117.332900" lat="33.979410"><ele>315.246700</ele><time>2025-04-22T03:09:33Z</time><extensions><speed>1.039179</speed><course>266.254201</course><hAcc>1.641989</hAcc><vAcc>1.007058</vAcc></extensions></trkpt>
      <trkpt lon="-117.332912" lat="33.979409"><ele>315.234660</ele><time>2025-04-22T03:09:34Z</time><extensions><speed>1.156816</speed><course>266.771818</course><hAcc>1.637826</hAcc><vAcc>0.997148</vAcc></extensions></trkpt>
      <trkpt lon="-117.332925" lat="33.979409"><ele>315.224494</ele><time>2025-04-22T03:09:35Z</time><extensions><speed>1.198649</speed><course>266.947174</course><hAcc>1.623875</hAcc><vAcc>0.987818</vAcc></extensions></trkpt>
      <trkpt lon="-117.332938" lat="33.979408"><ele>315.212665</ele><time>2025-04-22T03:09:36Z</time><extensions><speed>1.172272</speed><course>264.592357</course><hAcc>1.608296</hAcc><vAcc>0.977844</vAcc></extensions></trkpt>
      <trkpt lon="-117.332950" lat="33.979407"><ele>315.194532</ele><time>2025-04-22T03:09:37Z</time><extensions><speed>1.169953</speed><course>265.065494</course><hAcc>1.593513</hAcc><vAcc>0.968052</vAcc></extensions></trkpt>
      <trkpt lon="-117.332963" lat="33.979406"><ele>315.161983</ele><time>2025-04-22T03:09:38Z</time><extensions><speed>1.219016</speed><course>265.277074</course><hAcc>1.580775</hAcc><vAcc>0.958290</vAcc></extensions></trkpt>
      <trkpt lon="-117.332976" lat="33.979405"><ele>315.126168</ele><time>2025-04-22T03:09:39Z</time><extensions><speed>1.219143</speed><course>265.554050</course><hAcc>1.565261</hAcc><vAcc>0.948629</vAcc></extensions></trkpt>
      <trkpt lon="-117.332989" lat="33.979404"><ele>315.085096</ele><time>2025-04-22T03:09:40Z</time><extensions><speed>1.186858</speed><course>265.620323</course><hAcc>1.558141</hAcc><vAcc>0.939523</vAcc></extensions></trkpt>
      <trkpt lon="-117.333002" lat="33.979404"><ele>315.034906</ele><time>2025-04-22T03:09:41Z</time><extensions><speed>1.151486</speed><course>266.835480</course><hAcc>1.544560</hAcc><vAcc>0.931277</vAcc></extensions></trkpt>
      <trkpt lon="-117.333014" lat="33.979403"><ele>314.981781</ele><time>2025-04-22T03:09:42Z</time><extensions><speed>1.098379</speed><course>269.085978</course><hAcc>1.529441</hAcc><vAcc>0.923872</vAcc></extensions></trkpt>
      <trkpt lon="-117.333026" lat="33.979403"><ele>314.918053</ele><time>2025-04-22T03:09:43Z</time><extensions><speed>1.093543</speed><course>269.609433</course><hAcc>1.515022</hAcc><vAcc>0.917937</vAcc></extensions></trkpt>
      <trkpt lon="-117.333038" lat="33.979403"><ele>314.845382</ele><time>2025-04-22T03:09:44Z</time><extensions><speed>1.074721</speed><course>270.944953</course><hAcc>1.502582</hAcc><vAcc>0.913664</vAcc></extensions></trkpt>
      <trkpt lon="-117.333049" lat="33.979403"><ele>314.778406</ele><time>2025-04-22T03:09:45Z</time><extensions><speed>1.034019</speed><course>271.513959</course><hAcc>1.491308</hAcc><vAcc>0.911067</vAcc></extensions></trkpt>
      <trkpt lon="-117.333060" lat="33.979404"><ele>314.712969</ele><time>2025-04-22T03:09:46Z</time><extensions><speed>1.019088</speed><course>272.404615</course><hAcc>1.485137</hAcc><vAcc>0.909974</vAcc></extensions></trkpt>
      <trkpt lon="-117.333071" lat="33.979404"><ele>314.646206</ele><time>2025-04-22T03:09:47Z</time><extensions><speed>1.008556</speed><course>273.029696</course><hAcc>1.484654</hAcc><vAcc>0.909243</vAcc></extensions></trkpt>
      <trkpt lon="-117.333082" lat="33.979405"><ele>314.574984</ele><time>2025-04-22T03:09:48Z</time><extensions><speed>0.987122</speed><course>275.560744</course><hAcc>1.482419</hAcc><vAcc>0.909666</vAcc></extensions></trkpt>
      <trkpt lon="-117.333092" lat="33.979406"><ele>314.498524</ele><time>2025-04-22T03:09:49Z</time><extensions><speed>0.923763</speed><course>278.310210</course><hAcc>1.483260</hAcc><vAcc>0.911384</vAcc></extensions></trkpt>
      <trkpt lon="-117.333102" lat="33.979407"><ele>314.423766</ele><time>2025-04-22T03:09:50Z</time><extensions><speed>0.829173</speed><course>280.136468</course><hAcc>1.466719</hAcc><vAcc>0.913534</vAcc></extensions></trkpt>
      <trkpt lon="-117.333111" lat="33.979408"><ele>314.364854</ele><time>2025-04-22T03:09:51Z</time><extensions><speed>0.880323</speed><course>277.621855</course><hAcc>1.459943</hAcc><vAcc>0.916301</vAcc></extensions></trkpt>
      <trkpt lon="-117.333122" lat="33.979409"><ele>314.311850</ele><time>2025-04-22T03:09:52Z</time><extensions><speed>1.082212</speed><course>274.544976</course><hAcc>1.475732</hAcc><vAcc>0.919331</vAcc></extensions></trkpt>
      <trkpt lon="-117.333134" lat="33.979409"><ele>314.267207</ele><time>2025-04-22T03:09:53Z</time><extensions><speed>1.250586</speed><course>271.994016</course><hAcc>1.471953</hAcc><vAcc>0.921932</vAcc></extensions></trkpt>
      <trkpt lon="-117.333148" lat="33.979410"><ele>314.232135</ele><time>2025-04-22T03:09:54Z</time><extensions><speed>1.286689</speed><course>270.386677</course><hAcc>1.459400</hAcc><vAcc>0.924423</vAcc></extensions></trkpt>
      <trkpt lon="-117.333162" lat="33.979410"><ele>314.176867</ele><time>2025-04-22T03:09:55Z</time><extensions><speed>1.253984</speed><course>269.019160</course><hAcc>1.447596</hAcc><vAcc>0.925715</vAcc></extensions></trkpt>
      <trkpt lon="-117.333175" lat="33.979409"><ele>314.125628</ele><time>2025-04-22T03:09:56Z</time><extensions><speed>1.224970</speed><course>267.409611</course><hAcc>1.437519</hAcc><vAcc>0.926539</vAcc></extensions></trkpt>
      <trkpt lon="-117.333188" lat="33.979409"><ele>314.110085</ele><time>2025-04-22T03:09:57Z</time><extensions><speed>1.223955</speed><course>265.395487</course><hAcc>1.428765</hAcc><vAcc>0.926366</vAcc></extensions></trkpt>
      <trkpt lon="-117.333201" lat="33.979408"><ele>314.130175</ele><time>2025-04-22T03:09:58Z</time><extensions><speed>1.250270</speed><course>265.151432</course><hAcc>1.424070</hAcc><vAcc>0.925031</vAcc></extensions></trkpt>
      <trkpt lon="-117.333215" lat="33.979407"><ele>314.132073</ele><time>2025-04-22T03:09:59Z</time><extensions><speed>1.214904</speed><course>266.830232</course><hAcc>1.425140</hAcc><vAcc>0.923148</vAcc></extensions></trkpt>
      <trkpt lon="-117.333228" lat="33.979407"><ele>314.125996</ele><time>2025-04-22T03:10:00Z</time><extensions><speed>1.187799</speed><course>267.657297</course><hAcc>1.432296</hAcc><vAcc>0.920912</vAcc></extensions></trkpt>
      <trkpt lon="-117.333240" lat="33.979406"><ele>314.125688</ele><time>2025-04-22T03:10:01Z</time><extensions><speed>1.165432</speed><course>269.179776</course><hAcc>1.439967</hAcc><vAcc>0.917913</vAcc></extensions></trkpt>
      <trkpt lon="-117.333253" lat="33.979406"><ele>314.118736</ele><time>2025-04-22T03:10:02Z</time><extensions><speed>1.117653</speed><course>271.986187</course><hAcc>1.450848</hAcc><vAcc>0.914063</vAcc></extensions></trkpt>
      <trkpt lon="-117.333265" lat="33.979407"><ele>314.126301</ele><time>2025-04-22T03:10:03Z</time><extensions><speed>1.076122</speed><course>275.385704</course><hAcc>1.460040</hAcc><vAcc>0.909186</vAcc></extensions></trkpt>
      <trkpt lon="-117.333276" lat="33.979408"><ele>314.134802</ele><time>2025-04-22T03:10:04Z</time><extensions><speed>0.981818</speed><course>278.692534</course><hAcc>1.461735</hAcc><vAcc>0.903622</vAcc></extensions></trkpt>
      <trkpt lon="-117.333286" lat="33.979410"><ele>314.145041</ele><time>2025-04-22T03:10:05Z</time><extensions><speed>0.879568</speed><course>283.580437</course><hAcc>1.446891</hAcc><vAcc>0.897562</vAcc></extensions></trkpt>
      <trkpt lon="-117.333295" lat="33.979411"><ele>314.142479</ele><time>2025-04-22T03:10:06Z</time><extensions><speed>0.882856</speed><course>284.286237</course><hAcc>1.448053</hAcc><vAcc>0.891027</vAcc></extensions></trkpt>
      <trkpt lon="-117.333305" lat="33.979413"><ele>314.152595</ele><time>2025-04-22T03:10:07Z</time><extensions><speed>1.005485</speed><course>281.881315</course><hAcc>1.467036</hAcc><vAcc>0.885088</vAcc></extensions></trkpt>
      <trkpt lon="-117.333316" lat="33.979415"><ele>314.169236</ele><time>2025-04-22T03:10:08Z</time><extensions><speed>1.146140</speed><course>277.681410</course><hAcc>1.468910</hAcc><vAcc>0.878436</vAcc></extensions></trkpt>
      <trkpt lon="-117.333329" lat="33.979415"><ele>314.196139</ele><time>2025-04-22T03:10:09Z</time><extensions><speed>1.144687</speed><course>269.590015</course><hAcc>1.463581</hAcc><vAcc>0.871707</vAcc></extensions></trkpt>
      <trkpt lon="-117.333341" lat="33.979415"><ele>314.242735</ele><time>2025-04-22T03:10:10Z</time><extensions><speed>1.131657</speed><course>265.206052</course><hAcc>1.452633</hAcc><vAcc>0.865146</vAcc></extensions></trkpt>
      <trkpt lon="-117.333353" lat="33.979414"><ele>314.288219</ele><time>2025-04-22T03:10:11Z</time><extensions><speed>1.125937</speed><course>266.776994</course><hAcc>1.441851</hAcc><vAcc>0.859041</vAcc></extensions></trkpt>
      <trkpt lon="-117.333365" lat="33.979414"><ele>314.332004</ele><time>2025-04-22T03:10:12Z</time><extensions><speed>1.069174</speed><course>271.093332</course><hAcc>1.427476</hAcc><vAcc>0.854133</vAcc></extensions></trkpt>
      <trkpt lon="-117.333377" lat="33.979414"><ele>314.392413</ele><time>2025-04-22T03:10:13Z</time><extensions><speed>1.073558</speed><course>270.794065</course><hAcc>1.418779</hAcc><vAcc>0.850292</vAcc></extensions></trkpt>
      <trkpt lon="-117.333389" lat="33.979414"><ele>314.457543</ele><time>2025-04-22T03:10:14Z</time><extensions><speed>1.202034</speed><course>268.573840</course><hAcc>1.400430</hAcc><vAcc>0.846080</vAcc></extensions></trkpt>
      <trkpt lon="-117.333403" lat="33.979413"><ele>314.510871</ele><time>2025-04-22T03:10:15Z</time><extensions><speed>1.307059</speed><course>265.642905</course><hAcc>1.379437</hAcc><vAcc>0.842375</vAcc></extensions></trkpt>
      <trkpt lon="-117.333417" lat="33.979412"><ele>314.568985</ele><time>2025-04-22T03:10:16Z</time><extensions><speed>1.360775</speed><course>263.977981</course><hAcc>1.372158</hAcc><vAcc>0.839641</vAcc></extensions></trkpt>
      <trkpt lon="-117.333431" lat="33.979411"><ele>314.630396</ele><time>2025-04-22T03:10:17Z</time><extensions><speed>1.215747</speed><course>264.070461</course><hAcc>1.397256</hAcc><vAcc>0.836852</vAcc></extensions></trkpt>
      <trkpt lon="-117.333444" lat="33.979410"><ele>314.687014</ele><time>2025-04-22T03:10:18Z</time><extensions><speed>1.164779</speed><course>261.962639</course><hAcc>1.362074</hAcc><vAcc>0.834317</vAcc></extensions></trkpt>
      <trkpt lon="-117.333456" lat="33.979408"><ele>314.745323</ele><time>2025-04-22T03:10:19Z</time><extensions><speed>1.123747</speed><course>260.279798</course><hAcc>1.344185</hAcc><vAcc>0.831925</vAcc></extensions></trkpt>
      <trkpt lon="-117.333468" lat="33.979407"><ele>314.817866</ele><time>2025-04-22T03:10:20Z</time><extensions><speed>1.162591</speed><course>261.196198</course><hAcc>1.335491</hAcc><vAcc>0.829246</vAcc></extensions></trkpt>
      <trkpt lon="-117.333481" lat="33.979405"><ele>314.890375</ele><time>2025-04-22T03:10:21Z</time><extensions><speed>1.154878</speed><course>264.336317</course><hAcc>1.339137</hAcc><vAcc>0.826809</vAcc></extensions></trkpt>
      <trkpt lon="-117.333493" lat="33.979405"><ele>314.948528</ele><time>2025-04-22T03:10:22Z</time><extensions><speed>1.181711</speed><course>268.719575</course><hAcc>1.338885</hAcc><vAcc>0.824572</vAcc></extensions></trkpt>
      <trkpt lon="-117.333506" lat="33.979405"><ele>314.996945</ele><time>2025-04-22T03:10:23Z</time><extensions><speed>1.297016</speed><course>272.084444</course><hAcc>1.332685</hAcc><vAcc>0.822056</vAcc></extensions></trkpt>
      <trkpt lon="-117.333522" lat="33.979405"><ele>315.037140</ele><time>2025-04-22T03:10:24Z</time><extensions><speed>1.506984</speed><course>273.029013</course><hAcc>1.317174</hAcc><vAcc>0.819163</vAcc></extensions></trkpt>
      <trkpt lon="-117.333538" lat="33.979406"><ele>315.065619</ele><time>2025-04-22T03:10:25Z</time><extensions><speed>1.560050</speed><course>270.716791</course><hAcc>1.315931</hAcc><vAcc>0.816407</vAcc></extensions></trkpt>
      <trkpt lon="-117.333555" lat="33.979406"><ele>315.091125</ele><time>2025-04-22T03:10:26Z</time><extensions><speed>1.550186</speed><course>268.734284</course><hAcc>1.322748</hAcc><vAcc>0.813863</vAcc></extensions></trkpt>
      <trkpt lon="-117.333571" lat="33.979406"><ele>315.096600</ele><time>2025-04-22T03:10:27Z</time><extensions><speed>1.369799</speed><course>270.194102</course><hAcc>1.319119</hAcc><vAcc>0.811452</vAcc></extensions></trkpt>
      <trkpt lon="-117.333585" lat="33.979406"><ele>315.100945</ele><time>2025-04-22T03:10:28Z</time><extensions><speed>1.201294</speed><course>272.662356</course><hAcc>1.321737</hAcc><vAcc>0.809525</vAcc></extensions></trkpt>
      <trkpt lon="-117.333597" lat="33.979407"><ele>315.097678</ele><time>2025-04-22T03:10:29Z</time><extensions><speed>1.046178</speed><course>276.498990</course><hAcc>1.326655</hAcc><vAcc>0.808196</vAcc></extensions></trkpt>
      <trkpt lon="-117.333607" lat="33.979408"><ele>315.072368</ele><time>2025-04-22T03:10:30Z</time><extensions><speed>0.870331</speed><course>277.704478</course><hAcc>1.324931</hAcc><vAcc>0.807920</vAcc></extensions></trkpt>
      <trkpt lon="-117.333616" lat="33.979409"><ele>315.036336</ele><time>2025-04-22T03:10:31Z</time><extensions><speed>0.830193</speed><course>275.201440</course><hAcc>1.340802</hAcc><vAcc>0.808592</vAcc></extensions></trkpt>
      <trkpt lon="-117.333626" lat="33.979409"><ele>314.992234</ele><time>2025-04-22T03:10:32Z</time><extensions><speed>0.959007</speed><course>271.876966</course><hAcc>1.352826</hAcc><vAcc>0.809461</vAcc></extensions></trkpt>
      <trkpt lon="-117.333637" lat="33.979409"><ele>314.951243</ele><time>2025-04-22T03:10:33Z</time><extensions><speed>1.023127</speed><course>269.708717</course><hAcc>1.350702</hAcc><vAcc>0.811157</vAcc></extensions></trkpt>
      <trkpt lon="-117.333648" lat="33.979409"><ele>314.913443</ele><time>2025-04-22T03:10:34Z</time><extensions><speed>0.990027</speed><course>268.658904</course><hAcc>1.344584</hAcc><vAcc>0.812652</vAcc></extensions></trkpt>
      <trkpt lon="-117.333659" lat="33.979409"><ele>314.880184</ele><time>2025-04-22T03:10:35Z</time><extensions><speed>1.034732</speed><course>270.127711</course><hAcc>1.335176</hAcc><vAcc>0.814387</vAcc></extensions></trkpt>
      <trkpt lon="-117.333670" lat="33.979409"><ele>314.849321</ele><time>2025-04-22T03:10:36Z</time><extensions><speed>1.135643</speed><course>272.203814</course><hAcc>1.324715</hAcc><vAcc>0.816843</vAcc></extensions></trkpt>
      <trkpt lon="-117.333683" lat="33.979410"><ele>314.808406</ele><time>2025-04-22T03:10:37Z</time><extensions><speed>1.153939</speed><course>272.750555</course><hAcc>1.309755</hAcc><vAcc>0.820360</vAcc></extensions></trkpt>
      <trkpt lon="-117.333695" lat="33.979410"><ele>314.760348</ele><time>2025-04-22T03:10:38Z</time><extensions><speed>1.133873</speed><course>273.066702</course><hAcc>1.292943</hAcc><vAcc>0.823094</vAcc></extensions></trkpt>
      <trkpt lon="-117.333707" lat="33.979411"><ele>314.710263</ele><time>2025-04-22T03:10:39Z</time><extensions><speed>1.100969</speed><course>272.373903</course><hAcc>1.281914</hAcc><vAcc>0.825395</vAcc></extensions></trkpt>
      <trkpt lon="-117.333719" lat="33.979411"><ele>314.665471</ele><time>2025-04-22T03:10:40Z</time><extensions><speed>1.027062</speed><course>272.107581</course><hAcc>1.293658</hAcc><vAcc>0.827738</vAcc></extensions></trkpt>
      <trkpt lon="-117.333730" lat="33.979411"><ele>314.617792</ele><time>2025-04-22T03:10:41Z</time><extensions><speed>1.064729</speed><course>272.534872</course><hAcc>1.312968</hAcc><vAcc>0.828800</vAcc></extensions></trkpt>
      <trkpt lon="-117.333742" lat="33.979412"><ele>314.569580</ele><time>2025-04-22T03:10:42Z</time><extensions><speed>1.049801</speed><course>276.658686</course><hAcc>1.275909</hAcc><vAcc>0.829651</vAcc></extensions></trkpt>
      <trkpt lon="-117.333753" lat="33.979413"><ele>314.521127</ele><time>2025-04-22T03:10:43Z</time><extensions><speed>1.089239</speed><course>276.479957</course><hAcc>1.271878</hAcc><vAcc>0.829485</vAcc></extensions></trkpt>
      <trkpt lon="-117.333765" lat="33.979414"><ele>314.486416</ele><time>2025-04-22T03:10:44Z</time><extensions><speed>1.193280</speed><course>275.006259</course><hAcc>1.279571</hAcc><vAcc>0.828598</vAcc></extensions></trkpt>
      <trkpt lon="-117.333779" lat="33.979415"><ele>314.449243</ele><time>2025-04-22T03:10:45Z</time><extensions><speed>1.232494</speed><course>273.190861</course><hAcc>1.284250</hAcc><vAcc>0.826905</vAcc></extensions></trkpt>
      <trkpt lon="-117.333792" lat="33.979415"><ele>314.407522</ele><time>2025-04-22T03:10:46Z</time><extensions><speed>1.208098</speed><course>271.620844</course><hAcc>1.296224</hAcc><vAcc>0.824798</vAcc></extensions></trkpt>
      <trkpt lon="-117.333804" lat="33.979416"><ele>314.369578</ele><time>2025-04-22T03:10:47Z</time><extensions><speed>1.120496</speed><course>272.463724</course><hAcc>1.319457</hAcc><vAcc>0.822676</vAcc></extensions></trkpt>
      <trkpt lon="-117.333817" lat="33.979417"><ele>314.335088</ele><time>2025-04-22T03:10:48Z</time><extensions><speed>1.154009</speed><course>275.179917</course><hAcc>1.293405</hAcc><vAcc>0.820118</vAcc></extensions></trkpt>
      <trkpt lon="-117.333829" lat="33.979417"><ele>314.309464</ele><time>2025-04-22T03:10:49Z</time><extensions><speed>1.089222</speed><course>275.493367</course><hAcc>1.293361</hAcc><vAcc>0.817992</vAcc></extensions></trkpt>
      <trkpt lon="-117.333841" lat="33.979418"><ele>314.287208</ele><time>2025-04-22T03:10:50Z</time><extensions><speed>1.101384</speed><course>272.835235</course><hAcc>1.303222</hAcc><vAcc>0.815790</vAcc></extensions></trkpt>
      <trkpt lon="-117.333853" lat="33.979418"><ele>314.264947</ele><time>2025-04-22T03:10:51Z</time><extensions><speed>1.171820</speed><course>270.259485</course><hAcc>1.305762</hAcc><vAcc>0.812938</vAcc></extensions></trkpt>
      <trkpt lon="-117.333866" lat="33.979418"><ele>314.242625</ele><time>2025-04-22T03:10:52Z</time><extensions><speed>1.215419</speed><course>267.396528</course><hAcc>1.317004</hAcc><vAcc>0.810781</vAcc></extensions></trkpt>
      <trkpt lon="-117.333879" lat="33.979417"><ele>314.222714</ele><time>2025-04-22T03:10:53Z</time><extensions><speed>1.261724</speed><course>264.668933</course><hAcc>1.312282</hAcc><vAcc>0.808998</vAcc></extensions></trkpt>
      <trkpt lon="-117.333893" lat="33.979416"><ele>314.204255</ele><time>2025-04-22T03:10:54Z</time><extensions><speed>1.291177</speed><course>261.098652</course><hAcc>1.310399</hAcc><vAcc>0.807813</vAcc></extensions></trkpt>
      <trkpt lon="-117.333906" lat="33.979415"><ele>314.188731</ele><time>2025-04-22T03:10:55Z</time><extensions><speed>1.248408</speed><course>264.196964</course><hAcc>1.314036</hAcc><vAcc>0.806419</vAcc></extensions></trkpt>
      <trkpt lon="-117.333919" lat="33.979414"><ele>314.171364</ele><time>2025-04-22T03:10:56Z</time><extensions><speed>1.132618</speed><course>270.572972</course><hAcc>1.313354</hAcc><vAcc>0.806051</vAcc></extensions></trkpt>
      <trkpt lon="-117.333931" lat="33.979415"><ele>314.159123</ele><time>2025-04-22T03:10:57Z</time><extensions><speed>1.066326</speed><course>275.462061</course><hAcc>1.312849</hAcc><vAcc>0.805943</vAcc></extensions></trkpt>
      <trkpt lon="-117.333943" lat="33.979416"><ele>314.144609</ele><time>2025-04-22T03:10:58Z</time><extensions><speed>1.121962</speed><course>275.086932</course><hAcc>1.308783</hAcc><vAcc>0.806121</vAcc></extensions></trkpt>
      <trkpt lon="-117.333955" lat="33.979416"><ele>314.123111</ele><time>2025-04-22T03:10:59Z</time><extensions><speed>1.187146</speed><course>272.430563</course><hAcc>1.300727</hAcc><vAcc>0.806549</vAcc></extensions></trkpt>
      <trkpt lon="-117.333969" lat="33.979416"><ele>314.095434</ele><time>2025-04-22T03:11:00Z</time><extensions><speed>1.266801</speed><course>270.212054</course><hAcc>1.287340</hAcc><vAcc>0.806928</vAcc></extensions></trkpt>
      <trkpt lon="-117.333983" lat="33.979417"><ele>314.066404</ele><time>2025-04-22T03:11:01Z</time><extensions><speed>1.318952</speed><course>270.693919</course><hAcc>1.278118</hAcc><vAcc>0.807589</vAcc></extensions></trkpt>
      <trkpt lon="-117.333996" lat="33.979417"><ele>314.029430</ele><time>2025-04-22T03:11:02Z</time><extensions><speed>1.166509</speed><course>272.084803</course><hAcc>1.293665</hAcc><vAcc>0.808189</vAcc></extensions></trkpt>
      <trkpt lon="-117.334008" lat="33.979417"><ele>314.001993</ele><time>2025-04-22T03:11:03Z</time><extensions><speed>1.068329</speed><course>273.117998</course><hAcc>1.286923</hAcc><vAcc>0.808987</vAcc></extensions></trkpt>
      <trkpt lon="-117.334019" lat="33.979418"><ele>313.972391</ele><time>2025-04-22T03:11:04Z</time><extensions><speed>1.007683</speed><course>275.778133</course><hAcc>1.273744</hAcc><vAcc>0.808852</vAcc></extensions></trkpt>
      <trkpt lon="-117.334030" lat="33.979419"><ele>313.941456</ele><time>2025-04-22T03:11:05Z</time><extensions><speed>1.009360</speed><course>278.271825</course><hAcc>1.278084</hAcc><vAcc>0.808336</vAcc></extensions></trkpt>
      <trkpt lon="-117.334042" lat="33.979420"><ele>313.917244</ele><time>2025-04-22T03:11:06Z</time><extensions><speed>1.112274</speed><course>277.379498</course><hAcc>1.288403</hAcc><vAcc>0.806717</vAcc></extensions></trkpt>
      <trkpt lon="-117.334054" lat="33.979421"><ele>313.892324</ele><time>2025-04-22T03:11:07Z</time><extensions><speed>1.199292</speed><course>273.712772</course><hAcc>1.285277</hAcc><vAcc>0.804867</vAcc></extensions></trkpt>
      <trkpt lon="-117.334067" lat="33.979422"><ele>313.870032</ele><time>2025-04-22T03:11:08Z</time><extensions><speed>1.216013</speed><course>269.473127</course><hAcc>1.281425</hAcc><vAcc>0.802600</vAcc></extensions></trkpt>
      <trkpt lon="-117.334080" lat="33.979421"><ele>313.851468</ele><time>2025-04-22T03:11:09Z</time><extensions><speed>1.151037</speed><course>267.317833</course><hAcc>1.276047</hAcc><vAcc>0.800166</vAcc></extensions></trkpt>
      <trkpt lon="-117.334092" lat="33.979421"><ele>313.834551</ele><time>2025-04-22T03:11:10Z</time><extensions><speed>1.126232</speed><course>266.498129</course><hAcc>1.270658</hAcc><vAcc>0.798231</vAcc></extensions></trkpt>
      <trkpt lon="-117.334104" lat="33.979420"><ele>313.827739</ele><time>2025-04-22T03:11:11Z</time><extensions><speed>1.013833</speed><course>268.385097</course><hAcc>1.263900</hAcc><vAcc>0.796660</vAcc></extensions></trkpt>
      <trkpt lon="-117.334114" lat="33.979420"><ele>313.827781</ele><time>2025-04-22T03:11:12Z</time><extensions><speed>0.939596</speed><course>271.099464</course><hAcc>1.255069</hAcc><vAcc>0.795611</vAcc></extensions></trkpt>
      <trkpt lon="-117.334125" lat="33.979421"><ele>313.820178</ele><time>2025-04-22T03:11:13Z</time><extensions><speed>0.987866</speed><course>273.574275</course><hAcc>1.280089</hAcc><vAcc>0.794804</vAcc></extensions></trkpt>
      <trkpt lon="-117.334137" lat="33.979421"><ele>313.821592</ele><time>2025-04-22T03:11:14Z</time><extensions><speed>1.204720</speed><course>271.833607</course><hAcc>1.255967</hAcc><vAcc>0.794563</vAcc></extensions></trkpt>
      <trkpt lon="-117.334150" lat="33.979421"><ele>313.820491</ele><time>2025-04-22T03:11:15Z</time><extensions><speed>1.292029</speed><course>270.037450</course><hAcc>1.250746</hAcc><vAcc>0.795132</vAcc></extensions></trkpt>
      <trkpt lon="-117.334164" lat="33.979421"><ele>313.821728</ele><time>2025-04-22T03:11:16Z</time><extensions><speed>1.305651</speed><course>268.093526</course><hAcc>1.249575</hAcc><vAcc>0.795590</vAcc></extensions></trkpt>
      <trkpt lon="-117.334178" lat="33.979421"><ele>313.842913</ele><time>2025-04-22T03:11:17Z</time><extensions><speed>1.190054</speed><course>267.619613</course><hAcc>1.258788</hAcc><vAcc>0.796418</vAcc></extensions></trkpt>
      <trkpt lon="-117.334190" lat="33.979420"><ele>313.863233</ele><time>2025-04-22T03:11:18Z</time><extensions><speed>1.174939</speed><course>267.872846</course><hAcc>1.261711</hAcc><vAcc>0.798451</vAcc></extensions></trkpt>
      <trkpt lon="-117.334203" lat="33.979420"><ele>313.883660</ele><time>2025-04-22T03:11:19Z</time><extensions><speed>1.183932</speed><course>267.455039</course><hAcc>1.273557</hAcc><vAcc>0.801632</vAcc></extensions></trkpt>
      <trkpt lon="-117.334216" lat="33.979419"><ele>313.923778</ele><time>2025-04-22T03:11:20Z</time><extensions><speed>1.174860</speed><course>265.769214</course><hAcc>1.293866</hAcc><vAcc>0.805488</vAcc></extensions></trkpt>
      <trkpt lon="-117.334229" lat="33.979418"><ele>313.955916</ele><time>2025-04-22T03:11:21Z</time><extensions><speed>1.184680</speed><course>263.869827</course><hAcc>1.320245</hAcc><vAcc>0.808837</vAcc></extensions></trkpt>
      <trkpt lon="-117.334240" lat="33.979417"><ele>313.976735</ele><time>2025-04-22T03:11:22Z</time><extensions><speed>0.968370</speed><course>264.347682</course><hAcc>1.345585</hAcc><vAcc>0.811987</vAcc></extensions></trkpt>
      <trkpt lon="-117.334249" lat="33.979416"><ele>313.979990</ele><time>2025-04-22T03:11:23Z</time><extensions><speed>0.748023</speed><course>264.843399</course><hAcc>1.364473</hAcc><vAcc>0.814725</vAcc></extensions></trkpt>
      <trkpt lon="-117.334257" lat="33.979416"><ele>313.979629</ele><time>2025-04-22T03:11:24Z</time><extensions><speed>0.566793</speed><course>264.703166</course><hAcc>1.383437</hAcc><vAcc>0.817717</vAcc></extensions></trkpt>
      <trkpt lon="-117.334262" lat="33.979415"><ele>313.973416</ele><time>2025-04-22T03:11:25Z</time><extensions><speed>0.411877</speed><course>258.333378</course><hAcc>1.395684</hAcc><vAcc>0.820544</vAcc></extensions></trkpt>
      <trkpt lon="-117.334267" lat="33.979414"><ele>313.964062</ele><time>2025-04-22T03:11:26Z</time><extensions><speed>0.513769</speed><course>256.730847</course><hAcc>1.381110</hAcc><vAcc>0.823318</vAcc></extensions></trkpt>
      <trkpt lon="-117.334274" lat="33.979413"><ele>313.947677</ele><time>2025-04-22T03:11:27Z</time><extensions><speed>0.785133</speed><course>256.805770</course><hAcc>1.376363</hAcc><vAcc>0.825505</vAcc></extensions></trkpt>
      <trkpt lon="-117.334284" lat="33.979412"><ele>313.920279</ele><time>2025-04-22T03:11:28Z</time><extensions><speed>1.150635</speed><course>264.850072</course><hAcc>1.393886</hAcc><vAcc>0.827333</vAcc></extensions></trkpt>
      <trkpt lon="-117.334297" lat="33.979411"><ele>313.885050</ele><time>2025-04-22T03:11:29Z</time><extensions><speed>1.191661</speed><course>266.918911</course><hAcc>1.402063</hAcc><vAcc>0.828822</vAcc></extensions></trkpt>
      <trkpt lon="-117.334309" lat="33.979411"><ele>313.849949</ele><time>2025-04-22T03:11:30Z</time><extensions><speed>1.156199</speed><course>269.578738</course><hAcc>1.368810</hAcc><vAcc>0.829942</vAcc></extensions></trkpt>
      <trkpt lon="-117.334321" lat="33.979411"><ele>313.800960</ele><time>2025-04-22T03:11:31Z</time><extensions><speed>1.073712</speed><course>272.522066</course><hAcc>1.351332</hAcc><vAcc>0.830718</vAcc></extensions></trkpt>
      <trkpt lon="-117.334333" lat="33.979411"><ele>313.747488</ele><time>2025-04-22T03:11:32Z</time><extensions><speed>1.079648</speed><course>271.898198</course><hAcc>1.343015</hAcc><vAcc>0.831227</vAcc></extensions></trkpt>
      <trkpt lon="-117.334345" lat="33.979411"><ele>313.685958</ele><time>2025-04-22T03:11:33Z</time><extensions><speed>1.156216</speed><course>270.871227</course><hAcc>1.333773</hAcc><vAcc>0.831611</vAcc></extensions></trkpt>
      <trkpt lon="-117.334358" lat="33.979411"><ele>313.615495</ele><time>2025-04-22T03:11:34Z</time><extensions><speed>1.146778</speed><course>268.321213</course><hAcc>1.333655</hAcc><vAcc>0.832616</vAcc></extensions></trkpt>
      <trkpt lon="-117.334370" lat="33.979411"><ele>313.538443</ele><time>2025-04-22T03:11:35Z</time><extensions><speed>1.199155</speed><course>266.872419</course><hAcc>1.340062</hAcc><vAcc>0.832926</vAcc></extensions></trkpt>
      <trkpt lon="-117.334383" lat="33.979410"><ele>313.461940</ele><time>2025-04-22T03:11:36Z</time><extensions><speed>1.196467</speed><course>266.177297</course><hAcc>1.344539</hAcc><vAcc>0.832900</vAcc></extensions></trkpt>
      <trkpt lon="-117.334396" lat="33.979409"><ele>313.388800</ele><time>2025-04-22T03:11:37Z</time><extensions><speed>1.163232</speed><course>266.101153</course><hAcc>1.347443</hAcc><vAcc>0.832934</vAcc></extensions></trkpt>
      <trkpt lon="-117.334408" lat="33.979409"><ele>313.316411</ele><time>2025-04-22T03:11:38Z</time><extensions><speed>1.126659</speed><course>265.998242</course><hAcc>1.349519</hAcc><vAcc>0.833018</vAcc></extensions></trkpt>
      <trkpt lon="-117.334420" lat="33.979408"><ele>313.248892</ele><time>2025-04-22T03:11:39Z</time><extensions><speed>1.081326</speed><course>266.695312</course><hAcc>1.358173</hAcc><vAcc>0.833703</vAcc></extensions></trkpt>
      <trkpt lon="-117.334432" lat="33.979407"><ele>313.180595</ele><time>2025-04-22T03:11:40Z</time><extensions><speed>1.073391</speed><course>267.577685</course><hAcc>1.368264</hAcc><vAcc>0.842202</vAcc></extensions></trkpt>
      <trkpt lon="-117.334444" lat="33.979407"><ele>313.113578</ele><time>2025-04-22T03:11:41Z</time><extensions><speed>1.087635</speed><course>268.563437</course><hAcc>1.383211</hAcc><vAcc>0.855857</vAcc></extensions></trkpt>
      <trkpt lon="-117.334456" lat="33.979407"><ele>313.048158</ele><time>2025-04-22T03:11:42Z</time><extensions><speed>1.104438</speed><course>269.769536</course><hAcc>1.394647</hAcc><vAcc>0.876936</vAcc></extensions></trkpt>
      <trkpt lon="-117.334468" lat="33.979407"><ele>312.984612</ele><time>2025-04-22T03:11:43Z</time><extensions><speed>1.123099</speed><course>270.285044</course><hAcc>1.401628</hAcc><vAcc>0.908186</vAcc></extensions></trkpt>
      <trkpt lon="-117.334480" lat="33.979407"><ele>312.923160</ele><time>2025-04-22T03:11:44Z</time><extensions><speed>1.141729</speed><course>270.838210</course><hAcc>1.414707</hAcc><vAcc>0.952705</vAcc></extensions></trkpt>
      <trkpt lon="-117.334492" lat="33.979407"><ele>312.863920</ele><time>2025-04-22T03:11:45Z</time><extensions><speed>1.088446</speed><course>273.184216</course><hAcc>1.441332</hAcc><vAcc>1.013738</vAcc></extensions></trkpt>
      <trkpt lon="-117.334503" lat="33.979408"><ele>312.806807</ele><time>2025-04-22T03:11:46Z</time><extensions><speed>1.056647</speed><course>277.216740</course><hAcc>1.489745</hAcc><vAcc>1.094377</vAcc></extensions></trkpt>
      <trkpt lon="-117.334515" lat="33.979410"><ele>312.751494</ele><time>2025-04-22T03:11:47Z</time><extensions><speed>1.079607</speed><course>279.480641</course><hAcc>1.571375</hAcc><vAcc>1.197193</vAcc></extensions></trkpt>
      <trkpt lon="-117.334526" lat="33.979412"><ele>312.697491</ele><time>2025-04-22T03:11:48Z</time><extensions><speed>1.072744</speed><course>282.179353</course><hAcc>1.716065</hAcc><vAcc>1.323970</vAcc></extensions></trkpt>
      <trkpt lon="-117.334538" lat="33.979414"><ele>312.644249</ele><time>2025-04-22T03:11:49Z</time><extensions><speed>1.101288</speed><course>283.375718</course><hAcc>1.998638</hAcc><vAcc>1.475624</vAcc></extensions></trkpt>
    </trkseg>
  </trk>
</gpx>