<?xml version="1.0" encoding="UTF-8"?>
<gpx version="1.1" creator="Apple Health Export" xmlns="http://www.topografix.com/GPX/1/1" xmlns:xsi="http://www.w3.org/2001/XMLSchema-instance" xsi:schemaLocation="http://www.topografix.com/GPX/1/1 http://www.topografix.com/GPX/1/1/gpx.xsd">
  <metadata>
    <time>2026-01-11T07:58:07Z</time>
  </metadata>
  <trk>
    <name>Route 2025-03-10 7:17pm</name>
    <trkseg>
      <trkpt lon="-117.332010" lat="33.979293"><ele>317.632445</ele><time>2025-03-11T02:13:00Z</time><extensions><speed>1.427644</speed><course>111.428121</course><hAcc>2.601060</hAcc><vAcc>1.467724</vAcc></extensions></trkpt>
      <trkpt lon="-117.331996" lat="33.979288"><ele>317.611034</ele><time>2025-03-11T02:13:01Z</time><extensions><speed>1.236752</speed><course>101.407566</course><hAcc>2.402661</hAcc><vAcc>1.280298</vAcc></extensions></trkpt>
      <trkpt lon="-117.331983" lat="33.979285"><ele>317.592677</ele><time>2025-03-11T02:13:02Z</time><extensions><speed>0.921330</speed><course>104.010411</course><hAcc>2.234757</hAcc><vAcc>1.134374</vAcc></extensions></trkpt>
      <trkpt lon="-117.331976" lat="33.979283"><ele>317.586239</ele><time>2025-03-11T02:13:03Z</time><extensions><speed>0.059141</speed><course>117.207675</course><hAcc>2.088795</hAcc><vAcc>0.990402</vAcc></extensions></trkpt>
      <trkpt lon="-117.331975" lat="33.979282"><ele>317.589443</ele><time>2025-03-11T02:13:04Z</time><extensions><speed>0.033497</speed><course>134.363070</course><hAcc>1.993986</hAcc><vAcc>0.915915</vAcc></extensions></trkpt>
      <trkpt lon="-117.331973" lat="33.979281"><ele>317.595195</ele><time>2025-03-11T02:13:05Z</time><extensions><speed>0.112267</speed><course>114.121807</course><hAcc>1.910680</hAcc><vAcc>0.863553</vAcc></extensions></trkpt>
      <trkpt lon="-117.331966" lat="33.979280"><ele>317.603054</ele><time>2025-03-11T02:13:06Z</time><extensions><speed>1.079158</speed><course>102.768095</course><hAcc>1.836223</hAcc><vAcc>0.828121</vAcc></extensions></trkpt>
      <trkpt lon="-117.331953" lat="33.979279"><ele>317.613778</ele><time>2025-03-11T02:13:07Z</time><extensions><speed>1.227612</speed><course>96.521184</course><hAcc>1.769736</hAcc><vAcc>0.805014</vAcc></extensions></trkpt>
      <trkpt lon="-117.331938" lat="33.979278"><ele>317.626578</ele><time>2025-03-11T02:13:08Z</time><extensions><speed>1.342460</speed><course>97.243176</course><hAcc>1.718683</hAcc><vAcc>0.790438</vAcc></extensions></trkpt>
      <trkpt lon="-117.331923" lat="33.979277"><ele>317.641620</ele><time>2025-03-11T02:13:09Z</time><extensions><speed>1.345832</speed><course>95.039581</course><hAcc>1.681755</hAcc><vAcc>0.781470</vAcc></extensions></trkpt>
      <trkpt lon="-117.331909" lat="33.979275"><ele>317.659442</ele><time>2025-03-11T02:13:10Z</time><extensions><speed>1.320491</speed><course>98.387165</course><hAcc>1.648126</hAcc><vAcc>0.776000</vAcc></extensions></trkpt>
      <trkpt lon="-117.331896" lat="33.979274"><ele>317.679687</ele><time>2025-03-11T02:13:11Z</time><extensions><speed>0.984391</speed><course>98.971374</course><hAcc>1.626881</hAcc><vAcc>0.772590</vAcc></extensions></trkpt>
      <trkpt lon="-117.331886" lat="33.979273"><ele>317.701595</ele><time>2025-03-11T02:13:12Z</time><extensions><speed>1.005931</speed><course>100.076636</course><hAcc>1.600058</hAcc><vAcc>0.770316</vAcc></extensions></trkpt>
      <trkpt lon="-117.331875" lat="33.979271"><ele>317.723598</ele><time>2025-03-11T02:13:13Z</time><extensions><speed>1.007826</speed><course>100.431770</course><hAcc>1.580122</hAcc><vAcc>0.768621</vAcc></extensions></trkpt>
      <trkpt lon="-117.331864" lat="33.979269"><ele>317.747144</ele><time>2025-03-11T02:13:14Z</time><extensions><speed>1.013809</speed><course>104.320188</course><hAcc>1.582338</hAcc><vAcc>0.767197</vAcc></extensions></trkpt>
      <trkpt lon="-117.331853" lat="33.979268"><ele>317.775392</ele><time>2025-03-11T02:13:15Z</time><extensions><speed>1.052966</speed><course>95.956358</course><hAcc>1.582968</hAcc><vAcc>0.765894</vAcc></extensions></trkpt>
      <trkpt lon="-117.331841" lat="33.979268"><ele>317.802511</ele><time>2025-03-11T02:13:16Z</time><extensions><speed>1.242942</speed><course>90.475215</course><hAcc>1.590351</hAcc><vAcc>0.764655</vAcc></extensions></trkpt>
      <trkpt lon="-117.331827" lat="33.979268"><ele>317.830010</ele><time>2025-03-11T02:13:17Z</time><extensions><speed>1.317782</speed><course>88.663788</course><hAcc>1.597946</hAcc><vAcc>0.763473</vAcc></extensions></trkpt>
      <trkpt lon="-117.331813" lat="33.979269"><ele>317.856809</ele><time>2025-03-11T02:13:18Z</time><extensions><speed>1.306557</speed><course>86.356302</course><hAcc>1.604600</hAcc><vAcc>0.762364</vAcc></extensions></trkpt>
      <trkpt lon="-117.331798" lat="33.979271"><ele>317.883739</ele><time>2025-03-11T02:13:19Z</time><extensions><speed>1.276084</speed><course>83.894147</course><hAcc>1.630935</hAcc><vAcc>0.761349</vAcc></extensions></trkpt>
      <trkpt lon="-117.331785" lat="33.979273"><ele>317.910795</ele><time>2025-03-11T02:13:20Z</time><extensions><speed>1.194171</speed><course>83.165980</course><hAcc>1.640646</hAcc><vAcc>0.760444</vAcc></extensions></trkpt>
      <trkpt lon="-117.331772" lat="33.979275"><ele>317.938835</ele><time>2025-03-11T02:13:21Z</time><extensions><speed>1.173296</speed><course>83.420490</course><hAcc>1.641746</hAcc><vAcc>0.759660</vAcc></extensions></trkpt>
      <trkpt lon="-117.331759" lat="33.979277"><ele>317.978644</ele><time>2025-03-11T02:13:22Z</time><extensions><speed>1.145416</speed><course>84.627719</course><hAcc>1.633344</hAcc><vAcc>0.758997</vAcc></extensions></trkpt>
      <trkpt lon="-117.331745" lat="33.979280"><ele>318.019794</ele><time>2025-03-11T02:13:23Z</time><extensions><speed>1.150214</speed><course>86.124867</course><hAcc>1.586797</hAcc><vAcc>0.758452</vAcc></extensions></trkpt>
      <trkpt lon="-117.331732" lat="33.979281"><ele>318.064510</ele><time>2025-03-11T02:13:24Z</time><extensions><speed>1.164284</speed><course>85.168812</course><hAcc>1.549764</hAcc><vAcc>0.758015</vAcc></extensions></trkpt>
      <trkpt lon="-117.331719" lat="33.979282"><ele>318.108782</ele><time>2025-03-11T02:13:25Z</time><extensions><speed>1.168949</speed><course>84.812484</course><hAcc>1.536080</hAcc><vAcc>0.757673</vAcc></extensions></trkpt>
      <trkpt lon="-117.331706" lat="33.979284"><ele>318.167435</ele><time>2025-03-11T02:13:26Z</time><extensions><speed>1.151088</speed><course>88.300115</course><hAcc>1.512896</hAcc><vAcc>0.758080</vAcc></extensions></trkpt>
      <trkpt lon="-117.331693" lat="33.979285"><ele>318.230801</ele><time>2025-03-11T02:13:27Z</time><extensions><speed>1.164844</speed><course>87.180505</course><hAcc>1.490887</hAcc><vAcc>0.758767</vAcc></extensions></trkpt>
      <trkpt lon="-117.331680" lat="33.979286"><ele>318.297576</ele><time>2025-03-11T02:13:28Z</time><extensions><speed>1.193759</speed><course>86.614109</course><hAcc>1.485170</hAcc><vAcc>0.759671</vAcc></extensions></trkpt>
      <trkpt lon="-117.331667" lat="33.979286"><ele>318.363521</ele><time>2025-03-11T02:13:29Z</time><extensions><speed>1.212942</speed><course>86.005426</course><hAcc>1.480072</hAcc><vAcc>0.761425</vAcc></extensions></trkpt>
      <trkpt lon="-117.331654" lat="33.979287"><ele>318.428165</ele><time>2025-03-11T02:13:30Z</time><extensions><speed>1.226688</speed><course>85.472528</course><hAcc>1.471977</hAcc><vAcc>0.763552</vAcc></extensions></trkpt>
      <trkpt lon="-117.331641" lat="33.979288"><ele>318.497702</ele><time>2025-03-11T02:13:31Z</time><extensions><speed>1.240024</speed><course>84.377586</course><hAcc>1.471356</hAcc><vAcc>0.766265</vAcc></extensions></trkpt>
      <trkpt lon="-117.331627" lat="33.979290"><ele>318.570763</ele><time>2025-03-11T02:13:32Z</time><extensions><speed>1.292911</speed><course>75.689557</course><hAcc>1.470525</hAcc><vAcc>0.769825</vAcc></extensions></trkpt>
      <trkpt lon="-117.331613" lat="33.979293"><ele>318.644759</ele><time>2025-03-11T02:13:33Z</time><extensions><speed>1.485877</speed><course>77.180258</course><hAcc>1.390621</hAcc><vAcc>0.773529</vAcc></extensions></trkpt>
      <trkpt lon="-117.331597" lat="33.979296"><ele>318.723605</ele><time>2025-03-11T02:13:34Z</time><extensions><speed>1.489411</speed><course>78.768147</course><hAcc>1.359585</hAcc><vAcc>0.777007</vAcc></extensions></trkpt>
      <trkpt lon="-117.331581" lat="33.979298"><ele>318.798161</ele><time>2025-03-11T02:13:35Z</time><extensions><speed>1.422183</speed><course>80.479138</course><hAcc>1.368132</hAcc><vAcc>0.780811</vAcc></extensions></trkpt>
      <trkpt lon="-117.331567" lat="33.979299"><ele>318.870277</ele><time>2025-03-11T02:13:36Z</time><extensions><speed>1.269565</speed><course>86.545154</course><hAcc>1.389938</hAcc><vAcc>0.784078</vAcc></extensions></trkpt>
      <trkpt lon="-117.331554" lat="33.979300"><ele>318.938546</ele><time>2025-03-11T02:13:37Z</time><extensions><speed>1.162317</speed><course>88.849035</course><hAcc>1.381570</hAcc><vAcc>0.786873</vAcc></extensions></trkpt>
      <trkpt lon="-117.331542" lat="33.979300"><ele>319.005315</ele><time>2025-03-11T02:13:38Z</time><extensions><speed>0.999055</speed><course>93.108072</course><hAcc>1.362899</hAcc><vAcc>0.789407</vAcc></extensions></trkpt>
      <trkpt lon="-117.331531" lat="33.979299"><ele>319.073476</ele><time>2025-03-11T02:13:39Z</time><extensions><speed>0.973184</speed><course>94.816406</course><hAcc>1.329763</hAcc><vAcc>0.790762</vAcc></extensions></trkpt>
      <trkpt lon="-117.331520" lat="33.979298"><ele>319.139382</ele><time>2025-03-11T02:13:40Z</time><extensions><speed>1.083340</speed><course>94.085613</course><hAcc>1.317312</hAcc><vAcc>0.791383</vAcc></extensions></trkpt>
      <trkpt lon="-117.331507" lat="33.979297"><ele>319.197784</ele><time>2025-03-11T02:13:41Z</time><extensions><speed>1.261181</speed><course>95.212916</course><hAcc>1.307325</hAcc><vAcc>0.791468</vAcc></extensions></trkpt>
      <trkpt lon="-117.331494" lat="33.979296"><ele>319.256731</ele><time>2025-03-11T02:13:42Z</time><extensions><speed>1.165695</speed><course>97.108999</course><hAcc>1.315380</hAcc><vAcc>0.790787</vAcc></extensions></trkpt>
      <trkpt lon="-117.331481" lat="33.979294"><ele>319.324352</ele><time>2025-03-11T02:13:43Z</time><extensions><speed>1.225306</speed><course>101.835068</course><hAcc>1.273702</hAcc><vAcc>0.789071</vAcc></extensions></trkpt>
      <trkpt lon="-117.331469" lat="33.979292"><ele>319.391957</ele><time>2025-03-11T02:13:44Z</time><extensions><speed>1.096858</speed><course>100.772870</course><hAcc>1.258412</hAcc><vAcc>0.786823</vAcc></extensions></trkpt>
      <trkpt lon="-117.331458" lat="33.979290"><ele>319.448485</ele><time>2025-03-11T02:13:45Z</time><extensions><speed>1.046866</speed><course>99.586910</course><hAcc>1.251509</hAcc><vAcc>0.784671</vAcc></extensions></trkpt>
      <trkpt lon="-117.331445" lat="33.979289"><ele>319.519655</ele><time>2025-03-11T02:13:46Z</time><extensions><speed>1.230153</speed><course>99.285344</course><hAcc>1.227896</hAcc><vAcc>0.782549</vAcc></extensions></trkpt>
      <trkpt lon="-117.331431" lat="33.979287"><ele>319.574828</ele><time>2025-03-11T02:13:48Z</time><extensions><speed>1.418603</speed><course>99.651690</course><hAcc>1.212568</hAcc><vAcc>0.780786</vAcc></extensions></trkpt>
      <trkpt lon="-117.331416" lat="33.979284"><ele>319.613112</ele><time>2025-03-11T02:13:49Z</time><extensions><speed>1.383021</speed><course>99.748491</course><hAcc>1.211756</hAcc><vAcc>0.779694</vAcc></extensions></trkpt>
      <trkpt lon="-117.331401" lat="33.979282"><ele>319.641917</ele><time>2025-03-11T02:13:50Z</time><extensions><speed>1.475785</speed><course>101.588090</course><hAcc>1.189431</hAcc><vAcc>0.778974</vAcc></extensions></trkpt>
      <trkpt lon="-117.331386" lat="33.979280"><ele>319.662729</ele><time>2025-03-11T02:13:51Z</time><extensions><speed>1.294484</speed><course>100.805915</course><hAcc>1.205619</hAcc><vAcc>0.779307</vAcc></extensions></trkpt>
      <trkpt lon="-117.331372" lat="33.979277"><ele>319.686135</ele><time>2025-03-11T02:13:52Z</time><extensions><speed>1.343001</speed><course>100.488146</course><hAcc>1.188435</hAcc><vAcc>0.779584</vAcc></extensions></trkpt>
      <trkpt lon="-117.331358" lat="33.979275"><ele>319.700734</ele><time>2025-03-11T02:13:53Z</time><extensions><speed>1.295036</speed><course>102.326701</course><hAcc>1.185730</hAcc><vAcc>0.780722</vAcc></extensions></trkpt>
      <trkpt lon="-117.331344" lat="33.979272"><ele>319.708933</ele><time>2025-03-11T02:13:54Z</time><extensions><speed>1.363578</speed><course>107.310398</course><hAcc>1.171816</hAcc><vAcc>0.782508</vAcc></extensions></trkpt>
      <trkpt lon="-117.331330" lat="33.979268"><ele>319.715293</ele><time>2025-03-11T02:13:55Z</time><extensions><speed>1.420124</speed><course>112.417101</course><hAcc>1.198257</hAcc><vAcc>0.784599</vAcc></extensions></trkpt>
      <trkpt lon="-117.331316" lat="33.979263"><ele>319.713710</ele><time>2025-03-11T02:13:56Z</time><extensions><speed>1.250768</speed><course>114.640327</course><hAcc>1.246197</hAcc><vAcc>0.787343</vAcc></extensions></trkpt>
      <trkpt lon="-117.331304" lat="33.979258"><ele>319.704999</ele><time>2025-03-11T02:13:57Z</time><extensions><speed>1.329307</speed><course>116.666552</course><hAcc>1.228734</hAcc><vAcc>0.790169</vAcc></extensions></trkpt>
      <trkpt lon="-117.331291" lat="33.979253"><ele>319.684875</ele><time>2025-03-11T02:13:58Z</time><extensions><speed>1.340828</speed><course>114.548265</course><hAcc>1.240914</hAcc><vAcc>0.792920</vAcc></extensions></trkpt>
      <trkpt lon="-117.331276" lat="33.979248"><ele>319.665925</ele><time>2025-03-11T02:13:59Z</time><extensions><speed>1.433231</speed><course>108.275584</course><hAcc>1.265122</hAcc><vAcc>0.796052</vAcc></extensions></trkpt>
      <trkpt lon="-117.331261" lat="33.979245"><ele>319.643603</ele><time>2025-03-11T02:14:00Z</time><extensions><speed>1.547106</speed><course>103.553495</course><hAcc>1.286144</hAcc><vAcc>0.799327</vAcc></extensions></trkpt>
      <trkpt lon="-117.331245" lat="33.979242"><ele>319.623199</ele><time>2025-03-11T02:14:01Z</time><extensions><speed>1.365837</speed><course>100.021355</course><hAcc>1.313479</hAcc><vAcc>0.802423</vAcc></extensions></trkpt>
      <trkpt lon="-117.331230" lat="33.979241"><ele>319.608015</ele><time>2025-03-11T02:14:02Z</time><extensions><speed>1.480862</speed><course>92.349324</course><hAcc>1.299133</hAcc><vAcc>0.805429</vAcc></extensions></trkpt>
      <trkpt lon="-117.331215" lat="33.979241"><ele>319.596131</ele><time>2025-03-11T02:14:03Z</time><extensions><speed>1.370677</speed><course>87.769833</course><hAcc>1.313304</hAcc><vAcc>0.807940</vAcc></extensions></trkpt>
      <trkpt lon="-117.331198" lat="33.979241"><ele>319.588442</ele><time>2025-03-11T02:14:04Z</time><extensions><speed>1.614517</speed><course>87.055165</course><hAcc>1.287262</hAcc><vAcc>0.809654</vAcc></extensions></trkpt>
      <trkpt lon="-117.331181" lat="33.979242"><ele>319.599464</ele><time>2025-03-11T02:14:05Z</time><extensions><speed>1.673570</speed><course>85.131769</course><hAcc>1.280602</hAcc><vAcc>0.809954</vAcc></extensions></trkpt>
      <trkpt lon="-117.331163" lat="33.979244"><ele>319.627758</ele><time>2025-03-11T02:14:06Z</time><extensions><speed>1.677020</speed><course>85.949081</course><hAcc>1.279862</hAcc><vAcc>0.809863</vAcc></extensions></trkpt>
      <trkpt lon="-117.331145" lat="33.979244"><ele>319.672016</ele><time>2025-03-11T02:14:07Z</time><extensions><speed>1.661040</speed><course>88.783964</course><hAcc>1.272841</hAcc><vAcc>0.808959</vAcc></extensions></trkpt>
      <trkpt lon="-117.331127" lat="33.979244"><ele>319.727052</ele><time>2025-03-11T02:14:08Z</time><extensions><speed>1.648237</speed><course>90.929586</course><hAcc>1.266888</hAcc><vAcc>0.807584</vAcc></extensions></trkpt>
      <trkpt lon="-117.331109" lat="33.979244"><ele>319.774958</ele><time>2025-03-11T02:14:09Z</time><extensions><speed>1.596206</speed><course>92.950983</course><hAcc>1.259942</hAcc><vAcc>0.805942</vAcc></extensions></trkpt>
      <trkpt lon="-117.331092" lat="33.979243"><ele>319.853106</ele><time>2025-03-11T02:14:10Z</time><extensions><speed>1.592290</speed><course>92.954516</course><hAcc>1.250432</hAcc><vAcc>0.804044</vAcc></extensions></trkpt>
      <trkpt lon="-117.331075" lat="33.979243"><ele>319.932035</ele><time>2025-03-11T02:14:11Z</time><extensions><speed>1.533199</speed><course>93.028493</course><hAcc>1.256891</hAcc><vAcc>0.801671</vAcc></extensions></trkpt>
      <trkpt lon="-117.331059" lat="33.979242"><ele>320.029745</ele><time>2025-03-11T02:14:12Z</time><extensions><speed>1.487715</speed><course>95.519839</course><hAcc>1.264898</hAcc><vAcc>0.799152</vAcc></extensions></trkpt>
      <trkpt lon="-117.331043" lat="33.979240"><ele>320.126730</ele><time>2025-03-11T02:14:13Z</time><extensions><speed>1.441390</speed><course>95.026438</course><hAcc>1.268736</hAcc><vAcc>0.796305</vAcc></extensions></trkpt>
      <trkpt lon="-117.331028" lat="33.979240"><ele>320.239181</ele><time>2025-03-11T02:14:14Z</time><extensions><speed>1.376311</speed><course>91.750735</course><hAcc>1.264086</hAcc><vAcc>0.793237</vAcc></extensions></trkpt>
      <trkpt lon="-117.331013" lat="33.979240"><ele>320.363082</ele><time>2025-03-11T02:14:15Z</time><extensions><speed>1.292419</speed><course>86.538273</course><hAcc>1.254793</hAcc><vAcc>0.790534</vAcc></extensions></trkpt>
      <trkpt lon="-117.331000" lat="33.979241"><ele>320.471649</ele><time>2025-03-11T02:14:16Z</time><extensions><speed>1.244699</speed><course>79.377048</course><hAcc>1.258063</hAcc><vAcc>0.788443</vAcc></extensions></trkpt>
      <trkpt lon="-117.330987" lat="33.979244"><ele>320.578634</ele><time>2025-03-11T02:14:17Z</time><extensions><speed>1.245719</speed><course>71.074158</course><hAcc>1.257291</hAcc><vAcc>0.786970</vAcc></extensions></trkpt>
      <trkpt lon="-117.330974" lat="33.979249"><ele>320.681074</ele><time>2025-03-11T02:14:18Z</time><extensions><speed>1.234622</speed><course>64.894576</course><hAcc>1.254369</hAcc><vAcc>0.785583</vAcc></extensions></trkpt>
      <trkpt lon="-117.330961" lat="33.979254"><ele>320.787106</ele><time>2025-03-11T02:14:19Z</time><extensions><speed>1.374082</speed><course>65.070558</course><hAcc>1.252764</hAcc><vAcc>0.784672</vAcc></extensions></trkpt>
      <trkpt lon="-117.330947" lat="33.979259"><ele>320.889778</ele><time>2025-03-11T02:14:20Z</time><extensions><speed>1.513603</speed><course>63.977826</course><hAcc>1.254752</hAcc><vAcc>0.784183</vAcc></extensions></trkpt>
      <trkpt lon="-117.330932" lat="33.979265"><ele>320.986324</ele><time>2025-03-11T02:14:21Z</time><extensions><speed>1.661523</speed><course>66.576755</course><hAcc>1.260234</hAcc><vAcc>0.784267</vAcc></extensions></trkpt>
      <trkpt lon="-117.330915" lat="33.979270"><ele>321.071965</ele><time>2025-03-11T02:14:22Z</time><extensions><speed>1.517311</speed><course>74.998912</course><hAcc>1.276286</hAcc><vAcc>0.784035</vAcc></extensions></trkpt>
      <trkpt lon="-117.330900" lat="33.979274"><ele>321.146021</ele><time>2025-03-11T02:14:23Z</time><extensions><speed>1.460343</speed><course>74.367620</course><hAcc>1.255042</hAcc><vAcc>0.783626</vAcc></extensions></trkpt>
      <trkpt lon="-117.330886" lat="33.979278"><ele>321.211392</ele><time>2025-03-11T02:14:24Z</time><extensions><speed>1.239816</speed><course>64.197893</course><hAcc>1.240727</hAcc><vAcc>0.782909</vAcc></extensions></trkpt>
      <trkpt lon="-117.330874" lat="33.979283"><ele>321.271502</ele><time>2025-03-11T02:14:25Z</time><extensions><speed>1.317697</speed><course>66.014017</course><hAcc>1.263743</hAcc><vAcc>0.781984</vAcc></extensions></trkpt>
      <trkpt lon="-117.330860" lat="33.979288"><ele>321.327536</ele><time>2025-03-11T02:14:26Z</time><extensions><speed>1.357295</speed><course>72.428517</course><hAcc>1.277926</hAcc><vAcc>0.780503</vAcc></extensions></trkpt>
      <trkpt lon="-117.330846" lat="33.979290"><ele>321.378967</ele><time>2025-03-11T02:14:27Z</time><extensions><speed>1.303021</speed><course>81.917924</course><hAcc>1.309098</hAcc><vAcc>0.778616</vAcc></extensions></trkpt>
      <trkpt lon="-117.330832" lat="33.979292"><ele>321.425949</ele><time>2025-03-11T02:14:28Z</time><extensions><speed>1.266738</speed><course>80.411906</course><hAcc>1.281794</hAcc><vAcc>0.776437</vAcc></extensions></trkpt>
      <trkpt lon="-117.330818" lat="33.979295"><ele>321.471450</ele><time>2025-03-11T02:14:29Z</time><extensions><speed>1.459058</speed><course>77.610664</course><hAcc>1.277700</hAcc><vAcc>0.774613</vAcc></extensions></trkpt>
      <trkpt lon="-117.330801" lat="33.979298"><ele>321.520330</ele><time>2025-03-11T02:14:30Z</time><extensions><speed>1.645770</speed><course>74.523137</course><hAcc>1.287213</hAcc><vAcc>0.772923</vAcc></extensions></trkpt>
      <trkpt lon="-117.330785" lat="33.979301"><ele>321.577967</ele><time>2025-03-11T02:14:31Z</time><extensions><speed>1.493118</speed><course>78.466867</course><hAcc>1.311342</hAcc><vAcc>0.771615</vAcc></extensions></trkpt>
      <trkpt lon="-117.330769" lat="33.979305"><ele>321.641545</ele><time>2025-03-11T02:14:32Z</time><extensions><speed>1.480237</speed><course>74.047794</course><hAcc>1.295008</hAcc><vAcc>0.770594</vAcc></extensions></trkpt>
      <trkpt lon="-117.330754" lat="33.979309"><ele>321.697145</ele><time>2025-03-11T02:14:33Z</time><extensions><speed>1.461982</speed><course>68.550945</course><hAcc>1.282844</hAcc><vAcc>0.769690</vAcc></extensions></trkpt>
      <trkpt lon="-117.330740" lat="33.979314"><ele>321.754099</ele><time>2025-03-11T02:14:34Z</time><extensions><speed>1.363244</speed><course>68.055454</course><hAcc>1.281629</hAcc><vAcc>0.769102</vAcc></extensions></trkpt>
      <trkpt lon="-117.330726" lat="33.979318"><ele>321.814351</ele><time>2025-03-11T02:14:35Z</time><extensions><speed>1.282069</speed><course>72.776305</course><hAcc>1.291574</hAcc><vAcc>0.769256</vAcc></extensions></trkpt>
      <trkpt lon="-117.330713" lat="33.979321"><ele>321.886809</ele><time>2025-03-11T02:14:36Z</time><extensions><speed>1.273586</speed><course>74.639513</course><hAcc>1.265949</hAcc><vAcc>0.769694</vAcc></extensions></trkpt>
      <trkpt lon="-117.330699" lat="33.979324"><ele>321.966184</ele><time>2025-03-11T02:14:37Z</time><extensions><speed>1.373376</speed><course>75.156174</course><hAcc>1.251343</hAcc><vAcc>0.770913</vAcc></extensions></trkpt>
      <trkpt lon="-117.330684" lat="33.979328"><ele>322.031662</ele><time>2025-03-11T02:14:38Z</time><extensions><speed>1.562334</speed><course>75.805819</course><hAcc>1.244385</hAcc><vAcc>0.772346</vAcc></extensions></trkpt>
      <trkpt lon="-117.330667" lat="33.979331"><ele>322.100777</ele><time>2025-03-11T02:14:39Z</time><extensions><speed>1.574532</speed><course>77.719279</course><hAcc>1.247790</hAcc><vAcc>0.774577</vAcc></extensions></trkpt>
      <trkpt lon="-117.330651" lat="33.979333"><ele>322.177927</ele><time>2025-03-11T02:14:40Z</time><extensions><speed>1.523906</speed><course>82.366671</course><hAcc>1.254403</hAcc><vAcc>0.777095</vAcc></extensions></trkpt>
      <trkpt lon="-117.330635" lat="33.979335"><ele>322.263858</ele><time>2025-03-11T02:14:41Z</time><extensions><speed>1.454213</speed><course>85.053535</course><hAcc>1.258781</hAcc><vAcc>0.779700</vAcc></extensions></trkpt>
      <trkpt lon="-117.330620" lat="33.979336"><ele>322.353731</ele><time>2025-03-11T02:14:42Z</time><extensions><speed>1.364851</speed><course>84.885076</course><hAcc>1.241606</hAcc><vAcc>0.781829</vAcc></extensions></trkpt>
      <trkpt lon="-117.330605" lat="33.979337"><ele>322.435941</ele><time>2025-03-11T02:14:43Z</time><extensions><speed>1.315825</speed><course>84.083655</course><hAcc>1.228551</hAcc><vAcc>0.784323</vAcc></extensions></trkpt>
      <trkpt lon="-117.330591" lat="33.979338"><ele>322.512249</ele><time>2025-03-11T02:14:44Z</time><extensions><speed>1.380396</speed><course>83.767089</course><hAcc>1.231786</hAcc><vAcc>0.787566</vAcc></extensions></trkpt>
      <trkpt lon="-117.330575" lat="33.979340"><ele>322.595932</ele><time>2025-03-11T02:14:45Z</time><extensions><speed>1.439131</speed><course>83.878749</course><hAcc>1.228853</hAcc><vAcc>0.791260</vAcc></extensions></trkpt>
      <trkpt lon="-117.330559" lat="33.979341"><ele>322.664295</ele><time>2025-03-11T02:14:46Z</time><extensions><speed>1.520341</speed><course>83.571416</course><hAcc>1.219832</hAcc><vAcc>0.794898</vAcc></extensions></trkpt>
      <trkpt lon="-117.330544" lat="33.979343"><ele>322.739687</ele><time>2025-03-11T02:14:47Z</time><extensions><speed>1.358151</speed><course>80.356724</course><hAcc>1.230109</hAcc><vAcc>0.798403</vAcc></extensions></trkpt>
      <trkpt lon="-117.330529" lat="33.979345"><ele>322.818814</ele><time>2025-03-11T02:14:48Z</time><extensions><speed>1.400398</speed><course>80.196280</course><hAcc>1.212001</hAcc><vAcc>0.803017</vAcc></extensions></trkpt>
      <trkpt lon="-117.330515" lat="33.979347"><ele>322.904102</ele><time>2025-03-11T02:14:49Z</time><extensions><speed>1.264678</speed><course>85.293504</course><hAcc>1.222795</hAcc><vAcc>0.807372</vAcc></extensions></trkpt>
      <trkpt lon="-117.330501" lat="33.979347"><ele>322.975715</ele><time>2025-03-11T02:14:50Z</time><extensions><speed>1.307631</speed><course>90.023607</course><hAcc>1.212736</hAcc><vAcc>0.812321</vAcc></extensions></trkpt>
      <trkpt lon="-117.330487" lat="33.979347"><ele>323.037672</ele><time>2025-03-11T02:14:51Z</time><extensions><speed>1.269489</speed><course>88.791583</course><hAcc>1.222029</hAcc><vAcc>0.816417</vAcc></extensions></trkpt>
      <trkpt lon="-117.330473" lat="33.979348"><ele>323.084392</ele><time>2025-03-11T02:14:52Z</time><extensions><speed>1.297558</speed><course>86.796371</course><hAcc>1.207275</hAcc><vAcc>0.820618</vAcc></extensions></trkpt>
      <trkpt lon="-117.330459" lat="33.979348"><ele>323.115506</ele><time>2025-03-11T02:14:53Z</time><extensions><speed>1.339451</speed><course>88.379705</course><hAcc>1.238742</hAcc><vAcc>0.824009</vAcc></extensions></trkpt>
      <trkpt lon="-117.330444" lat="33.979348"><ele>323.127388</ele><time>2025-03-11T02:14:54Z</time><extensions><speed>1.421755</speed><course>90.494177</course><hAcc>1.246548</hAcc><vAcc>0.827084</vAcc></extensions></trkpt>
      <trkpt lon="-117.330428" lat="33.979349"><ele>323.129532</ele><time>2025-03-11T02:14:55Z</time><extensions><speed>1.431198</speed><course>88.018091</course><hAcc>1.255803</hAcc><vAcc>0.830136</vAcc></extensions></trkpt>
      <trkpt lon="-117.330413" lat="33.979350"><ele>323.119022</ele><time>2025-03-11T02:14:56Z</time><extensions><speed>1.492077</speed><course>82.590720</course><hAcc>1.255396</hAcc><vAcc>0.833541</vAcc></extensions></trkpt>
      <trkpt lon="-117.330396" lat="33.979352"><ele>323.104393</ele><time>2025-03-11T02:14:57Z</time><extensions><speed>1.537997</speed><course>80.043671</course><hAcc>1.266721</hAcc><vAcc>0.837296</vAcc></extensions></trkpt>
      <trkpt lon="-117.330381" lat="33.979354"><ele>323.086192</ele><time>2025-03-11T02:14:58Z</time><extensions><speed>1.345249</speed><course>81.194584</course><hAcc>1.301853</hAcc><vAcc>0.840789</vAcc></extensions></trkpt>
      <trkpt lon="-117.330366" lat="33.979355"><ele>323.070211</ele><time>2025-03-11T02:14:59Z</time><extensions><speed>1.382428</speed><course>84.754450</course><hAcc>1.296386</hAcc><vAcc>0.844203</vAcc></extensions></trkpt>
      <trkpt lon="-117.330352" lat="33.979356"><ele>323.044561</ele><time>2025-03-11T02:15:00Z</time><extensions><speed>1.345222</speed><course>84.387220</course><hAcc>1.322750</hAcc><vAcc>0.848089</vAcc></extensions></trkpt>
      <trkpt lon="-117.330337" lat="33.979358"><ele>323.024088</ele><time>2025-03-11T02:15:01Z</time><extensions><speed>1.295749</speed><course>82.894995</course><hAcc>1.307667</hAcc><vAcc>0.852143</vAcc></extensions></trkpt>
      <trkpt lon="-117.330324" lat="33.979359"><ele>323.014432</ele><time>2025-03-11T02:15:02Z</time><extensions><speed>1.236230</speed><course>81.894641</course><hAcc>1.323794</hAcc><vAcc>0.856313</vAcc></extensions></trkpt>
      <trkpt lon="-117.330310" lat="33.979361"><ele>323.016106</ele><time>2025-03-11T02:15:03Z</time><extensions><speed>1.296344</speed><course>83.137321</course><hAcc>1.350557</hAcc><vAcc>0.861128</vAcc></extensions></trkpt>
      <trkpt lon="-117.330296" lat="33.979362"><ele>323.018009</ele><time>2025-03-11T02:15:04Z</time><extensions><speed>1.369886</speed><course>84.712355</course><hAcc>1.373077</hAcc><vAcc>0.867112</vAcc></extensions></trkpt>
      <trkpt lon="-117.330281" lat="33.979363"><ele>323.019593</ele><time>2025-03-11T02:15:05Z</time><extensions><speed>1.342828</speed><course>85.944817</course><hAcc>1.389449</hAcc><vAcc>0.874258</vAcc></extensions></trkpt>
      <trkpt lon="-117.330266" lat="33.979363"><ele>323.034036</ele><time>2025-03-11T02:15:06Z</time><extensions><speed>1.339690</speed><course>86.216700</course><hAcc>1.402521</hAcc><vAcc>0.882260</vAcc></extensions></trkpt>
      <trkpt lon="-117.330252" lat="33.979364"><ele>323.050947</ele><time>2025-03-11T02:15:07Z</time><extensions><speed>1.382961</speed><course>87.486648</course><hAcc>1.419271</hAcc><vAcc>0.890979</vAcc></extensions></trkpt>
      <trkpt lon="-117.330237" lat="33.979364"><ele>323.070073</ele><time>2025-03-11T02:15:08Z</time><extensions><speed>1.400134</speed><course>90.602615</course><hAcc>1.431511</hAcc><vAcc>0.900453</vAcc></extensions></trkpt>
      <trkpt lon="-117.330221" lat="33.979364"><ele>323.088877</ele><time>2025-03-11T02:15:09Z</time><extensions><speed>1.393291</speed><course>95.490418</course><hAcc>1.451389</hAcc><vAcc>0.910149</vAcc></extensions></trkpt>
      <trkpt lon="-117.330207" lat="33.979362"><ele>323.103578</ele><time>2025-03-11T02:15:10Z</time><extensions><speed>1.377687</speed><course>96.279785</course><hAcc>1.481400</hAcc><vAcc>0.920757</vAcc></extensions></trkpt>
      <trkpt lon="-117.330192" lat="33.979361"><ele>323.122516</ele><time>2025-03-11T02:15:11Z</time><extensions><speed>1.358242</speed><course>96.441027</course><hAcc>1.494013</hAcc><vAcc>0.929926</vAcc></extensions></trkpt>
      <trkpt lon="-117.330177" lat="33.979360"><ele>323.140070</ele><time>2025-03-11T02:15:12Z</time><extensions><speed>1.317611</speed><course>93.154736</course><hAcc>1.509519</hAcc><vAcc>0.938765</vAcc></extensions></trkpt>
      <trkpt lon="-117.330163" lat="33.979360"><ele>323.159042</ele><time>2025-03-11T02:15:13Z</time><extensions><speed>1.325351</speed><course>90.863785</course><hAcc>1.529067</hAcc><vAcc>0.945054</vAcc></extensions></trkpt>
      <trkpt lon="-117.330149" lat="33.979359"><ele>323.176854</ele><time>2025-03-11T02:15:14Z</time><extensions><speed>1.296482</speed><course>91.480197</course><hAcc>1.553223</hAcc><vAcc>0.950955</vAcc></extensions></trkpt>
      <trkpt lon="-117.330135" lat="33.979359"><ele>323.206712</ele><time>2025-03-11T02:15:15Z</time><extensions><speed>1.288060</speed><course>93.049926</course><hAcc>1.567834</hAcc><vAcc>0.956308</vAcc></extensions></trkpt>
      <trkpt lon="-117.330121" lat="33.979358"><ele>323.240180</ele><time>2025-03-11T02:15:16Z</time><extensions><speed>1.262318</speed><course>91.730562</course><hAcc>1.574303</hAcc><vAcc>0.960469</vAcc></extensions></trkpt>
      <trkpt lon="-117.330107" lat="33.979358"><ele>323.275304</ele><time>2025-03-11T02:15:17Z</time><extensions><speed>1.296714</speed><course>88.812068</course><hAcc>1.579655</hAcc><vAcc>0.963293</vAcc></extensions></trkpt>
      <trkpt lon="-117.330093" lat="33.979359"><ele>323.309624</ele><time>2025-03-11T02:15:18Z</time><extensions><speed>1.304774</speed><course>86.362534</course><hAcc>1.585773</hAcc><vAcc>0.965355</vAcc></extensions></trkpt>
      <trkpt lon="-117.330080" lat="33.979359"><ele>323.346857</ele><time>2025-03-11T02:15:19Z</time><extensions><speed>1.277344</speed><course>83.947781</course><hAcc>1.596224</hAcc><vAcc>0.966617</vAcc></extensions></trkpt>
      <trkpt lon="-117.330066" lat="33.979361"><ele>323.399543</ele><time>2025-03-11T02:15:20Z</time><extensions><speed>1.223762</speed><course>80.781864</course><hAcc>1.612192</hAcc><vAcc>0.967096</vAcc></extensions></trkpt>
      <trkpt lon="-117.330053" lat="33.979362"><ele>323.446254</ele><time>2025-03-11T02:15:21Z</time><extensions><speed>1.213160</speed><course>83.044088</course><hAcc>1.609836</hAcc><vAcc>0.967647</vAcc></extensions></trkpt>
      <trkpt lon="-117.330040" lat="33.979363"><ele>323.489266</ele><time>2025-03-11T02:15:22Z</time><extensions><speed>1.248464</speed><course>85.624987</course><hAcc>1.610789</hAcc><vAcc>0.969563</vAcc></extensions></trkpt>
      <trkpt lon="-117.330026" lat="33.979364"><ele>323.533179</ele><time>2025-03-11T02:15:23Z</time><extensions><speed>1.241528</speed><course>89.770952</course><hAcc>1.616246</hAcc><vAcc>0.972596</vAcc></extensions></trkpt>
      <trkpt lon="-117.330013" lat="33.979363"><ele>323.578863</ele><time>2025-03-11T02:15:24Z</time><extensions><speed>1.216126</speed><course>93.992054</course><hAcc>1.622767</hAcc><vAcc>0.975188</vAcc></extensions></trkpt>
      <trkpt lon="-117.330000" lat="33.979362"><ele>323.638831</ele><time>2025-03-11T02:15:25Z</time><extensions><speed>1.189483</speed><course>95.359275</course><hAcc>1.629207</hAcc><vAcc>0.977716</vAcc></extensions></trkpt>
      <trkpt lon="-117.329987" lat="33.979361"><ele>323.684756</ele><time>2025-03-11T02:15:26Z</time><extensions><speed>1.170326</speed><course>96.196932</course><hAcc>1.637526</hAcc><vAcc>0.980739</vAcc></extensions></trkpt>
      <trkpt lon="-117.329975" lat="33.979359"><ele>323.721444</ele><time>2025-03-11T02:15:27Z</time><extensions><speed>1.175385</speed><course>94.859801</course><hAcc>1.644887</hAcc><vAcc>0.983725</vAcc></extensions></trkpt>
      <trkpt lon="-117.329962" lat="33.979358"><ele>323.768362</ele><time>2025-03-11T02:15:28Z</time><extensions><speed>1.160042</speed><course>94.495239</course><hAcc>1.652238</hAcc><vAcc>0.986290</vAcc></extensions></trkpt>
      <trkpt lon="-117.329949" lat="33.979357"><ele>323.822974</ele><time>2025-03-11T02:15:29Z</time><extensions><speed>1.175198</speed><course>95.456421</course><hAcc>1.656456</hAcc><vAcc>0.988585</vAcc></extensions></trkpt>
      <trkpt lon="-117.329937" lat="33.979355"><ele>323.875371</ele><time>2025-03-11T02:15:30Z</time><extensions><speed>1.190650</speed><course>100.060871</course><hAcc>1.659464</hAcc><vAcc>0.990124</vAcc></extensions></trkpt>
      <trkpt lon="-117.329924" lat="33.979353"><ele>323.916833</ele><time>2025-03-11T02:15:31Z</time><extensions><speed>1.127355</speed><course>102.984969</course><hAcc>1.679045</hAcc><vAcc>0.991264</vAcc></extensions></trkpt>
      <trkpt lon="-117.329913" lat="33.979351"><ele>323.971678</ele><time>2025-03-11T02:15:32Z</time><extensions><speed>1.007600</speed><course>102.723080</course><hAcc>1.701687</hAcc><vAcc>0.993989</vAcc></extensions></trkpt>
      <trkpt lon="-117.329902" lat="33.979348"><ele>324.038285</ele><time>2025-03-11T02:15:33Z</time><extensions><speed>1.057907</speed><course>106.866626</course><hAcc>1.678986</hAcc><vAcc>0.995510</vAcc></extensions></trkpt>
      <trkpt lon="-117.329890" lat="33.979345"><ele>324.094429</ele><time>2025-03-11T02:15:34Z</time><extensions><speed>1.240120</speed><course>104.678654</course><hAcc>1.677120</hAcc><vAcc>0.994272</vAcc></extensions></trkpt>
      <trkpt lon="-117.329877" lat="33.979343"><ele>324.141285</ele><time>2025-03-11T02:15:35Z</time><extensions><speed>1.322793</speed><course>103.386286</course><hAcc>1.675679</hAcc><vAcc>0.991874</vAcc></extensions></trkpt>
      <trkpt lon="-117.329863" lat="33.979340"><ele>324.195012</ele><time>2025-03-11T02:15:36Z</time><extensions><speed>1.269702</speed><course>102.455961</course><hAcc>1.666410</hAcc><vAcc>0.989393</vAcc></extensions></trkpt>
      <trkpt lon="-117.329850" lat="33.979337"><ele>324.261447</ele><time>2025-03-11T02:15:37Z</time><extensions><speed>1.200148</speed><course>105.608307</course><hAcc>1.651094</hAcc><vAcc>0.986172</vAcc></extensions></trkpt>
      <trkpt lon="-117.329837" lat="33.979334"><ele>324.321429</ele><time>2025-03-11T02:15:38Z</time><extensions><speed>1.278855</speed><course>109.513935</course><hAcc>1.629553</hAcc><vAcc>0.981942</vAcc></extensions></trkpt>
      <trkpt lon="-117.329824" lat="33.979330"><ele>324.382377</ele><time>2025-03-11T02:15:39Z</time><extensions><speed>1.365747</speed><course>105.461865</course><hAcc>1.600800</hAcc><vAcc>0.977779</vAcc></extensions></trkpt>
      <trkpt lon="-117.329809" lat="33.979327"><ele>324.446218</ele><time>2025-03-11T02:15:40Z</time><extensions><speed>1.381430</speed><course>104.450351</course><hAcc>1.567891</hAcc><vAcc>0.971821</vAcc></extensions></trkpt>
      <trkpt lon="-117.329795" lat="33.979324"><ele>324.507038</ele><time>2025-03-11T02:15:41Z</time><extensions><speed>1.323803</speed><course>104.759681</course><hAcc>1.536905</hAcc><vAcc>0.967733</vAcc></extensions></trkpt>
      <trkpt lon="-117.329782" lat="33.979321"><ele>324.567549</ele><time>2025-03-11T02:15:42Z</time><extensions><speed>1.118976</speed><course>106.629393</course><hAcc>1.519146</hAcc><vAcc>0.960840</vAcc></extensions></trkpt>
      <trkpt lon="-117.329771" lat="33.979318"><ele>324.622959</ele><time>2025-03-11T02:15:43Z</time><extensions><speed>1.082484</speed><course>102.119606</course><hAcc>1.491620</hAcc><vAcc>0.952784</vAcc></extensions></trkpt>
      <trkpt lon="-117.329759" lat="33.979316"><ele>324.674126</ele><time>2025-03-11T02:15:44Z</time><extensions><speed>1.220742</speed><course>101.311331</course><hAcc>1.447478</hAcc><vAcc>0.944804</vAcc></extensions></trkpt>
      <trkpt lon="-117.329745" lat="33.979314"><ele>324.722747</ele><time>2025-03-11T02:15:45Z</time><extensions><speed>1.305354</speed><course>97.174191</course><hAcc>1.425066</hAcc><vAcc>0.937990</vAcc></extensions></trkpt>
      <trkpt lon="-117.329731" lat="33.979313"><ele>324.768939</ele><time>2025-03-11T02:15:46Z</time><extensions><speed>1.249859</speed><course>93.778811</course><hAcc>1.434653</hAcc><vAcc>0.930738</vAcc></extensions></trkpt>
      <trkpt lon="-117.329718" lat="33.979312"><ele>324.824710</ele><time>2025-03-11T02:15:47Z</time><extensions><speed>1.244875</speed><course>95.522791</course><hAcc>1.411238</hAcc><vAcc>0.922880</vAcc></extensions></trkpt>
      <trkpt lon="-117.329704" lat="33.979311"><ele>324.875404</ele><time>2025-03-11T02:15:48Z</time><extensions><speed>1.372059</speed><course>95.648723</course><hAcc>1.389305</hAcc><vAcc>0.914281</vAcc></extensions></trkpt>
      <trkpt lon="-117.329689" lat="33.979310"><ele>324.919691</ele><time>2025-03-11T02:15:49Z</time><extensions><speed>1.345702</speed><course>94.598111</course><hAcc>1.390943</hAcc><vAcc>0.906390</vAcc></extensions></trkpt>
      <trkpt lon="-117.329674" lat="33.979309"><ele>324.960089</ele><time>2025-03-11T02:15:50Z</time><extensions><speed>1.419114</speed><course>97.121030</course><hAcc>1.377761</hAcc><vAcc>0.898031</vAcc></extensions></trkpt>
      <trkpt lon="-117.329660" lat="33.979307"><ele>324.986607</ele><time>2025-03-11T02:15:51Z</time><extensions><speed>1.248286</speed><course>96.711505</course><hAcc>1.389981</hAcc><vAcc>0.889641</vAcc></extensions></trkpt>
      <trkpt lon="-117.329647" lat="33.979306"><ele>324.998143</ele><time>2025-03-11T02:15:52Z</time><extensions><speed>1.115532</speed><course>95.792600</course><hAcc>1.363161</hAcc><vAcc>0.880910</vAcc></extensions></trkpt>
      <trkpt lon="-117.329634" lat="33.979305"><ele>325.001738</ele><time>2025-03-11T02:15:53Z</time><extensions><speed>1.241627</speed><course>96.970809</course><hAcc>1.349101</hAcc><vAcc>0.872147</vAcc></extensions></trkpt>
      <trkpt lon="-117.329621" lat="33.979304"><ele>325.007632</ele><time>2025-03-11T02:15:54Z</time><extensions><speed>1.323863</speed><course>98.318715</course><hAcc>1.351291</hAcc><vAcc>0.863378</vAcc></extensions></trkpt>
      <trkpt lon="-117.329607" lat="33.979302"><ele>325.013106</ele><time>2025-03-11T02:15:55Z</time><extensions><speed>1.254125</speed><course>98.316948</course><hAcc>1.371353</hAcc><vAcc>0.854911</vAcc></extensions></trkpt>
      <trkpt lon="-117.329593" lat="33.979301"><ele>325.020039</ele><time>2025-03-11T02:15:56Z</time><extensions><speed>1.290358</speed><course>93.602765</course><hAcc>1.339640</hAcc><vAcc>0.846642</vAcc></extensions></trkpt>
      <trkpt lon="-117.329579" lat="33.979300"><ele>325.025668</ele><time>2025-03-11T02:15:57Z</time><extensions><speed>1.269742</speed><course>92.907692</course><hAcc>1.323740</hAcc><vAcc>0.838480</vAcc></extensions></trkpt>
      <trkpt lon="-117.329565" lat="33.979300"><ele>325.032820</ele><time>2025-03-11T02:15:58Z</time><extensions><speed>1.337611</speed><course>94.705763</course><hAcc>1.326864</hAcc><vAcc>0.830379</vAcc></extensions></trkpt>
      <trkpt lon="-117.329551" lat="33.979299"><ele>325.034924</ele><time>2025-03-11T02:15:59Z</time><extensions><speed>1.261340</speed><course>95.736621</course><hAcc>1.340310</hAcc><vAcc>0.822432</vAcc></extensions></trkpt>
      <trkpt lon="-117.329538" lat="33.979298"><ele>325.028941</ele><time>2025-03-11T02:16:00Z</time><extensions><speed>1.249415</speed><course>91.580040</course><hAcc>1.330749</hAcc><vAcc>0.814429</vAcc></extensions></trkpt>
      <trkpt lon="-117.329524" lat="33.979298"><ele>325.022651</ele><time>2025-03-11T02:16:01Z</time><extensions><speed>1.336214</speed><course>89.782617</course><hAcc>1.337702</hAcc><vAcc>0.806635</vAcc></extensions></trkpt>
      <trkpt lon="-117.329509" lat="33.979298"><ele>325.007571</ele><time>2025-03-11T02:16:02Z</time><extensions><speed>1.368731</speed><course>87.257580</course><hAcc>1.338386</hAcc><vAcc>0.799006</vAcc></extensions></trkpt>
      <trkpt lon="-117.329494" lat="33.979299"><ele>324.988756</ele><time>2025-03-11T02:16:03Z</time><extensions><speed>1.384734</speed><course>84.417969</course><hAcc>1.332207</hAcc><vAcc>0.791815</vAcc></extensions></trkpt>
      <trkpt lon="-117.329479" lat="33.979301"><ele>324.958317</ele><time>2025-03-11T02:16:04Z</time><extensions><speed>1.431000</speed><course>81.363340</course><hAcc>1.328665</hAcc><vAcc>0.785335</vAcc></extensions></trkpt>
      <trkpt lon="-117.329464" lat="33.979302"><ele>324.931434</ele><time>2025-03-11T02:16:05Z</time><extensions><speed>1.381989</speed><course>82.403411</course><hAcc>1.327724</hAcc><vAcc>0.780083</vAcc></extensions></trkpt>
      <trkpt lon="-117.329449" lat="33.979304"><ele>324.886350</ele><time>2025-03-11T02:16:06Z</time><extensions><speed>1.378471</speed><course>84.855638</course><hAcc>1.319076</hAcc><vAcc>0.775479</vAcc></extensions></trkpt>
      <trkpt lon="-117.329434" lat="33.979305"><ele>324.829708</ele><time>2025-03-11T02:16:07Z</time><extensions><speed>1.416945</speed><course>87.222252</course><hAcc>1.303840</hAcc><vAcc>0.772058</vAcc></extensions></trkpt>
      <trkpt lon="-117.329418" lat="33.979305"><ele>324.771945</ele><time>2025-03-11T02:16:08Z</time><extensions><speed>1.457874</speed><course>91.792030</course><hAcc>1.290628</hAcc><vAcc>0.770048</vAcc></extensions></trkpt>
      <trkpt lon="-117.329403" lat="33.979304"><ele>324.709355</ele><time>2025-03-11T02:16:09Z</time><extensions><speed>1.390963</speed><course>95.924561</course><hAcc>1.288528</hAcc><vAcc>0.769000</vAcc></extensions></trkpt>
      <trkpt lon="-117.329387" lat="33.979303"><ele>324.641083</ele><time>2025-03-11T02:16:10Z</time><extensions><speed>1.524751</speed><course>95.363407</course><hAcc>1.265551</hAcc><vAcc>0.768725</vAcc></extensions></trkpt>
      <trkpt lon="-117.329371" lat="33.979302"><ele>324.574246</ele><time>2025-03-11T02:16:11Z</time><extensions><speed>1.332230</speed><course>91.851598</course><hAcc>1.278994</hAcc><vAcc>0.769031</vAcc></extensions></trkpt>
      <trkpt lon="-117.329358" lat="33.979301"><ele>324.503157</ele><time>2025-03-11T02:16:12Z</time><extensions><speed>1.229319</speed><course>95.852640</course><hAcc>1.246224</hAcc><vAcc>0.769736</vAcc></extensions></trkpt>
      <trkpt lon="-117.329344" lat="33.979300"><ele>324.426288</ele><time>2025-03-11T02:16:13Z</time><extensions><speed>1.270512</speed><course>99.215836</course><hAcc>1.233424</hAcc><vAcc>0.771195</vAcc></extensions></trkpt>
      <trkpt lon="-117.329330" lat="33.979297"><ele>324.343304</ele><time>2025-03-11T02:16:14Z</time><extensions><speed>1.457651</speed><course>103.445565</course><hAcc>1.252853</hAcc><vAcc>0.773039</vAcc></extensions></trkpt>
      <trkpt lon="-117.329315" lat="33.979294"><ele>324.253734</ele><time>2025-03-11T02:16:15Z</time><extensions><speed>1.352673</speed><course>108.146356</course><hAcc>1.278454</hAcc><vAcc>0.775533</vAcc></extensions></trkpt>
      <trkpt lon="-117.329301" lat="33.979291"><ele>324.164220</ele><time>2025-03-11T02:16:16Z</time><extensions><speed>1.377762</speed><course>102.019826</course><hAcc>1.232251</hAcc><vAcc>0.777865</vAcc></extensions></trkpt>
      <trkpt lon="-117.329285" lat="33.979288"><ele>324.084394</ele><time>2025-03-11T02:16:17Z</time><extensions><speed>1.503239</speed><course>96.736411</course><hAcc>1.232426</hAcc><vAcc>0.779919</vAcc></extensions></trkpt>
      <trkpt lon="-117.329270" lat="33.979287"><ele>324.010865</ele><time>2025-03-11T02:16:18Z</time><extensions><speed>1.403640</speed><course>94.455516</course><hAcc>1.270002</hAcc><vAcc>0.781701</vAcc></extensions></trkpt>
      <trkpt lon="-117.329255" lat="33.979286"><ele>323.932838</ele><time>2025-03-11T02:16:19Z</time><extensions><speed>1.385416</speed><course>94.966586</course><hAcc>1.274497</hAcc><vAcc>0.782834</vAcc></extensions></trkpt>
      <trkpt lon="-117.329240" lat="33.979285"><ele>323.860119</ele><time>2025-03-11T02:16:20Z</time><extensions><speed>1.375564</speed><course>96.095406</course><hAcc>1.251194</hAcc><vAcc>0.783483</vAcc></extensions></trkpt>
      <trkpt lon="-117.329225" lat="33.979284"><ele>323.802221</ele><time>2025-03-11T02:16:21Z</time><extensions><speed>1.317875</speed><course>96.169550</course><hAcc>1.253670</hAcc><vAcc>0.783879</vAcc></extensions></trkpt>
      <trkpt lon="-117.329211" lat="33.979282"><ele>323.754028</ele><time>2025-03-11T02:16:22Z</time><extensions><speed>1.359814</speed><course>97.280586</course><hAcc>1.252191</hAcc><vAcc>0.783716</vAcc></extensions></trkpt>
      <trkpt lon="-117.329196" lat="33.979281"><ele>323.727204</ele><time>2025-03-11T02:16:23Z</time><extensions><speed>1.442244</speed><course>98.692066</course><hAcc>1.245003</hAcc><vAcc>0.783148</vAcc></extensions></trkpt>
      <trkpt lon="-117.329180" lat="33.979279"><ele>323.725947</ele><time>2025-03-11T02:16:24Z</time><extensions><speed>1.501332</speed><course>99.190142</course><hAcc>1.238891</hAcc><vAcc>0.782144</vAcc></extensions></trkpt>
      <trkpt lon="-117.329164" lat="33.979277"><ele>323.743662</ele><time>2025-03-11T02:16:25Z</time><extensions><speed>1.393251</speed><course>97.709226</course><hAcc>1.241596</hAcc><vAcc>0.780727</vAcc></extensions></trkpt>
      <trkpt lon="-117.329149" lat="33.979275"><ele>323.778117</ele><time>2025-03-11T02:16:26Z</time><extensions><speed>1.366587</speed><course>96.486810</course><hAcc>1.221064</hAcc><vAcc>0.778817</vAcc></extensions></trkpt>
      <trkpt lon="-117.329135" lat="33.979275"><ele>323.823462</ele><time>2025-03-11T02:16:27Z</time><extensions><speed>1.245112</speed><course>91.409872</course><hAcc>1.221393</hAcc><vAcc>0.776832</vAcc></extensions></trkpt>
      <trkpt lon="-117.329122" lat="33.979275"><ele>323.886978</ele><time>2025-03-11T02:16:28Z</time><extensions><speed>1.190875</speed><course>87.937515</course><hAcc>1.221445</hAcc><vAcc>0.774485</vAcc></extensions></trkpt>
      <trkpt lon="-117.329109" lat="33.979275"><ele>323.971752</ele><time>2025-03-11T02:16:29Z</time><extensions><speed>1.276695</speed><course>88.867912</course><hAcc>1.190658</hAcc><vAcc>0.772723</vAcc></extensions></trkpt>
      <trkpt lon="-117.329095" lat="33.979275"><ele>324.076941</ele><time>2025-03-11T02:16:30Z</time><extensions><speed>1.385566</speed><course>91.634339</course><hAcc>1.198346</hAcc><vAcc>0.771348</vAcc></extensions></trkpt>
      <trkpt lon="-117.329080" lat="33.979275"><ele>324.186269</ele><time>2025-03-11T02:16:31Z</time><extensions><speed>1.331508</speed><course>90.607829</course><hAcc>1.237600</hAcc><vAcc>0.770266</vAcc></extensions></trkpt>
      <trkpt lon="-117.329065" lat="33.979275"><ele>324.285255</ele><time>2025-03-11T02:16:32Z</time><extensions><speed>1.359104</speed><course>84.323056</course><hAcc>1.219622</hAcc><vAcc>0.770130</vAcc></extensions></trkpt>
      <trkpt lon="-117.329051" lat="33.979277"><ele>324.377484</ele><time>2025-03-11T02:16:33Z</time><extensions><speed>1.316070</speed><course>78.747545</course><hAcc>1.217218</hAcc><vAcc>0.771024</vAcc></extensions></trkpt>
      <trkpt lon="-117.329037" lat="33.979279"><ele>324.453023</ele><time>2025-03-11T02:16:34Z</time><extensions><speed>1.415128</speed><course>80.075477</course><hAcc>1.230267</hAcc><vAcc>0.772951</vAcc></extensions></trkpt>
      <trkpt lon="-117.329022" lat="33.979281"><ele>324.511425</ele><time>2025-03-11T02:16:35Z</time><extensions><speed>1.282395</speed><course>81.707138</course><hAcc>1.263085</hAcc><vAcc>0.775295</vAcc></extensions></trkpt>
      <trkpt lon="-117.329009" lat="33.979282"><ele>324.548625</ele><time>2025-03-11T02:16:36Z</time><extensions><speed>1.155550</speed><course>83.522371</course><hAcc>1.250011</hAcc><vAcc>0.778201</vAcc></extensions></trkpt>
      <trkpt lon="-117.328997" lat="33.979283"><ele>324.565502</ele><time>2025-03-11T02:16:37Z</time><extensions><speed>1.114744</speed><course>92.833497</course><hAcc>1.259767</hAcc><vAcc>0.781464</vAcc></extensions></trkpt>
      <trkpt lon="-117.328985" lat="33.979280"><ele>324.548645</ele><time>2025-03-11T02:16:38Z</time><extensions><speed>1.194268</speed><course>111.291334</course><hAcc>1.291455</hAcc><vAcc>0.785143</vAcc></extensions></trkpt>
      <trkpt lon="-117.328973" lat="33.979275"><ele>324.512612</ele><time>2025-03-11T02:16:39Z</time><extensions><speed>1.287761</speed><course>130.879529</course><hAcc>1.337123</hAcc><vAcc>0.789290</vAcc></extensions></trkpt>
      <trkpt lon="-117.328964" lat="33.979266"><ele>324.447935</ele><time>2025-03-11T02:16:40Z</time><extensions><speed>1.376252</speed><course>145.363973</course><hAcc>1.339383</hAcc><vAcc>0.793685</vAcc></extensions></trkpt>
      <trkpt lon="-117.328956" lat="33.979255"><ele>324.364913</ele><time>2025-03-11T02:16:41Z</time><extensions><speed>1.276165</speed><course>153.389010</course><hAcc>1.363916</hAcc><vAcc>0.797903</vAcc></extensions></trkpt>
      <trkpt lon="-117.328950" lat="33.979245"><ele>324.267686</ele><time>2025-03-11T02:16:42Z</time><extensions><speed>1.349719</speed><course>156.578829</course><hAcc>1.395690</hAcc><vAcc>0.801658</vAcc></extensions></trkpt>
      <trkpt lon="-117.328944" lat="33.979233"><ele>324.152004</ele><time>2025-03-11T02:16:43Z</time><extensions><speed>1.377606</speed><course>154.780772</course><hAcc>1.431048</hAcc><vAcc>0.804738</vAcc></extensions></trkpt>
      <trkpt lon="-117.328937" lat="33.979222"><ele>324.022266</ele><time>2025-03-11T02:16:44Z</time><extensions><speed>1.346560</speed><course>150.060716</course><hAcc>1.454717</hAcc><vAcc>0.807530</vAcc></extensions></trkpt>
      <trkpt lon="-117.328930" lat="33.979212"><ele>323.881898</ele><time>2025-03-11T02:16:45Z</time><extensions><speed>1.349112</speed><course>147.080610</course><hAcc>1.459533</hAcc><vAcc>0.810018</vAcc></extensions></trkpt>
      <trkpt lon="-117.328922" lat="33.979202"><ele>323.748428</ele><time>2025-03-11T02:16:46Z</time><extensions><speed>1.373803</speed><course>144.823585</course><hAcc>1.460642</hAcc><vAcc>0.812052</vAcc></extensions></trkpt>
      <trkpt lon="-117.328913" lat="33.979191"><ele>323.601331</ele><time>2025-03-11T02:16:47Z</time><extensions><speed>1.387797</speed><course>145.815889</course><hAcc>1.463615</hAcc><vAcc>0.813676</vAcc></extensions></trkpt>
      <trkpt lon="-117.328905" lat="33.979181"><ele>323.450853</ele><time>2025-03-11T02:16:48Z</time><extensions><speed>1.399845</speed><course>147.869023</course><hAcc>1.460651</hAcc><vAcc>0.815398</vAcc></extensions></trkpt>
      <trkpt lon="-117.328897" lat="33.979170"><ele>323.308826</ele><time>2025-03-11T02:16:49Z</time><extensions><speed>1.359656</speed><course>150.098688</course><hAcc>1.462183</hAcc><vAcc>0.817470</vAcc></extensions></trkpt>
      <trkpt lon="-117.328890" lat="33.979159"><ele>323.174236</ele><time>2025-03-11T02:16:50Z</time><extensions><speed>1.351567</speed><course>153.915084</course><hAcc>1.462310</hAcc><vAcc>0.819890</vAcc></extensions></trkpt>
      <trkpt lon="-117.328884" lat="33.979148"><ele>323.057489</ele><time>2025-03-11T02:16:51Z</time><extensions><speed>1.364005</speed><course>158.341365</course><hAcc>1.473279</hAcc><vAcc>0.822639</vAcc></extensions></trkpt>
      <trkpt lon="-117.328880" lat="33.979136"><ele>322.940072</ele><time>2025-03-11T02:16:52Z</time><extensions><speed>1.347159</speed><course>166.014167</course><hAcc>1.483739</hAcc><vAcc>0.825713</vAcc></extensions></trkpt>
      <trkpt lon="-117.328877" lat="33.979125"><ele>322.834969</ele><time>2025-03-11T02:16:53Z</time><extensions><speed>1.298793</speed><course>176.767420</course><hAcc>1.488122</hAcc><vAcc>0.829739</vAcc></extensions></trkpt>
      <trkpt lon="-117.328877" lat="33.979112"><ele>322.757981</ele><time>2025-03-11T02:16:54Z</time><extensions><speed>1.366621</speed><course>182.015699</course><hAcc>1.494309</hAcc><vAcc>0.835101</vAcc></extensions></trkpt>
      <trkpt lon="-117.328877" lat="33.979100"><ele>322.701918</ele><time>2025-03-11T02:16:55Z</time><extensions><speed>1.408640</speed><course>181.310123</course><hAcc>1.506186</hAcc><vAcc>0.841481</vAcc></extensions></trkpt>
      <trkpt lon="-117.328877" lat="33.979087"><ele>322.666010</ele><time>2025-03-11T02:16:56Z</time><extensions><speed>1.436722</speed><course>177.759512</course><hAcc>1.526102</hAcc><vAcc>0.848623</vAcc></extensions></trkpt>
      <trkpt lon="-117.328876" lat="33.979074"><ele>322.654629</ele><time>2025-03-11T02:16:57Z</time><extensions><speed>1.372811</speed><course>173.172207</course><hAcc>1.521637</hAcc><vAcc>0.856626</vAcc></extensions></trkpt>
      <trkpt lon="-117.328873" lat="33.979062"><ele>322.664964</ele><time>2025-03-11T02:16:58Z</time><extensions><speed>1.351000</speed><course>168.199782</course><hAcc>1.520029</hAcc><vAcc>0.865804</vAcc></extensions></trkpt>
      <trkpt lon="-117.328870" lat="33.979049"><ele>322.692468</ele><time>2025-03-11T02:16:59Z</time><extensions><speed>1.433580</speed><course>166.232985</course><hAcc>1.536791</hAcc><vAcc>0.877614</vAcc></extensions></trkpt>
      <trkpt lon="-117.328865" lat="33.979036"><ele>322.739788</ele><time>2025-03-11T02:17:00Z</time><extensions><speed>1.516325</speed><course>165.680106</course><hAcc>1.552327</hAcc><vAcc>0.889876</vAcc></extensions></trkpt>
      <trkpt lon="-117.328861" lat="33.979023"><ele>322.807994</ele><time>2025-03-11T02:17:01Z</time><extensions><speed>1.540413</speed><course>167.026137</course><hAcc>1.564899</hAcc><vAcc>0.902041</vAcc></extensions></trkpt>
      <trkpt lon="-117.328857" lat="33.979009"><ele>322.895269</ele><time>2025-03-11T02:17:02Z</time><extensions><speed>1.516706</speed><course>167.034155</course><hAcc>1.558444</hAcc><vAcc>0.914597</vAcc></extensions></trkpt>
      <trkpt lon="-117.328854" lat="33.978995"><ele>323.007995</ele><time>2025-03-11T02:17:03Z</time><extensions><speed>1.569115</speed><course>168.618009</course><hAcc>1.565114</hAcc><vAcc>0.925795</vAcc></extensions></trkpt>
      <trkpt lon="-117.328850" lat="33.978981"><ele>323.129839</ele><time>2025-03-11T02:17:04Z</time><extensions><speed>1.606783</speed><course>169.533231</course><hAcc>1.576537</hAcc><vAcc>0.935874</vAcc></extensions></trkpt>
      <trkpt lon="-117.328847" lat="33.978967"><ele>323.256420</ele><time>2025-03-11T02:17:05Z</time><extensions><speed>1.625460</speed><course>170.924023</course><hAcc>1.574200</hAcc><vAcc>0.944319</vAcc></extensions></trkpt>
      <trkpt lon="-117.328844" lat="33.978952"><ele>323.380593</ele><time>2025-03-11T02:17:06Z</time><extensions><speed>1.547476</speed><course>169.811804</course><hAcc>1.562732</hAcc><vAcc>0.953454</vAcc></extensions></trkpt>
      <trkpt lon="-117.328841" lat="33.978939"><ele>323.495148</ele><time>2025-03-11T02:17:07Z</time><extensions><speed>1.481960</speed><course>166.852683</course><hAcc>1.553418</hAcc><vAcc>0.960837</vAcc></extensions></trkpt>
      <trkpt lon="-117.328837" lat="33.978926"><ele>323.596623</ele><time>2025-03-11T02:17:08Z</time><extensions><speed>1.423307</speed><course>167.293587</course><hAcc>1.563150</hAcc><vAcc>0.969102</vAcc></extensions></trkpt>
      <trkpt lon="-117.328834" lat="33.978914"><ele>323.686736</ele><time>2025-03-11T02:17:09Z</time><extensions><speed>1.234365</speed><course>171.103902</course><hAcc>1.594156</hAcc><vAcc>0.975286</vAcc></extensions></trkpt>
      <trkpt lon="-117.328832" lat="33.978903"><ele>323.778372</ele><time>2025-03-11T02:17:10Z</time><extensions><speed>1.272886</speed><course>172.690854</course><hAcc>1.562731</hAcc><vAcc>0.979562</vAcc></extensions></trkpt>
      <trkpt lon="-117.328831" lat="33.978892"><ele>323.863177</ele><time>2025-03-11T02:17:11Z</time><extensions><speed>1.225781</speed><course>175.272398</course><hAcc>1.551839</hAcc><vAcc>0.983352</vAcc></extensions></trkpt>
      <trkpt lon="-117.328830" lat="33.978880"><ele>323.944282</ele><time>2025-03-11T02:17:12Z</time><extensions><speed>1.288518</speed><course>176.892430</course><hAcc>1.557285</hAcc><vAcc>0.984148</vAcc></extensions></trkpt>
      <trkpt lon="-117.328829" lat="33.978869"><ele>324.002159</ele><time>2025-03-11T02:17:13Z</time><extensions><speed>1.251535</speed><course>177.285512</course><hAcc>1.561539</hAcc><vAcc>0.984411</vAcc></extensions></trkpt>
      <trkpt lon="-117.328829" lat="33.978858"><ele>324.038174</ele><time>2025-03-11T02:17:14Z</time><extensions><speed>1.161914</speed><course>180.092073</course><hAcc>1.563851</hAcc><vAcc>0.983989</vAcc></extensions></trkpt>
      <trkpt lon="-117.328829" lat="33.978847"><ele>324.090297</ele><time>2025-03-11T02:17:15Z</time><extensions><speed>1.134518</speed><course>181.752722</course><hAcc>1.572950</hAcc><vAcc>0.997005</vAcc></extensions></trkpt>
      <trkpt lon="-117.328829" lat="33.978837"><ele>324.133927</ele><time>2025-03-11T02:17:16Z</time><extensions><speed>1.125027</speed><course>179.633104</course><hAcc>1.589217</hAcc><vAcc>1.015499</vAcc></extensions></trkpt>
      <trkpt lon="-117.328829" lat="33.978827"><ele>324.169922</ele><time>2025-03-11T02:17:17Z</time><extensions><speed>1.104370</speed><course>177.376226</course><hAcc>1.572675</hAcc><vAcc>1.041625</vAcc></extensions></trkpt>
      <trkpt lon="-117.328829" lat="33.978817"><ele>324.199424</ele><time>2025-03-11T02:17:18Z</time><extensions><speed>1.163848</speed><course>180.675113</course><hAcc>1.585348</hAcc><vAcc>1.077883</vAcc></extensions></trkpt>
      <trkpt lon="-117.328829" lat="33.978806"><ele>324.223679</ele><time>2025-03-11T02:17:19Z</time><extensions><speed>1.198042</speed><course>181.276297</course><hAcc>1.605540</hAcc><vAcc>1.127040</vAcc></extensions></trkpt>
      <trkpt lon="-117.328829" lat="33.978796"><ele>324.243843</ele><time>2025-03-11T02:17:20Z</time><extensions><speed>1.135686</speed><course>181.530090</course><hAcc>1.650760</hAcc><vAcc>1.191996</vAcc></extensions></trkpt>
      <trkpt lon="-117.328830" lat="33.978786"><ele>324.260916</ele><time>2025-03-11T02:17:21Z</time><extensions><speed>1.063161</speed><course>182.402522</course><hAcc>1.718044</hAcc><vAcc>1.275535</vAcc></extensions></trkpt>
      <trkpt lon="-117.328830" lat="33.978776"><ele>324.275781</ele><time>2025-03-11T02:17:22Z</time><extensions><speed>1.107870</speed><course>182.971582</course><hAcc>1.813745</hAcc><vAcc>1.380071</vAcc></extensions></trkpt>
      <trkpt lon="-117.328830" lat="33.978766"><ele>324.289253</ele><time>2025-03-11T02:17:23Z</time><extensions><speed>1.070091</speed><course>180.250572</course><hAcc>1.975045</hAcc><vAcc>1.507454</vAcc></extensions></trkpt>
      <trkpt lon="-117.328831" lat="33.978756"><ele>324.302065</ele><time>2025-03-11T02:17:24Z</time><extensions><speed>1.108903</speed><course>180.544650</course><hAcc>2.252337</hAcc><vAcc>1.658829</vAcc></extensions></trkpt>
    </trkseg>
  </trk>
</gpx>