<?xml version="1.0" encoding="UTF-8"?>
<gpx version="1.1" creator="Apple Health Export" xmlns="http://www.topografix.com/GPX/1/1" xmlns:xsi="http://www.w3.org/2001/XMLSchema-instance" xsi:schemaLocation="http://www.topografix.com/GPX/1/1 http://www.topografix.com/GPX/1/1/gpx.xsd">
  <metadata>
    <time>2026-01-11T07:57:29Z</time>
  </metadata>
  <trk>
    <name>Route 2024-02-02 3:51pm</name>
    <trkseg>
      <trkpt lon="-117.327218" lat="33.973698"><ele>326.411517</ele><time>2024-02-02T23:48:01Z</time><extensions><speed>1.312354</speed><course>262.904803</course><hAcc>2.160327</hAcc><vAcc>1.217036</vAcc></extensions></trkpt>
      <trkpt lon="-117.327232" lat="33.973697"><ele>326.429745</ele><time>2024-02-02T23:48:02Z</time><extensions><speed>1.271975</speed><course>259.614263</course><hAcc>2.032083</hAcc><vAcc>1.044922</vAcc></extensions></trkpt>
      <trkpt lon="-117.327245" lat="33.973695"><ele>326.444453</ele><time>2024-02-02T23:48:03Z</time><extensions><speed>1.256520</speed><course>260.305315</course><hAcc>1.922923</hAcc><vAcc>0.914290</vAcc></extensions></trkpt>
      <trkpt lon="-117.327258" lat="33.973694"><ele>326.456274</ele><time>2024-02-02T23:48:04Z</time><extensions><speed>1.292101</speed><course>261.049339</course><hAcc>1.836085</hAcc><vAcc>0.819056</vAcc></extensions></trkpt>
      <trkpt lon="-117.327272" lat="33.973692"><ele>326.466052</ele><time>2024-02-02T23:48:05Z</time><extensions><speed>1.309007</speed><course>261.997365</course><hAcc>1.755943</hAcc><vAcc>0.752996</vAcc></extensions></trkpt>
      <trkpt lon="-117.327286" lat="33.973691"><ele>326.474410</ele><time>2024-02-02T23:48:06Z</time><extensions><speed>1.314462</speed><course>266.387455</course><hAcc>1.696224</hAcc><vAcc>0.709703</vAcc></extensions></trkpt>
      <trkpt lon="-117.327301" lat="33.973690"><ele>326.481928</ele><time>2024-02-02T23:48:07Z</time><extensions><speed>1.330543</speed><course>267.437802</course><hAcc>1.662128</hAcc><vAcc>0.683019</vAcc></extensions></trkpt>
      <trkpt lon="-117.327315" lat="33.973690"><ele>326.488290</ele><time>2024-02-02T23:48:08Z</time><extensions><speed>1.322834</speed><course>268.849787</course><hAcc>1.611785</hAcc><vAcc>0.667583</vAcc></extensions></trkpt>
      <trkpt lon="-117.327329" lat="33.973690"><ele>326.493416</ele><time>2024-02-02T23:48:09Z</time><extensions><speed>1.292832</speed><course>270.356045</course><hAcc>1.573001</hAcc><vAcc>0.659197</vAcc></extensions></trkpt>
      <trkpt lon="-117.327344" lat="33.973691"><ele>326.496694</ele><time>2024-02-02T23:48:10Z</time><extensions><speed>1.329726</speed><course>270.922878</course><hAcc>1.549067</hAcc><vAcc>0.654870</vAcc></extensions></trkpt>
      <trkpt lon="-117.327358" lat="33.973691"><ele>326.498060</ele><time>2024-02-02T23:48:11Z</time><extensions><speed>1.327317</speed><course>272.266677</course><hAcc>1.512438</hAcc><vAcc>0.652650</vAcc></extensions></trkpt>
      <trkpt lon="-117.327373" lat="33.973692"><ele>326.498276</ele><time>2024-02-02T23:48:12Z</time><extensions><speed>1.328971</speed><course>272.964411</course><hAcc>1.496460</hAcc><vAcc>0.651367</vAcc></extensions></trkpt>
      <trkpt lon="-117.327387" lat="33.973692"><ele>326.497676</ele><time>2024-02-02T23:48:13Z</time><extensions><speed>1.329465</speed><course>271.954305</course><hAcc>1.462785</hAcc><vAcc>0.650392</vAcc></extensions></trkpt>
      <trkpt lon="-117.327402" lat="33.973693"><ele>326.495223</ele><time>2024-02-02T23:48:14Z</time><extensions><speed>1.331790</speed><course>271.574209</course><hAcc>1.440270</hAcc><vAcc>0.649440</vAcc></extensions></trkpt>
      <trkpt lon="-117.327416" lat="33.973693"><ele>326.490377</ele><time>2024-02-02T23:48:15Z</time><extensions><speed>1.338730</speed><course>268.845380</course><hAcc>1.420640</hAcc><vAcc>0.648447</vAcc></extensions></trkpt>
      <trkpt lon="-117.327430" lat="33.973693"><ele>326.483154</ele><time>2024-02-02T23:48:16Z</time><extensions><speed>1.368610</speed><course>269.043477</course><hAcc>1.411814</hAcc><vAcc>0.647438</vAcc></extensions></trkpt>
      <trkpt lon="-117.327444" lat="33.973693"><ele>326.473472</ele><time>2024-02-02T23:48:17Z</time><extensions><speed>1.370413</speed><course>270.865878</course><hAcc>1.388987</hAcc><vAcc>0.646503</vAcc></extensions></trkpt>
      <trkpt lon="-117.327459" lat="33.973693"><ele>326.461375</ele><time>2024-02-02T23:48:18Z</time><extensions><speed>1.374459</speed><course>269.055267</course><hAcc>1.376847</hAcc><vAcc>0.645741</vAcc></extensions></trkpt>
      <trkpt lon="-117.327473" lat="33.973693"><ele>326.446090</ele><time>2024-02-02T23:48:19Z</time><extensions><speed>1.361618</speed><course>271.700888</course><hAcc>1.351811</hAcc><vAcc>0.645240</vAcc></extensions></trkpt>
      <trkpt lon="-117.327487" lat="33.973694"><ele>326.427946</ele><time>2024-02-02T23:48:20Z</time><extensions><speed>1.336939</speed><course>273.240552</course><hAcc>1.339145</hAcc><vAcc>0.645068</vAcc></extensions></trkpt>
      <trkpt lon="-117.327501" lat="33.973694"><ele>326.406072</ele><time>2024-02-02T23:48:21Z</time><extensions><speed>1.371480</speed><course>272.353383</course><hAcc>1.332613</hAcc><vAcc>0.645273</vAcc></extensions></trkpt>
      <trkpt lon="-117.327515" lat="33.973695"><ele>326.379250</ele><time>2024-02-02T23:48:22Z</time><extensions><speed>1.352952</speed><course>269.286640</course><hAcc>1.314031</hAcc><vAcc>0.645874</vAcc></extensions></trkpt>
      <trkpt lon="-117.327529" lat="33.973694"><ele>326.348111</ele><time>2024-02-02T23:48:23Z</time><extensions><speed>1.350708</speed><course>267.734052</course><hAcc>1.306284</hAcc><vAcc>0.646841</vAcc></extensions></trkpt>
      <trkpt lon="-117.327542" lat="33.973694"><ele>326.308439</ele><time>2024-02-02T23:48:24Z</time><extensions><speed>1.309220</speed><course>270.962332</course><hAcc>1.277797</hAcc><vAcc>0.648790</vAcc></extensions></trkpt>
      <trkpt lon="-117.327555" lat="33.973695"><ele>326.259556</ele><time>2024-02-02T23:48:25Z</time><extensions><speed>1.213657</speed><course>273.286246</course><hAcc>1.268113</hAcc><vAcc>0.651751</vAcc></extensions></trkpt>
      <trkpt lon="-117.327568" lat="33.973696"><ele>326.197071</ele><time>2024-02-02T23:48:26Z</time><extensions><speed>1.255034</speed><course>272.942461</course><hAcc>1.266627</hAcc><vAcc>0.655903</vAcc></extensions></trkpt>
      <trkpt lon="-117.327581" lat="33.973696"><ele>326.119098</ele><time>2024-02-02T23:48:27Z</time><extensions><speed>1.202595</speed><course>270.671537</course><hAcc>1.262074</hAcc><vAcc>0.661463</vAcc></extensions></trkpt>
      <trkpt lon="-117.327594" lat="33.973696"><ele>326.036871</ele><time>2024-02-02T23:48:28Z</time><extensions><speed>1.201827</speed><course>271.299735</course><hAcc>1.268755</hAcc><vAcc>0.668525</vAcc></extensions></trkpt>
      <trkpt lon="-117.327607" lat="33.973697"><ele>325.958240</ele><time>2024-02-02T23:48:29Z</time><extensions><speed>1.190611</speed><course>272.281560</course><hAcc>1.280213</hAcc><vAcc>0.677178</vAcc></extensions></trkpt>
      <trkpt lon="-117.327620" lat="33.973697"><ele>325.876560</ele><time>2024-02-02T23:48:30Z</time><extensions><speed>1.158920</speed><course>271.455130</course><hAcc>1.287272</hAcc><vAcc>0.687446</vAcc></extensions></trkpt>
      <trkpt lon="-117.327632" lat="33.973697"><ele>325.788921</ele><time>2024-02-02T23:48:31Z</time><extensions><speed>1.170321</speed><course>270.895383</course><hAcc>1.311360</hAcc><vAcc>0.699265</vAcc></extensions></trkpt>
      <trkpt lon="-117.327645" lat="33.973697"><ele>325.699440</ele><time>2024-02-02T23:48:32Z</time><extensions><speed>1.179106</speed><course>267.386917</course><hAcc>1.336798</hAcc><vAcc>0.712424</vAcc></extensions></trkpt>
      <trkpt lon="-117.327658" lat="33.973696"><ele>325.607333</ele><time>2024-02-02T23:48:33Z</time><extensions><speed>1.161595</speed><course>266.145326</course><hAcc>1.352428</hAcc><vAcc>0.726540</vAcc></extensions></trkpt>
      <trkpt lon="-117.327669" lat="33.973696"><ele>325.512256</ele><time>2024-02-02T23:48:34Z</time><extensions><speed>1.018840</speed><course>269.711598</course><hAcc>1.326810</hAcc><vAcc>0.740982</vAcc></extensions></trkpt>
      <trkpt lon="-117.327681" lat="33.973696"><ele>325.413303</ele><time>2024-02-02T23:48:35Z</time><extensions><speed>1.080316</speed><course>272.634110</course><hAcc>1.427251</hAcc><vAcc>0.755016</vAcc></extensions></trkpt>
      <trkpt lon="-117.327693" lat="33.973697"><ele>325.307594</ele><time>2024-02-02T23:48:36Z</time><extensions><speed>1.145728</speed><course>274.620921</course><hAcc>1.562700</hAcc><vAcc>0.767991</vAcc></extensions></trkpt>
      <trkpt lon="-117.327705" lat="33.973698"><ele>325.191605</ele><time>2024-02-02T23:48:37Z</time><extensions><speed>1.182784</speed><course>273.620045</course><hAcc>1.662360</hAcc><vAcc>0.779547</vAcc></extensions></trkpt>
      <trkpt lon="-117.327718" lat="33.973698"><ele>325.088881</ele><time>2024-02-02T23:48:38Z</time><extensions><speed>1.111234</speed><course>272.114223</course><hAcc>1.690333</hAcc><vAcc>0.789452</vAcc></extensions></trkpt>
      <trkpt lon="-117.327730" lat="33.973698"><ele>324.954549</ele><time>2024-02-02T23:48:39Z</time><extensions><speed>1.121154</speed><course>268.672484</course><hAcc>1.697907</hAcc><vAcc>0.797592</vAcc></extensions></trkpt>
      <trkpt lon="-117.327742" lat="33.973698"><ele>324.841138</ele><time>2024-02-02T23:48:40Z</time><extensions><speed>1.088822</speed><course>266.918887</course><hAcc>1.702636</hAcc><vAcc>0.804171</vAcc></extensions></trkpt>
      <trkpt lon="-117.327753" lat="33.973697"><ele>324.726250</ele><time>2024-02-02T23:48:41Z</time><extensions><speed>1.059788</speed><course>267.201105</course><hAcc>1.705210</hAcc><vAcc>0.809299</vAcc></extensions></trkpt>
      <trkpt lon="-117.327765" lat="33.973697"><ele>324.619374</ele><time>2024-02-02T23:48:42Z</time><extensions><speed>1.055603</speed><course>266.229204</course><hAcc>1.707410</hAcc><vAcc>0.813146</vAcc></extensions></trkpt>
      <trkpt lon="-117.327776" lat="33.973696"><ele>324.511102</ele><time>2024-02-02T23:48:43Z</time><extensions><speed>1.081999</speed><course>265.879728</course><hAcc>1.711752</hAcc><vAcc>0.815970</vAcc></extensions></trkpt>
      <trkpt lon="-117.327788" lat="33.973696"><ele>324.408747</ele><time>2024-02-02T23:48:44Z</time><extensions><speed>1.149647</speed><course>267.405211</course><hAcc>1.717558</hAcc><vAcc>0.817931</vAcc></extensions></trkpt>
      <trkpt lon="-117.327801" lat="33.973695"><ele>324.313581</ele><time>2024-02-02T23:48:45Z</time><extensions><speed>1.202185</speed><course>269.102896</course><hAcc>1.720985</hAcc><vAcc>0.819268</vAcc></extensions></trkpt>
      <trkpt lon="-117.327814" lat="33.973695"><ele>324.222608</ele><time>2024-02-02T23:48:46Z</time><extensions><speed>1.238802</speed><course>269.967244</course><hAcc>1.721359</hAcc><vAcc>0.820128</vAcc></extensions></trkpt>
      <trkpt lon="-117.327828" lat="33.973695"><ele>324.141352</ele><time>2024-02-02T23:48:47Z</time><extensions><speed>1.302926</speed><course>272.311773</course><hAcc>1.721470</hAcc><vAcc>0.820685</vAcc></extensions></trkpt>
      <trkpt lon="-117.327843" lat="33.973696"><ele>324.070575</ele><time>2024-02-02T23:48:48Z</time><extensions><speed>1.425321</speed><course>276.309813</course><hAcc>1.719827</hAcc><vAcc>0.821100</vAcc></extensions></trkpt>
      <trkpt lon="-117.327858" lat="33.973698"><ele>324.011685</ele><time>2024-02-02T23:48:49Z</time><extensions><speed>1.528513</speed><course>279.700619</course><hAcc>1.716853</hAcc><vAcc>0.821417</vAcc></extensions></trkpt>
      <trkpt lon="-117.327874" lat="33.973701"><ele>323.979080</ele><time>2024-02-02T23:48:50Z</time><extensions><speed>1.528155</speed><course>282.553649</course><hAcc>1.711987</hAcc><vAcc>0.821747</vAcc></extensions></trkpt>
      <trkpt lon="-117.327890" lat="33.973705"><ele>323.970287</ele><time>2024-02-02T23:48:51Z</time><extensions><speed>1.489017</speed><course>286.105168</course><hAcc>1.700540</hAcc><vAcc>0.822148</vAcc></extensions></trkpt>
      <trkpt lon="-117.327905" lat="33.973709"><ele>323.982518</ele><time>2024-02-02T23:48:52Z</time><extensions><speed>1.460122</speed><course>293.432961</course><hAcc>1.690183</hAcc><vAcc>0.822617</vAcc></extensions></trkpt>
      <trkpt lon="-117.327918" lat="33.973715"><ele>324.004173</ele><time>2024-02-02T23:48:53Z</time><extensions><speed>1.424681</speed><course>304.283553</course><hAcc>1.684744</hAcc><vAcc>0.823200</vAcc></extensions></trkpt>
      <trkpt lon="-117.327930" lat="33.973724"><ele>324.042286</ele><time>2024-02-02T23:48:54Z</time><extensions><speed>1.401912</speed><course>316.259730</course><hAcc>1.660661</hAcc><vAcc>0.823843</vAcc></extensions></trkpt>
      <trkpt lon="-117.327939" lat="33.973734"><ele>324.095918</ele><time>2024-02-02T23:48:55Z</time><extensions><speed>1.406717</speed><course>326.556172</course><hAcc>1.634320</hAcc><vAcc>0.824502</vAcc></extensions></trkpt>
      <trkpt lon="-117.327947" lat="33.973745"><ele>324.160135</ele><time>2024-02-02T23:48:56Z</time><extensions><speed>1.424278</speed><course>333.036507</course><hAcc>1.615135</hAcc><vAcc>0.825160</vAcc></extensions></trkpt>
      <trkpt lon="-117.327953" lat="33.973756"><ele>324.231205</ele><time>2024-02-02T23:48:57Z</time><extensions><speed>1.457389</speed><course>336.329283</course><hAcc>1.627819</hAcc><vAcc>0.825805</vAcc></extensions></trkpt>
      <trkpt lon="-117.327959" lat="33.973768"><ele>324.320279</ele><time>2024-02-02T23:48:58Z</time><extensions><speed>1.404443</speed><course>338.610014</course><hAcc>1.656741</hAcc><vAcc>0.826400</vAcc></extensions></trkpt>
      <trkpt lon="-117.327963" lat="33.973780"><ele>324.410976</ele><time>2024-02-02T23:48:59Z</time><extensions><speed>1.331935</speed><course>349.500968</course><hAcc>1.602236</hAcc><vAcc>0.826924</vAcc></extensions></trkpt>
      <trkpt lon="-117.327966" lat="33.973791"><ele>324.499117</ele><time>2024-02-02T23:49:00Z</time><extensions><speed>1.230965</speed><course>352.035157</course><hAcc>1.570995</hAcc><vAcc>0.827368</vAcc></extensions></trkpt>
      <trkpt lon="-117.327968" lat="33.973802"><ele>324.580997</ele><time>2024-02-02T23:49:01Z</time><extensions><speed>1.238497</speed><course>349.837087</course><hAcc>1.569136</hAcc><vAcc>0.827743</vAcc></extensions></trkpt>
      <trkpt lon="-117.327971" lat="33.973814"><ele>324.654440</ele><time>2024-02-02T23:49:02Z</time><extensions><speed>1.352504</speed><course>344.480468</course><hAcc>1.601501</hAcc><vAcc>0.828045</vAcc></extensions></trkpt>
      <trkpt lon="-117.327975" lat="33.973825"><ele>324.718333</ele><time>2024-02-02T23:49:03Z</time><extensions><speed>1.366154</speed><course>340.507904</course><hAcc>1.661576</hAcc><vAcc>0.828259</vAcc></extensions></trkpt>
      <trkpt lon="-117.327980" lat="33.973837"><ele>324.785046</ele><time>2024-02-02T23:49:04Z</time><extensions><speed>1.284251</speed><course>344.190544</course><hAcc>1.620162</hAcc><vAcc>0.828435</vAcc></extensions></trkpt>
      <trkpt lon="-117.327983" lat="33.973847"><ele>324.845073</ele><time>2024-02-02T23:49:05Z</time><extensions><speed>1.108143</speed><course>344.830924</course><hAcc>1.604032</hAcc><vAcc>0.828581</vAcc></extensions></trkpt>
      <trkpt lon="-117.327986" lat="33.973856"><ele>324.899736</ele><time>2024-02-02T23:49:06Z</time><extensions><speed>1.045447</speed><course>342.332731</course><hAcc>1.622119</hAcc><vAcc>0.828674</vAcc></extensions></trkpt>
      <trkpt lon="-117.327990" lat="33.973865"><ele>324.940830</ele><time>2024-02-02T23:49:07Z</time><extensions><speed>1.023607</speed><course>339.583753</course><hAcc>1.644867</hAcc><vAcc>0.828729</vAcc></extensions></trkpt>
      <trkpt lon="-117.327994" lat="33.973874"><ele>324.964414</ele><time>2024-02-02T23:49:08Z</time><extensions><speed>1.067145</speed><course>337.853809</course><hAcc>1.659744</hAcc><vAcc>0.828763</vAcc></extensions></trkpt>
      <trkpt lon="-117.327999" lat="33.973883"><ele>324.975077</ele><time>2024-02-02T23:49:09Z</time><extensions><speed>1.154120</speed><course>337.353916</course><hAcc>1.667916</hAcc><vAcc>0.828775</vAcc></extensions></trkpt>
      <trkpt lon="-117.328004" lat="33.973893"><ele>324.967241</ele><time>2024-02-02T23:49:10Z</time><extensions><speed>1.199328</speed><course>338.031760</course><hAcc>1.672110</hAcc><vAcc>0.828791</vAcc></extensions></trkpt>
      <trkpt lon="-117.328008" lat="33.973903"><ele>324.941650</ele><time>2024-02-02T23:49:11Z</time><extensions><speed>1.107350</speed><course>337.144368</course><hAcc>1.672637</hAcc><vAcc>0.828799</vAcc></extensions></trkpt>
      <trkpt lon="-117.328013" lat="33.973912"><ele>324.916015</ele><time>2024-02-02T23:49:12Z</time><extensions><speed>1.056909</speed><course>336.374054</course><hAcc>1.667335</hAcc><vAcc>0.828812</vAcc></extensions></trkpt>
      <trkpt lon="-117.328018" lat="33.973921"><ele>324.890231</ele><time>2024-02-02T23:49:13Z</time><extensions><speed>1.082691</speed><course>335.091708</course><hAcc>1.661734</hAcc><vAcc>0.828822</vAcc></extensions></trkpt>
      <trkpt lon="-117.328023" lat="33.973930"><ele>324.852378</ele><time>2024-02-02T23:49:14Z</time><extensions><speed>1.164126</speed><course>331.801160</course><hAcc>1.666448</hAcc><vAcc>0.828807</vAcc></extensions></trkpt>
      <trkpt lon="-117.328030" lat="33.973939"><ele>324.803394</ele><time>2024-02-02T23:49:15Z</time><extensions><speed>1.288963</speed><course>328.318767</course><hAcc>1.679508</hAcc><vAcc>0.828777</vAcc></extensions></trkpt>
      <trkpt lon="-117.328038" lat="33.973949"><ele>324.755750</ele><time>2024-02-02T23:49:16Z</time><extensions><speed>1.310465</speed><course>323.275639</course><hAcc>1.668013</hAcc><vAcc>0.828730</vAcc></extensions></trkpt>
      <trkpt lon="-117.328047" lat="33.973958"><ele>324.694179</ele><time>2024-02-02T23:49:17Z</time><extensions><speed>1.244506</speed><course>319.579589</course><hAcc>1.664189</hAcc><vAcc>0.828671</vAcc></extensions></trkpt>
      <trkpt lon="-117.328055" lat="33.973966"><ele>324.629941</ele><time>2024-02-02T23:49:18Z</time><extensions><speed>1.130114</speed><course>316.439832</course><hAcc>1.667973</hAcc><vAcc>0.828605</vAcc></extensions></trkpt>
      <trkpt lon="-117.328063" lat="33.973973"><ele>324.567497</ele><time>2024-02-02T23:49:19Z</time><extensions><speed>0.965170</speed><course>316.900084</course><hAcc>1.672745</hAcc><vAcc>0.828546</vAcc></extensions></trkpt>
      <trkpt lon="-117.328069" lat="33.973979"><ele>324.506727</ele><time>2024-02-02T23:49:20Z</time><extensions><speed>0.826296</speed><course>321.035204</course><hAcc>1.677870</hAcc><vAcc>0.828496</vAcc></extensions></trkpt>
      <trkpt lon="-117.328075" lat="33.973985"><ele>324.443644</ele><time>2024-02-02T23:49:21Z</time><extensions><speed>0.822473</speed><course>323.105176</course><hAcc>1.678432</hAcc><vAcc>0.828455</vAcc></extensions></trkpt>
      <trkpt lon="-117.328080" lat="33.973990"><ele>324.390101</ele><time>2024-02-02T23:49:22Z</time><extensions><speed>0.764973</speed><course>313.867451</course><hAcc>1.678950</hAcc><vAcc>0.828418</vAcc></extensions></trkpt>
      <trkpt lon="-117.328087" lat="33.973995"><ele>324.341737</ele><time>2024-02-02T23:49:23Z</time><extensions><speed>0.852727</speed><course>306.408970</course><hAcc>1.680601</hAcc><vAcc>0.828413</vAcc></extensions></trkpt>
      <trkpt lon="-117.328095" lat="33.973999"><ele>324.300739</ele><time>2024-02-02T23:49:24Z</time><extensions><speed>0.933076</speed><course>299.313919</course><hAcc>1.678251</hAcc><vAcc>0.828430</vAcc></extensions></trkpt>
      <trkpt lon="-117.328104" lat="33.974003"><ele>324.264268</ele><time>2024-02-02T23:49:25Z</time><extensions><speed>0.882030</speed><course>300.161267</course><hAcc>1.673405</hAcc><vAcc>0.828477</vAcc></extensions></trkpt>
      <trkpt lon="-117.328111" lat="33.974007"><ele>324.227887</ele><time>2024-02-02T23:49:26Z</time><extensions><speed>0.777278</speed><course>309.446069</course><hAcc>1.672785</hAcc><vAcc>0.828511</vAcc></extensions></trkpt>
      <trkpt lon="-117.328117" lat="33.974013"><ele>324.202598</ele><time>2024-02-02T23:49:27Z</time><extensions><speed>0.739428</speed><course>328.152239</course><hAcc>1.676878</hAcc><vAcc>0.828543</vAcc></extensions></trkpt>
      <trkpt lon="-117.328121" lat="33.974019"><ele>324.182007</ele><time>2024-02-02T23:49:28Z</time><extensions><speed>0.932585</speed><course>338.331538</course><hAcc>1.671819</hAcc><vAcc>0.828576</vAcc></extensions></trkpt>
      <trkpt lon="-117.328125" lat="33.974028"><ele>324.165612</ele><time>2024-02-02T23:49:29Z</time><extensions><speed>1.079620</speed><course>336.404135</course><hAcc>1.668434</hAcc><vAcc>0.828641</vAcc></extensions></trkpt>
      <trkpt lon="-117.328130" lat="33.974037"><ele>324.157288</ele><time>2024-02-02T23:49:30Z</time><extensions><speed>1.161357</speed><course>332.092356</course><hAcc>1.663337</hAcc><vAcc>0.828704</vAcc></extensions></trkpt>
      <trkpt lon="-117.328136" lat="33.974046"><ele>324.168756</ele><time>2024-02-02T23:49:31Z</time><extensions><speed>1.145111</speed><course>330.405729</course><hAcc>1.654703</hAcc><vAcc>0.828749</vAcc></extensions></trkpt>
      <trkpt lon="-117.328142" lat="33.974055"><ele>324.190161</ele><time>2024-02-02T23:49:32Z</time><extensions><speed>1.125606</speed><course>330.781277</course><hAcc>1.650160</hAcc><vAcc>0.828787</vAcc></extensions></trkpt>
      <trkpt lon="-117.328148" lat="33.974064"><ele>324.231946</ele><time>2024-02-02T23:49:33Z</time><extensions><speed>1.143529</speed><course>337.235363</course><hAcc>1.656459</hAcc><vAcc>0.828829</vAcc></extensions></trkpt>
      <trkpt lon="-117.328152" lat="33.974074"><ele>324.275182</ele><time>2024-02-02T23:49:34Z</time><extensions><speed>1.144354</speed><course>346.592044</course><hAcc>1.662002</hAcc><vAcc>0.828834</vAcc></extensions></trkpt>
      <trkpt lon="-117.328154" lat="33.974083"><ele>324.312408</ele><time>2024-02-02T23:49:35Z</time><extensions><speed>1.085980</speed><course>351.666129</course><hAcc>1.668195</hAcc><vAcc>0.828806</vAcc></extensions></trkpt>
      <trkpt lon="-117.328156" lat="33.974093"><ele>324.350082</ele><time>2024-02-02T23:49:36Z</time><extensions><speed>1.003631</speed><course>351.886601</course><hAcc>1.652219</hAcc><vAcc>0.828783</vAcc></extensions></trkpt>
      <trkpt lon="-117.328157" lat="33.974101"><ele>324.386286</ele><time>2024-02-02T23:49:37Z</time><extensions><speed>0.911175</speed><course>347.742216</course><hAcc>1.649510</hAcc><vAcc>0.828750</vAcc></extensions></trkpt>
      <trkpt lon="-117.328160" lat="33.974109"><ele>324.421993</ele><time>2024-02-02T23:49:38Z</time><extensions><speed>0.869224</speed><course>339.838249</course><hAcc>1.660437</hAcc><vAcc>0.828731</vAcc></extensions></trkpt>
      <trkpt lon="-117.328164" lat="33.974116"><ele>324.455090</ele><time>2024-02-02T23:49:39Z</time><extensions><speed>0.862979</speed><course>329.107757</course><hAcc>1.676372</hAcc><vAcc>0.828714</vAcc></extensions></trkpt>
      <trkpt lon="-117.328170" lat="33.974121"><ele>324.480647</ele><time>2024-02-02T23:49:40Z</time><extensions><speed>0.802031</speed><course>308.157895</course><hAcc>1.682396</hAcc><vAcc>0.828707</vAcc></extensions></trkpt>
      <trkpt lon="-117.328177" lat="33.974125"><ele>324.502332</ele><time>2024-02-02T23:49:41Z</time><extensions><speed>0.822803</speed><course>290.660397</course><hAcc>1.682210</hAcc><vAcc>0.828687</vAcc></extensions></trkpt>
      <trkpt lon="-117.328187" lat="33.974127"><ele>324.530348</ele><time>2024-02-02T23:49:42Z</time><extensions><speed>0.956633</speed><course>279.435758</course><hAcc>1.683386</hAcc><vAcc>0.828630</vAcc></extensions></trkpt>
      <trkpt lon="-117.328198" lat="33.974128"><ele>324.535439</ele><time>2024-02-02T23:49:43Z</time><extensions><speed>1.112182</speed><course>269.241671</course><hAcc>1.686810</hAcc><vAcc>0.828580</vAcc></extensions></trkpt>
      <trkpt lon="-117.328210" lat="33.974127"><ele>324.527378</ele><time>2024-02-02T23:49:44Z</time><extensions><speed>1.156909</speed><course>258.756339</course><hAcc>1.686454</hAcc><vAcc>0.828536</vAcc></extensions></trkpt>
      <trkpt lon="-117.328221" lat="33.974124"><ele>324.529472</ele><time>2024-02-02T23:49:45Z</time><extensions><speed>1.102821</speed><course>247.440855</course><hAcc>1.683065</hAcc><vAcc>0.828496</vAcc></extensions></trkpt>
      <trkpt lon="-117.328231" lat="33.974119"><ele>324.540012</ele><time>2024-02-02T23:49:46Z</time><extensions><speed>0.861498</speed><course>232.683143</course><hAcc>1.672671</hAcc><vAcc>0.828446</vAcc></extensions></trkpt>
      <trkpt lon="-117.328237" lat="33.974115"><ele>324.545973</ele><time>2024-02-02T23:49:47Z</time><extensions><speed>0.725867</speed><course>219.848793</course><hAcc>1.649343</hAcc><vAcc>0.828381</vAcc></extensions></trkpt>
      <trkpt lon="-117.328242" lat="33.974108"><ele>324.532136</ele><time>2024-02-02T23:49:48Z</time><extensions><speed>0.939131</speed><course>209.442532</course><hAcc>1.620597</hAcc><vAcc>0.828296</vAcc></extensions></trkpt>
      <trkpt lon="-117.328247" lat="33.974099"><ele>324.515139</ele><time>2024-02-02T23:49:49Z</time><extensions><speed>1.284876</speed><course>206.099852</course><hAcc>1.635956</hAcc><vAcc>0.828211</vAcc></extensions></trkpt>
      <trkpt lon="-117.328253" lat="33.974089"><ele>324.508197</ele><time>2024-02-02T23:49:50Z</time><extensions><speed>1.329624</speed><course>202.152727</course><hAcc>1.680013</hAcc><vAcc>0.828090</vAcc></extensions></trkpt>
      <trkpt lon="-117.328258" lat="33.974078"><ele>324.492387</ele><time>2024-02-02T23:49:51Z</time><extensions><speed>1.268992</speed><course>196.984611</course><hAcc>1.624375</hAcc><vAcc>0.827932</vAcc></extensions></trkpt>
      <trkpt lon="-117.328262" lat="33.974067"><ele>324.473371</ele><time>2024-02-02T23:49:52Z</time><extensions><speed>1.194925</speed><course>195.247467</course><hAcc>1.598877</hAcc><vAcc>0.827786</vAcc></extensions></trkpt>
      <trkpt lon="-117.328265" lat="33.974057"><ele>324.455329</ele><time>2024-02-02T23:49:53Z</time><extensions><speed>1.166925</speed><course>201.116054</course><hAcc>1.614367</hAcc><vAcc>0.827632</vAcc></extensions></trkpt>
      <trkpt lon="-117.328271" lat="33.974047"><ele>324.441910</ele><time>2024-02-02T23:49:54Z</time><extensions><speed>1.195008</speed><course>206.328215</course><hAcc>1.641982</hAcc><vAcc>0.827450</vAcc></extensions></trkpt>
      <trkpt lon="-117.328277" lat="33.974038"><ele>324.431505</ele><time>2024-02-02T23:49:55Z</time><extensions><speed>1.205027</speed><course>211.454854</course><hAcc>1.656834</hAcc><vAcc>0.827270</vAcc></extensions></trkpt>
      <trkpt lon="-117.328284" lat="33.974029"><ele>324.417631</ele><time>2024-02-02T23:49:56Z</time><extensions><speed>1.134606</speed><course>217.414758</course><hAcc>1.643425</hAcc><vAcc>0.827067</vAcc></extensions></trkpt>
      <trkpt lon="-117.328292" lat="33.974021"><ele>324.400183</ele><time>2024-02-02T23:49:57Z</time><extensions><speed>1.128347</speed><course>222.926021</course><hAcc>1.640552</hAcc><vAcc>0.826878</vAcc></extensions></trkpt>
      <trkpt lon="-117.328301" lat="33.974014"><ele>324.379101</ele><time>2024-02-02T23:49:58Z</time><extensions><speed>1.191179</speed><course>225.418270</course><hAcc>1.640664</hAcc><vAcc>0.826708</vAcc></extensions></trkpt>
      <trkpt lon="-117.328310" lat="33.974006"><ele>324.366770</ele><time>2024-02-02T23:49:59Z</time><extensions><speed>1.242001</speed><course>225.127461</course><hAcc>1.629473</hAcc><vAcc>0.826557</vAcc></extensions></trkpt>
      <trkpt lon="-117.328320" lat="33.973998"><ele>324.342216</ele><time>2024-02-02T23:50:00Z</time><extensions><speed>1.284062</speed><course>224.603612</course><hAcc>1.610895</hAcc><vAcc>0.826464</vAcc></extensions></trkpt>
      <trkpt lon="-117.328330" lat="33.973990"><ele>324.323855</ele><time>2024-02-02T23:50:01Z</time><extensions><speed>1.310762</speed><course>225.278065</course><hAcc>1.618466</hAcc><vAcc>0.826412</vAcc></extensions></trkpt>
      <trkpt lon="-117.328340" lat="33.973982"><ele>324.318158</ele><time>2024-02-02T23:50:02Z</time><extensions><speed>1.271867</speed><course>228.038808</course><hAcc>1.656424</hAcc><vAcc>0.826385</vAcc></extensions></trkpt>
      <trkpt lon="-117.328350" lat="33.973975"><ele>324.332112</ele><time>2024-02-02T23:50:03Z</time><extensions><speed>1.101928</speed><course>234.746906</course><hAcc>1.593853</hAcc><vAcc>0.826391</vAcc></extensions></trkpt>
      <trkpt lon="-117.328360" lat="33.973970"><ele>324.352640</ele><time>2024-02-02T23:50:04Z</time><extensions><speed>1.052637</speed><course>236.455551</course><hAcc>1.578245</hAcc><vAcc>0.826425</vAcc></extensions></trkpt>
      <trkpt lon="-117.328369" lat="33.973965"><ele>324.373316</ele><time>2024-02-02T23:50:05Z</time><extensions><speed>1.085060</speed><course>233.153168</course><hAcc>1.618711</hAcc><vAcc>0.826489</vAcc></extensions></trkpt>
      <trkpt lon="-117.328379" lat="33.973960"><ele>324.378634</ele><time>2024-02-02T23:50:06Z</time><extensions><speed>1.049796</speed><course>242.113432</course><hAcc>1.583322</hAcc><vAcc>0.826571</vAcc></extensions></trkpt>
      <trkpt lon="-117.328389" lat="33.973956"><ele>324.387929</ele><time>2024-02-02T23:50:07Z</time><extensions><speed>0.994398</speed><course>250.743370</course><hAcc>1.583445</hAcc><vAcc>0.826675</vAcc></extensions></trkpt>
      <trkpt lon="-117.328399" lat="33.973954"><ele>324.412774</ele><time>2024-02-02T23:50:08Z</time><extensions><speed>0.953774</speed><course>258.888206</course><hAcc>1.612617</hAcc><vAcc>0.826812</vAcc></extensions></trkpt>
      <trkpt lon="-117.328410" lat="33.973953"><ele>324.451207</ele><time>2024-02-02T23:50:09Z</time><extensions><speed>1.058766</speed><course>276.513621</course><hAcc>1.609890</hAcc><vAcc>0.826962</vAcc></extensions></trkpt>
      <trkpt lon="-117.328421" lat="33.973956"><ele>324.494766</ele><time>2024-02-02T23:50:10Z</time><extensions><speed>1.026738</speed><course>299.407880</course><hAcc>1.640427</hAcc><vAcc>0.827102</vAcc></extensions></trkpt>
      <trkpt lon="-117.328429" lat="33.973962"><ele>324.541687</ele><time>2024-02-02T23:50:11Z</time><extensions><speed>0.922804</speed><course>319.849725</course><hAcc>1.635709</hAcc><vAcc>0.827210</vAcc></extensions></trkpt>
      <trkpt lon="-117.328435" lat="33.973968"><ele>324.592830</ele><time>2024-02-02T23:50:12Z</time><extensions><speed>0.933663</speed><course>334.699551</course><hAcc>1.635272</hAcc><vAcc>0.827281</vAcc></extensions></trkpt>
      <trkpt lon="-117.328439" lat="33.973977"><ele>324.657709</ele><time>2024-02-02T23:50:13Z</time><extensions><speed>1.097224</speed><course>338.437428</course><hAcc>1.651411</hAcc><vAcc>0.827308</vAcc></extensions></trkpt>
      <trkpt lon="-117.328444" lat="33.973986"><ele>324.731426</ele><time>2024-02-02T23:50:14Z</time><extensions><speed>1.111267</speed><course>335.339786</course><hAcc>1.667836</hAcc><vAcc>0.827288</vAcc></extensions></trkpt>
      <trkpt lon="-117.328449" lat="33.973994"><ele>324.811797</ele><time>2024-02-02T23:50:15Z</time><extensions><speed>0.913595</speed><course>327.073174</course><hAcc>1.677581</hAcc><vAcc>0.827255</vAcc></extensions></trkpt>
      <trkpt lon="-117.328455" lat="33.974000"><ele>324.879965</ele><time>2024-02-02T23:50:16Z</time><extensions><speed>0.812218</speed><course>316.462958</course><hAcc>1.682059</hAcc><vAcc>0.827166</vAcc></extensions></trkpt>
      <trkpt lon="-117.328462" lat="33.974006"><ele>324.941309</ele><time>2024-02-02T23:50:17Z</time><extensions><speed>0.955431</speed><course>308.907134</course><hAcc>1.689635</hAcc><vAcc>0.826959</vAcc></extensions></trkpt>
      <trkpt lon="-117.328471" lat="33.974011"><ele>324.999991</ele><time>2024-02-02T23:50:18Z</time><extensions><speed>1.165845</speed><course>302.957835</course><hAcc>1.692064</hAcc><vAcc>0.826624</vAcc></extensions></trkpt>
      <trkpt lon="-117.328482" lat="33.974017"><ele>325.056908</ele><time>2024-02-02T23:50:19Z</time><extensions><speed>1.236626</speed><course>296.998327</course><hAcc>1.692535</hAcc><vAcc>0.826149</vAcc></extensions></trkpt>
      <trkpt lon="-117.328495" lat="33.974022"><ele>325.104572</ele><time>2024-02-02T23:50:20Z</time><extensions><speed>1.279426</speed><course>293.577209</course><hAcc>1.690570</hAcc><vAcc>0.825564</vAcc></extensions></trkpt>
      <trkpt lon="-117.328508" lat="33.974026"><ele>325.145506</ele><time>2024-02-02T23:50:21Z</time><extensions><speed>1.312038</speed><course>293.810209</course><hAcc>1.688612</hAcc><vAcc>0.824849</vAcc></extensions></trkpt>
      <trkpt lon="-117.328520" lat="33.974031"><ele>325.178602</ele><time>2024-02-02T23:50:22Z</time><extensions><speed>1.325319</speed><course>296.927263</course><hAcc>1.688234</hAcc><vAcc>0.824056</vAcc></extensions></trkpt>
      <trkpt lon="-117.328533" lat="33.974038"><ele>325.204556</ele><time>2024-02-02T23:50:23Z</time><extensions><speed>1.389473</speed><course>303.307087</course><hAcc>1.691922</hAcc><vAcc>0.823224</vAcc></extensions></trkpt>
      <trkpt lon="-117.328545" lat="33.974045"><ele>325.228058</ele><time>2024-02-02T23:50:24Z</time><extensions><speed>1.332534</speed><course>312.885728</course><hAcc>1.705088</hAcc><vAcc>0.822354</vAcc></extensions></trkpt>
      <trkpt lon="-117.328554" lat="33.974053"><ele>325.239902</ele><time>2024-02-02T23:50:25Z</time><extensions><speed>1.107171</speed><course>323.754540</course><hAcc>1.722466</hAcc><vAcc>0.821432</vAcc></extensions></trkpt>
      <trkpt lon="-117.328559" lat="33.974061"><ele>325.236113</ele><time>2024-02-02T23:50:26Z</time><extensions><speed>0.980575</speed><course>333.694427</course><hAcc>1.716107</hAcc><vAcc>0.820499</vAcc></extensions></trkpt>
      <trkpt lon="-117.328563" lat="33.974070"><ele>325.217221</ele><time>2024-02-02T23:50:27Z</time><extensions><speed>1.032864</speed><course>343.323437</course><hAcc>1.716233</hAcc><vAcc>0.819636</vAcc></extensions></trkpt>
      <trkpt lon="-117.328566" lat="33.974079"><ele>325.194011</ele><time>2024-02-02T23:50:28Z</time><extensions><speed>1.127145</speed><course>347.595451</course><hAcc>1.735349</hAcc><vAcc>0.818896</vAcc></extensions></trkpt>
      <trkpt lon="-117.328569" lat="33.974090"><ele>325.170732</ele><time>2024-02-02T23:50:29Z</time><extensions><speed>1.193067</speed><course>347.071273</course><hAcc>1.747176</hAcc><vAcc>0.818317</vAcc></extensions></trkpt>
      <trkpt lon="-117.328572" lat="33.974100"><ele>325.154092</ele><time>2024-02-02T23:50:30Z</time><extensions><speed>1.204167</speed><course>345.819371</course><hAcc>1.742430</hAcc><vAcc>0.817945</vAcc></extensions></trkpt>
      <trkpt lon="-117.328575" lat="33.974111"><ele>325.136768</ele><time>2024-02-02T23:50:31Z</time><extensions><speed>1.314038</speed><course>345.012322</course><hAcc>1.729653</hAcc><vAcc>0.817809</vAcc></extensions></trkpt>
      <trkpt lon="-117.328579" lat="33.974123"><ele>325.110865</ele><time>2024-02-02T23:50:32Z</time><extensions><speed>1.397651</speed><course>345.124511</course><hAcc>1.731781</hAcc><vAcc>0.817858</vAcc></extensions></trkpt>
      <trkpt lon="-117.328583" lat="33.974135"><ele>325.082623</ele><time>2024-02-02T23:50:33Z</time><extensions><speed>1.329949</speed><course>348.162441</course><hAcc>1.743682</hAcc><vAcc>0.818076</vAcc></extensions></trkpt>
      <trkpt lon="-117.328585" lat="33.974146"><ele>325.057998</ele><time>2024-02-02T23:50:34Z</time><extensions><speed>1.126901</speed><course>351.114585</course><hAcc>1.747387</hAcc><vAcc>0.818399</vAcc></extensions></trkpt>
      <trkpt lon="-117.328586" lat="33.974156"><ele>325.030200</ele><time>2024-02-02T23:50:35Z</time><extensions><speed>1.032254</speed><course>355.271180</course><hAcc>1.711189</hAcc><vAcc>0.818760</vAcc></extensions></trkpt>
      <trkpt lon="-117.328587" lat="33.974165"><ele>325.006167</ele><time>2024-02-02T23:50:36Z</time><extensions><speed>1.035430</speed><course>356.094430</course><hAcc>1.692744</hAcc><vAcc>0.819048</vAcc></extensions></trkpt>
      <trkpt lon="-117.328588" lat="33.974174"><ele>324.978382</ele><time>2024-02-02T23:50:37Z</time><extensions><speed>1.085497</speed><course>354.477215</course><hAcc>1.703552</hAcc><vAcc>0.819190</vAcc></extensions></trkpt>
      <trkpt lon="-117.328589" lat="33.974184"><ele>324.950660</ele><time>2024-02-02T23:50:38Z</time><extensions><speed>1.145622</speed><course>353.005505</course><hAcc>1.717790</hAcc><vAcc>0.819244</vAcc></extensions></trkpt>
      <trkpt lon="-117.328591" lat="33.974195"><ele>324.931276</ele><time>2024-02-02T23:50:39Z</time><extensions><speed>1.164586</speed><course>352.635928</course><hAcc>1.707915</hAcc><vAcc>0.819256</vAcc></extensions></trkpt>
      <trkpt lon="-117.328592" lat="33.974204"><ele>324.917440</ele><time>2024-02-02T23:50:40Z</time><extensions><speed>0.987718</speed><course>354.482005</course><hAcc>1.707786</hAcc><vAcc>0.819159</vAcc></extensions></trkpt>
      <trkpt lon="-117.328593" lat="33.974212"><ele>324.886818</ele><time>2024-02-02T23:50:41Z</time><extensions><speed>0.800512</speed><course>358.384469</course><hAcc>1.720548</hAcc><vAcc>0.818954</vAcc></extensions></trkpt>
      <trkpt lon="-117.328593" lat="33.974219"><ele>324.858101</ele><time>2024-02-02T23:50:42Z</time><extensions><speed>0.719537</speed><course>2.300365</course><hAcc>1.739840</hAcc><vAcc>0.818610</vAcc></extensions></trkpt>
      <trkpt lon="-117.328592" lat="33.974226"><ele>324.833002</ele><time>2024-02-02T23:50:43Z</time><extensions><speed>0.664184</speed><course>4.960673</course><hAcc>1.757007</hAcc><vAcc>0.817946</vAcc></extensions></trkpt>
      <trkpt lon="-117.328592" lat="33.974231"><ele>324.816431</ele><time>2024-02-02T23:50:44Z</time><extensions><speed>0.543673</speed><course>4.725223</course><hAcc>1.760644</hAcc><vAcc>0.816583</vAcc></extensions></trkpt>
      <trkpt lon="-117.328592" lat="33.974235"><ele>324.805106</ele><time>2024-02-02T23:50:45Z</time><extensions><speed>0.458446</speed><course>351.237183</course><hAcc>1.761413</hAcc><vAcc>0.814711</vAcc></extensions></trkpt>
      <trkpt lon="-117.328594" lat="33.974240"><ele>324.800299</ele><time>2024-02-02T23:50:46Z</time><extensions><speed>0.522783</speed><course>335.248796</course><hAcc>1.776261</hAcc><vAcc>0.809878</vAcc></extensions></trkpt>
      <trkpt lon="-117.328597" lat="33.974244"><ele>324.782617</ele><time>2024-02-02T23:50:47Z</time><extensions><speed>0.645639</speed><course>326.331111</course><hAcc>1.803498</hAcc><vAcc>0.806394</vAcc></extensions></trkpt>
      <trkpt lon="-117.328600" lat="33.974248"><ele>324.765526</ele><time>2024-02-02T23:50:48Z</time><extensions><speed>0.466624</speed><course>311.519412</course><hAcc>1.815121</hAcc><vAcc>0.802358</vAcc></extensions></trkpt>
      <trkpt lon="-117.328604" lat="33.974250"><ele>324.789365</ele><time>2024-02-02T23:50:49Z</time><extensions><speed>0.322139</speed><course>296.127116</course><hAcc>1.811301</hAcc><vAcc>0.791338</vAcc></extensions></trkpt>
      <trkpt lon="-117.328607" lat="33.974251"><ele>324.795894</ele><time>2024-02-02T23:50:50Z</time><extensions><speed>0.273215</speed><course>274.783026</course><hAcc>1.818917</hAcc><vAcc>0.780289</vAcc></extensions></trkpt>
      <trkpt lon="-117.328610" lat="33.974251"><ele>324.795195</ele><time>2024-02-02T23:50:51Z</time><extensions><speed>0.326149</speed><course>257.814823</course><hAcc>1.831099</hAcc><vAcc>0.766659</vAcc></extensions></trkpt>
      <trkpt lon="-117.328613" lat="33.974250"><ele>324.798626</ele><time>2024-02-02T23:50:52Z</time><extensions><speed>0.207554</speed><course>243.247243</course><hAcc>1.838613</hAcc><vAcc>0.749540</vAcc></extensions></trkpt>
      <trkpt lon="-117.328615" lat="33.974249"><ele>324.806104</ele><time>2024-02-02T23:50:53Z</time><extensions><speed>0.145362</speed><course>239.617145</course><hAcc>1.881703</hAcc><vAcc>0.728239</vAcc></extensions></trkpt>
      <trkpt lon="-117.328616" lat="33.974248"><ele>324.808609</ele><time>2024-02-02T23:50:54Z</time><extensions><speed>0.097070</speed><course>248.235314</course><hAcc>1.979838</hAcc><vAcc>0.702619</vAcc></extensions></trkpt>
      <trkpt lon="-117.328617" lat="33.974248"><ele>324.804002</ele><time>2024-02-02T23:50:55Z</time><extensions><speed>0.130396</speed><course>271.425164</course><hAcc>2.128862</hAcc><vAcc>0.672793</vAcc></extensions></trkpt>
      <trkpt lon="-117.328619" lat="33.974248"><ele>324.797573</ele><time>2024-02-02T23:50:56Z</time><extensions><speed>0.244717</speed><course>289.876101</course><hAcc>2.364568</hAcc><vAcc>0.639632</vAcc></extensions></trkpt>
      <trkpt lon="-117.328622" lat="33.974250"><ele>324.772169</ele><time>2024-02-02T23:50:57Z</time><extensions><speed>0.425893</speed><course>304.011657</course><hAcc>2.647189</hAcc><vAcc>0.604225</vAcc></extensions></trkpt>
      <trkpt lon="-117.328627" lat="33.974252"><ele>324.743885</ele><time>2024-02-02T23:50:58Z</time><extensions><speed>0.453096</speed><course>294.426283</course><hAcc>2.862643</hAcc><vAcc>0.567848</vAcc></extensions></trkpt>
      <trkpt lon="-117.328631" lat="33.974252"><ele>324.697002</ele><time>2024-02-02T23:50:59Z</time><extensions><speed>0.463930</speed><course>259.935959</course><hAcc>3.049546</hAcc><vAcc>0.532348</vAcc></extensions></trkpt>
      <trkpt lon="-117.328637" lat="33.974250"><ele>324.670908</ele><time>2024-02-02T23:51:00Z</time><extensions><speed>0.583560</speed><course>239.259464</course><hAcc>3.299735</hAcc><vAcc>0.499836</vAcc></extensions></trkpt>
      <trkpt lon="-117.328643" lat="33.974247"><ele>324.642336</ele><time>2024-02-02T23:51:01Z</time><extensions><speed>0.733932</speed><course>230.250894</course><hAcc>3.587250</hAcc><vAcc>0.472024</vAcc></extensions></trkpt>
      <trkpt lon="-117.328649" lat="33.974242"><ele>324.599207</ele><time>2024-02-02T23:51:02Z</time><extensions><speed>0.847886</speed><course>226.487950</course><hAcc>3.874456</hAcc><vAcc>0.449597</vAcc></extensions></trkpt>
      <trkpt lon="-117.328656" lat="33.974237"><ele>324.562059</ele><time>2024-02-02T23:51:03Z</time><extensions><speed>0.930568</speed><course>225.194175</course><hAcc>4.131789</hAcc><vAcc>0.432632</vAcc></extensions></trkpt>
      <trkpt lon="-117.328663" lat="33.974231"><ele>324.534470</ele><time>2024-02-02T23:51:04Z</time><extensions><speed>0.947135</speed><course>225.095702</course><hAcc>4.333422</hAcc><vAcc>0.420313</vAcc></extensions></trkpt>
      <trkpt lon="-117.328671" lat="33.974225"><ele>324.526380</ele><time>2024-02-02T23:51:05Z</time><extensions><speed>0.982501</speed><course>225.911659</course><hAcc>4.454726</hAcc><vAcc>0.411495</vAcc></extensions></trkpt>
      <trkpt lon="-117.328679" lat="33.974218"><ele>324.535689</ele><time>2024-02-02T23:51:06Z</time><extensions><speed>1.039848</speed><course>226.619672</course><hAcc>4.543673</hAcc><vAcc>0.405161</vAcc></extensions></trkpt>
      <trkpt lon="-117.328687" lat="33.974212"><ele>324.555129</ele><time>2024-02-02T23:51:07Z</time><extensions><speed>1.092188</speed><course>227.503898</course><hAcc>4.645999</hAcc><vAcc>0.400579</vAcc></extensions></trkpt>
      <trkpt lon="-117.328696" lat="33.974205"><ele>324.582569</ele><time>2024-02-02T23:51:08Z</time><extensions><speed>1.128978</speed><course>228.174053</course><hAcc>4.783042</hAcc><vAcc>0.397273</vAcc></extensions></trkpt>
      <trkpt lon="-117.328705" lat="33.974198"><ele>324.610884</ele><time>2024-02-02T23:51:09Z</time><extensions><speed>1.138326</speed><course>228.339379</course><hAcc>4.972638</hAcc><vAcc>0.394922</vAcc></extensions></trkpt>
      <trkpt lon="-117.328715" lat="33.974191"><ele>324.645800</ele><time>2024-02-02T23:51:10Z</time><extensions><speed>1.117497</speed><course>228.022220</course><hAcc>5.245337</hAcc><vAcc>0.393731</vAcc></extensions></trkpt>
      <trkpt lon="-117.328723" lat="33.974185"><ele>324.681652</ele><time>2024-02-02T23:51:11Z</time><extensions><speed>1.090243</speed><course>227.801151</course><hAcc>5.581767</hAcc><vAcc>0.392368</vAcc></extensions></trkpt>
      <trkpt lon="-117.328732" lat="33.974178"><ele>324.718160</ele><time>2024-02-02T23:51:12Z</time><extensions><speed>1.060280</speed><course>227.595628</course><hAcc>6.011587</hAcc><vAcc>0.391505</vAcc></extensions></trkpt>
      <trkpt lon="-117.328740" lat="33.974172"><ele>324.751524</ele><time>2024-02-02T23:51:13Z</time><extensions><speed>1.034003</speed><course>227.359497</course><hAcc>6.542433</hAcc><vAcc>0.391818</vAcc></extensions></trkpt>
      <trkpt lon="-117.328749" lat="33.974165"><ele>324.779270</ele><time>2024-02-02T23:51:14Z</time><extensions><speed>1.010706</speed><course>227.122493</course><hAcc>7.206614</hAcc><vAcc>0.395203</vAcc></extensions></trkpt>
      <trkpt lon="-117.328756" lat="33.974159"><ele>324.800046</ele><time>2024-02-02T23:51:15Z</time><extensions><speed>0.991936</speed><course>226.888834</course><hAcc>8.032785</hAcc><vAcc>0.405542</vAcc></extensions></trkpt>
      <trkpt lon="-117.328764" lat="33.974153"><ele>324.815066</ele><time>2024-02-02T23:51:16Z</time><extensions><speed>0.981051</speed><course>226.662547</course><hAcc>9.061125</hAcc><vAcc>0.429476</vAcc></extensions></trkpt>
      <trkpt lon="-117.328772" lat="33.974147"><ele>324.826653</ele><time>2024-02-02T23:51:17Z</time><extensions><speed>0.976600</speed><course>226.468998</course><hAcc>10.336530</hAcc><vAcc>0.475751</vAcc></extensions></trkpt>
      <trkpt lon="-117.328780" lat="33.974141"><ele>324.836777</ele><time>2024-02-02T23:51:18Z</time><extensions><speed>0.977722</speed><course>226.337105</course><hAcc>11.885430</hAcc><vAcc>0.551945</vAcc></extensions></trkpt>
      <trkpt lon="-117.328787" lat="33.974135"><ele>324.846643</ele><time>2024-02-02T23:51:19Z</time><extensions><speed>0.979222</speed><course>226.277379</course><hAcc>13.748097</hAcc><vAcc>0.662923</vAcc></extensions></trkpt>
    </trkseg>
  </trk>
</gpx>