<?xml version="1.0" encoding="UTF-8"?>
<gpx version="1.1" creator="Apple Health Export" xmlns="http://www.topografix.com/GPX/1/1" xmlns:xsi="http://www.w3.org/2001/XMLSchema-instance" xsi:schemaLocation="http://www.topografix.com/GPX/1/1 http://www.topografix.com/GPX/1/1/gpx.xsd">
  <metadata>
    <time>2026-01-11T07:57:29Z</time>
  </metadata>
  <trk>
    <name>Route 2024-05-03 8:30pm</name>
    <trkseg>
      <trkpt lon="-117.165370" lat="32.897369"><ele>77.770265</ele><time>2024-05-04T03:23:45Z</time><extensions><speed>1.186697</speed><course>341.458113</course><hAcc>2.474598</hAcc><vAcc>1.217037</vAcc></extensions></trkpt>
      <trkpt lon="-117.165374" lat="32.897380"><ele>77.888713</ele><time>2024-05-04T03:23:46Z</time><extensions><speed>1.136670</speed><course>342.390505</course><hAcc>2.308640</hAcc><vAcc>1.044923</vAcc></extensions></trkpt>
      <trkpt lon="-117.165378" lat="32.897391"><ele>78.021263</ele><time>2024-05-04T03:23:47Z</time><extensions><speed>1.200376</speed><course>344.869916</course><hAcc>2.182531</hAcc><vAcc>0.914290</vAcc></extensions></trkpt>
      <trkpt lon="-117.165381" lat="32.897402"><ele>78.156553</ele><time>2024-05-04T03:23:48Z</time><extensions><speed>1.213236</speed><course>346.217825</course><hAcc>2.077391</hAcc><vAcc>0.819057</vAcc></extensions></trkpt>
      <trkpt lon="-117.165383" lat="32.897413"><ele>78.295684</ele><time>2024-05-04T03:23:49Z</time><extensions><speed>1.201890</speed><course>350.618131</course><hAcc>1.987568</hAcc><vAcc>0.752996</vAcc></extensions></trkpt>
      <trkpt lon="-117.165385" lat="32.897424"><ele>78.440666</ele><time>2024-05-04T03:23:50Z</time><extensions><speed>1.204977</speed><course>354.443092</course><hAcc>1.923025</hAcc><vAcc>0.709704</vAcc></extensions></trkpt>
      <trkpt lon="-117.165386" lat="32.897436"><ele>78.591792</ele><time>2024-05-04T03:23:51Z</time><extensions><speed>1.208926</speed><course>356.063684</course><hAcc>1.886359</hAcc><vAcc>0.683019</vAcc></extensions></trkpt>
      <trkpt lon="-117.165387" lat="32.897447"><ele>78.748053</ele><time>2024-05-04T03:23:52Z</time><extensions><speed>1.254615</speed><course>357.711858</course><hAcc>1.836335</hAcc><vAcc>0.667583</vAcc></extensions></trkpt>
      <trkpt lon="-117.165387" lat="32.897459"><ele>78.909568</ele><time>2024-05-04T03:23:53Z</time><extensions><speed>1.273556</speed><course>358.591722</course><hAcc>1.792500</hAcc><vAcc>0.659197</vAcc></extensions></trkpt>
      <trkpt lon="-117.165387" lat="32.897471"><ele>79.076424</ele><time>2024-05-04T03:23:54Z</time><extensions><speed>1.335775</speed><course>358.291321</course><hAcc>1.752320</hAcc><vAcc>0.654871</vAcc></extensions></trkpt>
      <trkpt lon="-117.165388" lat="32.897484"><ele>79.248439</ele><time>2024-05-04T03:23:55Z</time><extensions><speed>1.408580</speed><course>357.503134</course><hAcc>1.716036</hAcc><vAcc>0.652651</vAcc></extensions></trkpt>
      <trkpt lon="-117.165389" lat="32.897496"><ele>79.425393</ele><time>2024-05-04T03:23:56Z</time><extensions><speed>1.413264</speed><course>353.798157</course><hAcc>1.682798</hAcc><vAcc>0.651368</vAcc></extensions></trkpt>
      <trkpt lon="-117.165390" lat="32.897509"><ele>79.607155</ele><time>2024-05-04T03:23:57Z</time><extensions><speed>1.408551</speed><course>353.526334</course><hAcc>1.654120</hAcc><vAcc>0.650392</vAcc></extensions></trkpt>
      <trkpt lon="-117.165391" lat="32.897522"><ele>79.794253</ele><time>2024-05-04T03:23:58Z</time><extensions><speed>1.376654</speed><course>354.266131</course><hAcc>1.630707</hAcc><vAcc>0.649435</vAcc></extensions></trkpt>
      <trkpt lon="-117.165391" lat="32.897534"><ele>79.986176</ele><time>2024-05-04T03:23:59Z</time><extensions><speed>1.371707</speed><course>356.165385</course><hAcc>1.612530</hAcc><vAcc>0.648406</vAcc></extensions></trkpt>
      <trkpt lon="-117.165391" lat="32.897546"><ele>80.183220</ele><time>2024-05-04T03:24:00Z</time><extensions><speed>1.372528</speed><course>0.227631</course><hAcc>1.595358</hAcc><vAcc>0.647316</vAcc></extensions></trkpt>
      <trkpt lon="-117.165391" lat="32.897559"><ele>80.384786</ele><time>2024-05-04T03:24:01Z</time><extensions><speed>1.394298</speed><course>356.791899</course><hAcc>1.564289</hAcc><vAcc>0.646217</vAcc></extensions></trkpt>
      <trkpt lon="-117.165392" lat="32.897571"><ele>80.589402</ele><time>2024-05-04T03:24:02Z</time><extensions><speed>1.373799</speed><course>351.940020</course><hAcc>1.550583</hAcc><vAcc>0.645166</vAcc></extensions></trkpt>
      <trkpt lon="-117.165394" lat="32.897584"><ele>80.797042</ele><time>2024-05-04T03:24:03Z</time><extensions><speed>1.370821</speed><course>352.674752</course><hAcc>1.532511</hAcc><vAcc>0.644212</vAcc></extensions></trkpt>
      <trkpt lon="-117.165395" lat="32.897596"><ele>81.007593</ele><time>2024-05-04T03:24:04Z</time><extensions><speed>1.350479</speed><course>352.680703</course><hAcc>1.518887</hAcc><vAcc>0.643384</vAcc></extensions></trkpt>
      <trkpt lon="-117.165397" lat="32.897608"><ele>81.219475</ele><time>2024-05-04T03:24:05Z</time><extensions><speed>1.341628</speed><course>349.906165</course><hAcc>1.515930</hAcc><vAcc>0.642693</vAcc></extensions></trkpt>
      <trkpt lon="-117.165399" lat="32.897620"><ele>81.432831</ele><time>2024-05-04T03:24:06Z</time><extensions><speed>1.320173</speed><course>351.064593</course><hAcc>1.501330</hAcc><vAcc>0.642138</vAcc></extensions></trkpt>
      <trkpt lon="-117.165401" lat="32.897629"><ele>81.684329</ele><time>2024-05-04T03:24:07Z</time><extensions><speed>1.277711</speed><course>351.426891</course><hAcc>1.473504</hAcc><vAcc>0.642253</vAcc></extensions></trkpt>
      <trkpt lon="-117.165404" lat="32.897639"><ele>81.961535</ele><time>2024-05-04T03:24:08Z</time><extensions><speed>1.278956</speed><course>353.131138</course><hAcc>1.449031</hAcc><vAcc>0.643247</vAcc></extensions></trkpt>
      <trkpt lon="-117.165406" lat="32.897650"><ele>82.261257</ele><time>2024-05-04T03:24:09Z</time><extensions><speed>1.295039</speed><course>350.790268</course><hAcc>1.440544</hAcc><vAcc>0.645464</vAcc></extensions></trkpt>
      <trkpt lon="-117.165409" lat="32.897660"><ele>82.580446</ele><time>2024-05-04T03:24:10Z</time><extensions><speed>1.269958</speed><course>350.280199</course><hAcc>1.447272</hAcc><vAcc>0.649226</vAcc></extensions></trkpt>
      <trkpt lon="-117.165412" lat="32.897671"><ele>82.917064</ele><time>2024-05-04T03:24:11Z</time><extensions><speed>1.254721</speed><course>347.397678</course><hAcc>1.446851</hAcc><vAcc>0.654809</vAcc></extensions></trkpt>
      <trkpt lon="-117.165414" lat="32.897682"><ele>83.266922</ele><time>2024-05-04T03:24:12Z</time><extensions><speed>1.251679</speed><course>348.746265</course><hAcc>1.464975</hAcc><vAcc>0.662418</vAcc></extensions></trkpt>
      <trkpt lon="-117.165417" lat="32.897693"><ele>83.626732</ele><time>2024-05-04T03:24:13Z</time><extensions><speed>1.285280</speed><course>346.028356</course><hAcc>1.498238</hAcc><vAcc>0.672161</vAcc></extensions></trkpt>
      <trkpt lon="-117.165420" lat="32.897704"><ele>84.000398</ele><time>2024-05-04T03:24:14Z</time><extensions><speed>1.215918</speed><course>348.676909</course><hAcc>1.513986</hAcc><vAcc>0.683992</vAcc></extensions></trkpt>
      <trkpt lon="-117.165423" lat="32.897714"><ele>84.385507</ele><time>2024-05-04T03:24:15Z</time><extensions><speed>1.181716</speed><course>343.130247</course><hAcc>1.541932</hAcc><vAcc>0.697670</vAcc></extensions></trkpt>
      <trkpt lon="-117.165427" lat="32.897724"><ele>84.779390</ele><time>2024-05-04T03:24:16Z</time><extensions><speed>1.005366</speed><course>340.457208</course><hAcc>1.564943</hAcc><vAcc>0.712702</vAcc></extensions></trkpt>
      <trkpt lon="-117.165431" lat="32.897730"><ele>85.170668</ele><time>2024-05-04T03:24:17Z</time><extensions><speed>0.703296</speed><course>315.589891</course><hAcc>1.528604</hAcc><vAcc>0.728297</vAcc></extensions></trkpt>
      <trkpt lon="-117.165437" lat="32.897734"><ele>85.557147</ele><time>2024-05-04T03:24:18Z</time><extensions><speed>0.674834</speed><course>304.450402</course><hAcc>1.582138</hAcc><vAcc>0.743547</vAcc></extensions></trkpt>
      <trkpt lon="-117.165443" lat="32.897738"><ele>85.933528</ele><time>2024-05-04T03:24:19Z</time><extensions><speed>0.688636</speed><course>305.510897</course><hAcc>1.677080</hAcc><vAcc>0.757820</vAcc></extensions></trkpt>
      <trkpt lon="-117.165449" lat="32.897742"><ele>86.295035</ele><time>2024-05-04T03:24:20Z</time><extensions><speed>0.714239</speed><course>309.982510</course><hAcc>1.750705</hAcc><vAcc>0.770569</vAcc></extensions></trkpt>
      <trkpt lon="-117.165455" lat="32.897746"><ele>86.645846</ele><time>2024-05-04T03:24:21Z</time><extensions><speed>0.826547</speed><course>315.907745</course><hAcc>1.790753</hAcc><vAcc>0.781663</vAcc></extensions></trkpt>
      <trkpt lon="-117.165461" lat="32.897752"><ele>86.971136</ele><time>2024-05-04T03:24:22Z</time><extensions><speed>0.949010</speed><course>320.404103</course><hAcc>1.806325</hAcc><vAcc>0.791004</vAcc></extensions></trkpt>
      <trkpt lon="-117.165468" lat="32.897759"><ele>87.286880</ele><time>2024-05-04T03:24:23Z</time><extensions><speed>1.050103</speed><course>325.430249</course><hAcc>1.811080</hAcc><vAcc>0.798699</vAcc></extensions></trkpt>
      <trkpt lon="-117.165474" lat="32.897768"><ele>87.594170</ele><time>2024-05-04T03:24:24Z</time><extensions><speed>1.133397</speed><course>330.525136</course><hAcc>1.811381</hAcc><vAcc>0.804931</vAcc></extensions></trkpt>
      <trkpt lon="-117.165479" lat="32.897777"><ele>87.888863</ele><time>2024-05-04T03:24:25Z</time><extensions><speed>1.188664</speed><course>334.341130</course><hAcc>1.803170</hAcc><vAcc>0.809902</vAcc></extensions></trkpt>
      <trkpt lon="-117.165485" lat="32.897787"><ele>88.163368</ele><time>2024-05-04T03:24:26Z</time><extensions><speed>1.210423</speed><course>337.619441</course><hAcc>1.771956</hAcc><vAcc>0.813838</vAcc></extensions></trkpt>
      <trkpt lon="-117.165489" lat="32.897797"><ele>88.426440</ele><time>2024-05-04T03:24:27Z</time><extensions><speed>1.198506</speed><course>343.060342</course><hAcc>1.727880</hAcc><vAcc>0.816974</vAcc></extensions></trkpt>
      <trkpt lon="-117.165492" lat="32.897808"><ele>88.679251</ele><time>2024-05-04T03:24:28Z</time><extensions><speed>1.197436</speed><course>345.866586</course><hAcc>1.688289</hAcc><vAcc>0.819436</vAcc></extensions></trkpt>
      <trkpt lon="-117.165495" lat="32.897819"><ele>88.934781</ele><time>2024-05-04T03:24:29Z</time><extensions><speed>1.240501</speed><course>346.781682</course><hAcc>1.673597</hAcc><vAcc>0.821370</vAcc></extensions></trkpt>
      <trkpt lon="-117.165498" lat="32.897830"><ele>89.189062</ele><time>2024-05-04T03:24:30Z</time><extensions><speed>1.416190</speed><course>346.922886</course><hAcc>1.674133</hAcc><vAcc>0.822874</vAcc></extensions></trkpt>
      <trkpt lon="-117.165501" lat="32.897842"><ele>89.434511</ele><time>2024-05-04T03:24:31Z</time><extensions><speed>1.197841</speed><course>346.160844</course><hAcc>1.692652</hAcc><vAcc>0.824044</vAcc></extensions></trkpt>
      <trkpt lon="-117.165504" lat="32.897853"><ele>89.678338</ele><time>2024-05-04T03:24:32Z</time><extensions><speed>1.222637</speed><course>349.223947</course><hAcc>1.635788</hAcc><vAcc>0.824949</vAcc></extensions></trkpt>
      <trkpt lon="-117.165506" lat="32.897863"><ele>89.910482</ele><time>2024-05-04T03:24:33Z</time><extensions><speed>1.178510</speed><course>350.635149</course><hAcc>1.600523</hAcc><vAcc>0.825640</vAcc></extensions></trkpt>
      <trkpt lon="-117.165509" lat="32.897874"><ele>90.148020</ele><time>2024-05-04T03:24:34Z</time><extensions><speed>1.284797</speed><course>350.604814</course><hAcc>1.590010</hAcc><vAcc>0.826165</vAcc></extensions></trkpt>
      <trkpt lon="-117.165511" lat="32.897886"><ele>90.386265</ele><time>2024-05-04T03:24:35Z</time><extensions><speed>1.365046</speed><course>349.943975</course><hAcc>1.587540</hAcc><vAcc>0.826580</vAcc></extensions></trkpt>
      <trkpt lon="-117.165514" lat="32.897898"><ele>90.622964</ele><time>2024-05-04T03:24:36Z</time><extensions><speed>1.400556</speed><course>349.510048</course><hAcc>1.613194</hAcc><vAcc>0.826905</vAcc></extensions></trkpt>
      <trkpt lon="-117.165517" lat="32.897910"><ele>90.855693</ele><time>2024-05-04T03:24:37Z</time><extensions><speed>1.307540</speed><course>346.435032</course><hAcc>1.663554</hAcc><vAcc>0.827185</vAcc></extensions></trkpt>
      <trkpt lon="-117.165520" lat="32.897922"><ele>91.089914</ele><time>2024-05-04T03:24:38Z</time><extensions><speed>1.362532</speed><course>348.282361</course><hAcc>1.617308</hAcc><vAcc>0.827406</vAcc></extensions></trkpt>
      <trkpt lon="-117.165523" lat="32.897933"><ele>91.333089</ele><time>2024-05-04T03:24:39Z</time><extensions><speed>1.318430</speed><course>346.559458</course><hAcc>1.600907</hAcc><vAcc>0.827601</vAcc></extensions></trkpt>
      <trkpt lon="-117.165527" lat="32.897945"><ele>91.576640</ele><time>2024-05-04T03:24:40Z</time><extensions><speed>1.267429</speed><course>340.579574</course><hAcc>1.614822</hAcc><vAcc>0.827755</vAcc></extensions></trkpt>
      <trkpt lon="-117.165532" lat="32.897955"><ele>91.820952</ele><time>2024-05-04T03:24:41Z</time><extensions><speed>1.256717</speed><course>331.880785</course><hAcc>1.632077</hAcc><vAcc>0.827926</vAcc></extensions></trkpt>
      <trkpt lon="-117.165539" lat="32.897965"><ele>92.053487</ele><time>2024-05-04T03:24:42Z</time><extensions><speed>1.211904</speed><course>323.654379</course><hAcc>1.638802</hAcc><vAcc>0.828080</vAcc></extensions></trkpt>
      <trkpt lon="-117.165548" lat="32.897973"><ele>92.275530</ele><time>2024-05-04T03:24:43Z</time><extensions><speed>1.279888</speed><course>317.593231</course><hAcc>1.626748</hAcc><vAcc>0.828217</vAcc></extensions></trkpt>
      <trkpt lon="-117.165558" lat="32.897982"><ele>92.494458</ele><time>2024-05-04T03:24:44Z</time><extensions><speed>1.367329</speed><course>316.924913</course><hAcc>1.604237</hAcc><vAcc>0.828388</vAcc></extensions></trkpt>
      <trkpt lon="-117.165568" lat="32.897992"><ele>92.704073</ele><time>2024-05-04T03:24:45Z</time><extensions><speed>1.456729</speed><course>320.295081</course><hAcc>1.576129</hAcc><vAcc>0.828570</vAcc></extensions></trkpt>
      <trkpt lon="-117.165577" lat="32.898003"><ele>92.906323</ele><time>2024-05-04T03:24:46Z</time><extensions><speed>1.546845</speed><course>324.431712</course><hAcc>1.548529</hAcc><vAcc>0.828729</vAcc></extensions></trkpt>
      <trkpt lon="-117.165586" lat="32.898014"><ele>93.103764</ele><time>2024-05-04T03:24:47Z</time><extensions><speed>1.430723</speed><course>327.053131</course><hAcc>1.534715</hAcc><vAcc>0.828882</vAcc></extensions></trkpt>
      <trkpt lon="-117.165594" lat="32.898024"><ele>93.290552</ele><time>2024-05-04T03:24:48Z</time><extensions><speed>1.322610</speed><course>326.317513</course><hAcc>1.525982</hAcc><vAcc>0.829020</vAcc></extensions></trkpt>
      <trkpt lon="-117.165602" lat="32.898034"><ele>93.470145</ele><time>2024-05-04T03:24:49Z</time><extensions><speed>1.299579</speed><course>326.935794</course><hAcc>1.530012</hAcc><vAcc>0.829190</vAcc></extensions></trkpt>
      <trkpt lon="-117.165609" lat="32.898044"><ele>93.639951</ele><time>2024-05-04T03:24:50Z</time><extensions><speed>1.397375</speed><course>329.729702</course><hAcc>1.485079</hAcc><vAcc>0.829334</vAcc></extensions></trkpt>
      <trkpt lon="-117.165617" lat="32.898055"><ele>93.802004</ele><time>2024-05-04T03:24:51Z</time><extensions><speed>1.298002</speed><course>326.071843</course><hAcc>1.506782</hAcc><vAcc>0.829460</vAcc></extensions></trkpt>
      <trkpt lon="-117.165624" lat="32.898065"><ele>93.951787</ele><time>2024-05-04T03:24:52Z</time><extensions><speed>1.306030</speed><course>329.028782</course><hAcc>1.454053</hAcc><vAcc>0.829559</vAcc></extensions></trkpt>
      <trkpt lon="-117.165632" lat="32.898075"><ele>94.090833</ele><time>2024-05-04T03:24:53Z</time><extensions><speed>1.388971</speed><course>327.672345</course><hAcc>1.458853</hAcc><vAcc>0.829645</vAcc></extensions></trkpt>
      <trkpt lon="-117.165640" lat="32.898085"><ele>94.225103</ele><time>2024-05-04T03:24:54Z</time><extensions><speed>1.273516</speed><course>323.955558</course><hAcc>1.531416</hAcc><vAcc>0.829715</vAcc></extensions></trkpt>
      <trkpt lon="-117.165648" lat="32.898094"><ele>94.342412</ele><time>2024-05-04T03:24:55Z</time><extensions><speed>1.217013</speed><course>319.102913</course><hAcc>1.547679</hAcc><vAcc>0.829770</vAcc></extensions></trkpt>
      <trkpt lon="-117.165656" lat="32.898102"><ele>94.461030</ele><time>2024-05-04T03:24:56Z</time><extensions><speed>1.140447</speed><course>326.685995</course><hAcc>1.494433</hAcc><vAcc>0.829805</vAcc></extensions></trkpt>
      <trkpt lon="-117.165663" lat="32.898111"><ele>94.568677</ele><time>2024-05-04T03:24:57Z</time><extensions><speed>1.240412</speed><course>328.533906</course><hAcc>1.496023</hAcc><vAcc>0.829820</vAcc></extensions></trkpt>
      <trkpt lon="-117.165670" lat="32.898121"><ele>94.665265</ele><time>2024-05-04T03:24:58Z</time><extensions><speed>1.336219</speed><course>327.454569</course><hAcc>1.533951</hAcc><vAcc>0.829825</vAcc></extensions></trkpt>
      <trkpt lon="-117.165677" lat="32.898131"><ele>94.763389</ele><time>2024-05-04T03:24:59Z</time><extensions><speed>1.269063</speed><course>325.435509</course><hAcc>1.575167</hAcc><vAcc>0.829806</vAcc></extensions></trkpt>
      <trkpt lon="-117.165685" lat="32.898140"><ele>94.859875</ele><time>2024-05-04T03:25:00Z</time><extensions><speed>1.258150</speed><course>321.312493</course><hAcc>1.596041</hAcc><vAcc>0.829769</vAcc></extensions></trkpt>
      <trkpt lon="-117.165694" lat="32.898149"><ele>94.957286</ele><time>2024-05-04T03:25:01Z</time><extensions><speed>1.246528</speed><course>317.892726</course><hAcc>1.604515</hAcc><vAcc>0.829708</vAcc></extensions></trkpt>
      <trkpt lon="-117.165703" lat="32.898157"><ele>95.045872</ele><time>2024-05-04T03:25:02Z</time><extensions><speed>1.239434</speed><course>316.281075</course><hAcc>1.587897</hAcc><vAcc>0.829663</vAcc></extensions></trkpt>
      <trkpt lon="-117.165713" lat="32.898165"><ele>95.122855</ele><time>2024-05-04T03:25:03Z</time><extensions><speed>1.291640</speed><course>315.073365</course><hAcc>1.584854</hAcc><vAcc>0.829601</vAcc></extensions></trkpt>
      <trkpt lon="-117.165722" lat="32.898173"><ele>95.203489</ele><time>2024-05-04T03:25:04Z</time><extensions><speed>1.335530</speed><course>314.611136</course><hAcc>1.587783</hAcc><vAcc>0.829533</vAcc></extensions></trkpt>
      <trkpt lon="-117.165733" lat="32.898182"><ele>95.269758</ele><time>2024-05-04T03:25:05Z</time><extensions><speed>1.376157</speed><course>315.654583</course><hAcc>1.589079</hAcc><vAcc>0.829458</vAcc></extensions></trkpt>
      <trkpt lon="-117.165743" lat="32.898191"><ele>95.335031</ele><time>2024-05-04T03:25:06Z</time><extensions><speed>1.347224</speed><course>316.273269</course><hAcc>1.593435</hAcc><vAcc>0.829386</vAcc></extensions></trkpt>
      <trkpt lon="-117.165753" lat="32.898200"><ele>95.405783</ele><time>2024-05-04T03:25:07Z</time><extensions><speed>1.283333</speed><course>316.869688</course><hAcc>1.602163</hAcc><vAcc>0.829343</vAcc></extensions></trkpt>
      <trkpt lon="-117.165761" lat="32.898207"><ele>95.473405</ele><time>2024-05-04T03:25:08Z</time><extensions><speed>1.092594</speed><course>317.550505</course><hAcc>1.614190</hAcc><vAcc>0.829282</vAcc></extensions></trkpt>
      <trkpt lon="-117.165769" lat="32.898215"><ele>95.539297</ele><time>2024-05-04T03:25:09Z</time><extensions><speed>1.119074</speed><course>320.033610</course><hAcc>1.578342</hAcc><vAcc>0.829255</vAcc></extensions></trkpt>
      <trkpt lon="-117.165777" lat="32.898223"><ele>95.599769</ele><time>2024-05-04T03:25:10Z</time><extensions><speed>1.267648</speed><course>321.034406</course><hAcc>1.565687</hAcc><vAcc>0.829206</vAcc></extensions></trkpt>
      <trkpt lon="-117.165786" lat="32.898232"><ele>95.668372</ele><time>2024-05-04T03:25:11Z</time><extensions><speed>1.359087</speed><course>318.735777</course><hAcc>1.578566</hAcc><vAcc>0.829173</vAcc></extensions></trkpt>
      <trkpt lon="-117.165797" lat="32.898241"><ele>95.723048</ele><time>2024-05-04T03:25:12Z</time><extensions><speed>1.340134</speed><course>313.426916</course><hAcc>1.604777</hAcc><vAcc>0.829120</vAcc></extensions></trkpt>
      <trkpt lon="-117.165807" lat="32.898249"><ele>95.757184</ele><time>2024-05-04T03:25:13Z</time><extensions><speed>1.313728</speed><course>308.790145</course><hAcc>1.602757</hAcc><vAcc>0.829085</vAcc></extensions></trkpt>
      <trkpt lon="-117.165818" lat="32.898255"><ele>95.788600</ele><time>2024-05-04T03:25:14Z</time><extensions><speed>1.211915</speed><course>306.438797</course><hAcc>1.597981</hAcc><vAcc>0.829043</vAcc></extensions></trkpt>
      <trkpt lon="-117.165829" lat="32.898262"><ele>95.811016</ele><time>2024-05-04T03:25:15Z</time><extensions><speed>1.278609</speed><course>305.739479</course><hAcc>1.570865</hAcc><vAcc>0.828993</vAcc></extensions></trkpt>
      <trkpt lon="-117.165841" lat="32.898269"><ele>95.830350</ele><time>2024-05-04T03:25:16Z</time><extensions><speed>1.394578</speed><course>304.888694</course><hAcc>1.555276</hAcc><vAcc>0.828972</vAcc></extensions></trkpt>
      <trkpt lon="-117.165853" lat="32.898276"><ele>95.848241</ele><time>2024-05-04T03:25:17Z</time><extensions><speed>1.426219</speed><course>303.300525</course><hAcc>1.550982</hAcc><vAcc>0.828953</vAcc></extensions></trkpt>
      <trkpt lon="-117.165866" lat="32.898283"><ele>95.857234</ele><time>2024-05-04T03:25:18Z</time><extensions><speed>1.409357</speed><course>305.191143</course><hAcc>1.554936</hAcc><vAcc>0.828937</vAcc></extensions></trkpt>
      <trkpt lon="-117.165877" lat="32.898290"><ele>95.854025</ele><time>2024-05-04T03:25:19Z</time><extensions><speed>1.271300</speed><course>310.463245</course><hAcc>1.587591</hAcc><vAcc>0.828925</vAcc></extensions></trkpt>
      <trkpt lon="-117.165888" lat="32.898298"><ele>95.848179</ele><time>2024-05-04T03:25:20Z</time><extensions><speed>1.301219</speed><course>307.486751</course><hAcc>1.561399</hAcc><vAcc>0.828901</vAcc></extensions></trkpt>
      <trkpt lon="-117.165899" lat="32.898304"><ele>95.847823</ele><time>2024-05-04T03:25:21Z</time><extensions><speed>1.217989</speed><course>306.994682</course><hAcc>1.587717</hAcc><vAcc>0.828868</vAcc></extensions></trkpt>
      <trkpt lon="-117.165909" lat="32.898310"><ele>95.838110</ele><time>2024-05-04T03:25:22Z</time><extensions><speed>1.160033</speed><course>300.971057</course><hAcc>1.564462</hAcc><vAcc>0.828832</vAcc></extensions></trkpt>
      <trkpt lon="-117.165920" lat="32.898316"><ele>95.822765</ele><time>2024-05-04T03:25:23Z</time><extensions><speed>1.145464</speed><course>299.730441</course><hAcc>1.574922</hAcc><vAcc>0.828794</vAcc></extensions></trkpt>
      <trkpt lon="-117.165930" lat="32.898321"><ele>95.811247</ele><time>2024-05-04T03:25:24Z</time><extensions><speed>1.102788</speed><course>299.085048</course><hAcc>1.602194</hAcc><vAcc>0.828757</vAcc></extensions></trkpt>
      <trkpt lon="-117.165940" lat="32.898325"><ele>95.804774</ele><time>2024-05-04T03:25:25Z</time><extensions><speed>1.081445</speed><course>297.356773</course><hAcc>1.626700</hAcc><vAcc>0.828749</vAcc></extensions></trkpt>
      <trkpt lon="-117.165951" lat="32.898330"><ele>95.806680</ele><time>2024-05-04T03:25:26Z</time><extensions><speed>1.047124</speed><course>297.826427</course><hAcc>1.645197</hAcc><vAcc>0.828740</vAcc></extensions></trkpt>
      <trkpt lon="-117.165961" lat="32.898335"><ele>95.809196</ele><time>2024-05-04T03:25:27Z</time><extensions><speed>1.093941</speed><course>301.087422</course><hAcc>1.657166</hAcc><vAcc>0.828730</vAcc></extensions></trkpt>
      <trkpt lon="-117.165970" lat="32.898340"><ele>95.828299</ele><time>2024-05-04T03:25:28Z</time><extensions><speed>1.116264</speed><course>306.204048</course><hAcc>1.664579</hAcc><vAcc>0.828710</vAcc></extensions></trkpt>
      <trkpt lon="-117.165980" lat="32.898347"><ele>95.854589</ele><time>2024-05-04T03:25:29Z</time><extensions><speed>1.108029</speed><course>311.906451</course><hAcc>1.668742</hAcc><vAcc>0.828682</vAcc></extensions></trkpt>
      <trkpt lon="-117.165988" lat="32.898353"><ele>95.885818</ele><time>2024-05-04T03:25:30Z</time><extensions><speed>1.040888</speed><course>318.544798</course><hAcc>1.663383</hAcc><vAcc>0.828650</vAcc></extensions></trkpt>
      <trkpt lon="-117.165994" lat="32.898361"><ele>95.926417</ele><time>2024-05-04T03:25:31Z</time><extensions><speed>0.946933</speed><course>327.003761</course><hAcc>1.638925</hAcc><vAcc>0.828637</vAcc></extensions></trkpt>
      <trkpt lon="-117.166000" lat="32.898368"><ele>95.983248</ele><time>2024-05-04T03:25:32Z</time><extensions><speed>1.045570</speed><course>326.858990</course><hAcc>1.619863</hAcc><vAcc>0.828631</vAcc></extensions></trkpt>
      <trkpt lon="-117.166007" lat="32.898376"><ele>96.042787</ele><time>2024-05-04T03:25:33Z</time><extensions><speed>1.134615</speed><course>322.144584</course><hAcc>1.606610</hAcc><vAcc>0.828641</vAcc></extensions></trkpt>
      <trkpt lon="-117.166015" lat="32.898384"><ele>96.110379</ele><time>2024-05-04T03:25:34Z</time><extensions><speed>1.250568</speed><course>312.717690</course><hAcc>1.620963</hAcc><vAcc>0.828691</vAcc></extensions></trkpt>
      <trkpt lon="-117.166025" lat="32.898391"><ele>96.181529</ele><time>2024-05-04T03:25:35Z</time><extensions><speed>1.181425</speed><course>310.800356</course><hAcc>1.668887</hAcc><vAcc>0.828726</vAcc></extensions></trkpt>
      <trkpt lon="-117.166034" lat="32.898398"><ele>96.252649</ele><time>2024-05-04T03:25:36Z</time><extensions><speed>1.181302</speed><course>310.254712</course><hAcc>1.620701</hAcc><vAcc>0.828731</vAcc></extensions></trkpt>
      <trkpt lon="-117.166044" lat="32.898404"><ele>96.308608</ele><time>2024-05-04T03:25:37Z</time><extensions><speed>1.056331</speed><course>308.225633</course><hAcc>1.600550</hAcc><vAcc>0.828712</vAcc></extensions></trkpt>
      <trkpt lon="-117.166052" lat="32.898410"><ele>96.361595</ele><time>2024-05-04T03:25:38Z</time><extensions><speed>0.972335</speed><course>307.691551</course><hAcc>1.606408</hAcc><vAcc>0.828697</vAcc></extensions></trkpt>
      <trkpt lon="-117.166060" lat="32.898415"><ele>96.394786</ele><time>2024-05-04T03:25:39Z</time><extensions><speed>1.003742</speed><course>308.144134</course><hAcc>1.616198</hAcc><vAcc>0.828632</vAcc></extensions></trkpt>
      <trkpt lon="-117.166068" lat="32.898421"><ele>96.419411</ele><time>2024-05-04T03:25:40Z</time><extensions><speed>0.909433</speed><course>308.986674</course><hAcc>1.616755</hAcc><vAcc>0.828473</vAcc></extensions></trkpt>
      <trkpt lon="-117.166076" lat="32.898426"><ele>96.428715</ele><time>2024-05-04T03:25:41Z</time><extensions><speed>0.898522</speed><course>308.515632</course><hAcc>1.604823</hAcc><vAcc>0.828245</vAcc></extensions></trkpt>
      <trkpt lon="-117.166084" lat="32.898431"><ele>96.440057</ele><time>2024-05-04T03:25:42Z</time><extensions><speed>1.011998</speed><course>305.840840</course><hAcc>1.591932</hAcc><vAcc>0.827878</vAcc></extensions></trkpt>
      <trkpt lon="-117.166093" lat="32.898436"><ele>96.432640</ele><time>2024-05-04T03:25:43Z</time><extensions><speed>1.115409</speed><course>302.377846</course><hAcc>1.615228</hAcc><vAcc>0.827235</vAcc></extensions></trkpt>
      <trkpt lon="-117.166103" lat="32.898441"><ele>96.406301</ele><time>2024-05-04T03:25:44Z</time><extensions><speed>1.079110</speed><course>295.245742</course><hAcc>1.672563</hAcc><vAcc>0.826236</vAcc></extensions></trkpt>
      <trkpt lon="-117.166112" lat="32.898443"><ele>96.378255</ele><time>2024-05-04T03:25:45Z</time><extensions><speed>0.577996</speed><course>257.821648</course><hAcc>1.607821</hAcc><vAcc>0.825138</vAcc></extensions></trkpt>
      <trkpt lon="-117.166117" lat="32.898439"><ele>96.337367</ele><time>2024-05-04T03:25:46Z</time><extensions><speed>0.745854</speed><course>208.686594</course><hAcc>1.583724</hAcc><vAcc>0.823917</vAcc></extensions></trkpt>
      <trkpt lon="-117.166120" lat="32.898432"><ele>96.270657</ele><time>2024-05-04T03:25:47Z</time><extensions><speed>1.104362</speed><course>197.737882</course><hAcc>1.639784</hAcc><vAcc>0.822487</vAcc></extensions></trkpt>
      <trkpt lon="-117.166124" lat="32.898422"><ele>96.187997</ele><time>2024-05-04T03:25:48Z</time><extensions><speed>1.020878</speed><course>197.849981</course><hAcc>1.711630</hAcc><vAcc>0.820838</vAcc></extensions></trkpt>
      <trkpt lon="-117.166126" lat="32.898416"><ele>96.096805</ele><time>2024-05-04T03:25:49Z</time><extensions><speed>0.525245</speed><course>193.714464</course><hAcc>1.689997</hAcc><vAcc>0.818931</vAcc></extensions></trkpt>
      <trkpt lon="-117.166127" lat="32.898412"><ele>95.991657</ele><time>2024-05-04T03:25:50Z</time><extensions><speed>0.263142</speed><course>186.354353</course><hAcc>1.688095</hAcc><vAcc>0.816621</vAcc></extensions></trkpt>
      <trkpt lon="-117.166127" lat="32.898410"><ele>95.880214</ele><time>2024-05-04T03:25:51Z</time><extensions><speed>0.157573</speed><course>188.120710</course><hAcc>1.720532</hAcc><vAcc>0.813987</vAcc></extensions></trkpt>
      <trkpt lon="-117.166128" lat="32.898409"><ele>95.774753</ele><time>2024-05-04T03:25:52Z</time><extensions><speed>0.076073</speed><course>202.255508</course><hAcc>1.763279</hAcc><vAcc>0.811123</vAcc></extensions></trkpt>
      <trkpt lon="-117.166128" lat="32.898409"><ele>95.672641</ele><time>2024-05-04T03:25:53Z</time><extensions><speed>0.084782</speed><course>234.322190</course><hAcc>1.775843</hAcc><vAcc>0.808294</vAcc></extensions></trkpt>
      <trkpt lon="-117.166129" lat="32.898408"><ele>95.561450</ele><time>2024-05-04T03:25:54Z</time><extensions><speed>0.099779</speed><course>246.506494</course><hAcc>1.794847</hAcc><vAcc>0.805531</vAcc></extensions></trkpt>
      <trkpt lon="-117.166130" lat="32.898408"><ele>95.468630</ele><time>2024-05-04T03:25:55Z</time><extensions><speed>0.108684</speed><course>245.132824</course><hAcc>1.825771</hAcc><vAcc>0.802930</vAcc></extensions></trkpt>
      <trkpt lon="-117.166131" lat="32.898408"><ele>95.391125</ele><time>2024-05-04T03:25:56Z</time><extensions><speed>0.111653</speed><course>241.694547</course><hAcc>1.847995</hAcc><vAcc>0.800544</vAcc></extensions></trkpt>
      <trkpt lon="-117.166132" lat="32.898407"><ele>95.332264</ele><time>2024-05-04T03:25:57Z</time><extensions><speed>0.161574</speed><course>238.562988</course><hAcc>1.820722</hAcc><vAcc>0.798393</vAcc></extensions></trkpt>
      <trkpt lon="-117.166134" lat="32.898406"><ele>95.282108</ele><time>2024-05-04T03:25:58Z</time><extensions><speed>0.162842</speed><course>237.974100</course><hAcc>1.815915</hAcc><vAcc>0.796530</vAcc></extensions></trkpt>
      <trkpt lon="-117.166135" lat="32.898405"><ele>95.248214</ele><time>2024-05-04T03:25:59Z</time><extensions><speed>0.148950</speed><course>237.370636</course><hAcc>1.838646</hAcc><vAcc>0.794961</vAcc></extensions></trkpt>
      <trkpt lon="-117.166136" lat="32.898405"><ele>95.226136</ele><time>2024-05-04T03:26:00Z</time><extensions><speed>0.108078</speed><course>236.301714</course><hAcc>1.867098</hAcc><vAcc>0.793471</vAcc></extensions></trkpt>
      <trkpt lon="-117.166137" lat="32.898405"><ele>95.210997</ele><time>2024-05-04T03:26:01Z</time><extensions><speed>0.096524</speed><course>11.495294</course><hAcc>1.882050</hAcc><vAcc>0.791917</vAcc></extensions></trkpt>
      <trkpt lon="-117.166136" lat="32.898406"><ele>95.197541</ele><time>2024-05-04T03:26:02Z</time><extensions><speed>0.182536</speed><course>34.457245</course><hAcc>1.887883</hAcc><vAcc>0.790486</vAcc></extensions></trkpt>
      <trkpt lon="-117.166135" lat="32.898407"><ele>95.198209</ele><time>2024-05-04T03:26:03Z</time><extensions><speed>0.148113</speed><course>69.698541</course><hAcc>1.878939</hAcc><vAcc>0.788884</vAcc></extensions></trkpt>
      <trkpt lon="-117.166133" lat="32.898407"><ele>95.199016</ele><time>2024-05-04T03:26:04Z</time><extensions><speed>0.194033</speed><course>131.446353</course><hAcc>1.858007</hAcc><vAcc>0.787493</vAcc></extensions></trkpt>
      <trkpt lon="-117.166132" lat="32.898405"><ele>95.207272</ele><time>2024-05-04T03:26:05Z</time><extensions><speed>0.305602</speed><course>153.442885</course><hAcc>1.850069</hAcc><vAcc>0.785472</vAcc></extensions></trkpt>
      <trkpt lon="-117.166130" lat="32.898402"><ele>95.212432</ele><time>2024-05-04T03:26:06Z</time><extensions><speed>0.333471</speed><course>158.043386</course><hAcc>1.869992</hAcc><vAcc>0.782246</vAcc></extensions></trkpt>
      <trkpt lon="-117.166129" lat="32.898400"><ele>95.212076</ele><time>2024-05-04T03:26:07Z</time><extensions><speed>0.296922</speed><course>158.382769</course><hAcc>1.896310</hAcc><vAcc>0.777611</vAcc></extensions></trkpt>
      <trkpt lon="-117.166128" lat="32.898397"><ele>95.205607</ele><time>2024-05-04T03:26:08Z</time><extensions><speed>0.357794</speed><course>167.952903</course><hAcc>1.887157</hAcc><vAcc>0.771419</vAcc></extensions></trkpt>
      <trkpt lon="-117.166127" lat="32.898393"><ele>95.199754</ele><time>2024-05-04T03:26:09Z</time><extensions><speed>0.390472</speed><course>174.772464</course><hAcc>1.884539</hAcc><vAcc>0.763913</vAcc></extensions></trkpt>
      <trkpt lon="-117.166127" lat="32.898390"><ele>95.187940</ele><time>2024-05-04T03:26:10Z</time><extensions><speed>0.398637</speed><course>180.318024</course><hAcc>1.899195</hAcc><vAcc>0.755080</vAcc></extensions></trkpt>
      <trkpt lon="-117.166127" lat="32.898386"><ele>95.170268</ele><time>2024-05-04T03:26:11Z</time><extensions><speed>0.368275</speed><course>184.236193</course><hAcc>1.927735</hAcc><vAcc>0.744837</vAcc></extensions></trkpt>
      <trkpt lon="-117.166128" lat="32.898383"><ele>95.167070</ele><time>2024-05-04T03:26:12Z</time><extensions><speed>0.350298</speed><course>189.148067</course><hAcc>1.954702</hAcc><vAcc>0.733493</vAcc></extensions></trkpt>
      <trkpt lon="-117.166128" lat="32.898380"><ele>95.183771</ele><time>2024-05-04T03:26:13Z</time><extensions><speed>0.315292</speed><course>194.159603</course><hAcc>1.980952</hAcc><vAcc>0.721373</vAcc></extensions></trkpt>
      <trkpt lon="-117.166130" lat="32.898378"><ele>95.202577</ele><time>2024-05-04T03:26:14Z</time><extensions><speed>0.307443</speed><course>206.463981</course><hAcc>2.003466</hAcc><vAcc>0.708738</vAcc></extensions></trkpt>
      <trkpt lon="-117.166132" lat="32.898375"><ele>95.226728</ele><time>2024-05-04T03:26:15Z</time><extensions><speed>0.350299</speed><course>225.825191</course><hAcc>2.009115</hAcc><vAcc>0.695773</vAcc></extensions></trkpt>
      <trkpt lon="-117.166135" lat="32.898373"><ele>95.269356</ele><time>2024-05-04T03:26:16Z</time><extensions><speed>0.392819</speed><course>244.800776</course><hAcc>2.020075</hAcc><vAcc>0.682629</vAcc></extensions></trkpt>
      <trkpt lon="-117.166139" lat="32.898373"><ele>95.327221</ele><time>2024-05-04T03:26:17Z</time><extensions><speed>0.395570</speed><course>273.849582</course><hAcc>2.035066</hAcc><vAcc>0.669504</vAcc></extensions></trkpt>
      <trkpt lon="-117.166143" lat="32.898374"><ele>95.393856</ele><time>2024-05-04T03:26:18Z</time><extensions><speed>0.439847</speed><course>311.514473</course><hAcc>2.049079</hAcc><vAcc>0.656390</vAcc></extensions></trkpt>
      <trkpt lon="-117.166146" lat="32.898377"><ele>95.473729</ele><time>2024-05-04T03:26:19Z</time><extensions><speed>0.466600</speed><course>315.713304</course><hAcc>2.053371</hAcc><vAcc>0.642805</vAcc></extensions></trkpt>
      <trkpt lon="-117.166151" lat="32.898380"><ele>95.558823</ele><time>2024-05-04T03:26:20Z</time><extensions><speed>0.573524</speed><course>297.480296</course><hAcc>2.023181</hAcc><vAcc>0.627945</vAcc></extensions></trkpt>
      <trkpt lon="-117.166158" lat="32.898381"><ele>95.635426</ele><time>2024-05-04T03:26:21Z</time><extensions><speed>0.807114</speed><course>277.084626</course><hAcc>1.997250</hAcc><vAcc>0.610959</vAcc></extensions></trkpt>
      <trkpt lon="-117.166168" lat="32.898381"><ele>95.698109</ele><time>2024-05-04T03:26:22Z</time><extensions><speed>1.202790</speed><course>265.177285</course><hAcc>1.995047</hAcc><vAcc>0.591236</vAcc></extensions></trkpt>
      <trkpt lon="-117.166183" lat="32.898380"><ele>95.743046</ele><time>2024-05-04T03:26:23Z</time><extensions><speed>1.523696</speed><course>263.051291</course><hAcc>2.006634</hAcc><vAcc>0.568436</vAcc></extensions></trkpt>
      <trkpt lon="-117.166201" lat="32.898378"><ele>95.780316</ele><time>2024-05-04T03:26:24Z</time><extensions><speed>1.841959</speed><course>265.374408</course><hAcc>2.026137</hAcc><vAcc>0.542771</vAcc></extensions></trkpt>
      <trkpt lon="-117.166221" lat="32.898378"><ele>95.794811</ele><time>2024-05-04T03:26:25Z</time><extensions><speed>2.002986</speed><course>271.261645</course><hAcc>2.073664</hAcc><vAcc>0.515172</vAcc></extensions></trkpt>
      <trkpt lon="-117.166242" lat="32.898379"><ele>95.777794</ele><time>2024-05-04T03:26:26Z</time><extensions><speed>2.026167</speed><course>280.050374</course><hAcc>2.149017</hAcc><vAcc>0.487593</vAcc></extensions></trkpt>
      <trkpt lon="-117.166261" lat="32.898384"><ele>95.735588</ele><time>2024-05-04T03:26:27Z</time><extensions><speed>1.941855</speed><course>293.687861</course><hAcc>2.233968</hAcc><vAcc>0.461965</vAcc></extensions></trkpt>
      <trkpt lon="-117.166278" lat="32.898393"><ele>95.678205</ele><time>2024-05-04T03:26:28Z</time><extensions><speed>1.959422</speed><course>310.845949</course><hAcc>2.307446</hAcc><vAcc>0.440582</vAcc></extensions></trkpt>
      <trkpt lon="-117.166292" lat="32.898406"><ele>95.603088</ele><time>2024-05-04T03:26:29Z</time><extensions><speed>2.142182</speed><course>325.178975</course><hAcc>2.356999</hAcc><vAcc>0.425308</vAcc></extensions></trkpt>
      <trkpt lon="-117.166303" lat="32.898424"><ele>95.518052</ele><time>2024-05-04T03:26:30Z</time><extensions><speed>2.308531</speed><course>335.538811</course><hAcc>2.371970</hAcc><vAcc>0.417062</vAcc></extensions></trkpt>
      <trkpt lon="-117.166311" lat="32.898443"><ele>95.426905</ele><time>2024-05-04T03:26:31Z</time><extensions><speed>2.290601</speed><course>341.914114</course><hAcc>2.352073</hAcc><vAcc>0.415681</vAcc></extensions></trkpt>
      <trkpt lon="-117.166317" lat="32.898462"><ele>95.336877</ele><time>2024-05-04T03:26:32Z</time><extensions><speed>2.235692</speed><course>344.561770</course><hAcc>2.309617</hAcc><vAcc>0.420075</vAcc></extensions></trkpt>
      <trkpt lon="-117.166323" lat="32.898482"><ele>95.250457</ele><time>2024-05-04T03:26:33Z</time><extensions><speed>2.210162</speed><course>344.317274</course><hAcc>2.258266</hAcc><vAcc>0.428696</vAcc></extensions></trkpt>
      <trkpt lon="-117.166329" lat="32.898501"><ele>95.168702</ele><time>2024-05-04T03:26:34Z</time><extensions><speed>2.178114</speed><course>347.303484</course><hAcc>2.187119</hAcc><vAcc>0.439943</vAcc></extensions></trkpt>
      <trkpt lon="-117.166333" lat="32.898519"><ele>95.093407</ele><time>2024-05-04T03:26:35Z</time><extensions><speed>2.116531</speed><course>353.225481</course><hAcc>2.108924</hAcc><vAcc>0.452338</vAcc></extensions></trkpt>
      <trkpt lon="-117.166336" lat="32.898537"><ele>95.024968</ele><time>2024-05-04T03:26:36Z</time><extensions><speed>2.024796</speed><course>353.297795</course><hAcc>2.041547</hAcc><vAcc>0.464576</vAcc></extensions></trkpt>
      <trkpt lon="-117.166338" lat="32.898555"><ele>94.962481</ele><time>2024-05-04T03:26:37Z</time><extensions><speed>2.011773</speed><course>352.902976</course><hAcc>1.988608</hAcc><vAcc>0.475533</vAcc></extensions></trkpt>
      <trkpt lon="-117.166342" lat="32.898572"><ele>94.906467</ele><time>2024-05-04T03:26:38Z</time><extensions><speed>2.016242</speed><course>347.880862</course><hAcc>1.951300</hAcc><vAcc>0.484435</vAcc></extensions></trkpt>
      <trkpt lon="-117.166347" lat="32.898590"><ele>94.858344</ele><time>2024-05-04T03:26:39Z</time><extensions><speed>2.081235</speed><course>341.648531</course><hAcc>1.926140</hAcc><vAcc>0.491005</vAcc></extensions></trkpt>
      <trkpt lon="-117.166354" lat="32.898607"><ele>94.817496</ele><time>2024-05-04T03:26:40Z</time><extensions><speed>2.130984</speed><course>337.983119</course><hAcc>1.911585</hAcc><vAcc>0.495491</vAcc></extensions></trkpt>
      <trkpt lon="-117.166362" lat="32.898624"><ele>94.783166</ele><time>2024-05-04T03:26:41Z</time><extensions><speed>2.131917</speed><course>337.369287</course><hAcc>1.904654</hAcc><vAcc>0.498635</vAcc></extensions></trkpt>
      <trkpt lon="-117.166371" lat="32.898640"><ele>94.754803</ele><time>2024-05-04T03:26:42Z</time><extensions><speed>2.056986</speed><course>333.922450</course><hAcc>1.904919</hAcc><vAcc>0.501445</vAcc></extensions></trkpt>
      <trkpt lon="-117.166381" lat="32.898655"><ele>94.731215</ele><time>2024-05-04T03:26:43Z</time><extensions><speed>1.870950</speed><course>327.257521</course><hAcc>1.905683</hAcc><vAcc>0.504799</vAcc></extensions></trkpt>
      <trkpt lon="-117.166391" lat="32.898667"><ele>94.710914</ele><time>2024-05-04T03:26:44Z</time><extensions><speed>1.555040</speed><course>318.308047</course><hAcc>1.904989</hAcc><vAcc>0.509175</vAcc></extensions></trkpt>
      <trkpt lon="-117.166401" lat="32.898676"><ele>94.695437</ele><time>2024-05-04T03:26:45Z</time><extensions><speed>1.163465</speed><course>318.351972</course><hAcc>1.911908</hAcc><vAcc>0.514527</vAcc></extensions></trkpt>
      <trkpt lon="-117.166407" lat="32.898683"><ele>94.685990</ele><time>2024-05-04T03:26:46Z</time><extensions><speed>0.780398</speed><course>332.230369</course><hAcc>1.924425</hAcc><vAcc>0.520415</vAcc></extensions></trkpt>
      <trkpt lon="-117.166408" lat="32.898687"><ele>94.683278</ele><time>2024-05-04T03:26:47Z</time><extensions><speed>0.360086</speed><course>19.888217</course><hAcc>1.927053</hAcc><vAcc>0.526472</vAcc></extensions></trkpt>
      <trkpt lon="-117.166404" lat="32.898686"><ele>94.687465</ele><time>2024-05-04T03:26:48Z</time><extensions><speed>0.858577</speed><course>126.812018</course><hAcc>1.918981</hAcc><vAcc>0.532577</vAcc></extensions></trkpt>
      <trkpt lon="-117.166395" lat="32.898677"><ele>94.696142</ele><time>2024-05-04T03:26:49Z</time><extensions><speed>1.803412</speed><course>144.808923</course><hAcc>1.938544</hAcc><vAcc>0.538794</vAcc></extensions></trkpt>
      <trkpt lon="-117.166382" lat="32.898661"><ele>94.711496</ele><time>2024-05-04T03:26:50Z</time><extensions><speed>2.431618</speed><course>150.001945</course><hAcc>1.974438</hAcc><vAcc>0.545101</vAcc></extensions></trkpt>
      <trkpt lon="-117.166368" lat="32.898640"><ele>94.732383</ele><time>2024-05-04T03:26:51Z</time><extensions><speed>2.888001</speed><course>149.978535</course><hAcc>1.994502</hAcc><vAcc>0.551296</vAcc></extensions></trkpt>
      <trkpt lon="-117.166352" lat="32.898617"><ele>94.757455</ele><time>2024-05-04T03:26:52Z</time><extensions><speed>3.117497</speed><course>149.290951</course><hAcc>2.007140</hAcc><vAcc>0.557291</vAcc></extensions></trkpt>
      <trkpt lon="-117.166335" lat="32.898594"><ele>94.788967</ele><time>2024-05-04T03:26:53Z</time><extensions><speed>3.040828</speed><course>146.711043</course><hAcc>2.031450</hAcc><vAcc>0.563517</vAcc></extensions></trkpt>
      <trkpt lon="-117.166316" lat="32.898571"><ele>94.824244</ele><time>2024-05-04T03:26:54Z</time><extensions><speed>2.946204</speed><course>144.317557</course><hAcc>2.048581</hAcc><vAcc>0.570760</vAcc></extensions></trkpt>
      <trkpt lon="-117.166298" lat="32.898551"><ele>94.859439</ele><time>2024-05-04T03:26:55Z</time><extensions><speed>2.766156</speed><course>140.806873</course><hAcc>2.058842</hAcc><vAcc>0.579901</vAcc></extensions></trkpt>
      <trkpt lon="-117.166280" lat="32.898533"><ele>94.896072</ele><time>2024-05-04T03:26:56Z</time><extensions><speed>2.376501</speed><course>136.221654</course><hAcc>2.066301</hAcc><vAcc>0.591488</vAcc></extensions></trkpt>
      <trkpt lon="-117.166263" lat="32.898520"><ele>94.930251</ele><time>2024-05-04T03:26:57Z</time><extensions><speed>1.834251</speed><course>129.972827</course><hAcc>2.064743</hAcc><vAcc>0.605179</vAcc></extensions></trkpt>
      <trkpt lon="-117.166250" lat="32.898512"><ele>94.964191</ele><time>2024-05-04T03:26:58Z</time><extensions><speed>1.267190</speed><course>118.503571</course><hAcc>2.046007</hAcc><vAcc>0.620247</vAcc></extensions></trkpt>
      <trkpt lon="-117.166239" lat="32.898508"><ele>94.995057</ele><time>2024-05-04T03:26:59Z</time><extensions><speed>0.977283</speed><course>113.405339</course><hAcc>2.009702</hAcc><vAcc>0.635869</vAcc></extensions></trkpt>
      <trkpt lon="-117.166231" lat="32.898504"><ele>95.017028</ele><time>2024-05-04T03:27:00Z</time><extensions><speed>0.781688</speed><course>123.009198</course><hAcc>1.985099</hAcc><vAcc>0.651326</vAcc></extensions></trkpt>
      <trkpt lon="-117.166225" lat="32.898499"><ele>95.031401</ele><time>2024-05-04T03:27:01Z</time><extensions><speed>0.811735</speed><course>148.348839</course><hAcc>1.964639</hAcc><vAcc>0.666058</vAcc></extensions></trkpt>
      <trkpt lon="-117.166222" lat="32.898491"><ele>95.046022</ele><time>2024-05-04T03:27:02Z</time><extensions><speed>1.151551</speed><course>168.098883</course><hAcc>1.936666</hAcc><vAcc>0.679629</vAcc></extensions></trkpt>
      <trkpt lon="-117.166220" lat="32.898480"><ele>95.050611</ele><time>2024-05-04T03:27:03Z</time><extensions><speed>1.361633</speed><course>175.609867</course><hAcc>1.932901</hAcc><vAcc>0.691591</vAcc></extensions></trkpt>
      <trkpt lon="-117.166219" lat="32.898467"><ele>95.037857</ele><time>2024-05-04T03:27:04Z</time><extensions><speed>1.355379</speed><course>179.816864</course><hAcc>1.937827</hAcc><vAcc>0.701665</vAcc></extensions></trkpt>
      <trkpt lon="-117.166220" lat="32.898455"><ele>95.019300</ele><time>2024-05-04T03:27:05Z</time><extensions><speed>1.385281</speed><course>184.346677</course><hAcc>1.924512</hAcc><vAcc>0.709927</vAcc></extensions></trkpt>
      <trkpt lon="-117.166221" lat="32.898443"><ele>94.999585</ele><time>2024-05-04T03:27:06Z</time><extensions><speed>1.338732</speed><course>185.913683</course><hAcc>1.905738</hAcc><vAcc>0.715859</vAcc></extensions></trkpt>
      <trkpt lon="-117.166222" lat="32.898432"><ele>94.991566</ele><time>2024-05-04T03:27:07Z</time><extensions><speed>1.072700</speed><course>187.042080</course><hAcc>1.906746</hAcc><vAcc>0.719601</vAcc></extensions></trkpt>
      <trkpt lon="-117.166224" lat="32.898424"><ele>94.970017</ele><time>2024-05-04T03:27:08Z</time><extensions><speed>0.746413</speed><course>188.847223</course><hAcc>1.918499</hAcc><vAcc>0.721206</vAcc></extensions></trkpt>
      <trkpt lon="-117.166225" lat="32.898418"><ele>94.946013</ele><time>2024-05-04T03:27:09Z</time><extensions><speed>0.496907</speed><course>198.347245</course><hAcc>1.925558</hAcc><vAcc>0.720781</vAcc></extensions></trkpt>
      <trkpt lon="-117.166227" lat="32.898415"><ele>94.921682</ele><time>2024-05-04T03:27:10Z</time><extensions><speed>0.338831</speed><course>237.923723</course><hAcc>1.940208</hAcc><vAcc>0.718566</vAcc></extensions></trkpt>
      <trkpt lon="-117.166231" lat="32.898415"><ele>94.896579</ele><time>2024-05-04T03:27:11Z</time><extensions><speed>0.448673</speed><course>281.042255</course><hAcc>1.946032</hAcc><vAcc>0.714804</vAcc></extensions></trkpt>
      <trkpt lon="-117.166237" lat="32.898417"><ele>94.871563</ele><time>2024-05-04T03:27:12Z</time><extensions><speed>0.753414</speed><course>299.375015</course><hAcc>1.948921</hAcc><vAcc>0.709922</vAcc></extensions></trkpt>
      <trkpt lon="-117.166245" lat="32.898421"><ele>94.842023</ele><time>2024-05-04T03:27:13Z</time><extensions><speed>1.012402</speed><course>306.717345</course><hAcc>1.959327</hAcc><vAcc>0.704359</vAcc></extensions></trkpt>
      <trkpt lon="-117.166254" lat="32.898428"><ele>94.814403</ele><time>2024-05-04T03:27:14Z</time><extensions><speed>1.176590</speed><course>310.764495</course><hAcc>1.975596</hAcc><vAcc>0.698658</vAcc></extensions></trkpt>
      <trkpt lon="-117.166264" lat="32.898435"><ele>94.792971</ele><time>2024-05-04T03:27:15Z</time><extensions><speed>1.222150</speed><course>310.898342</course><hAcc>1.992141</hAcc><vAcc>0.693336</vAcc></extensions></trkpt>
      <trkpt lon="-117.166273" lat="32.898442"><ele>94.782751</ele><time>2024-05-04T03:27:16Z</time><extensions><speed>1.190138</speed><course>313.842831</course><hAcc>1.984804</hAcc><vAcc>0.688740</vAcc></extensions></trkpt>
      <trkpt lon="-117.166281" lat="32.898449"><ele>94.780642</ele><time>2024-05-04T03:27:17Z</time><extensions><speed>0.960055</speed><course>320.045361</course><hAcc>1.966288</hAcc><vAcc>0.685103</vAcc></extensions></trkpt>
      <trkpt lon="-117.166286" lat="32.898455"><ele>94.779782</ele><time>2024-05-04T03:27:18Z</time><extensions><speed>0.668567</speed><course>333.725818</course><hAcc>1.934376</hAcc><vAcc>0.682307</vAcc></extensions></trkpt>
      <trkpt lon="-117.166288" lat="32.898459"><ele>94.782582</ele><time>2024-05-04T03:27:19Z</time><extensions><speed>0.380227</speed><course>359.554285</course><hAcc>1.923692</hAcc><vAcc>0.679491</vAcc></extensions></trkpt>
      <trkpt lon="-117.166287" lat="32.898462"><ele>94.788333</ele><time>2024-05-04T03:27:20Z</time><extensions><speed>0.192705</speed><course>50.956159</course><hAcc>1.947579</hAcc><vAcc>0.675890</vAcc></extensions></trkpt>
      <trkpt lon="-117.166284" lat="32.898462"><ele>94.798219</ele><time>2024-05-04T03:27:21Z</time><extensions><speed>0.322087</speed><course>106.060234</course><hAcc>1.954121</hAcc><vAcc>0.672288</vAcc></extensions></trkpt>
      <trkpt lon="-117.166280" lat="32.898460"><ele>94.811616</ele><time>2024-05-04T03:27:22Z</time><extensions><speed>0.540289</speed><course>121.792824</course><hAcc>1.950037</hAcc><vAcc>0.667906</vAcc></extensions></trkpt>
      <trkpt lon="-117.166274" lat="32.898456"><ele>94.828193</ele><time>2024-05-04T03:27:23Z</time><extensions><speed>0.881447</speed><course>128.487331</course><hAcc>1.920149</hAcc><vAcc>0.662536</vAcc></extensions></trkpt>
      <trkpt lon="-117.166266" lat="32.898451"><ele>94.847383</ele><time>2024-05-04T03:27:24Z</time><extensions><speed>1.005369</speed><course>132.661589</course><hAcc>1.926039</hAcc><vAcc>0.656093</vAcc></extensions></trkpt>
      <trkpt lon="-117.166258" lat="32.898444"><ele>94.868225</ele><time>2024-05-04T03:27:25Z</time><extensions><speed>1.136373</speed><course>131.341329</course><hAcc>1.937679</hAcc><vAcc>0.648654</vAcc></extensions></trkpt>
      <trkpt lon="-117.166248" lat="32.898437"><ele>94.889338</ele><time>2024-05-04T03:27:26Z</time><extensions><speed>1.304547</speed><course>126.376258</course><hAcc>1.941486</hAcc><vAcc>0.640493</vAcc></extensions></trkpt>
      <trkpt lon="-117.166236" lat="32.898431"><ele>94.911109</ele><time>2024-05-04T03:27:27Z</time><extensions><speed>1.254389</speed><course>119.643775</course><hAcc>1.952414</hAcc><vAcc>0.632159</vAcc></extensions></trkpt>
      <trkpt lon="-117.166225" lat="32.898427"><ele>94.930967</ele><time>2024-05-04T03:27:28Z</time><extensions><speed>1.145302</speed><course>111.963904</course><hAcc>1.946190</hAcc><vAcc>0.624595</vAcc></extensions></trkpt>
      <trkpt lon="-117.166213" lat="32.898424"><ele>94.953856</ele><time>2024-05-04T03:27:29Z</time><extensions><speed>1.028284</speed><course>105.189139</course><hAcc>1.932646</hAcc><vAcc>0.618812</vAcc></extensions></trkpt>
      <trkpt lon="-117.166204" lat="32.898422"><ele>94.982279</ele><time>2024-05-04T03:27:30Z</time><extensions><speed>0.779430</speed><course>96.476768</course><hAcc>1.928031</hAcc><vAcc>0.616129</vAcc></extensions></trkpt>
      <trkpt lon="-117.166198" lat="32.898422"><ele>95.006630</ele><time>2024-05-04T03:27:31Z</time><extensions><speed>0.395520</speed><course>75.627386</course><hAcc>1.942044</hAcc><vAcc>0.616968</vAcc></extensions></trkpt>
      <trkpt lon="-117.166194" lat="32.898423"><ele>95.030007</ele><time>2024-05-04T03:27:32Z</time><extensions><speed>0.278224</speed><course>50.325481</course><hAcc>1.930200</hAcc><vAcc>0.620732</vAcc></extensions></trkpt>
      <trkpt lon="-117.166192" lat="32.898425"><ele>95.052526</ele><time>2024-05-04T03:27:33Z</time><extensions><speed>0.275310</speed><course>35.105539</course><hAcc>1.905475</hAcc><vAcc>0.626330</vAcc></extensions></trkpt>
      <trkpt lon="-117.166191" lat="32.898427"><ele>95.074299</ele><time>2024-05-04T03:27:34Z</time><extensions><speed>0.328833</speed><course>32.355067</course><hAcc>1.888818</hAcc><vAcc>0.632634</vAcc></extensions></trkpt>
      <trkpt lon="-117.166189" lat="32.898430"><ele>95.093883</ele><time>2024-05-04T03:27:35Z</time><extensions><speed>0.326116</speed><course>39.308715</course><hAcc>1.910234</hAcc><vAcc>0.638899</vAcc></extensions></trkpt>
      <trkpt lon="-117.166186" lat="32.898432"><ele>95.111661</ele><time>2024-05-04T03:27:36Z</time><extensions><speed>0.442504</speed><course>55.436273</course><hAcc>1.898440</hAcc><vAcc>0.644593</vAcc></extensions></trkpt>
      <trkpt lon="-117.166181" lat="32.898433"><ele>95.128049</ele><time>2024-05-04T03:27:37Z</time><extensions><speed>0.553966</speed><course>83.101975</course><hAcc>1.896042</hAcc><vAcc>0.649493</vAcc></extensions></trkpt>
      <trkpt lon="-117.166174" lat="32.898433"><ele>95.142151</ele><time>2024-05-04T03:27:38Z</time><extensions><speed>0.697758</speed><course>109.312781</course><hAcc>1.914822</hAcc><vAcc>0.653724</vAcc></extensions></trkpt>
      <trkpt lon="-117.166168" lat="32.898430"><ele>95.153358</ele><time>2024-05-04T03:27:39Z</time><extensions><speed>0.715624</speed><course>126.343108</course><hAcc>1.943765</hAcc><vAcc>0.657550</vAcc></extensions></trkpt>
      <trkpt lon="-117.166163" lat="32.898426"><ele>95.163986</ele><time>2024-05-04T03:27:40Z</time><extensions><speed>0.555167</speed><course>139.248742</course><hAcc>1.964733</hAcc><vAcc>0.661382</vAcc></extensions></trkpt>
      <trkpt lon="-117.166160" lat="32.898422"><ele>95.173735</ele><time>2024-05-04T03:27:41Z</time><extensions><speed>0.380196</speed><course>163.626320</course><hAcc>1.959617</hAcc><vAcc>0.665425</vAcc></extensions></trkpt>
      <trkpt lon="-117.166160" lat="32.898419"><ele>95.181692</ele><time>2024-05-04T03:27:42Z</time><extensions><speed>0.351419</speed><course>191.672307</course><hAcc>1.960855</hAcc><vAcc>0.669887</vAcc></extensions></trkpt>
      <trkpt lon="-117.166161" lat="32.898416"><ele>95.190337</ele><time>2024-05-04T03:27:43Z</time><extensions><speed>0.436512</speed><course>202.061947</course><hAcc>1.953276</hAcc><vAcc>0.674732</vAcc></extensions></trkpt>
      <trkpt lon="-117.166164" lat="32.898411"><ele>95.199096</ele><time>2024-05-04T03:27:44Z</time><extensions><speed>0.594103</speed><course>203.334414</course><hAcc>1.932796</hAcc><vAcc>0.679773</vAcc></extensions></trkpt>
      <trkpt lon="-117.166167" lat="32.898406"><ele>95.208533</ele><time>2024-05-04T03:27:45Z</time><extensions><speed>0.649163</speed><course>208.690904</course><hAcc>1.933374</hAcc><vAcc>0.684776</vAcc></extensions></trkpt>
      <trkpt lon="-117.166171" lat="32.898401"><ele>95.219105</ele><time>2024-05-04T03:27:46Z</time><extensions><speed>0.732792</speed><course>216.812516</course><hAcc>1.920135</hAcc><vAcc>0.689474</vAcc></extensions></trkpt>
      <trkpt lon="-117.166176" lat="32.898396"><ele>95.231109</ele><time>2024-05-04T03:27:47Z</time><extensions><speed>0.743192</speed><course>232.844960</course><hAcc>1.913694</hAcc><vAcc>0.693570</vAcc></extensions></trkpt>
      <trkpt lon="-117.166183" lat="32.898393"><ele>95.244596</ele><time>2024-05-04T03:27:48Z</time><extensions><speed>0.817987</speed><course>247.754766</course><hAcc>1.909605</hAcc><vAcc>0.697003</vAcc></extensions></trkpt>
      <trkpt lon="-117.166192" lat="32.898391"><ele>95.259505</ele><time>2024-05-04T03:27:49Z</time><extensions><speed>0.936685</speed><course>257.994438</course><hAcc>1.904474</hAcc><vAcc>0.699493</vAcc></extensions></trkpt>
      <trkpt lon="-117.166203" lat="32.898389"><ele>95.277916</ele><time>2024-05-04T03:27:50Z</time><extensions><speed>0.992515</speed><course>263.271058</course><hAcc>1.898440</hAcc><vAcc>0.700959</vAcc></extensions></trkpt>
      <trkpt lon="-117.166213" lat="32.898388"><ele>95.291352</ele><time>2024-05-04T03:27:50Z</time><extensions><speed>0.964621</speed><course>266.624686</course><hAcc>1.891619</hAcc><vAcc>0.700852</vAcc></extensions></trkpt>
      <trkpt lon="-117.166223" lat="32.898388"><ele>95.309804</ele><time>2024-05-04T03:27:51Z</time><extensions><speed>0.857728</speed><course>268.739372</course><hAcc>1.890020</hAcc><vAcc>0.699307</vAcc></extensions></trkpt>
      <trkpt lon="-117.166231" lat="32.898388"><ele>95.328297</ele><time>2024-05-04T03:27:52Z</time><extensions><speed>0.695437</speed><course>269.040142</course><hAcc>1.889974</hAcc><vAcc>0.696230</vAcc></extensions></trkpt>
      <trkpt lon="-117.166237" lat="32.898388"><ele>95.346600</ele><time>2024-05-04T03:27:53Z</time><extensions><speed>0.498549</speed><course>266.982812</course><hAcc>1.890241</hAcc><vAcc>0.691526</vAcc></extensions></trkpt>
      <trkpt lon="-117.166242" lat="32.898387"><ele>95.356803</ele><time>2024-05-04T03:27:54Z</time><extensions><speed>0.323599</speed><course>259.638360</course><hAcc>1.890570</hAcc><vAcc>0.685075</vAcc></extensions></trkpt>
      <trkpt lon="-117.166244" lat="32.898387"><ele>95.363862</ele><time>2024-05-04T03:27:55Z</time><extensions><speed>0.187696</speed><course>237.072359</course><hAcc>1.897788</hAcc><vAcc>0.677028</vAcc></extensions></trkpt>
      <trkpt lon="-117.166245" lat="32.898385"><ele>95.367121</ele><time>2024-05-04T03:27:56Z</time><extensions><speed>0.157988</speed><course>188.702104</course><hAcc>1.909158</hAcc><vAcc>0.667511</vAcc></extensions></trkpt>
      <trkpt lon="-117.166245" lat="32.898384"><ele>95.366199</ele><time>2024-05-04T03:27:57Z</time><extensions><speed>0.236641</speed><course>158.219464</course><hAcc>1.921847</hAcc><vAcc>0.656702</vAcc></extensions></trkpt>
      <trkpt lon="-117.166243" lat="32.898381"><ele>95.360939</ele><time>2024-05-04T03:27:58Z</time><extensions><speed>0.336802</speed><course>147.349656</course><hAcc>1.936315</hAcc><vAcc>0.644800</vAcc></extensions></trkpt>
      <trkpt lon="-117.166241" lat="32.898379"><ele>95.351331</ele><time>2024-05-04T03:27:59Z</time><extensions><speed>0.405108</speed><course>142.348204</course><hAcc>1.948207</hAcc><vAcc>0.632057</vAcc></extensions></trkpt>
      <trkpt lon="-117.166238" lat="32.898376"><ele>95.337559</ele><time>2024-05-04T03:28:00Z</time><extensions><speed>0.412217</speed><course>139.687137</course><hAcc>1.949418</hAcc><vAcc>0.618827</vAcc></extensions></trkpt>
      <trkpt lon="-117.166236" lat="32.898373"><ele>95.320031</ele><time>2024-05-04T03:28:01Z</time><extensions><speed>0.351928</speed><course>137.679328</course><hAcc>1.964522</hAcc><vAcc>0.605545</vAcc></extensions></trkpt>
      <trkpt lon="-117.166234" lat="32.898371"><ele>95.299685</ele><time>2024-05-04T03:28:02Z</time><extensions><speed>0.200668</speed><course>134.613130</course><hAcc>1.999142</hAcc><vAcc>0.592563</vAcc></extensions></trkpt>
      <trkpt lon="-117.166232" lat="32.898371"><ele>95.276962</ele><time>2024-05-04T03:28:03Z</time><extensions><speed>0.092377</speed><course>125.094325</course><hAcc>2.025527</hAcc><vAcc>0.580217</vAcc></extensions></trkpt>
      <trkpt lon="-117.166232" lat="32.898370"><ele>95.252683</ele><time>2024-05-04T03:28:04Z</time><extensions><speed>0.050466</speed><course>107.353182</course><hAcc>2.041735</hAcc><vAcc>0.568942</vAcc></extensions></trkpt>
      <trkpt lon="-117.166231" lat="32.898370"><ele>95.227909</ele><time>2024-05-04T03:28:05Z</time><extensions><speed>0.054884</speed><course>113.710015</course><hAcc>2.065203</hAcc><vAcc>0.559146</vAcc></extensions></trkpt>
      <trkpt lon="-117.166230" lat="32.898370"><ele>95.204216</ele><time>2024-05-04T03:28:06Z</time><extensions><speed>0.091080</speed><course>123.355399</course><hAcc>2.086829</hAcc><vAcc>0.551097</vAcc></extensions></trkpt>
      <trkpt lon="-117.166229" lat="32.898369"><ele>95.183646</ele><time>2024-05-04T03:28:07Z</time><extensions><speed>0.157124</speed><course>127.477452</course><hAcc>2.100707</hAcc><vAcc>0.544899</vAcc></extensions></trkpt>
      <trkpt lon="-117.166227" lat="32.898368"><ele>95.165553</ele><time>2024-05-04T03:28:08Z</time><extensions><speed>0.246098</speed><course>128.971219</course><hAcc>2.111166</hAcc><vAcc>0.540643</vAcc></extensions></trkpt>
      <trkpt lon="-117.166225" lat="32.898366"><ele>95.149896</ele><time>2024-05-04T03:28:09Z</time><extensions><speed>0.349637</speed><course>128.849865</course><hAcc>2.119329</hAcc><vAcc>0.538445</vAcc></extensions></trkpt>
      <trkpt lon="-117.166222" lat="32.898364"><ele>95.137009</ele><time>2024-05-04T03:28:10Z</time><extensions><speed>0.463624</speed><course>128.336764</course><hAcc>2.118570</hAcc><vAcc>0.538389</vAcc></extensions></trkpt>
      <trkpt lon="-117.166217" lat="32.898361"><ele>95.125885</ele><time>2024-05-04T03:28:11Z</time><extensions><speed>0.561638</speed><course>127.562237</course><hAcc>2.111056</hAcc><vAcc>0.540478</vAcc></extensions></trkpt>
      <trkpt lon="-117.166213" lat="32.898359"><ele>95.115191</ele><time>2024-05-04T03:28:12Z</time><extensions><speed>0.481003</speed><course>124.634317</course><hAcc>2.121723</hAcc><vAcc>0.544450</vAcc></extensions></trkpt>
      <trkpt lon="-117.166209" lat="32.898357"><ele>95.104842</ele><time>2024-05-04T03:28:13Z</time><extensions><speed>0.375754</speed><course>117.188560</course><hAcc>2.117800</hAcc><vAcc>0.550294</vAcc></extensions></trkpt>
      <trkpt lon="-117.166206" lat="32.898356"><ele>95.094728</ele><time>2024-05-04T03:28:14Z</time><extensions><speed>0.229238</speed><course>87.363766</course><hAcc>2.092095</hAcc><vAcc>0.557871</vAcc></extensions></trkpt>
      <trkpt lon="-117.166204" lat="32.898357"><ele>95.084617</ele><time>2024-05-04T03:28:15Z</time><extensions><speed>0.248369</speed><course>33.034028</course><hAcc>2.054446</hAcc><vAcc>0.566934</vAcc></extensions></trkpt>
      <trkpt lon="-117.166203" lat="32.898359"><ele>95.074184</ele><time>2024-05-04T03:28:16Z</time><extensions><speed>0.325542</speed><course>10.914522</course><hAcc>2.025755</hAcc><vAcc>0.576978</vAcc></extensions></trkpt>
      <trkpt lon="-117.166203" lat="32.898362"><ele>95.063092</ele><time>2024-05-04T03:28:17Z</time><extensions><speed>0.269425</speed><course>0.456769</course><hAcc>2.021560</hAcc><vAcc>0.587118</vAcc></extensions></trkpt>
      <trkpt lon="-117.166203" lat="32.898364"><ele>95.051234</ele><time>2024-05-04T03:28:18Z</time><extensions><speed>0.210689</speed><course>345.580740</course><hAcc>1.996221</hAcc><vAcc>0.596140</vAcc></extensions></trkpt>
      <trkpt lon="-117.166204" lat="32.898365"><ele>95.038688</ele><time>2024-05-04T03:28:19Z</time><extensions><speed>0.159396</speed><course>314.915661</course><hAcc>1.946544</hAcc><vAcc>0.602952</vAcc></extensions></trkpt>
      <trkpt lon="-117.166205" lat="32.898366"><ele>95.025636</ele><time>2024-05-04T03:28:20Z</time><extensions><speed>0.174688</speed><course>264.128325</course><hAcc>1.915442</hAcc><vAcc>0.606822</vAcc></extensions></trkpt>
      <trkpt lon="-117.166208" lat="32.898365"><ele>95.012316</ele><time>2024-05-04T03:28:21Z</time><extensions><speed>0.244784</speed><course>241.059169</course><hAcc>1.905023</hAcc><vAcc>0.607587</vAcc></extensions></trkpt>
      <trkpt lon="-117.166210" lat="32.898364"><ele>94.999107</ele><time>2024-05-04T03:28:22Z</time><extensions><speed>0.260955</speed><course>232.495110</course><hAcc>1.911269</hAcc><vAcc>0.605518</vAcc></extensions></trkpt>
      <trkpt lon="-117.166212" lat="32.898363"><ele>94.986405</ele><time>2024-05-04T03:28:23Z</time><extensions><speed>0.192706</speed><course>234.710024</course><hAcc>1.939380</hAcc><vAcc>0.601034</vAcc></extensions></trkpt>
      <trkpt lon="-117.166213" lat="32.898362"><ele>94.974550</ele><time>2024-05-04T03:28:24Z</time><extensions><speed>0.141413</speed><course>236.190767</course><hAcc>1.938178</hAcc><vAcc>0.594469</vAcc></extensions></trkpt>
      <trkpt lon="-117.166214" lat="32.898361"><ele>94.963782</ele><time>2024-05-04T03:28:25Z</time><extensions><speed>0.099666</speed><course>237.216254</course><hAcc>1.927320</hAcc><vAcc>0.586091</vAcc></extensions></trkpt>
      <trkpt lon="-117.166215" lat="32.898361"><ele>94.954261</ele><time>2024-05-04T03:28:26Z</time><extensions><speed>0.067267</speed><course>237.962627</course><hAcc>1.930701</hAcc><vAcc>0.576116</vAcc></extensions></trkpt>
      <trkpt lon="-117.166216" lat="32.898361"><ele>94.946043</ele><time>2024-05-04T03:28:27Z</time><extensions><speed>0.040897</speed><course>238.543577</course><hAcc>1.959768</hAcc><vAcc>0.564725</vAcc></extensions></trkpt>
      <trkpt lon="-117.166216" lat="32.898360"><ele>94.939112</ele><time>2024-05-04T03:28:28Z</time><extensions><speed>0.024395</speed><course>239.039324</course><hAcc>1.994802</hAcc><vAcc>0.552100</vAcc></extensions></trkpt>
      <trkpt lon="-117.166216" lat="32.898360"><ele>94.933437</ele><time>2024-05-04T03:28:29Z</time><extensions><speed>0.016649</speed><course>239.450205</course><hAcc>2.012219</hAcc><vAcc>0.538516</vAcc></extensions></trkpt>
      <trkpt lon="-117.166216" lat="32.898360"><ele>94.928909</ele><time>2024-05-04T03:28:30Z</time><extensions><speed>0.015101</speed><course>239.718022</course><hAcc>2.008055</hAcc><vAcc>0.524104</vAcc></extensions></trkpt>
      <trkpt lon="-117.166216" lat="32.898360"><ele>94.925417</ele><time>2024-05-04T03:28:31Z</time><extensions><speed>0.012145</speed><course>239.866738</course><hAcc>2.035545</hAcc><vAcc>0.509161</vAcc></extensions></trkpt>
      <trkpt lon="-117.166216" lat="32.898360"><ele>94.922842</ele><time>2024-05-04T03:28:32Z</time><extensions><speed>0.009128</speed><course>239.966634</course><hAcc>2.080927</hAcc><vAcc>0.494182</vAcc></extensions></trkpt>
      <trkpt lon="-117.166217" lat="32.898360"><ele>94.921026</ele><time>2024-05-04T03:28:33Z</time><extensions><speed>0.006536</speed><course>240.042056</course><hAcc>2.121943</hAcc><vAcc>0.479219</vAcc></extensions></trkpt>
      <trkpt lon="-117.166217" lat="32.898360"><ele>94.919840</ele><time>2024-05-04T03:28:34Z</time><extensions><speed>0.004515</speed><course>240.103900</course><hAcc>2.151044</hAcc><vAcc>0.464923</vAcc></extensions></trkpt>
      <trkpt lon="-117.166217" lat="32.898360"><ele>94.919152</ele><time>2024-05-04T03:28:35Z</time><extensions><speed>0.003006</speed><course>240.158026</course><hAcc>2.169114</hAcc><vAcc>0.451782</vAcc></extensions></trkpt>
      <trkpt lon="-117.166216" lat="32.898362"><ele>94.914649</ele><time>2024-05-04T03:28:36Z</time><extensions><speed>0.064584</speed><course>2.320474</course><hAcc>2.177000</hAcc><vAcc>0.440060</vAcc></extensions></trkpt>
      <trkpt lon="-117.166216" lat="32.898364"><ele>94.913915</ele><time>2024-05-04T03:28:37Z</time><extensions><speed>0.139396</speed><course>3.343738</course><hAcc>2.175685</hAcc><vAcc>0.429748</vAcc></extensions></trkpt>
      <trkpt lon="-117.166216" lat="32.898366"><ele>94.916631</ele><time>2024-05-04T03:28:38Z</time><extensions><speed>0.223934</speed><course>3.598713</course><hAcc>2.160329</hAcc><vAcc>0.420715</vAcc></extensions></trkpt>
      <trkpt lon="-117.166216" lat="32.898370"><ele>94.922241</ele><time>2024-05-04T03:28:39Z</time><extensions><speed>0.323591</speed><course>3.692041</course><hAcc>2.134538</hAcc><vAcc>0.412449</vAcc></extensions></trkpt>
      <trkpt lon="-117.166216" lat="32.898374"><ele>94.930759</ele><time>2024-05-04T03:28:40Z</time><extensions><speed>0.436585</speed><course>3.731023</course><hAcc>2.107199</hAcc><vAcc>0.404719</vAcc></extensions></trkpt>
      <trkpt lon="-117.166215" lat="32.898378"><ele>94.942163</ele><time>2024-05-04T03:28:41Z</time><extensions><speed>0.544726</speed><course>3.748909</course><hAcc>2.088126</hAcc><vAcc>0.397409</vAcc></extensions></trkpt>
      <trkpt lon="-117.166215" lat="32.898385"><ele>94.964589</ele><time>2024-05-04T03:28:42Z</time><extensions><speed>0.693397</speed><course>3.471739</course><hAcc>2.073171</hAcc><vAcc>0.390497</vAcc></extensions></trkpt>
      <trkpt lon="-117.166214" lat="32.898392"><ele>94.978104</ele><time>2024-05-04T03:28:43Z</time><extensions><speed>0.834563</speed><course>3.311403</course><hAcc>2.069200</hAcc><vAcc>0.384053</vAcc></extensions></trkpt>
      <trkpt lon="-117.166214" lat="32.898401"><ele>94.991137</ele><time>2024-05-04T03:28:44Z</time><extensions><speed>0.987461</speed><course>3.201146</course><hAcc>2.077399</hAcc><vAcc>0.378502</vAcc></extensions></trkpt>
      <trkpt lon="-117.166213" lat="32.898410"><ele>95.004193</ele><time>2024-05-04T03:28:45Z</time><extensions><speed>1.065636</speed><course>3.049526</course><hAcc>2.103123</hAcc><vAcc>0.374304</vAcc></extensions></trkpt>
      <trkpt lon="-117.166213" lat="32.898420"><ele>95.015919</ele><time>2024-05-04T03:28:46Z</time><extensions><speed>1.089102</speed><course>2.722385</course><hAcc>2.132158</hAcc><vAcc>0.371658</vAcc></extensions></trkpt>
      <trkpt lon="-117.166212" lat="32.898430"><ele>95.025984</ele><time>2024-05-04T03:28:47Z</time><extensions><speed>1.076603</speed><course>2.138159</course><hAcc>2.156690</hAcc><vAcc>0.370664</vAcc></extensions></trkpt>
      <trkpt lon="-117.166212" lat="32.898440"><ele>95.031545</ele><time>2024-05-04T03:28:48Z</time><extensions><speed>1.271579</speed><course>1.400903</course><hAcc>2.171670</hAcc><vAcc>0.370740</vAcc></extensions></trkpt>
      <trkpt lon="-117.166212" lat="32.898452"><ele>95.032781</ele><time>2024-05-04T03:28:49Z</time><extensions><speed>1.253136</speed><course>0.625456</course><hAcc>2.229811</hAcc><vAcc>0.370976</vAcc></extensions></trkpt>
      <trkpt lon="-117.166212" lat="32.898463"><ele>95.029013</ele><time>2024-05-04T03:28:50Z</time><extensions><speed>1.146732</speed><course>359.863798</course><hAcc>2.318486</hAcc><vAcc>0.371648</vAcc></extensions></trkpt>
      <trkpt lon="-117.166212" lat="32.898472"><ele>95.021922</ele><time>2024-05-04T03:28:51Z</time><extensions><speed>1.001170</speed><course>359.418660</course><hAcc>2.420356</hAcc><vAcc>0.374415</vAcc></extensions></trkpt>
      <trkpt lon="-117.166212" lat="32.898480"><ele>95.011411</ele><time>2024-05-04T03:28:52Z</time><extensions><speed>0.811530</speed><course>0.088911</course><hAcc>2.540559</hAcc><vAcc>0.382474</vAcc></extensions></trkpt>
      <trkpt lon="-117.166212" lat="32.898487"><ele>94.995843</ele><time>2024-05-04T03:28:53Z</time><extensions><speed>0.582568</speed><course>1.332047</course><hAcc>2.695568</hAcc><vAcc>0.400091</vAcc></extensions></trkpt>
      <trkpt lon="-117.166211" lat="32.898491"><ele>94.975889</ele><time>2024-05-04T03:28:54Z</time><extensions><speed>0.401913</speed><course>2.828740</course><hAcc>2.883275</hAcc><vAcc>0.431420</vAcc></extensions></trkpt>
      <trkpt lon="-117.166211" lat="32.898494"><ele>94.952320</ele><time>2024-05-04T03:28:55Z</time><extensions><speed>0.276228</speed><course>9.415235</course><hAcc>3.088230</hAcc><vAcc>0.479169</vAcc></extensions></trkpt>
      <trkpt lon="-117.166210" lat="32.898497"><ele>94.923964</ele><time>2024-05-04T03:28:57Z</time><extensions><speed>0.269726</speed><course>24.187567</course><hAcc>3.277557</hAcc><vAcc>0.547456</vAcc></extensions></trkpt>
      <trkpt lon="-117.166173" lat="32.898532"><ele>94.757405</ele><time>2024-05-04T03:29:16Z</time><extensions><speed>0.308572</speed><course>56.628005</course><hAcc>3.652684</hAcc><vAcc>0.678235</vAcc></extensions></trkpt>
      <trkpt lon="-117.166170" lat="32.898534"><ele>94.774672</ele><time>2024-05-04T03:29:17Z</time><extensions><speed>0.235063</speed><course>63.185854</course><hAcc>3.536240</hAcc><vAcc>0.610914</vAcc></extensions></trkpt>
      <trkpt lon="-117.166168" lat="32.898534"><ele>94.796173</ele><time>2024-05-04T03:29:18Z</time><extensions><speed>0.236760</speed><course>70.573349</course><hAcc>3.384721</hAcc><vAcc>0.551264</vAcc></extensions></trkpt>
      <trkpt lon="-117.166165" lat="32.898535"><ele>94.820989</ele><time>2024-05-04T03:29:19Z</time><extensions><speed>0.276515</speed><course>67.673686</course><hAcc>3.240566</hAcc><vAcc>0.501520</vAcc></extensions></trkpt>
      <trkpt lon="-117.166162" lat="32.898536"><ele>94.848429</ele><time>2024-05-04T03:29:20Z</time><extensions><speed>0.330202</speed><course>65.811635</course><hAcc>3.113659</hAcc><vAcc>0.461798</vAcc></extensions></trkpt>
      <trkpt lon="-117.166159" lat="32.898538"><ele>94.876862</ele><time>2024-05-04T03:29:21Z</time><extensions><speed>0.366098</speed><course>65.429610</course><hAcc>3.007519</hAcc><vAcc>0.431508</vAcc></extensions></trkpt>
      <trkpt lon="-117.166156" lat="32.898539"><ele>94.904257</ele><time>2024-05-04T03:29:22Z</time><extensions><speed>0.331918</speed><course>61.815146</course><hAcc>2.936301</hAcc><vAcc>0.409334</vAcc></extensions></trkpt>
      <trkpt lon="-117.166153" lat="32.898541"><ele>94.929157</ele><time>2024-05-04T03:29:23Z</time><extensions><speed>0.235931</speed><course>53.333956</course><hAcc>2.890334</hAcc><vAcc>0.393571</vAcc></extensions></trkpt>
      <trkpt lon="-117.166151" lat="32.898542"><ele>94.950859</ele><time>2024-05-04T03:29:24Z</time><extensions><speed>0.167127</speed><course>45.996482</course><hAcc>2.820150</hAcc><vAcc>0.382333</vAcc></extensions></trkpt>
      <trkpt lon="-117.166150" lat="32.898543"><ele>94.969095</ele><time>2024-05-04T03:29:25Z</time><extensions><speed>0.120187</speed><course>39.841075</course><hAcc>2.723463</hAcc><vAcc>0.374128</vAcc></extensions></trkpt>
      <trkpt lon="-117.166150" lat="32.898543"><ele>94.983636</ele><time>2024-05-04T03:29:26Z</time><extensions><speed>0.085357</speed><course>34.954514</course><hAcc>2.623277</hAcc><vAcc>0.368123</vAcc></extensions></trkpt>
      <trkpt lon="-117.166152" lat="32.898543"><ele>94.994906</ele><time>2024-05-04T03:29:27Z</time><extensions><speed>0.047686</speed><course>329.672421</course><hAcc>2.528552</hAcc><vAcc>0.363719</vAcc></extensions></trkpt>
      <trkpt lon="-117.166154" lat="32.898543"><ele>95.003090</ele><time>2024-05-04T03:29:28Z</time><extensions><speed>0.086963</speed><course>279.977714</course><hAcc>2.451607</hAcc><vAcc>0.360710</vAcc></extensions></trkpt>
      <trkpt lon="-117.166157" lat="32.898543"><ele>95.008445</ele><time>2024-05-04T03:29:28Z</time><extensions><speed>0.146475</speed><course>267.624007</course><hAcc>2.392564</hAcc><vAcc>0.359883</vAcc></extensions></trkpt>
      <trkpt lon="-117.166159" lat="32.898543"><ele>95.012051</ele><time>2024-05-04T03:29:29Z</time><extensions><speed>0.210104</speed><course>262.415895</course><hAcc>2.357096</hAcc><vAcc>0.361267</vAcc></extensions></trkpt>
      <trkpt lon="-117.166162" lat="32.898542"><ele>95.013947</ele><time>2024-05-04T03:29:30Z</time><extensions><speed>0.308201</speed><course>259.951082</course><hAcc>2.331785</hAcc><vAcc>0.364350</vAcc></extensions></trkpt>
      <trkpt lon="-117.166167" lat="32.898542"><ele>95.014544</ele><time>2024-05-04T03:29:31Z</time><extensions><speed>0.464526</speed><course>258.770344</course><hAcc>2.311394</hAcc><vAcc>0.369075</vAcc></extensions></trkpt>
      <trkpt lon="-117.166173" lat="32.898541"><ele>95.014191</ele><time>2024-05-04T03:29:32Z</time><extensions><speed>0.680197</speed><course>258.169617</course><hAcc>2.293743</hAcc><vAcc>0.374920</vAcc></extensions></trkpt>
      <trkpt lon="-117.166182" lat="32.898539"><ele>95.013168</ele><time>2024-05-04T03:29:33Z</time><extensions><speed>1.092385</speed><course>257.877972</course><hAcc>2.257681</hAcc><vAcc>0.380970</vAcc></extensions></trkpt>
      <trkpt lon="-117.166195" lat="32.898537"><ele>95.011705</ele><time>2024-05-04T03:29:34Z</time><extensions><speed>1.428683</speed><course>257.729304</course><hAcc>2.239694</hAcc><vAcc>0.386208</vAcc></extensions></trkpt>
      <trkpt lon="-117.166211" lat="32.898534"><ele>95.009990</ele><time>2024-05-04T03:29:35Z</time><extensions><speed>1.663422</speed><course>257.642878</course><hAcc>2.236611</hAcc><vAcc>0.389817</vAcc></extensions></trkpt>
      <trkpt lon="-117.166229" lat="32.898530"><ele>95.008188</ele><time>2024-05-04T03:29:36Z</time><extensions><speed>1.650992</speed><course>257.598265</course><hAcc>2.237050</hAcc><vAcc>0.391314</vAcc></extensions></trkpt>
      <trkpt lon="-117.166245" lat="32.898527"><ele>95.006434</ele><time>2024-05-04T03:29:37Z</time><extensions><speed>1.397484</speed><course>257.576557</course><hAcc>2.237814</hAcc><vAcc>0.390634</vAcc></extensions></trkpt>
      <trkpt lon="-117.166258" lat="32.898525"><ele>95.004826</ele><time>2024-05-04T03:29:38Z</time><extensions><speed>1.085873</speed><course>257.563228</course><hAcc>2.238038</hAcc><vAcc>0.388098</vAcc></extensions></trkpt>
      <trkpt lon="-117.166268" lat="32.898523"><ele>95.003424</ele><time>2024-05-04T03:29:39Z</time><extensions><speed>0.806613</speed><course>257.553947</course><hAcc>2.238981</hAcc><vAcc>0.384318</vAcc></extensions></trkpt>
      <trkpt lon="-117.166275" lat="32.898522"><ele>95.002249</ele><time>2024-05-04T03:29:40Z</time><extensions><speed>0.576298</speed><course>257.546974</course><hAcc>2.244449</hAcc><vAcc>0.379842</vAcc></extensions></trkpt>
      <trkpt lon="-117.166280" lat="32.898521"><ele>95.001280</ele><time>2024-05-04T03:29:42Z</time><extensions><speed>0.392592</speed><course>257.541108</course><hAcc>2.253502</hAcc><vAcc>0.374778</vAcc></extensions></trkpt>
      <trkpt lon="-117.166284" lat="32.898520"><ele>95.000568</ele><time>2024-05-04T03:29:43Z</time><extensions><speed>0.259790</speed><course>257.536573</course><hAcc>2.268388</hAcc><vAcc>0.369942</vAcc></extensions></trkpt>
      <trkpt lon="-117.166286" lat="32.898520"><ele>95.000046</ele><time>2024-05-04T03:29:44Z</time><extensions><speed>0.171108</speed><course>257.532728</course><hAcc>2.289263</hAcc><vAcc>0.365999</vAcc></extensions></trkpt>
      <trkpt lon="-117.166287" lat="32.898519"><ele>95.001495</ele><time>2024-05-04T03:29:45Z</time><extensions><speed>0.114375</speed><course>247.100443</course><hAcc>2.320943</hAcc><vAcc>0.363207</vAcc></extensions></trkpt>
      <trkpt lon="-117.166288" lat="32.898518"><ele>95.001499</ele><time>2024-05-04T03:29:46Z</time><extensions><speed>0.090797</speed><course>230.317450</course><hAcc>2.354189</hAcc><vAcc>0.361565</vAcc></extensions></trkpt>
      <trkpt lon="-117.166289" lat="32.898516"><ele>95.000170</ele><time>2024-05-04T03:29:47Z</time><extensions><speed>0.088885</speed><course>212.084267</course><hAcc>2.391902</hAcc><vAcc>0.361054</vAcc></extensions></trkpt>
      <trkpt lon="-117.166290" lat="32.898515"><ele>94.997472</ele><time>2024-05-04T03:29:48Z</time><extensions><speed>0.118669</speed><course>198.801452</course><hAcc>2.423771</hAcc><vAcc>0.361564</vAcc></extensions></trkpt>
      <trkpt lon="-117.166290" lat="32.898514"><ele>94.993357</ele><time>2024-05-04T03:29:49Z</time><extensions><speed>0.168197</speed><course>191.305569</course><hAcc>2.454117</hAcc><vAcc>0.362781</vAcc></extensions></trkpt>
      <trkpt lon="-117.166290" lat="32.898511"><ele>94.987684</ele><time>2024-05-04T03:29:50Z</time><extensions><speed>0.294931</speed><course>187.602436</course><hAcc>2.461389</hAcc><vAcc>0.364180</vAcc></extensions></trkpt>
      <trkpt lon="-117.166291" lat="32.898508"><ele>94.980499</ele><time>2024-05-04T03:29:51Z</time><extensions><speed>0.403997</speed><course>185.745921</course><hAcc>2.495634</hAcc><vAcc>0.365355</vAcc></extensions></trkpt>
      <trkpt lon="-117.166291" lat="32.898503"><ele>94.971753</ele><time>2024-05-04T03:29:52Z</time><extensions><speed>0.502190</speed><course>184.574647</course><hAcc>2.545855</hAcc><vAcc>0.365882</vAcc></extensions></trkpt>
      <trkpt lon="-117.166292" lat="32.898498"><ele>94.961627</ele><time>2024-05-04T03:29:53Z</time><extensions><speed>0.580501</speed><course>183.802135</course><hAcc>2.591526</hAcc><vAcc>0.365735</vAcc></extensions></trkpt>
      <trkpt lon="-117.166292" lat="32.898493"><ele>94.950602</ele><time>2024-05-04T03:29:54Z</time><extensions><speed>0.618388</speed><course>183.291318</course><hAcc>2.628430</hAcc><vAcc>0.365167</vAcc></extensions></trkpt>
      <trkpt lon="-117.166292" lat="32.898487"><ele>94.939251</ele><time>2024-05-04T03:29:55Z</time><extensions><speed>0.573556</speed><course>182.929743</course><hAcc>2.668864</hAcc><vAcc>0.364586</vAcc></extensions></trkpt>
      <trkpt lon="-117.166293" lat="32.898483"><ele>94.928417</ele><time>2024-05-04T03:29:56Z</time><extensions><speed>0.421926</speed><course>182.873266</course><hAcc>2.717751</hAcc><vAcc>0.364284</vAcc></extensions></trkpt>
      <trkpt lon="-117.166293" lat="32.898479"><ele>94.919276</ele><time>2024-05-04T03:29:57Z</time><extensions><speed>0.323265</speed><course>183.728522</course><hAcc>2.749807</hAcc><vAcc>0.364837</vAcc></extensions></trkpt>
      <trkpt lon="-117.166294" lat="32.898476"><ele>94.909873</ele><time>2024-05-04T03:29:58Z</time><extensions><speed>0.263657</speed><course>187.325492</course><hAcc>2.760209</hAcc><vAcc>0.366407</vAcc></extensions></trkpt>
      <trkpt lon="-117.166296" lat="32.898473"><ele>94.902885</ele><time>2024-05-04T03:29:59Z</time><extensions><speed>0.281590</speed><course>193.547030</course><hAcc>2.755611</hAcc><vAcc>0.368869</vAcc></extensions></trkpt>
      <trkpt lon="-117.166297" lat="32.898471"><ele>94.896635</ele><time>2024-05-04T03:30:00Z</time><extensions><speed>0.240710</speed><course>201.905048</course><hAcc>2.779392</hAcc><vAcc>0.371783</vAcc></extensions></trkpt>
      <trkpt lon="-117.166299" lat="32.898469"><ele>94.895274</ele><time>2024-05-04T03:30:01Z</time><extensions><speed>0.303908</speed><course>212.580071</course><hAcc>2.774765</hAcc><vAcc>0.374500</vAcc></extensions></trkpt>
      <trkpt lon="-117.166301" lat="32.898466"><ele>94.894011</ele><time>2024-05-04T03:30:02Z</time><extensions><speed>0.341637</speed><course>220.063091</course><hAcc>2.797479</hAcc><vAcc>0.377575</vAcc></extensions></trkpt>
      <trkpt lon="-117.166304" lat="32.898464"><ele>94.894220</ele><time>2024-05-04T03:30:03Z</time><extensions><speed>0.385333</speed><course>226.930666</course><hAcc>2.847008</hAcc><vAcc>0.379711</vAcc></extensions></trkpt>
      <trkpt lon="-117.166307" lat="32.898461"><ele>94.895823</ele><time>2024-05-04T03:30:04Z</time><extensions><speed>0.452287</speed><course>232.596129</course><hAcc>2.906216</hAcc><vAcc>0.380840</vAcc></extensions></trkpt>
      <trkpt lon="-117.166312" lat="32.898459"><ele>94.898654</ele><time>2024-05-04T03:30:05Z</time><extensions><speed>0.546346</speed><course>236.282755</course><hAcc>2.973880</hAcc><vAcc>0.381753</vAcc></extensions></trkpt>
      <trkpt lon="-117.166317" lat="32.898456"><ele>94.902680</ele><time>2024-05-04T03:30:06Z</time><extensions><speed>0.612047</speed><course>238.423456</course><hAcc>3.084135</hAcc><vAcc>0.384684</vAcc></extensions></trkpt>
      <trkpt lon="-117.166322" lat="32.898453"><ele>94.907614</ele><time>2024-05-04T03:30:07Z</time><extensions><speed>0.583301</speed><course>239.171433</course><hAcc>3.261701</hAcc><vAcc>0.394131</vAcc></extensions></trkpt>
      <trkpt lon="-117.166327" lat="32.898451"><ele>94.913246</ele><time>2024-05-04T03:30:08Z</time><extensions><speed>0.381088</speed><course>241.918344</course><hAcc>3.474298</hAcc><vAcc>0.417998</vAcc></extensions></trkpt>
      <trkpt lon="-117.166330" lat="32.898450"><ele>94.919082</ele><time>2024-05-04T03:30:09Z</time><extensions><speed>0.290308</speed><course>242.640351</course><hAcc>3.645096</hAcc><vAcc>0.465689</vAcc></extensions></trkpt>
      <trkpt lon="-117.166333" lat="32.898449"><ele>94.924664</ele><time>2024-05-04T03:30:10Z</time><extensions><speed>0.264908</speed><course>241.108517</course><hAcc>3.879598</hAcc><vAcc>0.544172</vAcc></extensions></trkpt>
      <trkpt lon="-117.166335" lat="32.898447"><ele>94.930011</ele><time>2024-05-04T03:30:11Z</time><extensions><speed>0.235517</speed><course>236.042849</course><hAcc>4.377298</hAcc><vAcc>0.658663</vAcc></extensions></trkpt>
    </trkseg>
  </trk>
</gpx>